{"features":[{"geometry":{"coordinates":[[[-121.95637,37.95186],[-121.95624,37.9523],[-121.95653,37.95253],[-121.95403,37.95435],[-121.9538,37.95433],[-121.95385,37.9545],[-121.95238,37.95566],[-121.95169,37.95509],[-121.95169,37.95425],[-121.95247,37.95362],[-121.95135,37.953],[-121.951,37.95247],[-121.951,37.95193],[-121.94923,37.9516],[-121.94749,37.95082],[-121.94695,37.95083],[-121.9467,37.95156],[-121.94466,37.95413],[-121.9441,37.95435],[-121.94206,37.95456],[-121.94023,37.95511],[-121.93972,37.95536],[-121.93933,37.95586],[-121.93283,37.95579],[-121.91462,37.95514],[-121.91439,37.925],[-121.91175,37.92438],[-121.91195,37.9241],[-121.91205,37.92265],[-121.91225,37.92251],[-121.91201,37.92217],[-121.91219,37.9211],[-121.91359,37.91977],[-121.91435,37.91977],[-121.91437,37.92234],[-121.91472,37.92234],[-121.91493,37.92253],[-121.91573,37.92247],[-121.9167,37.92297],[-121.91793,37.923],[-121.91901,37.9235],[-121.91899,37.92086],[-121.92692,37.92086],[-121.92735,37.92188],[-121.93266,37.92179],[-121.93266,37.92666],[-121.93859,37.92666],[-121.93865,37.93223],[-121.9381,37.93397],[-121.94002,37.93397],[-121.94067,37.93195],[-121.94188,37.93195],[-121.94189,37.93397],[-121.94486,37.93398],[-121.9452,37.93481],[-121.945,37.93521],[-121.94572,37.93615],[-121.94551,37.93658],[-121.946,37.93736],[-121.94426,37.93734],[-121.94428,37.94135],[-121.95103,37.94135],[-121.95092,37.9485],[-121.95658,37.95163],[-121.95637,37.95186]],[[-121.93462,37.95569],[-121.93473,37.95525],[-121.93429,37.95501],[-121.93385,37.95536],[-121.934,37.95558],[-121.93462,37.95569]],[[-121.93575,37.95538],[-121.936,37.95544],[-121.93617,37.95519],[-121.93567,37.95512],[-121.9356,37.95529],[-121.93575,37.95538]]],"type":"Polygon"},"properties":{"type":"boundary"},"type":"Feature"}],"type":"FeatureCollection"}