{"features":[{"geometry":{"coordinates":[[[-122.37887,38.39469],[-122.37652,38.39462],[-122.3675,38.3985],[-122.36504,38.39525],[-122.36037,38.39737],[-122.36024,38.3977],[-122.36259,38.40021],[-122.36768,38.40453],[-122.36842,38.40489],[-122.36893,38.40541],[-122.36923,38.4055],[-122.36928,38.4057],[-122.36806,38.40648],[-122.36944,38.40756],[-122.3692,38.40771],[-122.3702,38.40825],[-122.36666,38.41029],[-122.36745,38.41154],[-122.36513,38.41339],[-122.36163,38.41066],[-122.3618,38.41052],[-122.35024,38.39985],[-122.35598,38.39528],[-122.35389,38.39301],[-122.36286,38.38898],[-122.36552,38.38794],[-122.3701,38.38578],[-122.37421,38.39117],[-122.37546,38.39057],[-122.37794,38.38718],[-122.37755,38.38328],[-122.37797,38.3821],[-122.3819,38.37988],[-122.38222,38.39107],[-122.38683,38.39104],[-122.38698,38.39466],[-122.37887,38.39469]],[[-122.35941,38.39546],[-122.35897,38.39531],[-122.3587,38.3955],[-122.35902,38.39585],[-122.35946,38.39583],[-122.35995,38.39601],[-122.36049,38.39584],[-122.3606,38.39565],[-122.35941,38.39546]],[[-122.35967,38.39205],[-122.35988,38.39176],[-122.35953,38.39161],[-122.35883,38.3919],[-122.35876,38.39208],[-122.35921,38.39221],[-122.35967,38.39205]],[[-122.36078,38.39329],[-122.3605,38.39311],[-122.35936,38.39358],[-122.35956,38.3939],[-122.36078,38.39329]],[[-122.3601,38.39307],[-122.35977,38.39254],[-122.35951,38.39261],[-122.35982,38.39315],[-122.3601,38.39307]],[[-122.36114,38.39371],[-122.36082,38.39349],[-122.35969,38.39399],[-122.35977,38.39428],[-122.35997,38.39433],[-122.36114,38.39371]],[[-122.36043,38.39296],[-122.36051,38.39285],[-122.36016,38.39237],[-122.35989,38.39253],[-122.36019,38.39296],[-122.36043,38.39296]],[[-122.36085,38.39097],[-122.36052,38.39099],[-122.36033,38.39122],[-122.36071,38.39134],[-122.36083,38.39177],[-122.36109,38.39171],[-122.36085,38.39097]],[[-122.36233,38.39127],[-122.36202,38.39123],[-122.3623,38.39157],[-122.36242,38.39151],[-122.36233,38.39127]],[[-122.37996,38.39144],[-122.37845,38.39179],[-122.37886,38.3926],[-122.37926,38.39277],[-122.37931,38.39205],[-122.37996,38.39144]]],"type":"Polygon"},"properties":{"type":"boundary"},"type":"Feature"}],"type":"FeatureCollection"}