{"features":[{"geometry":{"coordinates":[[[-122.37993,38.39208],[-122.37935,38.39285],[-122.3782,38.39285],[-122.37764,38.39206],[-122.37821,38.39129],[-122.37936,38.39129],[-122.37951,38.3915],[-122.37946,38.3915],[-122.37936,38.39152],[-122.37906,38.39162],[-122.37891,38.39167],[-122.3788,38.3917],[-122.37867,38.39172],[-122.37858,38.39174],[-122.37845,38.39179],[-122.37842,38.39183],[-122.37846,38.39191],[-122.37852,38.39194],[-122.37863,38.39216],[-122.37873,38.39236],[-122.37877,38.39244],[-122.37886,38.3926],[-122.37892,38.3926],[-122.37904,38.39263],[-122.3791,38.39268],[-122.37918,38.39272],[-122.37926,38.39277],[-122.37926,38.39273],[-122.37925,38.39269],[-122.37921,38.39249],[-122.37919,38.3924],[-122.3792,38.3923],[-122.37925,38.39216],[-122.37931,38.39205],[-122.37935,38.39198],[-122.3794,38.39191],[-122.37944,38.39184],[-122.37952,38.39177],[-122.37964,38.39167],[-122.37993,38.39208]]],"type":"Polygon"},"properties":{"bbox":{"roads":{"area":516.35,"pct":2.71}},"city_same":1,"id":"hex:3695:24534"},"type":"Feature"},{"geometry":{"coordinates":[[[-122.37591,38.39283],[-122.37648,38.39362],[-122.37762,38.39362],[-122.3782,38.39285],[-122.37764,38.39206],[-122.37649,38.39206],[-122.37591,38.39283]]],"type":"Polygon"},"properties":{"bbox":{"roads":{"area":515.98,"pct":1.99}},"city_same":1,"id":"hex:3696:24535"},"type":"Feature"},{"geometry":{"coordinates":[[[-122.3742,38.39205],[-122.37477,38.39283],[-122.37591,38.39283],[-122.37649,38.39206],[-122.37592,38.39127],[-122.37478,38.39127],[-122.3742,38.39205]]],"type":"Polygon"},"properties":{"bbox":{"roads":{"area":365.43,"pct":1.41}},"city_same":1,"id":"hex:3697:24534"},"type":"Feature"},{"geometry":{"coordinates":[[[-122.37419,38.39361],[-122.37475,38.39439],[-122.3759,38.3944],[-122.37648,38.39362],[-122.37591,38.39283],[-122.37477,38.39283],[-122.37419,38.39361]]],"type":"Polygon"},"properties":{"bbox":{"roads":{"area":326.01,"pct":1.25}},"city_same":1,"id":"hex:3697:24535"},"type":"Feature"},{"geometry":{"coordinates":[[[-122.37478,38.39127],[-122.3742,38.39205],[-122.37306,38.39204],[-122.37249,38.39126],[-122.37307,38.39048],[-122.37369,38.39048],[-122.37421,38.39117],[-122.37459,38.39101],[-122.37478,38.39127]]],"type":"Polygon"},"properties":{"bbox":{"roads":{"area":211.34,"pct":0.92}},"city_same":1,"id":"hex:3698:24534"},"type":"Feature"},{"geometry":{"coordinates":[[[-122.37248,38.39282],[-122.37304,38.3936],[-122.37419,38.39361],[-122.37477,38.39283],[-122.3742,38.39205],[-122.37306,38.39204],[-122.37248,38.39282]]],"type":"Polygon"},"properties":{"bbox":{"roads":{"area":451.96,"pct":1.74}},"city_same":1,"id":"hex:3698:24535"},"type":"Feature"},{"geometry":{"coordinates":[[[-122.37246,38.39438],[-122.37303,38.39516],[-122.37417,38.39517],[-122.37475,38.39439],[-122.37419,38.39361],[-122.37304,38.3936],[-122.37246,38.39438]]],"type":"Polygon"},"properties":{"bbox":{"parking":{"area":372.67,"pct":1.43},"roads":{"area":1281.18,"pct":4.93}},"city_same":1,"id":"hex:3698:24536"},"type":"Feature"},{"geometry":{"coordinates":[[[-122.37245,38.39594],[-122.37303,38.39516],[-122.37417,38.39517],[-122.37443,38.39552],[-122.37366,38.39584],[-122.37286,38.39619],[-122.37269,38.39627],[-122.37245,38.39594]]],"type":"Polygon"},"properties":{"bbox":{"roads":{"area":159.15,"pct":1.35}},"city_same":1,"id":"hex:3698:24537"},"type":"Feature"},{"geometry":{"coordinates":[[[-122.37078,38.39047],[-122.37134,38.39125],[-122.37249,38.39126],[-122.37307,38.39048],[-122.3725,38.38969],[-122.37136,38.38969],[-122.37078,38.39047]]],"type":"Polygon"},"properties":{"bbox":{"roads":{"area":1031.58,"pct":3.97}},"city_same":1,"id":"hex:3699:24533"},"type":"Feature"},{"geometry":{"coordinates":[[[-122.37077,38.39203],[-122.37133,38.39281],[-122.37248,38.39282],[-122.37306,38.39204],[-122.37249,38.39126],[-122.37134,38.39125],[-122.37077,38.39203]]],"type":"Polygon"},"properties":{"bbox":{"roads":{"area":1933.53,"pct":7.44}},"city_same":1,"id":"hex:3699:24534"},"type":"Feature"},{"geometry":{"coordinates":[[[-122.37075,38.39359],[-122.37132,38.39437],[-122.37246,38.39438],[-122.37304,38.3936],[-122.37248,38.39282],[-122.37133,38.39281],[-122.37075,38.39359]]],"type":"Polygon"},"properties":{"bbox":{"roads":{"area":1426.04,"pct":5.49}},"city_same":1,"id":"hex:3699:24535"},"type":"Feature"},{"geometry":{"coordinates":[[[-122.37074,38.39515],[-122.3713,38.39593],[-122.37245,38.39594],[-122.37303,38.39516],[-122.37246,38.39438],[-122.37132,38.39437],[-122.37074,38.39515]]],"type":"Polygon"},"properties":{"bbox":{"parking":{"area":3018.22,"pct":11.62},"roads":{"area":2248.63,"pct":8.65}},"city_same":1,"id":"hex:3699:24536"},"type":"Feature"},{"geometry":{"coordinates":[[[-122.37072,38.39671],[-122.3713,38.39593],[-122.37245,38.39594],[-122.37269,38.39627],[-122.37094,38.39701],[-122.37072,38.39671]]],"type":"Polygon"},"properties":{"bbox":{"roads":{"area":2.32,"pct":0.02}},"city_same":1,"id":"hex:3699:24537"},"type":"Feature"},{"geometry":{"coordinates":[[[-122.36905,38.39124],[-122.36962,38.39202],[-122.37077,38.39203],[-122.37134,38.39125],[-122.37078,38.39047],[-122.36963,38.39046],[-122.36905,38.39124]]],"type":"Polygon"},"properties":{"bbox":{"roads":{"area":1696.69,"pct":6.53}},"city_same":1,"id":"hex:3700:24534"},"type":"Feature"},{"geometry":{"coordinates":[[[-122.36904,38.3928],[-122.36961,38.39358],[-122.37075,38.39359],[-122.37133,38.39281],[-122.37077,38.39203],[-122.36962,38.39202],[-122.36904,38.3928]]],"type":"Polygon"},"properties":{"bbox":{"roads":{"area":1992.13,"pct":7.67}},"city_same":1,"id":"hex:3700:24535"},"type":"Feature"},{"geometry":{"coordinates":[[[-122.36903,38.39436],[-122.36959,38.39514],[-122.37074,38.39515],[-122.37132,38.39437],[-122.37075,38.39359],[-122.36961,38.39358],[-122.36903,38.39436]]],"type":"Polygon"},"properties":{"bbox":{"parking":{"area":200.27,"pct":0.77},"roads":{"area":2586.81,"pct":9.96}},"city_same":1,"id":"hex:3700:24536"},"type":"Feature"},{"geometry":{"coordinates":[[[-122.36901,38.39592],[-122.36958,38.3967],[-122.37072,38.39671],[-122.3713,38.39593],[-122.37074,38.39515],[-122.36959,38.39514],[-122.36901,38.39592]]],"type":"Polygon"},"properties":{"bbox":{"roads":{"area":1325.37,"pct":5.1}},"city_same":1,"id":"hex:3700:24537"},"type":"Feature"},{"geometry":{"coordinates":[[[-122.369,38.39748],[-122.36958,38.3967],[-122.37072,38.39671],[-122.37094,38.39701],[-122.3704,38.39725],[-122.3692,38.39776],[-122.369,38.39748]]],"type":"Polygon"},"properties":{"bbox":{"roads":{"area":359.25,"pct":3.32}},"city_same":1,"id":"hex:3700:24538"},"type":"Feature"},{"geometry":{"coordinates":[[[-122.3691,38.40551],[-122.3691,38.40552],[-122.36912,38.40551],[-122.36914,38.4055],[-122.36918,38.40547],[-122.36923,38.4055],[-122.36918,38.40553],[-122.3692,38.4056],[-122.36926,38.40566],[-122.36928,38.4057],[-122.36925,38.40572],[-122.3691,38.40551]]],"type":"Polygon"},"properties":{"bbox":{"roads":{"area":14.86,"pct":11.01}},"city_same":1,"id":"hex:3700:24543"},"type":"Feature"},{"geometry":{"coordinates":[[[-122.36891,38.40841],[-122.36936,38.4078],[-122.3702,38.40825],[-122.36988,38.40843],[-122.36921,38.40882],[-122.36891,38.40841]]],"type":"Polygon"},"properties":{"bbox":{"roads":{"area":751.32,"pct":11.87}},"city_same":1,"id":"hex:3700:24545"},"type":"Feature"},{"geometry":{"coordinates":[[[-122.36736,38.38889],[-122.36792,38.38967],[-122.36907,38.38968],[-122.36965,38.3889],[-122.36908,38.38812],[-122.36794,38.38811],[-122.36736,38.38889]]],"type":"Polygon"},"properties":{"bbox":{"roads":{"area":986.24,"pct":3.8}},"city_same":1,"id":"hex:3701:24532"},"type":"Feature"},{"geometry":{"coordinates":[[[-122.36734,38.39045],[-122.36791,38.39123],[-122.36905,38.39124],[-122.36963,38.39046],[-122.36907,38.38968],[-122.36792,38.38967],[-122.36734,38.39045]]],"type":"Polygon"},"properties":{"bbox":{"roads":{"area":1272.87,"pct":4.9}},"city_same":1,"id":"hex:3701:24533"},"type":"Feature"},{"geometry":{"coordinates":[[[-122.36733,38.39201],[-122.3679,38.39279],[-122.36904,38.3928],[-122.36962,38.39202],[-122.36905,38.39124],[-122.36791,38.39123],[-122.36733,38.39201]]],"type":"Polygon"},"properties":{"bbox":{"roads":{"area":2741.72,"pct":10.55}},"city_same":1,"id":"hex:3701:24534"},"type":"Feature"},{"geometry":{"coordinates":[[[-122.36732,38.39357],[-122.36788,38.39435],[-122.36903,38.39436],[-122.36961,38.39358],[-122.36904,38.3928],[-122.3679,38.39279],[-122.36732,38.39357]]],"type":"Polygon"},"properties":{"bbox":{"parking":{"area":225.55,"pct":0.87},"roads":{"area":2910.26,"pct":11.2}},"city_same":1,"id":"hex:3701:24535"},"type":"Feature"},{"geometry":{"coordinates":[[[-122.3673,38.39513],[-122.36787,38.39591],[-122.36901,38.39592],[-122.36959,38.39514],[-122.36903,38.39436],[-122.36788,38.39435],[-122.3673,38.39513]]],"type":"Polygon"},"properties":{"bbox":{"parking":{"area":1678.61,"pct":6.46},"roads":{"area":1027.29,"pct":3.95}},"city_same":1,"id":"hex:3701:24536"},"type":"Feature"},{"geometry":{"coordinates":[[[-122.36729,38.39669],[-122.36786,38.39747],[-122.369,38.39748],[-122.36958,38.3967],[-122.36901,38.39592],[-122.36787,38.39591],[-122.36729,38.39669]]],"type":"Polygon"},"properties":{"bbox":{"roads":{"area":2535.89,"pct":9.76}},"city_same":1,"id":"hex:3701:24537"},"type":"Feature"},{"geometry":{"coordinates":[[[-122.36786,38.39747],[-122.369,38.39748],[-122.3692,38.39776],[-122.3689,38.3979],[-122.36789,38.39833],[-122.3675,38.3985],[-122.3673,38.39822],[-122.36786,38.39747]]],"type":"Polygon"},"properties":{"bbox":{"roads":{"area":172.68,"pct":1.69}},"city_same":1,"id":"hex:3701:24538"},"type":"Feature"},{"geometry":{"coordinates":[[[-122.36779,38.40528],[-122.36722,38.4045],[-122.36738,38.40428],[-122.36768,38.40453],[-122.36781,38.40458],[-122.36791,38.40462],[-122.368,38.40465],[-122.3681,38.40476],[-122.36825,38.40477],[-122.36842,38.40489],[-122.36853,38.40497],[-122.36857,38.405],[-122.36859,38.40502],[-122.36874,38.40526],[-122.36879,38.40528],[-122.36779,38.40528]]],"type":"Polygon"},"properties":{"bbox":{"roads":{"area":554.17,"pct":8.25}},"city_same":1,"id":"hex:3701:24542"},"type":"Feature"},{"geometry":{"coordinates":[[[-122.36777,38.40684],[-122.36721,38.40606],[-122.36779,38.40528],[-122.36879,38.40528],[-122.36891,38.40536],[-122.36895,38.40538],[-122.36893,38.40541],[-122.3691,38.40551],[-122.36925,38.40572],[-122.36911,38.40579],[-122.36902,38.40585],[-122.36898,38.40588],[-122.36867,38.40608],[-122.3683,38.40634],[-122.3682,38.4064],[-122.36806,38.40648],[-122.36825,38.40663],[-122.36841,38.40675],[-122.36854,38.40684],[-122.36777,38.40684]]],"type":"Polygon"},"properties":{"bbox":{"roads":{"area":2669.55,"pct":14.89}},"city":{"roads":{"area":1367.37,"pct":7.62}},"id":"hex:3701:24543"},"type":"Feature"},{"geometry":{"coordinates":[[[-122.36891,38.40841],[-122.36776,38.4084],[-122.36719,38.40762],[-122.36777,38.40684],[-122.36854,38.40684],[-122.3686,38.40689],[-122.36915,38.40731],[-122.36918,38.40734],[-122.36922,38.40736],[-122.36926,38.4074],[-122.36929,38.40743],[-122.36933,38.40746],[-122.36937,38.4075],[-122.3694,38.40753],[-122.36943,38.40755],[-122.36944,38.40757],[-122.36926,38.40767],[-122.3692,38.40771],[-122.36936,38.4078],[-122.36891,38.40841]]],"type":"Polygon"},"properties":{"bbox":{"roads":{"area":3650.02,"pct":14.9}},"city_same":1,"id":"hex:3701:24544"},"type":"Feature"},{"geometry":{"coordinates":[[[-122.36718,38.40918],[-122.36776,38.4084],[-122.36891,38.40841],[-122.36921,38.40882],[-122.36903,38.40892],[-122.3676,38.40976],[-122.36718,38.40918]]],"type":"Polygon"},"properties":{"bbox":{"roads":{"area":1015.21,"pct":6.63}},"city_same":1,"id":"hex:3701:24545"},"type":"Feature"},{"geometry":{"coordinates":[[[-122.36737,38.38733],[-122.36794,38.38811],[-122.36736,38.38889],[-122.36621,38.38888],[-122.36565,38.3881],[-122.36591,38.38775],[-122.36609,38.38766],[-122.3668,38.38732],[-122.36737,38.38733]]],"type":"Polygon"},"properties":{"bbox":{"roads":{"area":552.35,"pct":2.23}},"city_same":1,"id":"hex:3702:24532"},"type":"Feature"},{"geometry":{"coordinates":[[[-122.36563,38.38966],[-122.3662,38.39044],[-122.36734,38.39045],[-122.36792,38.38967],[-122.36736,38.38889],[-122.36621,38.38888],[-122.36563,38.38966]]],"type":"Polygon"},"properties":{"bbox":{"roads":{"area":1253.77,"pct":4.83}},"city_same":1,"id":"hex:3702:24533"},"type":"Feature"},{"geometry":{"coordinates":[[[-122.36562,38.39122],[-122.36619,38.392],[-122.36733,38.39201],[-122.36791,38.39123],[-122.36734,38.39045],[-122.3662,38.39044],[-122.36562,38.39122]]],"type":"Polygon"},"properties":{"bbox":{"roads":{"area":2981.83,"pct":11.48}},"city_same":1,"id":"hex:3702:24534"},"type":"Feature"},{"geometry":{"coordinates":[[[-122.36561,38.39278],[-122.36617,38.39356],[-122.36732,38.39357],[-122.3679,38.39279],[-122.36733,38.39201],[-122.36619,38.392],[-122.36561,38.39278]]],"type":"Polygon"},"properties":{"bbox":{"parking":{"area":2605.76,"pct":10.03},"roads":{"area":945.28,"pct":3.64}},"city_same":1,"id":"hex:3702:24535"},"type":"Feature"},{"geometry":{"coordinates":[[[-122.36559,38.39434],[-122.36616,38.39512],[-122.3673,38.39513],[-122.36788,38.39435],[-122.36732,38.39357],[-122.36617,38.39356],[-122.36559,38.39434]]],"type":"Polygon"},"properties":{"bbox":{"roads":{"area":376.27,"pct":1.45},"sidewalks":{"area":87.46,"pct":0.34}},"city_same":1,"id":"hex:3702:24536"},"type":"Feature"},{"geometry":{"coordinates":[[[-122.36558,38.3959],[-122.36614,38.39668],[-122.36729,38.39669],[-122.36787,38.39591],[-122.3673,38.39513],[-122.36616,38.39512],[-122.36558,38.3959]]],"type":"Polygon"},"properties":{"bbox":{"parking":{"area":103.32,"pct":0.4},"roads":{"area":2824.66,"pct":10.87},"sidewalks":{"area":146.98,"pct":0.57}},"city_same":1,"id":"hex:3702:24537"},"type":"Feature"},{"geometry":{"coordinates":[[[-122.36614,38.39668],[-122.36729,38.39669],[-122.36786,38.39747],[-122.3673,38.39822],[-122.36722,38.39812],[-122.36677,38.39753],[-122.36637,38.397],[-122.36629,38.3969],[-122.36614,38.39669],[-122.36614,38.39668]]],"type":"Polygon"},"properties":{"bbox":{"roads":{"area":212.67,"pct":1.67}},"city_same":1,"id":"hex:3702:24538"},"type":"Feature"},{"geometry":{"coordinates":[[[-122.36722,38.4045],[-122.36608,38.40449],[-122.36551,38.40371],[-122.36597,38.40309],[-122.36599,38.40311],[-122.36738,38.40428],[-122.36722,38.4045]]],"type":"Polygon"},"properties":{"bbox":{"roads":{"area":2164.08,"pct":15.98}},"city":{"roads":{"area":977.73,"pct":7.22}},"id":"hex:3702:24542"},"type":"Feature"},{"geometry":{"coordinates":[[[-122.3655,38.40527],[-122.36606,38.40605],[-122.36721,38.40606],[-122.36779,38.40528],[-122.36722,38.4045],[-122.36608,38.40449],[-122.3655,38.40527]]],"type":"Polygon"},"properties":{"bbox":{"roads":{"area":3894.89,"pct":14.99}},"city":{"roads":{"area":3029.26,"pct":11.66}},"id":"hex:3702:24543"},"type":"Feature"},{"geometry":{"coordinates":[[[-122.36548,38.40683],[-122.36605,38.40761],[-122.36719,38.40762],[-122.36777,38.40684],[-122.36721,38.40606],[-122.36606,38.40605],[-122.36548,38.40683]]],"type":"Polygon"},"properties":{"bbox":{"roads":{"area":3671.96,"pct":14.13}},"city_same":1,"id":"hex:3702:24544"},"type":"Feature"},{"geometry":{"coordinates":[[[-122.36547,38.40839],[-122.36604,38.40917],[-122.36718,38.40918],[-122.36776,38.4084],[-122.36719,38.40762],[-122.36605,38.40761],[-122.36547,38.40839]]],"type":"Polygon"},"properties":{"bbox":{"roads":{"area":2155.17,"pct":8.3}},"city_same":1,"id":"hex:3702:24545"},"type":"Feature"},{"geometry":{"coordinates":[[[-122.36602,38.41073],[-122.36546,38.40995],[-122.36604,38.40917],[-122.36718,38.40918],[-122.3676,38.40976],[-122.36685,38.41019],[-122.36666,38.41029],[-122.36679,38.41047],[-122.36698,38.41074],[-122.36602,38.41073]]],"type":"Polygon"},"properties":{"bbox":{"roads":{"area":1032.71,"pct":4.89}},"city_same":1,"id":"hex:3702:24546"},"type":"Feature"},{"geometry":{"coordinates":[[[-122.36601,38.41229],[-122.36544,38.41151],[-122.36602,38.41073],[-122.36698,38.41074],[-122.36731,38.4112],[-122.36742,38.41139],[-122.36745,38.41143],[-122.36745,38.41154],[-122.36724,38.41177],[-122.36664,38.41224],[-122.36657,38.4123],[-122.36601,38.41229]]],"type":"Polygon"},"properties":{"bbox":{"roads":{"area":239.22,"pct":1.11}},"city_same":1,"id":"hex:3702:24547"},"type":"Feature"},{"geometry":{"coordinates":[[[-122.36543,38.41307],[-122.36601,38.41229],[-122.36657,38.4123],[-122.36638,38.41245],[-122.36607,38.41264],[-122.36564,38.41298],[-122.36547,38.41312],[-122.36543,38.41307]]],"type":"Polygon"},"properties":{"bbox":{"roads":{"area":1.19,"pct":0.05}},"city_same":1,"id":"hex:3702:24548"},"type":"Feature"},{"geometry":{"coordinates":[[[-122.36565,38.3881],[-122.36516,38.38809],[-122.36528,38.38804],[-122.36552,38.38794],[-122.36591,38.38775],[-122.36565,38.3881]]],"type":"Polygon"},"properties":{"bbox":{"roads":{"area":246.65,"pct":31.68}},"city_same":1,"id":"hex:3703:24531"},"type":"Feature"},{"geometry":{"coordinates":[[[-122.36565,38.3881],[-122.36621,38.38888],[-122.36563,38.38966],[-122.36449,38.38965],[-122.36392,38.38887],[-122.36418,38.38852],[-122.36419,38.38852],[-122.36516,38.38809],[-122.36565,38.3881]]],"type":"Polygon"},"properties":{"bbox":{"roads":{"area":1688.2,"pct":6.87}},"city_same":1,"id":"hex:3703:24532"},"type":"Feature"},{"geometry":{"coordinates":[[[-122.36391,38.39043],[-122.36447,38.39121],[-122.36562,38.39122],[-122.3662,38.39044],[-122.36563,38.38966],[-122.36449,38.38965],[-122.36391,38.39043]]],"type":"Polygon"},"properties":{"bbox":{"roads":{"area":2188.65,"pct":8.42},"sidewalks":{"area":138.57,"pct":0.53}},"city_same":1,"id":"hex:3703:24533"},"type":"Feature"},{"geometry":{"coordinates":[[[-122.36389,38.39199],[-122.36446,38.39277],[-122.36561,38.39278],[-122.36619,38.392],[-122.36562,38.39122],[-122.36447,38.39121],[-122.36389,38.39199]]],"type":"Polygon"},"properties":{"bbox":{"roads":{"area":404.78,"pct":1.56}},"city_same":1,"id":"hex:3703:24534"},"type":"Feature"},{"geometry":{"coordinates":[[[-122.36388,38.39355],[-122.36445,38.39433],[-122.36559,38.39434],[-122.36617,38.39356],[-122.36561,38.39278],[-122.36446,38.39277],[-122.36388,38.39355]]],"type":"Polygon"},"properties":{"bbox":{"parking":{"area":1365.65,"pct":5.26},"roads":{"area":1607.07,"pct":6.19},"sidewalks":{"area":237.44,"pct":0.91}},"city_same":1,"id":"hex:3703:24535"},"type":"Feature"},{"geometry":{"coordinates":[[[-122.36387,38.39511],[-122.36445,38.39433],[-122.36559,38.39434],[-122.36616,38.39512],[-122.36558,38.3959],[-122.36554,38.3959],[-122.36506,38.39527],[-122.36504,38.39525],[-122.36494,38.3953],[-122.36423,38.39561],[-122.36387,38.39511]]],"type":"Polygon"},"properties":{"bbox":{"parking":{"area":1010.5,"pct":4.81},"roads":{"area":1749.03,"pct":8.32},"sidewalks":{"area":194.9,"pct":0.93}},"city_same":1,"id":"hex:3703:24536"},"type":"Feature"},{"geometry":{"coordinates":[[[-122.36558,38.3959],[-122.36614,38.39668],[-122.36614,38.39669],[-122.36613,38.39667],[-122.36599,38.3965],[-122.36598,38.39649],[-122.36554,38.3959],[-122.36558,38.3959]]],"type":"Polygon"},"properties":{"bbox":{"parking":{"area":157.43,"pct":88.03},"roads":{"area":22.52,"pct":12.59}},"city_same":1,"id":"hex:3703:24537"},"type":"Feature"},{"geometry":{"coordinates":[[[-122.36438,38.40214],[-122.36381,38.40135],[-122.36387,38.40128],[-122.36488,38.40214],[-122.36438,38.40214]]],"type":"Polygon"},"properties":{"bbox":{"roads":{"area":3.92,"pct":0.16}},"id":"hex:3703:24540"},"type":"Feature"},{"geometry":{"coordinates":[[[-122.36551,38.40371],[-122.36437,38.4037],[-122.3638,38.40292],[-122.36438,38.40214],[-122.36488,38.40214],[-122.36562,38.40276],[-122.36583,38.40286],[-122.36597,38.40309],[-122.36551,38.40371]]],"type":"Polygon"},"properties":{"bbox":{"roads":{"area":2430.54,"pct":10.83}},"city":{"roads":{"area":1031.71,"pct":4.6}},"id":"hex:3703:24541"},"type":"Feature"},{"geometry":{"coordinates":[[[-122.36379,38.40448],[-122.36435,38.40526],[-122.3655,38.40527],[-122.36608,38.40449],[-122.36551,38.40371],[-122.36437,38.4037],[-122.36379,38.40448]]],"type":"Polygon"},"properties":{"bbox":{"roads":{"area":2530.86,"pct":9.74}},"city_same":1,"id":"hex:3703:24542"},"type":"Feature"},{"geometry":{"coordinates":[[[-122.36377,38.40604],[-122.36434,38.40682],[-122.36548,38.40683],[-122.36606,38.40605],[-122.3655,38.40527],[-122.36435,38.40526],[-122.36377,38.40604]]],"type":"Polygon"},"properties":{"bbox":{"roads":{"area":2884.46,"pct":11.1}},"city_same":1,"id":"hex:3703:24543"},"type":"Feature"},{"geometry":{"coordinates":[[[-122.36376,38.4076],[-122.36432,38.40838],[-122.36547,38.40839],[-122.36605,38.40761],[-122.36548,38.40683],[-122.36434,38.40682],[-122.36376,38.4076]]],"type":"Polygon"},"properties":{"bbox":{"roads":{"area":2594.66,"pct":9.99},"sidewalks":{"area":251.39,"pct":0.97}},"city_same":1,"id":"hex:3703:24544"},"type":"Feature"},{"geometry":{"coordinates":[[[-122.36374,38.40916],[-122.36431,38.40994],[-122.36546,38.40995],[-122.36604,38.40917],[-122.36547,38.40839],[-122.36432,38.40838],[-122.36374,38.40916]]],"type":"Polygon"},"properties":{"bbox":{"roads":{"area":2325.62,"pct":8.95}},"city_same":1,"id":"hex:3703:24545"},"type":"Feature"},{"geometry":{"coordinates":[[[-122.36392,38.38887],[-122.36313,38.38886],[-122.36366,38.38864],[-122.36374,38.38862],[-122.36418,38.38852],[-122.36392,38.38887]]],"type":"Polygon"},"properties":{"bbox":{"roads":{"area":360.28,"pct":22.94}},"city_same":1,"id":"hex:3704:24532"},"type":"Feature"},{"geometry":{"coordinates":[[[-122.36392,38.38887],[-122.36449,38.38965],[-122.36391,38.39043],[-122.36276,38.39042],[-122.3622,38.38964],[-122.3626,38.3891],[-122.36267,38.38907],[-122.36286,38.38898],[-122.36313,38.38886],[-122.36392,38.38887]]],"type":"Polygon"},"properties":{"bbox":{"roads":{"area":1262.51,"pct":4.93},"sidewalks":{"area":50.12,"pct":0.2}},"city_same":1,"id":"hex:3704:24533"},"type":"Feature"},{"geometry":{"coordinates":[[[-122.36276,38.39042],[-122.36391,38.39043],[-122.36447,38.39121],[-122.36389,38.39199],[-122.36275,38.39198],[-122.36241,38.39152],[-122.36242,38.39151],[-122.36242,38.39149],[-122.3624,38.39142],[-122.36238,38.39138],[-122.36235,38.39134],[-122.36235,38.39131],[-122.36233,38.39127],[-122.3623,38.39123],[-122.36227,38.39121],[-122.36225,38.39118],[-122.36221,38.39117],[-122.36276,38.39042]]],"type":"Polygon"},"properties":{"bbox":{"parking":{"area":2750.91,"pct":10.68},"roads":{"area":2387.89,"pct":9.27},"sidewalks":{"area":210.15,"pct":0.82}},"city_same":1,"id":"hex:3704:24534"},"type":"Feature"},{"geometry":{"coordinates":[[[-122.36217,38.39276],[-122.36274,38.39354],[-122.36388,38.39355],[-122.36446,38.39277],[-122.36389,38.39199],[-122.36275,38.39198],[-122.36217,38.39276]]],"type":"Polygon"},"properties":{"bbox":{"parking":{"area":2958.05,"pct":11.39},"roads":{"area":1982.4,"pct":7.63},"sidewalks":{"area":214.97,"pct":0.83}},"city_same":1,"id":"hex:3704:24535"},"type":"Feature"},{"geometry":{"coordinates":[[[-122.36216,38.39432],[-122.36272,38.39511],[-122.36387,38.39511],[-122.36445,38.39433],[-122.36388,38.39355],[-122.36274,38.39354],[-122.36216,38.39432]]],"type":"Polygon"},"properties":{"bbox":{"roads":{"area":1455.34,"pct":5.6}},"city_same":1,"id":"hex:3704:24536"},"type":"Feature"},{"geometry":{"coordinates":[[[-122.36214,38.39588],[-122.36272,38.39511],[-122.36387,38.39511],[-122.36423,38.39561],[-122.36367,38.39587],[-122.3625,38.39638],[-122.36214,38.39588]]],"type":"Polygon"},"properties":{"bbox":{"roads":{"area":1505.69,"pct":9.75}},"city_same":1,"id":"hex:3704:24537"},"type":"Feature"},{"geometry":{"coordinates":[[[-122.36381,38.40135],[-122.36267,38.40135],[-122.3621,38.40057],[-122.36246,38.40008],[-122.36259,38.40021],[-122.36387,38.40128],[-122.36381,38.40135]]],"type":"Polygon"},"properties":{"bbox":{"parking":{"area":43.7,"pct":0.42},"roads":{"area":2148.85,"pct":20.69}},"city":{"parking":{"area":43.7,"pct":0.42},"roads":{"area":13.64,"pct":0.13}},"id":"hex:3704:24540"},"type":"Feature"},{"geometry":{"coordinates":[[[-122.36209,38.40213],[-122.36265,38.40291],[-122.3638,38.40292],[-122.36438,38.40214],[-122.36381,38.40135],[-122.36267,38.40135],[-122.36209,38.40213]]],"type":"Polygon"},"properties":{"bbox":{"parking":{"area":1962.32,"pct":7.55},"roads":{"area":3428.65,"pct":13.2},"sidewalks":{"area":93.81,"pct":0.36}},"city":{"parking":{"area":1962.32,"pct":7.55},"roads":{"area":1861.01,"pct":7.16},"sidewalks":{"area":93.81,"pct":0.36}},"id":"hex:3704:24541"},"type":"Feature"},{"geometry":{"coordinates":[[[-122.36207,38.40369],[-122.36264,38.40447],[-122.36379,38.40448],[-122.36437,38.4037],[-122.3638,38.40292],[-122.36265,38.40291],[-122.36207,38.40369]]],"type":"Polygon"},"properties":{"bbox":{"roads":{"area":3763.65,"pct":14.49},"sidewalks":{"area":421.47,"pct":1.62}},"city_same":1,"id":"hex:3704:24542"},"type":"Feature"},{"geometry":{"coordinates":[[[-122.36206,38.40525],[-122.36263,38.40603],[-122.36377,38.40604],[-122.36435,38.40526],[-122.36379,38.40448],[-122.36264,38.40447],[-122.36206,38.40525]]],"type":"Polygon"},"properties":{"bbox":{"roads":{"area":1677.04,"pct":6.45},"sidewalks":{"area":23.24,"pct":0.09}},"city_same":1,"id":"hex:3704:24543"},"type":"Feature"},{"geometry":{"coordinates":[[[-122.36205,38.40681],[-122.36261,38.40759],[-122.36376,38.4076],[-122.36434,38.40682],[-122.36377,38.40604],[-122.36263,38.40603],[-122.36205,38.40681]]],"type":"Polygon"},"properties":{"bbox":{"roads":{"area":3137.73,"pct":12.08},"sidewalks":{"area":898.04,"pct":3.46}},"city_same":1,"id":"hex:3704:24544"},"type":"Feature"},{"geometry":{"coordinates":[[[-122.36203,38.40837],[-122.3626,38.40915],[-122.36374,38.40916],[-122.36432,38.40838],[-122.36376,38.4076],[-122.36261,38.40759],[-122.36203,38.40837]]],"type":"Polygon"},"properties":{"bbox":{"roads":{"area":1765.5,"pct":6.8},"sidewalks":{"area":17.24,"pct":0.07}},"city_same":1,"id":"hex:3704:24545"},"type":"Feature"},{"geometry":{"coordinates":[[[-122.36202,38.40993],[-122.36259,38.41071],[-122.36373,38.41072],[-122.36431,38.40994],[-122.36374,38.40916],[-122.3626,38.40915],[-122.36202,38.40993]]],"type":"Polygon"},"properties":{"bbox":{"roads":{"area":1354.49,"pct":5.21}},"city_same":1,"id":"hex:3704:24546"},"type":"Feature"},{"geometry":{"coordinates":[[[-122.3622,38.38964],[-122.36143,38.38963],[-122.3626,38.3891],[-122.3622,38.38964]]],"type":"Polygon"},"properties":{"bbox":{"roads":{"area":630.25,"pct":31.19}},"city_same":1,"id":"hex:3705:24532"},"type":"Feature"},{"geometry":{"coordinates":[[[-122.36104,38.39119],[-122.36047,38.39041],[-122.36085,38.3899],[-122.36143,38.38963],[-122.3622,38.38964],[-122.36276,38.39042],[-122.36221,38.39117],[-122.3622,38.39116],[-122.36216,38.39116],[-122.36212,38.39116],[-122.36208,38.39117],[-122.36205,38.39119],[-122.36204,38.3912],[-122.36104,38.39119]]],"type":"Polygon"},"properties":{"bbox":{"roads":{"area":1000.59,"pct":3.93}},"city_same":1,"id":"hex:3705:24533"},"type":"Feature"},{"geometry":{"coordinates":[[[-122.36045,38.39353],[-122.36046,38.39352],[-122.36071,38.39341],[-122.36075,38.39336],[-122.36078,38.39332],[-122.36078,38.39329],[-122.36077,38.39325],[-122.36072,38.39317],[-122.36103,38.39275],[-122.36217,38.39276],[-122.36274,38.39354],[-122.36216,38.39432],[-122.36101,38.39432],[-122.36076,38.39397],[-122.36109,38.39382],[-122.36111,38.3938],[-122.36114,38.39375],[-122.36114,38.39371],[-122.36106,38.39358],[-122.36098,38.39349],[-122.36096,38.39348],[-122.36094,38.39348],[-122.36088,38.39348],[-122.36082,38.39349],[-122.36051,38.39362],[-122.36045,38.39353]]],"type":"Polygon"},"properties":{"bbox":{"roads":{"area":783.65,"pct":3.3}},"city_same":1,"id":"hex:3705:24535"},"type":"Feature"},{"geometry":{"coordinates":[[[-122.36042,38.39665],[-122.361,38.39588],[-122.36214,38.39588],[-122.3625,38.39638],[-122.36197,38.39662],[-122.36129,38.39692],[-122.36087,38.39713],[-122.36079,38.39716],[-122.36042,38.39665]]],"type":"Polygon"},"properties":{"bbox":{"parking":{"area":99.61,"pct":0.65},"roads":{"area":2119.5,"pct":13.79}},"city_same":1,"id":"hex:3705:24537"},"type":"Feature"},{"geometry":{"coordinates":[[[-122.36097,38.399],[-122.3604,38.39821],[-122.36055,38.39802],[-122.36114,38.39865],[-122.36108,38.39868],[-122.3614,38.399],[-122.36097,38.399]]],"type":"Polygon"},"properties":{"bbox":{"roads":{"area":57,"pct":1.79}},"city_same":1,"id":"hex:3705:24538"},"type":"Feature"},{"geometry":{"coordinates":[[[-122.3621,38.40057],[-122.36096,38.40056],[-122.36039,38.39978],[-122.36097,38.399],[-122.3614,38.399],[-122.36194,38.39955],[-122.36246,38.40008],[-122.3621,38.40057]]],"type":"Polygon"},"properties":{"bbox":{"roads":{"area":3952.96,"pct":19.16},"sidewalks":{"area":232.53,"pct":1.13}},"city":{"roads":{"area":1733.38,"pct":8.4},"sidewalks":{"area":232.53,"pct":1.13}},"id":"hex:3705:24539"},"type":"Feature"},{"geometry":{"coordinates":[[[-122.36038,38.40134],[-122.36094,38.40212],[-122.36209,38.40213],[-122.36267,38.40135],[-122.3621,38.40057],[-122.36096,38.40056],[-122.36038,38.40134]]],"type":"Polygon"},"properties":{"bbox":{"parking":{"area":6154.32,"pct":23.69},"roads":{"area":3541.27,"pct":13.63},"sidewalks":{"area":406.67,"pct":1.57}},"city_same":1,"id":"hex:3705:24540"},"type":"Feature"},{"geometry":{"coordinates":[[[-122.36036,38.4029],[-122.36093,38.40368],[-122.36207,38.40369],[-122.36265,38.40291],[-122.36209,38.40213],[-122.36094,38.40212],[-122.36036,38.4029]]],"type":"Polygon"},"properties":{"bbox":{"parking":{"area":334.86,"pct":1.29},"roads":{"area":4028.03,"pct":15.5},"sidewalks":{"area":997.6,"pct":3.84}},"city_same":1,"id":"hex:3705:24541"},"type":"Feature"},{"geometry":{"coordinates":[[[-122.36035,38.40446],[-122.36092,38.40524],[-122.36206,38.40525],[-122.36264,38.40447],[-122.36207,38.40369],[-122.36093,38.40368],[-122.36035,38.40446]]],"type":"Polygon"},"properties":{"bbox":{"roads":{"area":2184.05,"pct":8.41},"sidewalks":{"area":29.4,"pct":0.11}},"city_same":1,"id":"hex:3705:24542"},"type":"Feature"},{"geometry":{"coordinates":[[[-122.36034,38.40602],[-122.3609,38.4068],[-122.36205,38.40681],[-122.36263,38.40603],[-122.36206,38.40525],[-122.36092,38.40524],[-122.36034,38.40602]]],"type":"Polygon"},"properties":{"bbox":{"roads":{"area":1612.5,"pct":6.21}},"city_same":1,"id":"hex:3705:24543"},"type":"Feature"},{"geometry":{"coordinates":[[[-122.36032,38.40758],[-122.36089,38.40836],[-122.36203,38.40837],[-122.36261,38.40759],[-122.36205,38.40681],[-122.3609,38.4068],[-122.36032,38.40758]]],"type":"Polygon"},"properties":{"bbox":{"roads":{"area":2473.49,"pct":9.52}},"city_same":1,"id":"hex:3705:24544"},"type":"Feature"},{"geometry":{"coordinates":[[[-122.36031,38.40914],[-122.36089,38.40836],[-122.36203,38.40837],[-122.3626,38.40915],[-122.36202,38.40993],[-122.36115,38.40993],[-122.36037,38.40922],[-122.36031,38.40914]]],"type":"Polygon"},"properties":{"bbox":{"roads":{"area":1173.85,"pct":4.69}},"city_same":1,"id":"hex:3705:24545"},"type":"Feature"},{"geometry":{"coordinates":[[[-122.36202,38.40993],[-122.36259,38.41071],[-122.36226,38.41115],[-122.36163,38.41066],[-122.36166,38.41064],[-122.3618,38.41052],[-122.36115,38.40993],[-122.36202,38.40993]]],"type":"Polygon"},"properties":{"bbox":{"roads":{"area":601.52,"pct":7.8}},"city_same":1,"id":"hex:3705:24546"},"type":"Feature"},{"geometry":{"coordinates":[[[-122.36047,38.39041],[-122.35974,38.39041],[-122.36013,38.39023],[-122.36085,38.3899],[-122.36047,38.39041]]],"type":"Polygon"},"properties":{"bbox":{"roads":{"area":255.28,"pct":14.25}},"city_same":1,"id":"hex:3706:24533"},"type":"Feature"},{"geometry":{"coordinates":[[[-122.35875,38.39118],[-122.35912,38.39068],[-122.35974,38.39041],[-122.36047,38.39041],[-122.36104,38.39119],[-122.36099,38.39126],[-122.36099,38.39125],[-122.36099,38.39122],[-122.36097,38.3912],[-122.36094,38.39115],[-122.36092,38.39112],[-122.36091,38.39109],[-122.3609,38.39105],[-122.36089,38.39103],[-122.36089,38.39102],[-122.36088,38.391],[-122.36085,38.39097],[-122.36083,38.39096],[-122.36081,38.39096],[-122.36077,38.39095],[-122.36071,38.39095],[-122.36066,38.39096],[-122.36062,38.39098],[-122.36056,38.39098],[-122.36052,38.39099],[-122.36044,38.39103],[-122.36041,38.39104],[-122.36039,38.39106],[-122.36035,38.3911],[-122.36033,38.39113],[-122.36032,38.39117],[-122.36031,38.39118],[-122.36032,38.3912],[-122.36033,38.39122],[-122.36034,38.39125],[-122.36038,38.39127],[-122.3604,38.39128],[-122.36043,38.39129],[-122.36047,38.39128],[-122.36049,38.39128],[-122.36054,38.39128],[-122.36059,38.39129],[-122.36061,38.39129],[-122.36063,38.39129],[-122.36066,38.39131],[-122.36068,38.39132],[-122.36071,38.39134],[-122.36073,38.39136],[-122.36075,38.39139],[-122.36077,38.39142],[-122.36078,38.39147],[-122.36079,38.3915],[-122.36079,38.39153],[-122.36046,38.39197],[-122.35975,38.39197],[-122.35982,38.39189],[-122.35988,38.39176],[-122.35976,38.39164],[-122.35953,38.39161],[-122.35933,38.39173],[-122.35919,38.39179],[-122.35875,38.39118]]],"type":"Polygon"},"properties":{"bbox":{"roads":{"area":155.45,"pct":0.72}},"city_same":1,"id":"hex:3706:24534"},"type":"Feature"},{"geometry":{"coordinates":[[[[-122.3593,38.39353],[-122.35874,38.39274],[-122.35914,38.3922],[-122.35914,38.3922],[-122.35921,38.39221],[-122.35928,38.39221],[-122.35933,38.39218],[-122.3594,38.39215],[-122.3595,38.39214],[-122.35955,38.39213],[-122.35967,38.39205],[-122.35975,38.39197],[-122.36046,38.39197],[-122.36103,38.39275],[-122.36072,38.39317],[-122.36069,38.39314],[-122.36067,38.39312],[-122.36064,38.39311],[-122.36058,38.3931],[-122.3605,38.39311],[-122.36019,38.39321],[-122.35982,38.39335],[-122.35944,38.39353],[-122.3593,38.39353]],[[-122.36012,38.39303],[-122.36011,38.39298],[-122.35977,38.39254],[-122.35973,38.39253],[-122.3597,38.39253],[-122.35967,38.39253],[-122.35963,38.39255],[-122.35956,38.39258],[-122.35951,38.39261],[-122.35949,38.39264],[-122.35949,38.39268],[-122.35951,38.39274],[-122.35979,38.39313],[-122.35982,38.39315],[-122.35986,38.39316],[-122.35991,38.39315],[-122.36006,38.3931],[-122.3601,38.39307],[-122.36012,38.39303]],[[-122.36049,38.39293],[-122.36051,38.39289],[-122.36051,38.39285],[-122.36016,38.39237],[-122.36013,38.39236],[-122.36007,38.39238],[-122.36002,38.39239],[-122.35997,38.39241],[-122.35991,38.39244],[-122.35988,38.39247],[-122.35988,38.39249],[-122.35989,38.39253],[-122.36019,38.39296],[-122.36023,38.39299],[-122.36027,38.393],[-122.36034,38.39299],[-122.36043,38.39296],[-122.36049,38.39293]]],[[[-122.36045,38.39353],[-122.36042,38.39353],[-122.36046,38.39352],[-122.36045,38.39353]]]],"type":"MultiPolygon"},"properties":{"bbox":{"roads":{"area":1125.79,"pct":6.19}},"city_same":1,"id":"hex:3706:24535"},"type":"Feature"},{"geometry":{"coordinates":[[[-122.36101,38.39432],[-122.36043,38.39509],[-122.35929,38.39509],[-122.35872,38.3943],[-122.3593,38.39353],[-122.35944,38.39353],[-122.35941,38.39354],[-122.35936,38.39358],[-122.35934,38.39361],[-122.35934,38.39366],[-122.35938,38.39372],[-122.35943,38.39378],[-122.35949,38.39384],[-122.35952,38.39387],[-122.35954,38.39388],[-122.35956,38.3939],[-122.35984,38.3938],[-122.35995,38.39375],[-122.36014,38.39366],[-122.36042,38.39353],[-122.36045,38.39353],[-122.36051,38.39362],[-122.36045,38.39364],[-122.36016,38.39376],[-122.35975,38.39395],[-122.35969,38.39399],[-122.35965,38.39403],[-122.35965,38.39406],[-122.35965,38.39408],[-122.35965,38.39409],[-122.35978,38.39427],[-122.35977,38.39428],[-122.35982,38.39433],[-122.35985,38.39434],[-122.35989,38.39434],[-122.35995,38.39432],[-122.35997,38.39433],[-122.36014,38.39425],[-122.36076,38.39397],[-122.36101,38.39432]]],"type":"Polygon"},"properties":{"bbox":{"roads":{"area":606.22,"pct":3.08}},"city_same":1,"id":"hex:3706:24536"},"type":"Feature"},{"geometry":{"coordinates":[[[-122.35929,38.39509],[-122.36043,38.39509],[-122.361,38.39588],[-122.36042,38.39665],[-122.35927,38.39665],[-122.35871,38.39586],[-122.35885,38.39568],[-122.35886,38.39569],[-122.35893,38.39578],[-122.35898,38.39583],[-122.35902,38.39585],[-122.35908,38.39586],[-122.35914,38.39587],[-122.3592,38.39587],[-122.3593,38.39585],[-122.35936,38.39583],[-122.35946,38.39583],[-122.35958,38.39585],[-122.35971,38.39589],[-122.35981,38.39595],[-122.35988,38.39599],[-122.35995,38.39601],[-122.36001,38.396],[-122.36007,38.39597],[-122.36011,38.39594],[-122.36017,38.39592],[-122.36025,38.39592],[-122.36034,38.39591],[-122.36042,38.39588],[-122.36049,38.39584],[-122.36054,38.39579],[-122.36057,38.39575],[-122.36059,38.39572],[-122.3606,38.39569],[-122.3606,38.39565],[-122.36058,38.39562],[-122.36054,38.39559],[-122.36047,38.39557],[-122.36043,38.39556],[-122.36037,38.39555],[-122.3603,38.39553],[-122.36022,38.39551],[-122.36006,38.39553],[-122.35971,38.3956],[-122.35965,38.39559],[-122.35959,38.39557],[-122.35952,38.39553],[-122.35941,38.39546],[-122.35936,38.39543],[-122.3593,38.39541],[-122.35917,38.39536],[-122.3591,38.39533],[-122.35929,38.39509]]],"type":"Polygon"},"properties":{"bbox":{"sidewalks":{"area":3.85,"pct":0.02}},"city_same":1,"id":"hex:3706:24537"},"type":"Feature"},{"geometry":{"coordinates":[[[-122.3604,38.39821],[-122.35926,38.39821],[-122.35869,38.39742],[-122.35927,38.39665],[-122.36042,38.39665],[-122.36079,38.39716],[-122.36037,38.39737],[-122.36043,38.39743],[-122.36041,38.39749],[-122.36037,38.39761],[-122.36024,38.3977],[-122.36055,38.39802],[-122.3604,38.39821]]],"type":"Polygon"},"properties":{"bbox":{"parking":{"area":469.37,"pct":2.05},"roads":{"area":4931.85,"pct":21.57},"sidewalks":{"area":131.01,"pct":0.57}},"city":{"parking":{"area":469.37,"pct":2.05},"roads":{"area":3104.92,"pct":13.58},"sidewalks":{"area":131.01,"pct":0.57}},"id":"hex:3706:24538"},"type":"Feature"},{"geometry":{"coordinates":[[[-122.35868,38.39899],[-122.35925,38.39977],[-122.36039,38.39978],[-122.36097,38.399],[-122.3604,38.39821],[-122.35926,38.39821],[-122.35868,38.39899]]],"type":"Polygon"},"properties":{"bbox":{"roads":{"area":4925.71,"pct":18.96},"sidewalks":{"area":166.43,"pct":0.64}},"city":{"roads":{"area":2821.62,"pct":10.86},"sidewalks":{"area":166.43,"pct":0.64}},"id":"hex:3706:24539"},"type":"Feature"},{"geometry":{"coordinates":[[[-122.35867,38.40055],[-122.35923,38.40133],[-122.36038,38.40134],[-122.36096,38.40056],[-122.36039,38.39978],[-122.35925,38.39977],[-122.35867,38.40055]]],"type":"Polygon"},"properties":{"bbox":{"roads":{"area":3867.39,"pct":14.89},"sidewalks":{"area":617.4,"pct":2.38}},"city_same":1,"id":"hex:3706:24540"},"type":"Feature"},{"geometry":{"coordinates":[[[-122.35865,38.40211],[-122.35922,38.40289],[-122.36036,38.4029],[-122.36094,38.40212],[-122.36038,38.40134],[-122.35923,38.40133],[-122.35865,38.40211]]],"type":"Polygon"},"properties":{"bbox":{"roads":{"area":2408.39,"pct":9.27},"sidewalks":{"area":688.44,"pct":2.65}},"city_same":1,"id":"hex:3706:24541"},"type":"Feature"},{"geometry":{"coordinates":[[[-122.35864,38.40367],[-122.3592,38.40445],[-122.36035,38.40446],[-122.36093,38.40368],[-122.36036,38.4029],[-122.35922,38.40289],[-122.35864,38.40367]]],"type":"Polygon"},"properties":{"bbox":{"roads":{"area":2058.08,"pct":7.92},"sidewalks":{"area":394.23,"pct":1.52}},"city_same":1,"id":"hex:3706:24542"},"type":"Feature"},{"geometry":{"coordinates":[[[-122.35863,38.40523],[-122.35919,38.40601],[-122.36034,38.40602],[-122.36092,38.40524],[-122.36035,38.40446],[-122.3592,38.40445],[-122.35863,38.40523]]],"type":"Polygon"},"properties":{"bbox":{"roads":{"area":2460.9,"pct":9.47},"sidewalks":{"area":86.07,"pct":0.33}},"city_same":1,"id":"hex:3706:24543"},"type":"Feature"},{"geometry":{"coordinates":[[[-122.35861,38.40679],[-122.35918,38.40757],[-122.36032,38.40758],[-122.3609,38.4068],[-122.36034,38.40602],[-122.35919,38.40601],[-122.35861,38.40679]]],"type":"Polygon"},"properties":{"bbox":{"roads":{"area":2900.68,"pct":11.16}},"city_same":1,"id":"hex:3706:24544"},"type":"Feature"},{"geometry":{"coordinates":[[[-122.35918,38.40757],[-122.36032,38.40758],[-122.36089,38.40836],[-122.36031,38.40914],[-122.36028,38.40914],[-122.35892,38.40792],[-122.35918,38.40757]]],"type":"Polygon"},"properties":{"bbox":{"roads":{"area":1386.92,"pct":8.15}},"city_same":1,"id":"hex:3706:24545"},"type":"Feature"},{"geometry":{"coordinates":[[[-122.35875,38.39118],[-122.35799,38.39118],[-122.35912,38.39068],[-122.35875,38.39118]]],"type":"Polygon"},"properties":{"bbox":{"roads":{"area":310.97,"pct":16.75}},"city_same":1,"id":"hex:3707:24533"},"type":"Feature"},{"geometry":{"coordinates":[[[-122.35874,38.39274],[-122.35759,38.39274],[-122.35702,38.39195],[-122.35741,38.39143],[-122.35799,38.39118],[-122.35875,38.39118],[-122.35919,38.39179],[-122.35914,38.39182],[-122.35897,38.39185],[-122.35884,38.3919],[-122.35883,38.3919],[-122.35877,38.39195],[-122.35875,38.392],[-122.35876,38.39208],[-122.3588,38.39215],[-122.35896,38.39221],[-122.3591,38.39221],[-122.35914,38.3922],[-122.35874,38.39274]]],"type":"Polygon"},"properties":{"bbox":{"roads":{"area":208.27,"pct":0.87}},"city_same":1,"id":"hex:3707:24534"},"type":"Feature"},{"geometry":{"coordinates":[[[-122.35871,38.39586],[-122.35756,38.39586],[-122.357,38.39507],[-122.35758,38.3943],[-122.35872,38.3943],[-122.35929,38.39509],[-122.3591,38.39533],[-122.35905,38.39531],[-122.35897,38.39531],[-122.35892,38.39532],[-122.35887,38.39534],[-122.35881,38.39538],[-122.35877,38.39542],[-122.35873,38.39546],[-122.3587,38.3955],[-122.35871,38.39555],[-122.35874,38.39559],[-122.35877,38.39562],[-122.35885,38.39568],[-122.35871,38.39586]]],"type":"Polygon"},"properties":{"bbox":{"parking":{"area":2904.69,"pct":11.51},"roads":{"area":2273.86,"pct":9.01},"sidewalks":{"area":116.11,"pct":0.46}},"city_same":1,"id":"hex:3707:24536"},"type":"Feature"},{"geometry":{"coordinates":[[[-122.35698,38.39663],[-122.35755,38.39742],[-122.35869,38.39742],[-122.35927,38.39665],[-122.35871,38.39586],[-122.35756,38.39586],[-122.35698,38.39663]]],"type":"Polygon"},"properties":{"bbox":{"parking":{"area":657.03,"pct":2.53},"roads":{"area":6149.16,"pct":23.67},"sidewalks":{"area":183.05,"pct":0.7}},"city":{"parking":{"area":657.03,"pct":2.53},"roads":{"area":3453.89,"pct":13.29},"sidewalks":{"area":183.05,"pct":0.7}},"id":"hex:3707:24537"},"type":"Feature"},{"geometry":{"coordinates":[[[-122.35697,38.3982],[-122.35754,38.39898],[-122.35868,38.39899],[-122.35926,38.39821],[-122.35869,38.39742],[-122.35755,38.39742],[-122.35697,38.3982]]],"type":"Polygon"},"properties":{"bbox":{"roads":{"area":4193.18,"pct":16.14},"sidewalks":{"area":224.07,"pct":0.86}},"city_same":1,"id":"hex:3707:24538"},"type":"Feature"},{"geometry":{"coordinates":[[[-122.35696,38.39976],[-122.35752,38.40054],[-122.35867,38.40055],[-122.35925,38.39977],[-122.35868,38.39899],[-122.35754,38.39898],[-122.35696,38.39976]]],"type":"Polygon"},"properties":{"bbox":{"roads":{"area":3072.72,"pct":11.83},"sidewalks":{"area":45.2,"pct":0.17}},"city_same":1,"id":"hex:3707:24539"},"type":"Feature"},{"geometry":{"coordinates":[[[-122.35694,38.40132],[-122.35751,38.4021],[-122.35865,38.40211],[-122.35923,38.40133],[-122.35867,38.40055],[-122.35752,38.40054],[-122.35694,38.40132]]],"type":"Polygon"},"properties":{"bbox":{"roads":{"area":1982.7,"pct":7.63},"sidewalks":{"area":195.21,"pct":0.75}},"city_same":1,"id":"hex:3707:24540"},"type":"Feature"},{"geometry":{"coordinates":[[[-122.35693,38.40288],[-122.35749,38.40366],[-122.35864,38.40367],[-122.35922,38.40289],[-122.35865,38.40211],[-122.35751,38.4021],[-122.35693,38.40288]]],"type":"Polygon"},"properties":{"bbox":{"roads":{"area":2347.59,"pct":9.04},"sidewalks":{"area":72.36,"pct":0.28}},"city_same":1,"id":"hex:3707:24541"},"type":"Feature"},{"geometry":{"coordinates":[[[-122.35691,38.40444],[-122.35748,38.40522],[-122.35863,38.40523],[-122.3592,38.40445],[-122.35864,38.40367],[-122.35749,38.40366],[-122.35691,38.40444]]],"type":"Polygon"},"properties":{"bbox":{"roads":{"area":2970.39,"pct":11.43},"sidewalks":{"area":92.12,"pct":0.35}},"city_same":1,"id":"hex:3707:24542"},"type":"Feature"},{"geometry":{"coordinates":[[[-122.3569,38.406],[-122.35748,38.40522],[-122.35863,38.40523],[-122.35919,38.40601],[-122.35861,38.40679],[-122.35768,38.40678],[-122.35704,38.40619],[-122.3569,38.406]]],"type":"Polygon"},"properties":{"bbox":{"roads":{"area":1417.14,"pct":5.59}},"city_same":1,"id":"hex:3707:24543"},"type":"Feature"},{"geometry":{"coordinates":[[[-122.35861,38.40679],[-122.35918,38.40757],[-122.35892,38.40792],[-122.35884,38.40785],[-122.35768,38.40678],[-122.35861,38.40679]]],"type":"Polygon"},"properties":{"bbox":{"roads":{"area":265.36,"pct":3.8}},"city_same":1,"id":"hex:3707:24544"},"type":"Feature"},{"geometry":{"coordinates":[[[-122.35702,38.39195],[-122.35624,38.39195],[-122.35741,38.39143],[-122.35702,38.39195]]],"type":"Polygon"},"properties":{"bbox":{"roads":{"area":321.49,"pct":16.32}},"city_same":1,"id":"hex:3708:24534"},"type":"Feature"},{"geometry":{"coordinates":[[[-122.35702,38.39195],[-122.35759,38.39274],[-122.35701,38.39351],[-122.35587,38.39351],[-122.3553,38.39272],[-122.3557,38.39219],[-122.35624,38.39195],[-122.35702,38.39195]]],"type":"Polygon"},"properties":{"bbox":{"roads":{"area":164.85,"pct":0.65}},"city_same":1,"id":"hex:3708:24535"},"type":"Feature"},{"geometry":{"coordinates":[[[-122.35529,38.39428],[-122.35585,38.39507],[-122.357,38.39507],[-122.35758,38.3943],[-122.35701,38.39351],[-122.35587,38.39351],[-122.35529,38.39428]]],"type":"Polygon"},"properties":{"bbox":{"roads":{"area":3120.63,"pct":12.01}},"city":{"roads":{"area":1545.46,"pct":5.95}},"id":"hex:3708:24536"},"type":"Feature"},{"geometry":{"coordinates":[[[-122.35585,38.39507],[-122.357,38.39507],[-122.35756,38.39586],[-122.35698,38.39663],[-122.35584,38.39663],[-122.35529,38.39587],[-122.35544,38.39575],[-122.35553,38.39565],[-122.35593,38.39532],[-122.35598,38.39528],[-122.35581,38.39512],[-122.35585,38.39507]]],"type":"Polygon"},"properties":{"bbox":{"parking":{"area":791.8,"pct":3.18},"roads":{"area":4908.05,"pct":19.72},"sidewalks":{"area":27.73,"pct":0.11}},"city":{"parking":{"area":791.8,"pct":3.18},"roads":{"area":3090.57,"pct":12.41},"sidewalks":{"area":27.73,"pct":0.11}},"id":"hex:3708:24537"},"type":"Feature"},{"geometry":{"coordinates":[[[-122.35526,38.39741],[-122.35582,38.39819],[-122.35697,38.3982],[-122.35755,38.39742],[-122.35698,38.39663],[-122.35584,38.39663],[-122.35526,38.39741]]],"type":"Polygon"},"properties":{"bbox":{"roads":{"area":2435.54,"pct":9.37},"sidewalks":{"area":325.38,"pct":1.25}},"city_same":1,"id":"hex:3708:24538"},"type":"Feature"},{"geometry":{"coordinates":[[[-122.35524,38.39897],[-122.35581,38.39975],[-122.35696,38.39976],[-122.35754,38.39898],[-122.35697,38.3982],[-122.35582,38.39819],[-122.35524,38.39897]]],"type":"Polygon"},"properties":{"bbox":{"roads":{"area":2756.69,"pct":10.61}},"city_same":1,"id":"hex:3708:24539"},"type":"Feature"},{"geometry":{"coordinates":[[[-122.35523,38.40053],[-122.3558,38.40131],[-122.35694,38.40132],[-122.35752,38.40054],[-122.35696,38.39976],[-122.35581,38.39975],[-122.35523,38.40053]]],"type":"Polygon"},"properties":{"bbox":{"roads":{"area":2998.45,"pct":11.54}},"city_same":1,"id":"hex:3708:24540"},"type":"Feature"},{"geometry":{"coordinates":[[[-122.35522,38.40209],[-122.35578,38.40287],[-122.35693,38.40288],[-122.35751,38.4021],[-122.35694,38.40132],[-122.3558,38.40131],[-122.35522,38.40209]]],"type":"Polygon"},"properties":{"bbox":{"roads":{"area":2509.2,"pct":9.66}},"city_same":1,"id":"hex:3708:24541"},"type":"Feature"},{"geometry":{"coordinates":[[[-122.3552,38.40365],[-122.35577,38.40443],[-122.35691,38.40444],[-122.35749,38.40366],[-122.35693,38.40288],[-122.35578,38.40287],[-122.3552,38.40365]]],"type":"Polygon"},"properties":{"bbox":{"roads":{"area":2157.45,"pct":8.3}},"city_same":1,"id":"hex:3708:24542"},"type":"Feature"},{"geometry":{"coordinates":[[[-122.35577,38.40443],[-122.35691,38.40444],[-122.35748,38.40522],[-122.3569,38.406],[-122.35683,38.406],[-122.35651,38.40571],[-122.35603,38.40524],[-122.35586,38.40509],[-122.35557,38.40483],[-122.35552,38.40477],[-122.35577,38.40443]]],"type":"Polygon"},"properties":{"bbox":{"roads":{"area":1417.25,"pct":8.26}},"city_same":1,"id":"hex:3708:24543"},"type":"Feature"},{"geometry":{"coordinates":[[[-122.3553,38.39272],[-122.35451,38.39272],[-122.35479,38.39259],[-122.3557,38.39219],[-122.3553,38.39272]]],"type":"Polygon"},"properties":{"bbox":{"roads":{"area":502.47,"pct":24.17}},"city_same":1,"id":"hex:3709:24534"},"type":"Feature"},{"geometry":{"coordinates":[[[-122.3553,38.39272],[-122.35587,38.39351],[-122.35529,38.39428],[-122.35496,38.39428],[-122.3548,38.39414],[-122.35416,38.39338],[-122.35414,38.39335],[-122.35392,38.39304],[-122.35396,38.39297],[-122.3541,38.39291],[-122.35426,38.39283],[-122.35446,38.39274],[-122.35451,38.39272],[-122.3553,38.39272]]],"type":"Polygon"},"properties":{"bbox":{"roads":{"area":4872.86,"pct":26.39}},"city":{"roads":{"area":2206.66,"pct":11.95}},"id":"hex:3709:24535"},"type":"Feature"},{"geometry":{"coordinates":[[[-122.35529,38.39428],[-122.35585,38.39507],[-122.35581,38.39512],[-122.35496,38.39428],[-122.35529,38.39428]]],"type":"Polygon"},"properties":{"bbox":{"roads":{"area":1016.44,"pct":63.01}},"city":{"roads":{"area":794.89,"pct":49.28}},"id":"hex:3709:24536"},"type":"Feature"},{"geometry":{"coordinates":[[[-122.35353,38.39818],[-122.3541,38.39896],[-122.35524,38.39897],[-122.35582,38.39819],[-122.35526,38.39741],[-122.35411,38.3974],[-122.35353,38.39818]]],"type":"Polygon"},"properties":{"bbox":{"roads":{"area":2123.82,"pct":8.17}},"city_same":1,"id":"hex:3709:24538"},"type":"Feature"},{"geometry":{"coordinates":[[[-122.35352,38.39974],[-122.35409,38.40052],[-122.35523,38.40053],[-122.35581,38.39975],[-122.35524,38.39897],[-122.3541,38.39896],[-122.35352,38.39974]]],"type":"Polygon"},"properties":{"bbox":{"roads":{"area":3426.48,"pct":13.19}},"city_same":1,"id":"hex:3709:24539"},"type":"Feature"},{"geometry":{"coordinates":[[[-122.35351,38.4013],[-122.35407,38.40208],[-122.35522,38.40209],[-122.3558,38.40131],[-122.35523,38.40053],[-122.35409,38.40052],[-122.35351,38.4013]]],"type":"Polygon"},"properties":{"bbox":{"roads":{"area":2831.95,"pct":10.9}},"city_same":1,"id":"hex:3709:24540"},"type":"Feature"},{"geometry":{"coordinates":[[[-122.35349,38.40286],[-122.35407,38.40208],[-122.35522,38.40209],[-122.35578,38.40287],[-122.3552,38.40365],[-122.35432,38.40364],[-122.35412,38.40347],[-122.35386,38.40323],[-122.35371,38.4031],[-122.35358,38.40298],[-122.35349,38.40286]]],"type":"Polygon"},"properties":{"bbox":{"roads":{"area":2690.78,"pct":10.7}},"city_same":1,"id":"hex:3709:24541"},"type":"Feature"},{"geometry":{"coordinates":[[[-122.3552,38.40365],[-122.35577,38.40443],[-122.35552,38.40477],[-122.35539,38.40461],[-122.35523,38.40447],[-122.35501,38.40427],[-122.35465,38.40394],[-122.35434,38.40367],[-122.35432,38.40364],[-122.3552,38.40365]]],"type":"Polygon"},"properties":{"bbox":{"roads":{"area":628.9,"pct":9.74}},"city_same":1,"id":"hex:3709:24542"},"type":"Feature"},{"geometry":{"coordinates":[[[-122.35181,38.39895],[-122.35238,38.39973],[-122.35352,38.39974],[-122.3541,38.39896],[-122.35353,38.39818],[-122.35239,38.39817],[-122.35181,38.39895]]],"type":"Polygon"},"properties":{"bbox":{"roads":{"area":1743.04,"pct":6.71}},"city_same":1,"id":"hex:3710:24539"},"type":"Feature"},{"geometry":{"coordinates":[[[-122.3518,38.40051],[-122.35236,38.40129],[-122.35351,38.4013],[-122.35409,38.40052],[-122.35352,38.39974],[-122.35238,38.39973],[-122.3518,38.40051]]],"type":"Polygon"},"properties":{"bbox":{"roads":{"area":3333.55,"pct":12.83}},"city_same":1,"id":"hex:3710:24540"},"type":"Feature"},{"geometry":{"coordinates":[[[-122.35236,38.40129],[-122.35351,38.4013],[-122.35407,38.40208],[-122.35349,38.40286],[-122.35344,38.40286],[-122.35332,38.40275],[-122.35316,38.4026],[-122.35305,38.4025],[-122.35282,38.4023],[-122.3524,38.40192],[-122.3521,38.40164],[-122.35236,38.40129]]],"type":"Polygon"},"properties":{"bbox":{"roads":{"area":791.62,"pct":4.6}},"city_same":1,"id":"hex:3710:24541"},"type":"Feature"},{"geometry":{"coordinates":[[[-122.35181,38.39895],[-122.35238,38.39973],[-122.3518,38.40051],[-122.3509,38.4005],[-122.3507,38.4003],[-122.35024,38.39985],[-122.35037,38.39974],[-122.35074,38.39938],[-122.35132,38.39895],[-122.35181,38.39895]]],"type":"Polygon"},"properties":{"bbox":{"roads":{"area":555.8,"pct":2.61}},"city_same":1,"id":"hex:3711:24539"},"type":"Feature"},{"geometry":{"coordinates":[[[-122.3518,38.40051],[-122.35236,38.40129],[-122.3521,38.40164],[-122.35182,38.40138],[-122.35153,38.4011],[-122.35134,38.40092],[-122.35099,38.40059],[-122.3509,38.4005],[-122.3518,38.40051]]],"type":"Polygon"},"properties":{"bbox":{"roads":{"area":747.9,"pct":10.88}},"city_same":1,"id":"hex:3711:24540"},"type":"Feature"}],"type":"FeatureCollection","v":2}