{"features":[{"geometry":{"coordinates":[[[-118.17044,33.95569],[-118.16956,33.96225],[-118.16891,33.96441],[-118.16767,33.96653],[-118.16657,33.96714],[-118.16617,33.96779],[-118.16543,33.96786],[-118.16529,33.96798],[-118.16589,33.96816],[-118.1673,33.97019],[-118.16784,33.97301],[-118.16734,33.97696],[-118.16732,33.97934],[-118.14899,33.9774],[-118.14981,33.97411],[-118.13445,33.9724],[-118.13256,33.97252],[-118.1306,33.97319],[-118.12941,33.97094],[-118.13069,33.97098],[-118.12973,33.9709],[-118.12985,33.97106],[-118.13158,33.97141],[-118.13271,33.97144],[-118.13448,33.97089],[-118.1363,33.96952],[-118.13712,33.96807],[-118.13661,33.96777],[-118.13845,33.96485],[-118.13961,33.9634],[-118.14324,33.96119],[-118.14076,33.9627],[-118.15552,33.95467],[-118.15768,33.95306],[-118.15874,33.95195],[-118.16396,33.95336],[-118.17045,33.95437],[-118.17044,33.95569]],[[-118.15168,33.95746],[-118.15158,33.95736],[-118.15095,33.9576],[-118.15095,33.95781],[-118.1506,33.95786],[-118.15052,33.95808],[-118.15083,33.95808],[-118.15099,33.95785],[-118.1512,33.95791],[-118.15123,33.95814],[-118.15138,33.95797],[-118.15171,33.95809],[-118.15168,33.95746]]],"type":"Polygon"},"properties":{"type":"boundary"},"type":"Feature"}],"type":"FeatureCollection"}