{"features":[{"geometry":{"coordinates":[[[-118.16952,33.95509],[-118.16883,33.95412],[-118.17006,33.95431],[-118.17045,33.95437],[-118.17047,33.95504],[-118.17046,33.95508],[-118.16952,33.95509]]],"type":"Polygon"},"properties":{"bbox":{"roads":{"area":224.83,"pct":2.13}},"city":{"roads":{"area":87.43,"pct":0.83}},"id":"hex:2090:17356"},"type":"Feature"},{"geometry":{"coordinates":[[[-118.16955,33.95704],[-118.16886,33.95607],[-118.16952,33.95509],[-118.17046,33.95508],[-118.17044,33.95569],[-118.17037,33.95615],[-118.17025,33.95704],[-118.16955,33.95704]]],"type":"Polygon"},"properties":{"bbox":{"roads":{"area":2065.67,"pct":8.76}},"city":{"roads":{"area":1833.08,"pct":7.77}},"id":"hex:2090:17357"},"type":"Feature"},{"geometry":{"coordinates":[[[-118.16958,33.95899],[-118.16889,33.95802],[-118.16955,33.95704],[-118.17025,33.95704],[-118.17014,33.95781],[-118.17001,33.95876],[-118.16998,33.95899],[-118.16958,33.95899]]],"type":"Polygon"},"properties":{"bbox":{"roads":{"area":487.39,"pct":2.75}},"city_same":1,"id":"hex:2090:17358"},"type":"Feature"},{"geometry":{"coordinates":[[[-118.1696,33.96095],[-118.16891,33.95998],[-118.16958,33.95899],[-118.16998,33.95899],[-118.16973,33.96095],[-118.1696,33.96095]]],"type":"Polygon"},"properties":{"bbox":{"roads":{"area":1770.08,"pct":14.73}},"city_same":1,"id":"hex:2090:17359"},"type":"Feature"},{"geometry":{"coordinates":[[[-118.16894,33.96193],[-118.1696,33.96095],[-118.16973,33.96095],[-118.16956,33.96225],[-118.16949,33.96249],[-118.16945,33.96264],[-118.16894,33.96193]]],"type":"Polygon"},"properties":{"bbox":{"roads":{"area":1179.01,"pct":18.19}},"city_same":1,"id":"hex:2090:17360"},"type":"Feature"},{"geometry":{"coordinates":[[[-118.16897,33.96388],[-118.16917,33.96359],[-118.16916,33.96361],[-118.16907,33.9638],[-118.16903,33.96397],[-118.16897,33.96388]]],"type":"Polygon"},"properties":{"bbox":{"roads":{"area":2.37,"pct":1.54},"sidewalks":{"area":2.25,"pct":1.46}},"city_same":1,"id":"hex:2090:17361"},"type":"Feature"},{"geometry":{"coordinates":[[[-118.16748,33.95413],[-118.1673,33.95388],[-118.16757,33.95392],[-118.16777,33.95395],[-118.16809,33.954],[-118.16836,33.95405],[-118.16874,33.95411],[-118.16883,33.95412],[-118.16748,33.95413]]],"type":"Polygon"},"properties":{"bbox":{"roads":{"area":230.69,"pct":13.23}},"city_same":1,"id":"hex:2091:17355"},"type":"Feature"},{"geometry":{"coordinates":[[[-118.16952,33.95509],[-118.16886,33.95607],[-118.16751,33.95608],[-118.16682,33.95512],[-118.16748,33.95413],[-118.16883,33.95412],[-118.16883,33.95412],[-118.16952,33.95509]]],"type":"Polygon"},"properties":{"bbox":{"roads":{"area":4495.18,"pct":11.07}},"city_same":1,"id":"hex:2091:17356"},"type":"Feature"},{"geometry":{"coordinates":[[[-118.16684,33.95707],[-118.16753,33.95804],[-118.16889,33.95802],[-118.16955,33.95704],[-118.16886,33.95607],[-118.16751,33.95608],[-118.16684,33.95707]]],"type":"Polygon"},"properties":{"bbox":{"roads":{"area":5033.91,"pct":12.4}},"city_same":1,"id":"hex:2091:17357"},"type":"Feature"},{"geometry":{"coordinates":[[[-118.16687,33.95902],[-118.16756,33.95999],[-118.16891,33.95998],[-118.16958,33.95899],[-118.16889,33.95802],[-118.16753,33.95804],[-118.16687,33.95902]]],"type":"Polygon"},"properties":{"bbox":{"roads":{"area":2867.41,"pct":7.06}},"city_same":1,"id":"hex:2091:17358"},"type":"Feature"},{"geometry":{"coordinates":[[[-118.1669,33.96097],[-118.16759,33.96194],[-118.16894,33.96193],[-118.1696,33.96095],[-118.16891,33.95998],[-118.16756,33.95999],[-118.1669,33.96097]]],"type":"Polygon"},"properties":{"bbox":{"roads":{"area":4514.8,"pct":11.12}},"city_same":1,"id":"hex:2091:17359"},"type":"Feature"},{"geometry":{"coordinates":[[[-118.16897,33.96388],[-118.16761,33.96389],[-118.16692,33.96292],[-118.16759,33.96194],[-118.16894,33.96193],[-118.16945,33.96264],[-118.16937,33.96291],[-118.16919,33.96348],[-118.16917,33.96359],[-118.16897,33.96388]]],"type":"Polygon"},"properties":{"bbox":{"roads":{"area":6116.3,"pct":15.55},"sidewalks":{"area":483.38,"pct":1.23}},"city_same":1,"id":"hex:2091:17360"},"type":"Feature"},{"geometry":{"coordinates":[[[-118.16764,33.96585],[-118.16695,33.96488],[-118.16761,33.96389],[-118.16897,33.96388],[-118.16903,33.96397],[-118.16891,33.96441],[-118.16862,33.96484],[-118.16846,33.96512],[-118.16823,33.96556],[-118.1681,33.96584],[-118.16764,33.96585]]],"type":"Polygon"},"properties":{"bbox":{"parking":{"area":10737.04,"pct":40.61},"roads":{"area":4324.12,"pct":16.35}},"city_same":1,"id":"hex:2091:17361"},"type":"Feature"},{"geometry":{"coordinates":[[[-118.16698,33.96683],[-118.16764,33.96585],[-118.1681,33.96584],[-118.16793,33.96622],[-118.16784,33.96635],[-118.16776,33.96644],[-118.16767,33.96653],[-118.16756,33.96661],[-118.1674,33.96671],[-118.16719,33.96681],[-118.16702,33.96689],[-118.16698,33.96683]]],"type":"Polygon"},"properties":{"bbox":{"parking":{"area":2028.84,"pct":42.72},"roads":{"area":750.06,"pct":15.79}},"city":{"parking":{"area":2028.84,"pct":42.72},"roads":{"area":733.78,"pct":15.45}},"id":"hex:2091:17362"},"type":"Feature"},{"geometry":{"coordinates":[[[-118.16703,33.97073],[-118.16732,33.9703],[-118.16738,33.97057],[-118.16749,33.971],[-118.16757,33.97133],[-118.16762,33.97156],[-118.16703,33.97073]]],"type":"Polygon"},"properties":{"bbox":{"roads":{"area":483.64,"pct":18.84}},"city_same":1,"id":"hex:2091:17364"},"type":"Feature"},{"geometry":{"coordinates":[[[-118.16775,33.97366],[-118.16706,33.97269],[-118.16766,33.97179],[-118.16771,33.97205],[-118.16775,33.97238],[-118.16784,33.97301],[-118.16783,33.97337],[-118.16779,33.97365],[-118.16775,33.97366]]],"type":"Polygon"},"properties":{"bbox":{"roads":{"area":1081.85,"pct":14.22}},"city":{"roads":{"area":257.3,"pct":3.38}},"id":"hex:2091:17365"},"type":"Feature"},{"geometry":{"coordinates":[[[-118.16708,33.97464],[-118.16775,33.97366],[-118.16779,33.97365],[-118.16769,33.97427],[-118.16762,33.97471],[-118.16753,33.97527],[-118.16708,33.97464]]],"type":"Polygon"},"properties":{"bbox":{"roads":{"area":1372.83,"pct":28.93}},"city":{"roads":{"area":477.04,"pct":10.05}},"id":"hex:2091:17366"},"type":"Feature"},{"geometry":{"coordinates":[[[-118.16711,33.97659],[-118.16742,33.97613],[-118.16737,33.9765],[-118.16734,33.97691],[-118.16711,33.97659]]],"type":"Polygon"},"properties":{"bbox":{"roads":{"area":453.85,"pct":44.72}},"id":"hex:2091:17367"},"type":"Feature"},{"geometry":{"coordinates":[[[-118.16714,33.97854],[-118.16729,33.97832],[-118.16728,33.97845],[-118.16729,33.97876],[-118.16714,33.97854]]],"type":"Polygon"},"properties":{"bbox":{"roads":{"area":164.76,"pct":49.89}},"id":"hex:2091:17368"},"type":"Feature"},{"geometry":{"coordinates":[[[-118.16748,33.95413],[-118.16682,33.95512],[-118.16546,33.95513],[-118.16477,33.95416],[-118.16518,33.95355],[-118.1673,33.95388],[-118.16748,33.95413]]],"type":"Polygon"},"properties":{"bbox":{"roads":{"area":2217.27,"pct":7.13}},"city_same":1,"id":"hex:2092:17356"},"type":"Feature"},{"geometry":{"coordinates":[[[-118.1648,33.95611],[-118.16549,33.95708],[-118.16684,33.95707],[-118.16751,33.95608],[-118.16682,33.95512],[-118.16546,33.95513],[-118.1648,33.95611]]],"type":"Polygon"},"properties":{"bbox":{"roads":{"area":4236.79,"pct":10.44}},"city_same":1,"id":"hex:2092:17357"},"type":"Feature"},{"geometry":{"coordinates":[[[-118.16483,33.95806],[-118.16552,33.95903],[-118.16687,33.95902],[-118.16753,33.95804],[-118.16684,33.95707],[-118.16549,33.95708],[-118.16483,33.95806]]],"type":"Polygon"},"properties":{"bbox":{"roads":{"area":4747.01,"pct":11.69}},"city":{"roads":{"area":4726.02,"pct":11.64}},"id":"hex:2092:17358"},"type":"Feature"},{"geometry":{"coordinates":[[[-118.16485,33.96002],[-118.16554,33.96098],[-118.1669,33.96097],[-118.16756,33.95999],[-118.16687,33.95902],[-118.16552,33.95903],[-118.16485,33.96002]]],"type":"Polygon"},"properties":{"bbox":{"roads":{"area":7983.33,"pct":19.67}},"city":{"roads":{"area":5096.31,"pct":12.55}},"id":"hex:2092:17359"},"type":"Feature"},{"geometry":{"coordinates":[[[-118.16488,33.96197],[-118.16557,33.96294],[-118.16692,33.96292],[-118.16759,33.96194],[-118.1669,33.96097],[-118.16554,33.96098],[-118.16488,33.96197]]],"type":"Polygon"},"properties":{"bbox":{"roads":{"area":7596.01,"pct":18.71}},"city":{"roads":{"area":4696.39,"pct":11.57}},"id":"hex:2092:17360"},"type":"Feature"},{"geometry":{"coordinates":[[[-118.16491,33.96392],[-118.1656,33.96489],[-118.16695,33.96488],[-118.16761,33.96389],[-118.16692,33.96292],[-118.16557,33.96294],[-118.16491,33.96392]]],"type":"Polygon"},"properties":{"bbox":{"parking":{"area":6258.04,"pct":15.42},"roads":{"area":10042.52,"pct":24.74},"sidewalks":{"area":476.24,"pct":1.17}},"city":{"parking":{"area":6258.04,"pct":15.42},"roads":{"area":7760.04,"pct":19.12},"sidewalks":{"area":476.24,"pct":1.17}},"id":"hex:2092:17361"},"type":"Feature"},{"geometry":{"coordinates":[[[-118.16493,33.96587],[-118.16562,33.96684],[-118.16698,33.96683],[-118.16764,33.96585],[-118.16695,33.96488],[-118.1656,33.96489],[-118.16493,33.96587]]],"type":"Polygon"},"properties":{"bbox":{"parking":{"area":20565.63,"pct":50.66},"roads":{"area":5520.22,"pct":13.6}},"city":{"parking":{"area":20565.63,"pct":50.66},"roads":{"area":4948.64,"pct":12.19}},"id":"hex:2092:17362"},"type":"Feature"},{"geometry":{"coordinates":[[[-118.16565,33.96879],[-118.16496,33.96782],[-118.16562,33.96684],[-118.16698,33.96683],[-118.16702,33.96689],[-118.16689,33.96694],[-118.16677,33.96701],[-118.16665,33.96708],[-118.16657,33.96714],[-118.16648,33.96724],[-118.16637,33.96739],[-118.16632,33.9675],[-118.16631,33.96752],[-118.16626,33.96766],[-118.16622,33.96773],[-118.16617,33.96779],[-118.16607,33.96784],[-118.16592,33.96787],[-118.16543,33.96786],[-118.16537,33.96791],[-118.16536,33.96792],[-118.16529,33.96798],[-118.16578,33.96808],[-118.16589,33.96816],[-118.1661,33.96845],[-118.16632,33.96879],[-118.16565,33.96879]]],"type":"Polygon"},"properties":{"bbox":{"parking":{"area":7672.97,"pct":41.94},"roads":{"area":3873.19,"pct":21.17},"sidewalks":{"area":238.1,"pct":1.3}},"city":{"parking":{"area":7672.97,"pct":41.94},"roads":{"area":3551.3,"pct":19.41},"sidewalks":{"area":238.1,"pct":1.3}},"id":"hex:2092:17363"},"type":"Feature"},{"geometry":{"coordinates":[[[-118.16703,33.97073],[-118.16568,33.97075],[-118.16499,33.96978],[-118.16565,33.96879],[-118.16632,33.96879],[-118.16638,33.96887],[-118.16652,33.96907],[-118.16679,33.96937],[-118.16699,33.9696],[-118.16712,33.9698],[-118.16722,33.97],[-118.1673,33.97019],[-118.16732,33.9703],[-118.16703,33.97073]]],"type":"Polygon"},"properties":{"bbox":{"roads":{"area":4563.38,"pct":14.01}},"city":{"roads":{"area":4231.71,"pct":13}},"id":"hex:2092:17364"},"type":"Feature"},{"geometry":{"coordinates":[[[-118.16706,33.97269],[-118.1657,33.9727],[-118.16501,33.97173],[-118.16568,33.97075],[-118.16703,33.97073],[-118.16762,33.97156],[-118.16763,33.97163],[-118.16766,33.97179],[-118.16706,33.97269]]],"type":"Polygon"},"properties":{"bbox":{"roads":{"area":5272.27,"pct":13.02}},"city_same":1,"id":"hex:2092:17365"},"type":"Feature"},{"geometry":{"coordinates":[[[-118.16504,33.97368],[-118.16573,33.97465],[-118.16708,33.97464],[-118.16775,33.97366],[-118.16706,33.97269],[-118.1657,33.9727],[-118.16504,33.97368]]],"type":"Polygon"},"properties":{"bbox":{"roads":{"area":5523.53,"pct":13.61}},"city":{"roads":{"area":5495.13,"pct":13.54}},"id":"hex:2092:17366"},"type":"Feature"},{"geometry":{"coordinates":[[[-118.16711,33.97659],[-118.16576,33.9766],[-118.16507,33.97563],[-118.16573,33.97465],[-118.16708,33.97464],[-118.16753,33.97527],[-118.16752,33.97533],[-118.16742,33.97613],[-118.16711,33.97659]]],"type":"Polygon"},"properties":{"bbox":{"roads":{"area":7276.29,"pct":18.5}},"city":{"roads":{"area":3861.4,"pct":9.82}},"id":"hex:2092:17367"},"type":"Feature"},{"geometry":{"coordinates":[[[-118.16714,33.97854],[-118.16578,33.97856],[-118.16509,33.97759],[-118.16576,33.9766],[-118.16711,33.97659],[-118.16734,33.97691],[-118.16734,33.97696],[-118.1673,33.97786],[-118.16729,33.97832],[-118.16714,33.97854]]],"type":"Polygon"},"properties":{"bbox":{"roads":{"area":2570.25,"pct":6.94}},"city":{"roads":{"area":1658.07,"pct":4.47}},"id":"hex:2092:17368"},"type":"Feature"},{"geometry":{"coordinates":[[[-118.16578,33.97856],[-118.16714,33.97854],[-118.16729,33.97876],[-118.16732,33.97934],[-118.16542,33.9791],[-118.16578,33.97856]]],"type":"Polygon"},"properties":{"bbox":{"roads":{"area":1201.63,"pct":10.27}},"city":{"roads":{"area":871.97,"pct":7.45}},"id":"hex:2092:17369"},"type":"Feature"},{"geometry":{"coordinates":[[[-118.16477,33.95416],[-118.16342,33.95417],[-118.16273,33.9532],[-118.16282,33.95307],[-118.16396,33.95336],[-118.16518,33.95355],[-118.16477,33.95416]]],"type":"Polygon"},"properties":{"bbox":{"roads":{"area":3468.54,"pct":21.39},"sidewalks":{"area":330.47,"pct":2.04}},"city":{"roads":{"area":747.16,"pct":4.61},"sidewalks":{"area":330.47,"pct":2.04}},"id":"hex:2093:17355"},"type":"Feature"},{"geometry":{"coordinates":[[[-118.16276,33.95515],[-118.16345,33.95612],[-118.1648,33.95611],[-118.16546,33.95513],[-118.16477,33.95416],[-118.16342,33.95417],[-118.16276,33.95515]]],"type":"Polygon"},"properties":{"bbox":{"roads":{"area":6655.08,"pct":16.39},"sidewalks":{"area":605.5,"pct":1.49}},"city":{"roads":{"area":3313.58,"pct":8.16},"sidewalks":{"area":605.5,"pct":1.49}},"id":"hex:2093:17356"},"type":"Feature"},{"geometry":{"coordinates":[[[-118.16279,33.95711],[-118.16348,33.95808],[-118.16483,33.95806],[-118.16549,33.95708],[-118.1648,33.95611],[-118.16345,33.95612],[-118.16279,33.95711]]],"type":"Polygon"},"properties":{"bbox":{"roads":{"area":9494.18,"pct":23.39},"sidewalks":{"area":544.62,"pct":1.34}},"city":{"roads":{"area":5847.18,"pct":14.4},"sidewalks":{"area":544.62,"pct":1.34}},"id":"hex:2093:17357"},"type":"Feature"},{"geometry":{"coordinates":[[[-118.16281,33.95906],[-118.1635,33.96003],[-118.16485,33.96002],[-118.16552,33.95903],[-118.16483,33.95806],[-118.16348,33.95808],[-118.16281,33.95906]]],"type":"Polygon"},"properties":{"bbox":{"roads":{"area":6902.94,"pct":17},"sidewalks":{"area":4.91,"pct":0.01}},"city":{"roads":{"area":4550.43,"pct":11.21},"sidewalks":{"area":4.91,"pct":0.01}},"id":"hex:2093:17358"},"type":"Feature"},{"geometry":{"coordinates":[[[-118.16284,33.96101],[-118.16353,33.96198],[-118.16488,33.96197],[-118.16554,33.96098],[-118.16485,33.96002],[-118.1635,33.96003],[-118.16284,33.96101]]],"type":"Polygon"},"properties":{"bbox":{"roads":{"area":4787.84,"pct":11.79}},"city":{"roads":{"area":4787.55,"pct":11.79}},"id":"hex:2093:17359"},"type":"Feature"},{"geometry":{"coordinates":[[[-118.16287,33.96296],[-118.16356,33.96393],[-118.16491,33.96392],[-118.16557,33.96294],[-118.16488,33.96197],[-118.16353,33.96198],[-118.16287,33.96296]]],"type":"Polygon"},"properties":{"bbox":{"roads":{"area":6024.61,"pct":14.84},"sidewalks":{"area":17.63,"pct":0.04}},"city":{"roads":{"area":5265.01,"pct":12.97},"sidewalks":{"area":17.63,"pct":0.04}},"id":"hex:2093:17360"},"type":"Feature"},{"geometry":{"coordinates":[[[-118.16289,33.96491],[-118.16358,33.96588],[-118.16493,33.96587],[-118.1656,33.96489],[-118.16491,33.96392],[-118.16356,33.96393],[-118.16289,33.96491]]],"type":"Polygon"},"properties":{"bbox":{"parking":{"area":250.01,"pct":0.62},"roads":{"area":8103.64,"pct":19.96}},"city":{"parking":{"area":250.01,"pct":0.62},"roads":{"area":5530.01,"pct":13.62}},"id":"hex:2093:17361"},"type":"Feature"},{"geometry":{"coordinates":[[[-118.16292,33.96687],[-118.16361,33.96784],[-118.16496,33.96782],[-118.16562,33.96684],[-118.16493,33.96587],[-118.16358,33.96588],[-118.16292,33.96687]]],"type":"Polygon"},"properties":{"bbox":{"parking":{"area":1582.14,"pct":3.9},"roads":{"area":11288.79,"pct":27.81},"sidewalks":{"area":22.12,"pct":0.05}},"city":{"parking":{"area":1582.14,"pct":3.9},"roads":{"area":7439.89,"pct":18.33},"sidewalks":{"area":22.12,"pct":0.05}},"id":"hex:2093:17362"},"type":"Feature"},{"geometry":{"coordinates":[[[-118.16295,33.96882],[-118.16364,33.96979],[-118.16499,33.96978],[-118.16565,33.96879],[-118.16496,33.96782],[-118.16361,33.96784],[-118.16295,33.96882]]],"type":"Polygon"},"properties":{"bbox":{"roads":{"area":12734.8,"pct":31.37},"sidewalks":{"area":51.87,"pct":0.13}},"city":{"roads":{"area":7548.88,"pct":18.6},"sidewalks":{"area":51.87,"pct":0.13}},"id":"hex:2093:17363"},"type":"Feature"},{"geometry":{"coordinates":[[[-118.16297,33.97077],[-118.16366,33.97174],[-118.16501,33.97173],[-118.16568,33.97075],[-118.16499,33.96978],[-118.16364,33.96979],[-118.16297,33.97077]]],"type":"Polygon"},"properties":{"bbox":{"roads":{"area":11522.11,"pct":28.38}},"city":{"roads":{"area":6849.37,"pct":16.87}},"id":"hex:2093:17364"},"type":"Feature"},{"geometry":{"coordinates":[[[-118.163,33.97272],[-118.16369,33.97369],[-118.16504,33.97368],[-118.1657,33.9727],[-118.16501,33.97173],[-118.16366,33.97174],[-118.163,33.97272]]],"type":"Polygon"},"properties":{"bbox":{"roads":{"area":6528.02,"pct":16.08}},"city":{"roads":{"area":3145.78,"pct":7.75}},"id":"hex:2093:17365"},"type":"Feature"},{"geometry":{"coordinates":[[[-118.16303,33.97468],[-118.16371,33.97565],[-118.16507,33.97563],[-118.16573,33.97465],[-118.16504,33.97368],[-118.16369,33.97369],[-118.16303,33.97468]]],"type":"Polygon"},"properties":{"bbox":{"roads":{"area":10209.41,"pct":25.15}},"city":{"roads":{"area":4802.13,"pct":11.83}},"id":"hex:2093:17366"},"type":"Feature"},{"geometry":{"coordinates":[[[-118.16305,33.97663],[-118.16374,33.9776],[-118.16509,33.97759],[-118.16576,33.9766],[-118.16507,33.97563],[-118.16371,33.97565],[-118.16305,33.97663]]],"type":"Polygon"},"properties":{"bbox":{"roads":{"area":7018.86,"pct":17.29}},"city":{"roads":{"area":4152.54,"pct":10.23}},"id":"hex:2093:17367"},"type":"Feature"},{"geometry":{"coordinates":[[[-118.16308,33.97858],[-118.16374,33.9776],[-118.16509,33.97759],[-118.16578,33.97856],[-118.16542,33.9791],[-118.16326,33.97884],[-118.16308,33.97858]]],"type":"Polygon"},"properties":{"bbox":{"roads":{"area":3859.28,"pct":12.7}},"city":{"roads":{"area":3090.02,"pct":10.17}},"id":"hex:2093:17368"},"type":"Feature"},{"geometry":{"coordinates":[[[-118.16072,33.9542],[-118.16141,33.95517],[-118.16276,33.95515],[-118.16342,33.95417],[-118.16273,33.9532],[-118.16138,33.95321],[-118.16072,33.9542]]],"type":"Polygon"},"properties":{"bbox":{"roads":{"area":5606.45,"pct":13.81},"sidewalks":{"area":500.84,"pct":1.23}},"city":{"roads":{"area":2745.73,"pct":6.76},"sidewalks":{"area":500.84,"pct":1.23}},"id":"hex:2094:17356"},"type":"Feature"},{"geometry":{"coordinates":[[[-118.16074,33.95615],[-118.16143,33.95712],[-118.16279,33.95711],[-118.16345,33.95612],[-118.16276,33.95515],[-118.16141,33.95517],[-118.16074,33.95615]]],"type":"Polygon"},"properties":{"bbox":{"roads":{"area":5492.63,"pct":13.53},"sidewalks":{"area":325.65,"pct":0.8}},"city":{"roads":{"area":3344.73,"pct":8.24},"sidewalks":{"area":325.65,"pct":0.8}},"id":"hex:2094:17357"},"type":"Feature"},{"geometry":{"coordinates":[[[-118.16077,33.9581],[-118.16146,33.95907],[-118.16281,33.95906],[-118.16348,33.95808],[-118.16279,33.95711],[-118.16143,33.95712],[-118.16077,33.9581]]],"type":"Polygon"},"properties":{"bbox":{"roads":{"area":4445.23,"pct":10.95}},"city_same":1,"id":"hex:2094:17358"},"type":"Feature"},{"geometry":{"coordinates":[[[-118.1608,33.96005],[-118.16149,33.96102],[-118.16284,33.96101],[-118.1635,33.96003],[-118.16281,33.95906],[-118.16146,33.95907],[-118.1608,33.96005]]],"type":"Polygon"},"properties":{"bbox":{"roads":{"area":4736.14,"pct":11.67}},"city_same":1,"id":"hex:2094:17359"},"type":"Feature"},{"geometry":{"coordinates":[[[-118.16082,33.96201],[-118.16151,33.96298],[-118.16287,33.96296],[-118.16353,33.96198],[-118.16284,33.96101],[-118.16149,33.96102],[-118.16082,33.96201]]],"type":"Polygon"},"properties":{"bbox":{"roads":{"area":4097.82,"pct":10.09}},"city_same":1,"id":"hex:2094:17360"},"type":"Feature"},{"geometry":{"coordinates":[[[-118.16085,33.96396],[-118.16154,33.96493],[-118.16289,33.96491],[-118.16356,33.96393],[-118.16287,33.96296],[-118.16151,33.96298],[-118.16085,33.96396]]],"type":"Polygon"},"properties":{"bbox":{"roads":{"area":5224.91,"pct":12.87}},"city_same":1,"id":"hex:2094:17361"},"type":"Feature"},{"geometry":{"coordinates":[[[-118.16088,33.96591],[-118.16157,33.96688],[-118.16292,33.96687],[-118.16358,33.96588],[-118.16289,33.96491],[-118.16154,33.96493],[-118.16088,33.96591]]],"type":"Polygon"},"properties":{"bbox":{"roads":{"area":3656.31,"pct":9.01}},"city_same":1,"id":"hex:2094:17362"},"type":"Feature"},{"geometry":{"coordinates":[[[-118.1609,33.96786],[-118.16159,33.96883],[-118.16295,33.96882],[-118.16361,33.96784],[-118.16292,33.96687],[-118.16157,33.96688],[-118.1609,33.96786]]],"type":"Polygon"},"properties":{"bbox":{"roads":{"area":7913.01,"pct":19.49}},"city_same":1,"id":"hex:2094:17363"},"type":"Feature"},{"geometry":{"coordinates":[[[-118.16093,33.96981],[-118.16162,33.97078],[-118.16297,33.97077],[-118.16364,33.96979],[-118.16295,33.96882],[-118.16159,33.96883],[-118.16093,33.96981]]],"type":"Polygon"},"properties":{"bbox":{"roads":{"area":3931.41,"pct":9.68}},"city_same":1,"id":"hex:2094:17364"},"type":"Feature"},{"geometry":{"coordinates":[[[-118.16096,33.97177],[-118.16165,33.97274],[-118.163,33.97272],[-118.16366,33.97174],[-118.16297,33.97077],[-118.16162,33.97078],[-118.16096,33.97177]]],"type":"Polygon"},"properties":{"bbox":{"roads":{"area":5285.19,"pct":13.02}},"city_same":1,"id":"hex:2094:17365"},"type":"Feature"},{"geometry":{"coordinates":[[[-118.16098,33.97372],[-118.16167,33.97469],[-118.16303,33.97468],[-118.16369,33.97369],[-118.163,33.97272],[-118.16165,33.97274],[-118.16098,33.97372]]],"type":"Polygon"},"properties":{"bbox":{"roads":{"area":4754.1,"pct":11.71}},"city_same":1,"id":"hex:2094:17366"},"type":"Feature"},{"geometry":{"coordinates":[[[-118.16101,33.97567],[-118.1617,33.97664],[-118.16305,33.97663],[-118.16371,33.97565],[-118.16303,33.97468],[-118.16167,33.97469],[-118.16101,33.97567]]],"type":"Polygon"},"properties":{"bbox":{"roads":{"area":8140.01,"pct":20.05}},"city":{"roads":{"area":4477.34,"pct":11.03}},"id":"hex:2094:17367"},"type":"Feature"},{"geometry":{"coordinates":[[[-118.16104,33.97762],[-118.16173,33.97859],[-118.16308,33.97858],[-118.16374,33.9776],[-118.16305,33.97663],[-118.1617,33.97664],[-118.16104,33.97762]]],"type":"Polygon"},"properties":{"bbox":{"roads":{"area":6330.8,"pct":15.6}},"city":{"roads":{"area":4247.87,"pct":10.46}},"id":"hex:2094:17368"},"type":"Feature"},{"geometry":{"coordinates":[[[-118.16173,33.97859],[-118.16308,33.97858],[-118.16326,33.97884],[-118.16309,33.97881],[-118.16167,33.97867],[-118.16173,33.97859]]],"type":"Polygon"},"properties":{"bbox":{"roads":{"area":441.53,"pct":18.21}},"city":{"roads":{"area":289.39,"pct":11.93}},"id":"hex:2094:17369"},"type":"Feature"},{"geometry":{"coordinates":[[[-118.16138,33.95321],[-118.16072,33.9542],[-118.15936,33.95421],[-118.15868,33.95324],[-118.15934,33.95226],[-118.15984,33.95225],[-118.16091,33.95255],[-118.16138,33.95321]]],"type":"Polygon"},"properties":{"bbox":{"roads":{"area":2590.18,"pct":6.6}},"city_same":1,"id":"hex:2095:17355"},"type":"Feature"},{"geometry":{"coordinates":[[[-118.1587,33.95519],[-118.15939,33.95616],[-118.16074,33.95615],[-118.16141,33.95517],[-118.16072,33.9542],[-118.15936,33.95421],[-118.1587,33.95519]]],"type":"Polygon"},"properties":{"bbox":{"roads":{"area":3940.06,"pct":9.71},"sidewalks":{"area":93.38,"pct":0.23}},"city":{"roads":{"area":3591.83,"pct":8.85},"sidewalks":{"area":93.38,"pct":0.23}},"id":"hex:2095:17356"},"type":"Feature"},{"geometry":{"coordinates":[[[-118.15873,33.95714],[-118.15942,33.95811],[-118.16077,33.9581],[-118.16143,33.95712],[-118.16074,33.95615],[-118.15939,33.95616],[-118.15873,33.95714]]],"type":"Polygon"},"properties":{"bbox":{"roads":{"area":7717.07,"pct":19.01},"sidewalks":{"area":221.43,"pct":0.55}},"city":{"roads":{"area":4213.04,"pct":10.38},"sidewalks":{"area":221.43,"pct":0.55}},"id":"hex:2095:17357"},"type":"Feature"},{"geometry":{"coordinates":[[[-118.15875,33.9591],[-118.15944,33.96007],[-118.1608,33.96005],[-118.16146,33.95907],[-118.16077,33.9581],[-118.15942,33.95811],[-118.15875,33.9591]]],"type":"Polygon"},"properties":{"bbox":{"roads":{"area":4310.22,"pct":10.62}},"city_same":1,"id":"hex:2095:17358"},"type":"Feature"},{"geometry":{"coordinates":[[[-118.15878,33.96105],[-118.15947,33.96202],[-118.16082,33.96201],[-118.16149,33.96102],[-118.1608,33.96005],[-118.15944,33.96007],[-118.15878,33.96105]]],"type":"Polygon"},"properties":{"bbox":{"roads":{"area":4540.22,"pct":11.18}},"city_same":1,"id":"hex:2095:17359"},"type":"Feature"},{"geometry":{"coordinates":[[[-118.15881,33.963],[-118.1595,33.96397],[-118.16085,33.96396],[-118.16151,33.96298],[-118.16082,33.96201],[-118.15947,33.96202],[-118.15881,33.963]]],"type":"Polygon"},"properties":{"bbox":{"roads":{"area":4210.49,"pct":10.37}},"city_same":1,"id":"hex:2095:17360"},"type":"Feature"},{"geometry":{"coordinates":[[[-118.15883,33.96495],[-118.15952,33.96592],[-118.16088,33.96591],[-118.16154,33.96493],[-118.16085,33.96396],[-118.1595,33.96397],[-118.15883,33.96495]]],"type":"Polygon"},"properties":{"bbox":{"roads":{"area":3200.36,"pct":7.88}},"city_same":1,"id":"hex:2095:17361"},"type":"Feature"},{"geometry":{"coordinates":[[[-118.15886,33.96691],[-118.15955,33.96788],[-118.1609,33.96786],[-118.16157,33.96688],[-118.16088,33.96591],[-118.15952,33.96592],[-118.15886,33.96691]]],"type":"Polygon"},"properties":{"bbox":{"roads":{"area":5626.57,"pct":13.86}},"city_same":1,"id":"hex:2095:17362"},"type":"Feature"},{"geometry":{"coordinates":[[[-118.15889,33.96886],[-118.15958,33.96983],[-118.16093,33.96981],[-118.16159,33.96883],[-118.1609,33.96786],[-118.15955,33.96788],[-118.15889,33.96886]]],"type":"Polygon"},"properties":{"bbox":{"roads":{"area":4626.08,"pct":11.4}},"city_same":1,"id":"hex:2095:17363"},"type":"Feature"},{"geometry":{"coordinates":[[[-118.15891,33.97081],[-118.1596,33.97178],[-118.16096,33.97177],[-118.16162,33.97078],[-118.16093,33.96981],[-118.15958,33.96983],[-118.15891,33.97081]]],"type":"Polygon"},"properties":{"bbox":{"roads":{"area":4236.31,"pct":10.44}},"city_same":1,"id":"hex:2095:17364"},"type":"Feature"},{"geometry":{"coordinates":[[[-118.15894,33.97276],[-118.15963,33.97373],[-118.16098,33.97372],[-118.16165,33.97274],[-118.16096,33.97177],[-118.1596,33.97178],[-118.15894,33.97276]]],"type":"Polygon"},"properties":{"bbox":{"roads":{"area":4512.57,"pct":11.12}},"city_same":1,"id":"hex:2095:17365"},"type":"Feature"},{"geometry":{"coordinates":[[[-118.15897,33.97471],[-118.15966,33.97568],[-118.16101,33.97567],[-118.16167,33.97469],[-118.16098,33.97372],[-118.15963,33.97373],[-118.15897,33.97471]]],"type":"Polygon"},"properties":{"bbox":{"roads":{"area":6820.94,"pct":16.8}},"city":{"roads":{"area":3893.58,"pct":9.59}},"id":"hex:2095:17366"},"type":"Feature"},{"geometry":{"coordinates":[[[-118.15899,33.97667],[-118.15968,33.97764],[-118.16104,33.97762],[-118.1617,33.97664],[-118.16101,33.97567],[-118.15966,33.97568],[-118.15899,33.97667]]],"type":"Polygon"},"properties":{"bbox":{"roads":{"area":3612.42,"pct":8.9}},"city_same":1,"id":"hex:2095:17367"},"type":"Feature"},{"geometry":{"coordinates":[[[-118.15968,33.97764],[-118.16104,33.97762],[-118.16173,33.97859],[-118.16167,33.97867],[-118.15915,33.97842],[-118.15968,33.97764]]],"type":"Polygon"},"properties":{"bbox":{"roads":{"area":1358.16,"pct":7.29}},"city_same":1,"id":"hex:2095:17368"},"type":"Feature"},{"geometry":{"geometries":[{"coordinates":[[[-118.15934,33.95226],[-118.15868,33.95324],[-118.15744,33.95325],[-118.15768,33.95306],[-118.15819,33.95257],[-118.15874,33.95195],[-118.15921,33.95208],[-118.15934,33.95226]]],"type":"Polygon"},{"coordinates":[[-118.15874,33.95195],[-118.15854,33.95189]],"type":"LineString"}],"type":"GeometryCollection"},"properties":{"bbox":{"roads":{"area":769.31,"pct":6.41}},"city_same":1,"id":"hex:2096:17355"},"type":"Feature"},{"geometry":{"coordinates":[[[-118.15868,33.95324],[-118.15936,33.95421],[-118.1587,33.95519],[-118.15735,33.9552],[-118.15666,33.95423],[-118.15718,33.95346],[-118.15744,33.95325],[-118.15868,33.95324]]],"type":"Polygon"},"properties":{"bbox":{"roads":{"area":2830.97,"pct":7}},"city_same":1,"id":"hex:2096:17356"},"type":"Feature"},{"geometry":{"coordinates":[[[-118.15669,33.95619],[-118.15738,33.95716],[-118.15873,33.95714],[-118.15939,33.95616],[-118.1587,33.95519],[-118.15735,33.9552],[-118.15669,33.95619]]],"type":"Polygon"},"properties":{"bbox":{"roads":{"area":2960.62,"pct":7.29}},"city_same":1,"id":"hex:2096:17357"},"type":"Feature"},{"geometry":{"coordinates":[[[-118.15671,33.95814],[-118.1574,33.95911],[-118.15875,33.9591],[-118.15942,33.95811],[-118.15873,33.95714],[-118.15738,33.95716],[-118.15671,33.95814]]],"type":"Polygon"},"properties":{"bbox":{"roads":{"area":6942.59,"pct":17.1}},"city":{"roads":{"area":3348.6,"pct":8.25}},"id":"hex:2096:17358"},"type":"Feature"},{"geometry":{"coordinates":[[[-118.15674,33.96009],[-118.15743,33.96106],[-118.15878,33.96105],[-118.15944,33.96007],[-118.15875,33.9591],[-118.1574,33.95911],[-118.15674,33.96009]]],"type":"Polygon"},"properties":{"bbox":{"roads":{"area":3726.38,"pct":9.18}},"city":{"roads":{"area":3660.95,"pct":9.02}},"id":"hex:2096:17359"},"type":"Feature"},{"geometry":{"coordinates":[[[-118.15677,33.96204],[-118.15745,33.96301],[-118.15881,33.963],[-118.15947,33.96202],[-118.15878,33.96105],[-118.15743,33.96106],[-118.15677,33.96204]]],"type":"Polygon"},"properties":{"bbox":{"roads":{"area":2739.43,"pct":6.75}},"city_same":1,"id":"hex:2096:17360"},"type":"Feature"},{"geometry":{"coordinates":[[[-118.15679,33.964],[-118.15748,33.96497],[-118.15883,33.96495],[-118.1595,33.96397],[-118.15881,33.963],[-118.15745,33.96301],[-118.15679,33.964]]],"type":"Polygon"},"properties":{"bbox":{"roads":{"area":4356.72,"pct":10.73}},"city_same":1,"id":"hex:2096:17361"},"type":"Feature"},{"geometry":{"coordinates":[[[-118.15682,33.96595],[-118.15751,33.96692],[-118.15886,33.96691],[-118.15952,33.96592],[-118.15883,33.96495],[-118.15748,33.96497],[-118.15682,33.96595]]],"type":"Polygon"},"properties":{"bbox":{"parking":{"area":2433.7,"pct":6},"roads":{"area":5165.8,"pct":12.73}},"city_same":1,"id":"hex:2096:17362"},"type":"Feature"},{"geometry":{"coordinates":[[[-118.15684,33.9679],[-118.15753,33.96887],[-118.15889,33.96886],[-118.15955,33.96788],[-118.15886,33.96691],[-118.15751,33.96692],[-118.15684,33.9679]]],"type":"Polygon"},"properties":{"bbox":{"parking":{"area":3101.01,"pct":7.64},"roads":{"area":8326.2,"pct":20.51}},"city_same":1,"id":"hex:2096:17363"},"type":"Feature"},{"geometry":{"coordinates":[[[-118.15687,33.96985],[-118.15756,33.97082],[-118.15891,33.97081],[-118.15958,33.96983],[-118.15889,33.96886],[-118.15753,33.96887],[-118.15687,33.96985]]],"type":"Polygon"},"properties":{"bbox":{"roads":{"area":5274.91,"pct":12.99}},"city_same":1,"id":"hex:2096:17364"},"type":"Feature"},{"geometry":{"coordinates":[[[-118.1569,33.97181],[-118.15759,33.97278],[-118.15894,33.97276],[-118.1596,33.97178],[-118.15891,33.97081],[-118.15756,33.97082],[-118.1569,33.97181]]],"type":"Polygon"},"properties":{"bbox":{"roads":{"area":5588.81,"pct":13.77}},"city_same":1,"id":"hex:2096:17365"},"type":"Feature"},{"geometry":{"coordinates":[[[-118.15692,33.97376],[-118.15761,33.97473],[-118.15897,33.97471],[-118.15963,33.97373],[-118.15894,33.97276],[-118.15759,33.97278],[-118.15692,33.97376]]],"type":"Polygon"},"properties":{"bbox":{"roads":{"area":4865.24,"pct":11.98}},"city_same":1,"id":"hex:2096:17366"},"type":"Feature"},{"geometry":{"coordinates":[[[-118.15695,33.97571],[-118.15764,33.97668],[-118.15899,33.97667],[-118.15966,33.97568],[-118.15897,33.97471],[-118.15761,33.97473],[-118.15695,33.97571]]],"type":"Polygon"},"properties":{"bbox":{"roads":{"area":5500.44,"pct":13.55}},"city":{"roads":{"area":3126.96,"pct":7.7}},"id":"hex:2096:17367"},"type":"Feature"},{"geometry":{"coordinates":[[[-118.15698,33.97766],[-118.15764,33.97668],[-118.15899,33.97667],[-118.15968,33.97764],[-118.15915,33.97842],[-118.15739,33.97824],[-118.15698,33.97766]]],"type":"Polygon"},"properties":{"bbox":{"roads":{"area":3471.24,"pct":9.66}},"city_same":1,"id":"hex:2096:17368"},"type":"Feature"},{"geometry":{"coordinates":[[[-118.15666,33.95423],[-118.15735,33.9552],[-118.15669,33.95619],[-118.15533,33.9562],[-118.15464,33.95523],[-118.1547,33.95514],[-118.15552,33.95467],[-118.15616,33.95424],[-118.15666,33.95423]]],"type":"Polygon"},"properties":{"bbox":{"roads":{"area":81.03,"pct":0.22}},"city_same":1,"id":"hex:2097:17356"},"type":"Feature"},{"geometry":{"coordinates":[[[-118.15467,33.95718],[-118.15536,33.95815],[-118.15671,33.95814],[-118.15738,33.95716],[-118.15669,33.95619],[-118.15533,33.9562],[-118.15467,33.95718]]],"type":"Polygon"},"properties":{"bbox":{"parking":{"area":1057.74,"pct":2.61},"roads":{"area":579.49,"pct":1.43}},"city_same":1,"id":"hex:2097:17357"},"type":"Feature"},{"geometry":{"coordinates":[[[-118.1547,33.95913],[-118.15539,33.9601],[-118.15674,33.96009],[-118.1574,33.95911],[-118.15671,33.95814],[-118.15536,33.95815],[-118.1547,33.95913]]],"type":"Polygon"},"properties":{"bbox":{"parking":{"area":1632.44,"pct":4.02},"roads":{"area":6310.05,"pct":15.54},"sidewalks":{"area":16.73,"pct":0.04}},"city":{"parking":{"area":1632.44,"pct":4.02},"roads":{"area":3712.89,"pct":9.15},"sidewalks":{"area":16.73,"pct":0.04}},"id":"hex:2097:17358"},"type":"Feature"},{"geometry":{"coordinates":[[[-118.15472,33.96109],[-118.15541,33.96206],[-118.15677,33.96204],[-118.15743,33.96106],[-118.15674,33.96009],[-118.15539,33.9601],[-118.15472,33.96109]]],"type":"Polygon"},"properties":{"bbox":{"roads":{"area":5178.15,"pct":12.76}},"city":{"roads":{"area":2393.63,"pct":5.9}},"id":"hex:2097:17359"},"type":"Feature"},{"geometry":{"coordinates":[[[-118.15475,33.96304],[-118.15544,33.96401],[-118.15679,33.964],[-118.15745,33.96301],[-118.15677,33.96204],[-118.15541,33.96206],[-118.15475,33.96304]]],"type":"Polygon"},"properties":{"bbox":{"roads":{"area":4056.66,"pct":9.99}},"city_same":1,"id":"hex:2097:17360"},"type":"Feature"},{"geometry":{"coordinates":[[[-118.15478,33.96499],[-118.15547,33.96596],[-118.15682,33.96595],[-118.15748,33.96497],[-118.15679,33.964],[-118.15544,33.96401],[-118.15478,33.96499]]],"type":"Polygon"},"properties":{"bbox":{"roads":{"area":4161.3,"pct":10.25}},"city_same":1,"id":"hex:2097:17361"},"type":"Feature"},{"geometry":{"coordinates":[[[-118.1548,33.96694],[-118.15549,33.96791],[-118.15684,33.9679],[-118.15751,33.96692],[-118.15682,33.96595],[-118.15547,33.96596],[-118.1548,33.96694]]],"type":"Polygon"},"properties":{"bbox":{"parking":{"area":6604.84,"pct":16.27},"roads":{"area":10552.96,"pct":26},"sidewalks":{"area":244.53,"pct":0.6}},"city_same":1,"id":"hex:2097:17362"},"type":"Feature"},{"geometry":{"coordinates":[[[-118.15483,33.9689],[-118.15552,33.96987],[-118.15687,33.96985],[-118.15753,33.96887],[-118.15684,33.9679],[-118.15549,33.96791],[-118.15483,33.9689]]],"type":"Polygon"},"properties":{"bbox":{"roads":{"area":4621.08,"pct":11.38}},"city_same":1,"id":"hex:2097:17363"},"type":"Feature"},{"geometry":{"coordinates":[[[-118.15485,33.97085],[-118.15554,33.97182],[-118.1569,33.97181],[-118.15756,33.97082],[-118.15687,33.96985],[-118.15552,33.96987],[-118.15485,33.97085]]],"type":"Polygon"},"properties":{"bbox":{"roads":{"area":4734.62,"pct":11.66}},"city_same":1,"id":"hex:2097:17364"},"type":"Feature"},{"geometry":{"coordinates":[[[-118.15488,33.9728],[-118.15557,33.97377],[-118.15692,33.97376],[-118.15759,33.97278],[-118.1569,33.97181],[-118.15554,33.97182],[-118.15488,33.9728]]],"type":"Polygon"},"properties":{"bbox":{"roads":{"area":5257.96,"pct":12.95}},"city_same":1,"id":"hex:2097:17365"},"type":"Feature"},{"geometry":{"coordinates":[[[-118.15491,33.97475],[-118.1556,33.97572],[-118.15695,33.97571],[-118.15761,33.97473],[-118.15692,33.97376],[-118.15557,33.97377],[-118.15491,33.97475]]],"type":"Polygon"},"properties":{"bbox":{"roads":{"area":6670.75,"pct":16.43}},"city":{"roads":{"area":3047.81,"pct":7.51}},"id":"hex:2097:17366"},"type":"Feature"},{"geometry":{"coordinates":[[[-118.15493,33.97671],[-118.15562,33.97767],[-118.15698,33.97766],[-118.15764,33.97668],[-118.15695,33.97571],[-118.1556,33.97572],[-118.15493,33.97671]]],"type":"Polygon"},"properties":{"bbox":{"parking":{"area":1147.59,"pct":2.83},"roads":{"area":4004.24,"pct":9.86}},"city_same":1,"id":"hex:2097:17367"},"type":"Feature"},{"geometry":{"coordinates":[[[-118.15562,33.97767],[-118.15698,33.97766],[-118.15739,33.97824],[-118.15654,33.97816],[-118.15647,33.97815],[-118.15551,33.97805],[-118.15538,33.97804],[-118.15562,33.97767]]],"type":"Polygon"},"properties":{"bbox":{"roads":{"area":257.27,"pct":3.19}},"city_same":1,"id":"hex:2097:17368"},"type":"Feature"},{"geometry":{"coordinates":[[[-118.15265,33.95818],[-118.15334,33.95915],[-118.1547,33.95913],[-118.15536,33.95815],[-118.15467,33.95718],[-118.15332,33.9572],[-118.15265,33.95818]]],"type":"Polygon"},"properties":{"bbox":{"parking":{"area":5610.71,"pct":13.82},"roads":{"area":1261.99,"pct":3.11}},"city_same":1,"id":"hex:2098:17358"},"type":"Feature"},{"geometry":{"coordinates":[[[-118.15268,33.96013],[-118.15337,33.9611],[-118.15472,33.96109],[-118.15539,33.9601],[-118.1547,33.95913],[-118.15334,33.95915],[-118.15268,33.96013]]],"type":"Polygon"},"properties":{"bbox":{"parking":{"area":16.76,"pct":0.04},"roads":{"area":4456.47,"pct":10.98}},"city_same":1,"id":"hex:2098:17359"},"type":"Feature"},{"geometry":{"coordinates":[[[-118.15271,33.96208],[-118.1534,33.96305],[-118.15475,33.96304],[-118.15541,33.96206],[-118.15472,33.96109],[-118.15337,33.9611],[-118.15271,33.96208]]],"type":"Polygon"},"properties":{"bbox":{"roads":{"area":7455.07,"pct":18.36},"sidewalks":{"area":309.67,"pct":0.76}},"city":{"roads":{"area":3608.54,"pct":8.89},"sidewalks":{"area":309.67,"pct":0.76}},"id":"hex:2098:17360"},"type":"Feature"},{"geometry":{"coordinates":[[[-118.15273,33.96403],[-118.15342,33.965],[-118.15478,33.96499],[-118.15544,33.96401],[-118.15475,33.96304],[-118.1534,33.96305],[-118.15273,33.96403]]],"type":"Polygon"},"properties":{"bbox":{"roads":{"area":1396.51,"pct":3.44}},"city_same":1,"id":"hex:2098:17361"},"type":"Feature"},{"geometry":{"coordinates":[[[-118.15276,33.96599],[-118.15345,33.96696],[-118.1548,33.96694],[-118.15547,33.96596],[-118.15478,33.96499],[-118.15342,33.965],[-118.15276,33.96599]]],"type":"Polygon"},"properties":{"bbox":{"roads":{"area":6946.55,"pct":17.11},"sidewalks":{"area":536.7,"pct":1.32}},"city_same":1,"id":"hex:2098:17362"},"type":"Feature"},{"geometry":{"coordinates":[[[-118.15279,33.96794],[-118.15348,33.96891],[-118.15483,33.9689],[-118.15549,33.96791],[-118.1548,33.96694],[-118.15345,33.96696],[-118.15279,33.96794]]],"type":"Polygon"},"properties":{"bbox":{"roads":{"area":1964.31,"pct":4.84}},"city_same":1,"id":"hex:2098:17363"},"type":"Feature"},{"geometry":{"coordinates":[[[-118.15281,33.96989],[-118.1535,33.97086],[-118.15485,33.97085],[-118.15552,33.96987],[-118.15483,33.9689],[-118.15348,33.96891],[-118.15281,33.96989]]],"type":"Polygon"},"properties":{"bbox":{"roads":{"area":4150.74,"pct":10.22}},"city_same":1,"id":"hex:2098:17364"},"type":"Feature"},{"geometry":{"coordinates":[[[-118.15284,33.97184],[-118.15353,33.97281],[-118.15488,33.9728],[-118.15554,33.97182],[-118.15485,33.97085],[-118.1535,33.97086],[-118.15284,33.97184]]],"type":"Polygon"},"properties":{"bbox":{"roads":{"area":3233.15,"pct":7.96}},"city_same":1,"id":"hex:2098:17365"},"type":"Feature"},{"geometry":{"coordinates":[[[-118.15287,33.9738],[-118.15355,33.97477],[-118.15491,33.97475],[-118.15557,33.97377],[-118.15488,33.9728],[-118.15353,33.97281],[-118.15287,33.9738]]],"type":"Polygon"},"properties":{"bbox":{"roads":{"area":5544.26,"pct":13.66}},"city":{"roads":{"area":3288.38,"pct":8.1}},"id":"hex:2098:17366"},"type":"Feature"},{"geometry":{"coordinates":[[[-118.15289,33.97575],[-118.15358,33.97672],[-118.15493,33.97671],[-118.1556,33.97572],[-118.15491,33.97475],[-118.15355,33.97477],[-118.15289,33.97575]]],"type":"Polygon"},"properties":{"bbox":{"roads":{"area":2563.79,"pct":6.32}},"city_same":1,"id":"hex:2098:17367"},"type":"Feature"},{"geometry":{"coordinates":[[[-118.15292,33.9777],[-118.15358,33.97672],[-118.15493,33.97671],[-118.15562,33.97767],[-118.15538,33.97804],[-118.15299,33.9778],[-118.15292,33.9777]]],"type":"Polygon"},"properties":{"bbox":{"roads":{"area":257.95,"pct":0.97}},"city_same":1,"id":"hex:2098:17368"},"type":"Feature"},{"geometry":{"coordinates":[[[[-118.15069,33.95733],[-118.1517,33.95678],[-118.15265,33.95626],[-118.15332,33.9572],[-118.15265,33.95818],[-118.1513,33.95819],[-118.15126,33.95813],[-118.15127,33.95813],[-118.1513,33.95812],[-118.1513,33.95807],[-118.1513,33.95802],[-118.15132,33.95798],[-118.15138,33.95797],[-118.15145,33.95798],[-118.15153,33.95802],[-118.15162,33.95808],[-118.15165,33.95811],[-118.15169,33.95811],[-118.15171,33.95809],[-118.15172,33.95806],[-118.15172,33.95803],[-118.1517,33.95797],[-118.15166,33.95789],[-118.15164,33.9578],[-118.15164,33.95775],[-118.15165,33.95768],[-118.15167,33.95761],[-118.15169,33.95754],[-118.15168,33.95746],[-118.15167,33.95742],[-118.15163,33.95738],[-118.15158,33.95736],[-118.15152,33.95738],[-118.15145,33.95747],[-118.15111,33.95759],[-118.15103,33.95761],[-118.15099,33.9576],[-118.15095,33.9576],[-118.15092,33.95763],[-118.15091,33.95764],[-118.15069,33.95733]]],[[[-118.15107,33.95786],[-118.15112,33.95786],[-118.1512,33.95791],[-118.15123,33.95797],[-118.15121,33.95799],[-118.15119,33.95803],[-118.15107,33.95786]]]],"type":"MultiPolygon"},"properties":{"bbox":{"roads":{"area":1162.82,"pct":4.1}},"city_same":1,"id":"hex:2099:17357"},"type":"Feature"},{"geometry":{"coordinates":[[[-118.15064,33.95917],[-118.15133,33.96014],[-118.15268,33.96013],[-118.15334,33.95915],[-118.15265,33.95818],[-118.1513,33.95819],[-118.15064,33.95917]]],"type":"Polygon"},"properties":{"bbox":{"parking":{"area":2106.33,"pct":5.19},"roads":{"area":3680.38,"pct":9.07}},"city_same":1,"id":"hex:2099:17358"},"type":"Feature"},{"geometry":{"coordinates":[[[-118.15066,33.96112],[-118.15135,33.96209],[-118.15271,33.96208],[-118.15337,33.9611],[-118.15268,33.96013],[-118.15133,33.96014],[-118.15066,33.96112]]],"type":"Polygon"},"properties":{"bbox":{"roads":{"area":4161.09,"pct":10.25}},"city_same":1,"id":"hex:2099:17359"},"type":"Feature"},{"geometry":{"coordinates":[[[-118.15069,33.96308],[-118.15138,33.96405],[-118.15273,33.96403],[-118.1534,33.96305],[-118.15271,33.96208],[-118.15135,33.96209],[-118.15069,33.96308]]],"type":"Polygon"},"properties":{"bbox":{"roads":{"area":5551.37,"pct":13.68},"sidewalks":{"area":491.03,"pct":1.21}},"city":{"roads":{"area":2883.27,"pct":7.1},"sidewalks":{"area":491.03,"pct":1.21}},"id":"hex:2099:17360"},"type":"Feature"},{"geometry":{"coordinates":[[[-118.15072,33.96503],[-118.15141,33.966],[-118.15276,33.96599],[-118.15342,33.965],[-118.15273,33.96403],[-118.15138,33.96405],[-118.15072,33.96503]]],"type":"Polygon"},"properties":{"bbox":{"roads":{"area":11575.51,"pct":28.51},"sidewalks":{"area":1088.25,"pct":2.68}},"city":{"roads":{"area":8361.77,"pct":20.6},"sidewalks":{"area":1088.25,"pct":2.68}},"id":"hex:2099:17361"},"type":"Feature"},{"geometry":{"coordinates":[[[-118.15074,33.96698],[-118.15143,33.96795],[-118.15279,33.96794],[-118.15345,33.96696],[-118.15276,33.96599],[-118.15141,33.966],[-118.15074,33.96698]]],"type":"Polygon"},"properties":{"bbox":{"roads":{"area":7916.25,"pct":19.5},"sidewalks":{"area":703.69,"pct":1.73}},"city":{"roads":{"area":7332.69,"pct":18.06},"sidewalks":{"area":703.69,"pct":1.73}},"id":"hex:2099:17362"},"type":"Feature"},{"geometry":{"coordinates":[[[-118.15077,33.96893],[-118.15146,33.9699],[-118.15281,33.96989],[-118.15348,33.96891],[-118.15279,33.96794],[-118.15143,33.96795],[-118.15077,33.96893]]],"type":"Polygon"},"properties":{"bbox":{"roads":{"area":1781.01,"pct":4.39}},"city_same":1,"id":"hex:2099:17363"},"type":"Feature"},{"geometry":{"coordinates":[[[-118.1508,33.97089],[-118.15149,33.97186],[-118.15284,33.97184],[-118.1535,33.97086],[-118.15281,33.96989],[-118.15146,33.9699],[-118.1508,33.97089]]],"type":"Polygon"},"properties":{"bbox":{"roads":{"area":1811.61,"pct":4.46}},"city_same":1,"id":"hex:2099:17364"},"type":"Feature"},{"geometry":{"coordinates":[[[-118.15082,33.97284],[-118.15151,33.97381],[-118.15287,33.9738],[-118.15353,33.97281],[-118.15284,33.97184],[-118.15149,33.97186],[-118.15082,33.97284]]],"type":"Polygon"},"properties":{"bbox":{"roads":{"area":4921.91,"pct":12.12}},"city_same":1,"id":"hex:2099:17365"},"type":"Feature"},{"geometry":{"coordinates":[[[-118.15085,33.97479],[-118.15154,33.97576],[-118.15289,33.97575],[-118.15355,33.97477],[-118.15287,33.9738],[-118.15151,33.97381],[-118.15085,33.97479]]],"type":"Polygon"},"properties":{"bbox":{"roads":{"area":7515.68,"pct":18.51}},"city":{"roads":{"area":4705.77,"pct":11.59}},"id":"hex:2099:17366"},"type":"Feature"},{"geometry":{"coordinates":[[[-118.15088,33.97674],[-118.15154,33.97576],[-118.15289,33.97575],[-118.15358,33.97672],[-118.15292,33.9777],[-118.15207,33.97771],[-118.15152,33.97765],[-118.15088,33.97674]]],"type":"Polygon"},"properties":{"bbox":{"roads":{"area":2785.94,"pct":6.89}},"city_same":1,"id":"hex:2099:17367"},"type":"Feature"},{"geometry":{"coordinates":[[[-118.14862,33.96017],[-118.14931,33.96114],[-118.15066,33.96112],[-118.15133,33.96014],[-118.15064,33.95917],[-118.14929,33.95919],[-118.14862,33.96017]]],"type":"Polygon"},"properties":{"bbox":{"parking":{"area":3348.09,"pct":8.25},"roads":{"area":4372.04,"pct":10.77}},"city_same":1,"id":"hex:2100:17359"},"type":"Feature"},{"geometry":{"coordinates":[[[-118.14865,33.96212],[-118.14934,33.96309],[-118.15069,33.96308],[-118.15135,33.96209],[-118.15066,33.96112],[-118.14931,33.96114],[-118.14865,33.96212]]],"type":"Polygon"},"properties":{"bbox":{"roads":{"area":3589.65,"pct":8.84}},"city_same":1,"id":"hex:2100:17360"},"type":"Feature"},{"geometry":{"coordinates":[[[-118.14868,33.96407],[-118.14936,33.96504],[-118.15072,33.96503],[-118.15138,33.96405],[-118.15069,33.96308],[-118.14934,33.96309],[-118.14868,33.96407]]],"type":"Polygon"},"properties":{"bbox":{"roads":{"area":10117.96,"pct":24.92},"sidewalks":{"area":448.82,"pct":1.11}},"city_same":1,"id":"hex:2100:17361"},"type":"Feature"},{"geometry":{"coordinates":[[[-118.1487,33.96602],[-118.14939,33.96699],[-118.15074,33.96698],[-118.15141,33.966],[-118.15072,33.96503],[-118.14936,33.96504],[-118.1487,33.96602]]],"type":"Polygon"},"properties":{"bbox":{"roads":{"area":8227.31,"pct":20.27},"sidewalks":{"area":93.34,"pct":0.23}},"city":{"roads":{"area":6799.08,"pct":16.75},"sidewalks":{"area":93.34,"pct":0.23}},"id":"hex:2100:17362"},"type":"Feature"},{"geometry":{"coordinates":[[[-118.14873,33.96798],[-118.14942,33.96895],[-118.15077,33.96893],[-118.15143,33.96795],[-118.15074,33.96698],[-118.14939,33.96699],[-118.14873,33.96798]]],"type":"Polygon"},"properties":{"bbox":{"roads":{"area":7628.96,"pct":18.79}},"city":{"roads":{"area":4154.63,"pct":10.23}},"id":"hex:2100:17363"},"type":"Feature"},{"geometry":{"coordinates":[[[-118.14875,33.96993],[-118.14944,33.9709],[-118.1508,33.97089],[-118.15146,33.9699],[-118.15077,33.96893],[-118.14942,33.96895],[-118.14875,33.96993]]],"type":"Polygon"},"properties":{"bbox":{"roads":{"area":7900.63,"pct":19.46},"sidewalks":{"area":24.42,"pct":0.06}},"city":{"roads":{"area":5499.93,"pct":13.55},"sidewalks":{"area":24.42,"pct":0.06}},"id":"hex:2100:17364"},"type":"Feature"},{"geometry":{"coordinates":[[[-118.14878,33.97188],[-118.14947,33.97285],[-118.15082,33.97284],[-118.15149,33.97186],[-118.1508,33.97089],[-118.14944,33.9709],[-118.14878,33.97188]]],"type":"Polygon"},"properties":{"bbox":{"roads":{"area":3252.45,"pct":8.01}},"city_same":1,"id":"hex:2100:17365"},"type":"Feature"},{"geometry":{"coordinates":[[[-118.14881,33.97383],[-118.14947,33.97285],[-118.15082,33.97284],[-118.15151,33.97381],[-118.15085,33.97479],[-118.14961,33.9748],[-118.14978,33.97421],[-118.14981,33.97411],[-118.14894,33.97402],[-118.14881,33.97383]]],"type":"Polygon"},"properties":{"bbox":{"roads":{"area":5477.92,"pct":14.83},"sidewalks":{"area":276.66,"pct":0.75}},"city":{"roads":{"area":2671.65,"pct":7.24},"sidewalks":{"area":276.66,"pct":0.75}},"id":"hex:2100:17366"},"type":"Feature"},{"geometry":{"coordinates":[[[-118.15085,33.97479],[-118.15154,33.97576],[-118.15088,33.97674],[-118.14952,33.97676],[-118.14919,33.97628],[-118.14961,33.9748],[-118.15085,33.97479]]],"type":"Polygon"},"properties":{"bbox":{"roads":{"area":2855.73,"pct":7.88}},"city_same":1,"id":"hex:2100:17367"},"type":"Feature"},{"geometry":{"coordinates":[[[-118.14952,33.97676],[-118.15088,33.97674],[-118.15152,33.97765],[-118.14908,33.97741],[-118.14952,33.97676]]],"type":"Polygon"},"properties":{"bbox":{"roads":{"area":885.4,"pct":5.88}},"city_same":1,"id":"hex:2100:17368"},"type":"Feature"},{"geometry":{"coordinates":[[[-118.14929,33.95919],[-118.14862,33.96017],[-118.14727,33.96018],[-118.14676,33.95946],[-118.14864,33.95844],[-118.14872,33.95839],[-118.14929,33.95919]]],"type":"Polygon"},"properties":{"bbox":{"parking":{"area":3444.97,"pct":12.35},"roads":{"area":1215.35,"pct":4.36}},"city_same":1,"id":"hex:2101:17358"},"type":"Feature"},{"geometry":{"coordinates":[[[-118.14661,33.96116],[-118.1473,33.96213],[-118.14865,33.96212],[-118.14931,33.96114],[-118.14862,33.96017],[-118.14727,33.96018],[-118.14661,33.96116]]],"type":"Polygon"},"properties":{"bbox":{"roads":{"area":5791.08,"pct":14.27}},"city_same":1,"id":"hex:2101:17359"},"type":"Feature"},{"geometry":{"coordinates":[[[-118.14663,33.96312],[-118.14732,33.96408],[-118.14868,33.96407],[-118.14934,33.96309],[-118.14865,33.96212],[-118.1473,33.96213],[-118.14663,33.96312]]],"type":"Polygon"},"properties":{"bbox":{"roads":{"area":9035.77,"pct":22.26}},"city_same":1,"id":"hex:2101:17360"},"type":"Feature"},{"geometry":{"coordinates":[[[-118.14666,33.96507],[-118.14735,33.96604],[-118.1487,33.96602],[-118.14936,33.96504],[-118.14868,33.96407],[-118.14732,33.96408],[-118.14666,33.96507]]],"type":"Polygon"},"properties":{"bbox":{"roads":{"area":3331.29,"pct":8.21}},"city_same":1,"id":"hex:2101:17361"},"type":"Feature"},{"geometry":{"coordinates":[[[-118.14669,33.96702],[-118.14737,33.96799],[-118.14873,33.96798],[-118.14939,33.96699],[-118.1487,33.96602],[-118.14735,33.96604],[-118.14669,33.96702]]],"type":"Polygon"},"properties":{"bbox":{"parking":{"area":405.59,"pct":1},"roads":{"area":5358.36,"pct":13.2}},"city_same":1,"id":"hex:2101:17362"},"type":"Feature"},{"geometry":{"coordinates":[[[-118.14671,33.96897],[-118.1474,33.96994],[-118.14875,33.96993],[-118.14942,33.96895],[-118.14873,33.96798],[-118.14737,33.96799],[-118.14671,33.96897]]],"type":"Polygon"},"properties":{"bbox":{"roads":{"area":5221.99,"pct":12.86}},"city_same":1,"id":"hex:2101:17363"},"type":"Feature"},{"geometry":{"coordinates":[[[-118.14674,33.97092],[-118.14743,33.97189],[-118.14878,33.97188],[-118.14944,33.9709],[-118.14875,33.96993],[-118.1474,33.96994],[-118.14674,33.97092]]],"type":"Polygon"},"properties":{"bbox":{"roads":{"area":6586.69,"pct":16.23},"sidewalks":{"area":608.66,"pct":1.5}},"city":{"roads":{"area":3406.01,"pct":8.39},"sidewalks":{"area":608.66,"pct":1.5}},"id":"hex:2101:17364"},"type":"Feature"},{"geometry":{"coordinates":[[[-118.14676,33.97288],[-118.14745,33.97385],[-118.14881,33.97383],[-118.14947,33.97285],[-118.14878,33.97188],[-118.14743,33.97189],[-118.14676,33.97288]]],"type":"Polygon"},"properties":{"bbox":{"roads":{"area":6032.19,"pct":14.86},"sidewalks":{"area":691.05,"pct":1.7}},"city":{"roads":{"area":2699.12,"pct":6.65},"sidewalks":{"area":691.05,"pct":1.7}},"id":"hex:2101:17365"},"type":"Feature"},{"geometry":{"coordinates":[[[-118.14745,33.97385],[-118.14881,33.97383],[-118.14894,33.97402],[-118.14745,33.97385],[-118.14745,33.97385]]],"type":"Polygon"},"properties":{"bbox":{"roads":{"area":820.8,"pct":62.87},"sidewalks":{"area":88.19,"pct":6.76}},"city":{"roads":{"area":79.02,"pct":6.05},"sidewalks":{"area":88.19,"pct":6.76}},"id":"hex:2101:17366"},"type":"Feature"},{"geometry":{"coordinates":[[[-118.14727,33.96018],[-118.14661,33.96116],[-118.14525,33.96118],[-118.14479,33.96053],[-118.14676,33.95946],[-118.14727,33.96018]]],"type":"Polygon"},"properties":{"bbox":{"roads":{"area":2207.98,"pct":8.52}},"city_same":1,"id":"hex:2102:17359"},"type":"Feature"},{"geometry":{"coordinates":[[[-118.14459,33.96216],[-118.14528,33.96313],[-118.14663,33.96312],[-118.1473,33.96213],[-118.14661,33.96116],[-118.14525,33.96118],[-118.14459,33.96216]]],"type":"Polygon"},"properties":{"bbox":{"roads":{"area":9156,"pct":22.55}},"city_same":1,"id":"hex:2102:17360"},"type":"Feature"},{"geometry":{"coordinates":[[[-118.14462,33.96411],[-118.14531,33.96508],[-118.14666,33.96507],[-118.14732,33.96408],[-118.14663,33.96312],[-118.14528,33.96313],[-118.14462,33.96411]]],"type":"Polygon"},"properties":{"bbox":{"roads":{"area":5052.38,"pct":12.45}},"city_same":1,"id":"hex:2102:17361"},"type":"Feature"},{"geometry":{"coordinates":[[[-118.14464,33.96606],[-118.14533,33.96703],[-118.14669,33.96702],[-118.14735,33.96604],[-118.14666,33.96507],[-118.14531,33.96508],[-118.14464,33.96606]]],"type":"Polygon"},"properties":{"bbox":{"roads":{"area":5368.62,"pct":13.22}},"city_same":1,"id":"hex:2102:17362"},"type":"Feature"},{"geometry":{"coordinates":[[[-118.14467,33.96801],[-118.14536,33.96898],[-118.14671,33.96897],[-118.14737,33.96799],[-118.14669,33.96702],[-118.14533,33.96703],[-118.14467,33.96801]]],"type":"Polygon"},"properties":{"bbox":{"parking":{"area":1410.87,"pct":3.48},"roads":{"area":1548.47,"pct":3.81}},"city_same":1,"id":"hex:2102:17363"},"type":"Feature"},{"geometry":{"coordinates":[[[-118.1447,33.96997],[-118.14538,33.97094],[-118.14674,33.97092],[-118.1474,33.96994],[-118.14671,33.96897],[-118.14536,33.96898],[-118.1447,33.96997]]],"type":"Polygon"},"properties":{"bbox":{"roads":{"area":3975.52,"pct":9.79}},"city_same":1,"id":"hex:2102:17364"},"type":"Feature"},{"geometry":{"coordinates":[[[-118.14472,33.97192],[-118.14541,33.97289],[-118.14676,33.97288],[-118.14743,33.97189],[-118.14674,33.97092],[-118.14538,33.97094],[-118.14472,33.97192]]],"type":"Polygon"},"properties":{"bbox":{"roads":{"area":5162.16,"pct":12.72},"sidewalks":{"area":321.23,"pct":0.79}},"city_same":1,"id":"hex:2102:17365"},"type":"Feature"},{"geometry":{"coordinates":[[[-118.14541,33.97289],[-118.14676,33.97288],[-118.14745,33.97385],[-118.14745,33.97385],[-118.14495,33.97357],[-118.14541,33.97289]]],"type":"Polygon"},"properties":{"bbox":{"roads":{"area":4225.39,"pct":26.05},"sidewalks":{"area":707.53,"pct":4.36}},"city":{"roads":{"area":1594.31,"pct":9.83},"sidewalks":{"area":707.53,"pct":4.36}},"id":"hex:2102:17366"},"type":"Feature"},{"geometry":{"coordinates":[[[[-118.14275,33.96149],[-118.14324,33.96119],[-118.14275,33.96149],[-118.14275,33.96149]]],[[[-118.14525,33.96118],[-118.14459,33.96216],[-118.14324,33.96217],[-118.14282,33.96159],[-118.14321,33.96138],[-118.14479,33.96053],[-118.14525,33.96118]]]],"type":"MultiPolygon"},"properties":{"bbox":{"roads":{"area":4092.27,"pct":17.1}},"city_same":1,"id":"hex:2103:17359"},"type":"Feature"},{"geometry":{"coordinates":[[[-118.14257,33.96315],[-118.14326,33.96412],[-118.14462,33.96411],[-118.14528,33.96313],[-118.14459,33.96216],[-118.14324,33.96217],[-118.14257,33.96315]]],"type":"Polygon"},"properties":{"bbox":{"roads":{"area":6059.1,"pct":14.93}},"city_same":1,"id":"hex:2103:17360"},"type":"Feature"},{"geometry":{"coordinates":[[[-118.1426,33.96511],[-118.14329,33.96607],[-118.14464,33.96606],[-118.14531,33.96508],[-118.14462,33.96411],[-118.14326,33.96412],[-118.1426,33.96511]]],"type":"Polygon"},"properties":{"bbox":{"roads":{"area":5310.21,"pct":13.08}},"city_same":1,"id":"hex:2103:17361"},"type":"Feature"},{"geometry":{"coordinates":[[[-118.14263,33.96706],[-118.14332,33.96803],[-118.14467,33.96801],[-118.14533,33.96703],[-118.14464,33.96606],[-118.14329,33.96607],[-118.14263,33.96706]]],"type":"Polygon"},"properties":{"bbox":{"roads":{"area":2243.33,"pct":5.53}},"city_same":1,"id":"hex:2103:17362"},"type":"Feature"},{"geometry":{"coordinates":[[[-118.14265,33.96901],[-118.14334,33.96998],[-118.1447,33.96997],[-118.14536,33.96898],[-118.14467,33.96801],[-118.14332,33.96803],[-118.14265,33.96901]]],"type":"Polygon"},"properties":{"bbox":{"parking":{"area":233.93,"pct":0.58},"roads":{"area":4354.88,"pct":10.73}},"city_same":1,"id":"hex:2103:17363"},"type":"Feature"},{"geometry":{"coordinates":[[[-118.14268,33.97096],[-118.14337,33.97193],[-118.14472,33.97192],[-118.14538,33.97094],[-118.1447,33.96997],[-118.14334,33.96998],[-118.14268,33.97096]]],"type":"Polygon"},"properties":{"bbox":{"roads":{"area":4108.29,"pct":10.12}},"city_same":1,"id":"hex:2103:17364"},"type":"Feature"},{"geometry":{"coordinates":[[[-118.14271,33.97291],[-118.14337,33.97193],[-118.14472,33.97192],[-118.14541,33.97289],[-118.14495,33.97357],[-118.14302,33.97336],[-118.14271,33.97291]]],"type":"Polygon"},"properties":{"bbox":{"roads":{"area":4650.38,"pct":13.79},"sidewalks":{"area":268.25,"pct":0.8}},"city":{"roads":{"area":3018.98,"pct":8.95},"sidewalks":{"area":268.25,"pct":0.8}},"id":"hex:2103:17365"},"type":"Feature"},{"geometry":{"coordinates":[[[[-118.14085,33.96265],[-118.14275,33.96149],[-118.14275,33.96149],[-118.14085,33.96265],[-118.14085,33.96265]]],[[[-118.14324,33.96217],[-118.14257,33.96315],[-118.14122,33.96317],[-118.14086,33.96265],[-118.14197,33.96204],[-118.14282,33.96159],[-118.14324,33.96217]]]],"type":"MultiPolygon"},"properties":{"bbox":{"roads":{"area":565.52,"pct":2.55}},"city_same":1,"id":"hex:2104:17360"},"type":"Feature"},{"geometry":{"coordinates":[[[-118.14056,33.96415],[-118.14125,33.96512],[-118.1426,33.96511],[-118.14326,33.96412],[-118.14257,33.96315],[-118.14122,33.96317],[-118.14056,33.96415]]],"type":"Polygon"},"properties":{"bbox":{"roads":{"area":4348.28,"pct":10.71}},"city_same":1,"id":"hex:2104:17361"},"type":"Feature"},{"geometry":{"coordinates":[[[-118.14058,33.9661],[-118.14127,33.96707],[-118.14263,33.96706],[-118.14329,33.96607],[-118.1426,33.96511],[-118.14125,33.96512],[-118.14058,33.9661]]],"type":"Polygon"},"properties":{"bbox":{"roads":{"area":2995.18,"pct":7.38}},"city_same":1,"id":"hex:2104:17362"},"type":"Feature"},{"geometry":{"coordinates":[[[-118.14061,33.96805],[-118.1413,33.96902],[-118.14265,33.96901],[-118.14332,33.96803],[-118.14263,33.96706],[-118.14127,33.96707],[-118.14061,33.96805]]],"type":"Polygon"},"properties":{"bbox":{"roads":{"area":3364.32,"pct":8.29}},"city_same":1,"id":"hex:2104:17363"},"type":"Feature"},{"geometry":{"coordinates":[[[-118.14064,33.97],[-118.14133,33.97097],[-118.14268,33.97096],[-118.14334,33.96998],[-118.14265,33.96901],[-118.1413,33.96902],[-118.14064,33.97]]],"type":"Polygon"},"properties":{"bbox":{"roads":{"area":4908.18,"pct":12.09}},"city_same":1,"id":"hex:2104:17364"},"type":"Feature"},{"geometry":{"coordinates":[[[-118.14066,33.97196],[-118.14135,33.97293],[-118.14271,33.97291],[-118.14337,33.97193],[-118.14268,33.97096],[-118.14133,33.97097],[-118.14066,33.97196]]],"type":"Polygon"},"properties":{"bbox":{"roads":{"area":4012.21,"pct":9.88}},"city_same":1,"id":"hex:2104:17365"},"type":"Feature"},{"geometry":{"coordinates":[[[-118.14135,33.97293],[-118.14271,33.97291],[-118.14302,33.97336],[-118.1412,33.97315],[-118.14135,33.97293]]],"type":"Polygon"},"properties":{"bbox":{"roads":{"area":1698.16,"pct":31.76},"sidewalks":{"area":232.77,"pct":4.35}},"city":{"roads":{"area":361.2,"pct":6.76},"sidewalks":{"area":232.77,"pct":4.35}},"id":"hex:2104:17366"},"type":"Feature"},{"geometry":{"coordinates":[[[-118.14122,33.96317],[-118.14056,33.96415],[-118.13921,33.96416],[-118.13907,33.96397],[-118.13917,33.96383],[-118.13961,33.9634],[-118.14085,33.96265],[-118.14085,33.96265],[-118.14076,33.9627],[-118.14086,33.96265],[-118.14122,33.96317]]],"type":"Polygon"},"properties":{"bbox":{"roads":{"area":616.35,"pct":3.37}},"city_same":1,"id":"hex:2105:17360"},"type":"Feature"},{"geometry":{"coordinates":[[[-118.13854,33.96514],[-118.13923,33.96611],[-118.14058,33.9661],[-118.14125,33.96512],[-118.14056,33.96415],[-118.13921,33.96416],[-118.13854,33.96514]]],"type":"Polygon"},"properties":{"bbox":{"roads":{"area":6171.12,"pct":15.2}},"city_same":1,"id":"hex:2105:17361"},"type":"Feature"},{"geometry":{"coordinates":[[[-118.13857,33.96709],[-118.13926,33.96806],[-118.14061,33.96805],[-118.14127,33.96707],[-118.14058,33.9661],[-118.13923,33.96611],[-118.13857,33.96709]]],"type":"Polygon"},"properties":{"bbox":{"roads":{"area":5015.75,"pct":12.36}},"city_same":1,"id":"hex:2105:17362"},"type":"Feature"},{"geometry":{"coordinates":[[[-118.13859,33.96905],[-118.13928,33.97002],[-118.14064,33.97],[-118.1413,33.96902],[-118.14061,33.96805],[-118.13926,33.96806],[-118.13859,33.96905]]],"type":"Polygon"},"properties":{"bbox":{"roads":{"area":3560.03,"pct":8.77}},"city_same":1,"id":"hex:2105:17363"},"type":"Feature"},{"geometry":{"coordinates":[[[-118.13862,33.971],[-118.13931,33.97197],[-118.14066,33.97196],[-118.14133,33.97097],[-118.14064,33.97],[-118.13928,33.97002],[-118.13862,33.971]]],"type":"Polygon"},"properties":{"bbox":{"roads":{"area":3785.01,"pct":9.32}},"city_same":1,"id":"hex:2105:17364"},"type":"Feature"},{"geometry":{"coordinates":[[[-118.13931,33.97197],[-118.14066,33.97196],[-118.14135,33.97293],[-118.1412,33.97315],[-118.1387,33.97287],[-118.13931,33.97197]]],"type":"Polygon"},"properties":{"bbox":{"roads":{"area":3349.49,"pct":15},"sidewalks":{"area":67.08,"pct":0.3}},"city":{"roads":{"area":1461.89,"pct":6.55},"sidewalks":{"area":67.08,"pct":0.3}},"id":"hex:2105:17365"},"type":"Feature"},{"geometry":{"coordinates":[[[-118.13921,33.96416],[-118.13854,33.96514],[-118.13826,33.96515],[-118.13845,33.96485],[-118.13907,33.96397],[-118.13921,33.96416]]],"type":"Polygon"},"properties":{"bbox":{"roads":{"area":434.44,"pct":13.8}},"city_same":1,"id":"hex:2106:17361"},"type":"Feature"},{"geometry":{"coordinates":[[[-118.13854,33.96514],[-118.13923,33.96611],[-118.13857,33.96709],[-118.13722,33.96711],[-118.13711,33.96695],[-118.13769,33.96603],[-118.13826,33.96515],[-118.13854,33.96514]]],"type":"Polygon"},"properties":{"bbox":{"roads":{"area":4860.4,"pct":19.34}},"city_same":1,"id":"hex:2106:17362"},"type":"Feature"},{"geometry":{"coordinates":[[[-118.13722,33.96711],[-118.13857,33.96709],[-118.13926,33.96806],[-118.13859,33.96905],[-118.13724,33.96906],[-118.13688,33.96855],[-118.13707,33.96821],[-118.13712,33.96807],[-118.13711,33.96804],[-118.13709,33.96798],[-118.13706,33.96794],[-118.13695,33.96787],[-118.13676,33.96778],[-118.13722,33.96711]]],"type":"Polygon"},"properties":{"bbox":{"roads":{"area":4994.88,"pct":13.1}},"city_same":1,"id":"hex:2106:17363"},"type":"Feature"},{"geometry":{"coordinates":[[[-118.13658,33.97004],[-118.13727,33.97101],[-118.13862,33.971],[-118.13928,33.97002],[-118.13859,33.96905],[-118.13724,33.96906],[-118.13658,33.97004]]],"type":"Polygon"},"properties":{"bbox":{"roads":{"area":3045.63,"pct":7.5}},"city_same":1,"id":"hex:2106:17364"},"type":"Feature"},{"geometry":{"coordinates":[[[-118.1366,33.97199],[-118.13727,33.97101],[-118.13862,33.971],[-118.13931,33.97197],[-118.1387,33.97287],[-118.1371,33.9727],[-118.1366,33.97199]]],"type":"Polygon"},"properties":{"bbox":{"roads":{"area":4870.62,"pct":12.81}},"city":{"roads":{"area":3865.97,"pct":10.17}},"id":"hex:2106:17365"},"type":"Feature"},{"geometry":{"coordinates":[[[-118.13722,33.96711],[-118.13676,33.96778],[-118.1367,33.96774],[-118.13667,33.96775],[-118.13663,33.96778],[-118.13661,33.96777],[-118.13672,33.96757],[-118.13711,33.96695],[-118.13722,33.96711]]],"type":"Polygon"},"properties":{"bbox":{"roads":{"area":161.03,"pct":11.28}},"city_same":1,"id":"hex:2107:17362"},"type":"Feature"},{"geometry":{"coordinates":[[[-118.13724,33.96906],[-118.13658,33.97004],[-118.13574,33.97005],[-118.13579,33.97001],[-118.13603,33.9698],[-118.13622,33.96961],[-118.1363,33.96952],[-118.13669,33.96889],[-118.13688,33.96855],[-118.13688,33.96855],[-118.13724,33.96906]]],"type":"Polygon"},"properties":{"bbox":{"roads":{"area":774.84,"pct":8.95}},"city_same":1,"id":"hex:2107:17363"},"type":"Feature"},{"geometry":{"coordinates":[[[-118.13658,33.97004],[-118.13727,33.97101],[-118.1366,33.97199],[-118.13525,33.97201],[-118.13456,33.97104],[-118.13478,33.97071],[-118.13499,33.97059],[-118.13554,33.9702],[-118.13574,33.97005],[-118.13658,33.97004]]],"type":"Polygon"},"properties":{"bbox":{"roads":{"area":3749.11,"pct":9.67}},"city_same":1,"id":"hex:2107:17364"},"type":"Feature"},{"geometry":{"coordinates":[[[-118.13525,33.97201],[-118.1366,33.97199],[-118.1371,33.9727],[-118.13545,33.97251],[-118.13502,33.97246],[-118.13495,33.97245],[-118.13525,33.97201]]],"type":"Polygon"},"properties":{"bbox":{"roads":{"area":2179.12,"pct":21.37}},"city":{"roads":{"area":915.27,"pct":8.98}},"id":"hex:2107:17365"},"type":"Feature"},{"geometry":{"coordinates":[[[-118.13456,33.97104],[-118.13413,33.97104],[-118.13448,33.97089],[-118.13478,33.97071],[-118.13456,33.97104]]],"type":"Polygon"},"properties":{"bbox":{"roads":{"area":135.8,"pct":21.77}},"city_same":1,"id":"hex:2108:17364"},"type":"Feature"},{"geometry":{"coordinates":[[[-118.13255,33.97203],[-118.13298,33.97139],[-118.13336,33.9713],[-118.13391,33.97114],[-118.13413,33.97104],[-118.13456,33.97104],[-118.13525,33.97201],[-118.13495,33.97245],[-118.13476,33.97243],[-118.13466,33.97242],[-118.13454,33.97241],[-118.1345,33.97241],[-118.13445,33.9724],[-118.13438,33.9724],[-118.13396,33.97239],[-118.13351,33.9724],[-118.13321,33.97243],[-118.13293,33.97246],[-118.13285,33.97246],[-118.13255,33.97203]]],"type":"Polygon"},"properties":{"bbox":{"roads":{"area":3653.39,"pct":12.89}},"city":{"roads":{"area":1988.42,"pct":7.01}},"id":"hex:2108:17365"},"type":"Feature"},{"geometry":{"coordinates":[[[[-118.13255,33.97203],[-118.13119,33.97204],[-118.13061,33.97122],[-118.13123,33.97136],[-118.13143,33.97136],[-118.13158,33.97141],[-118.13194,33.97142],[-118.13215,33.97142],[-118.13271,33.97144],[-118.13293,33.97141],[-118.13298,33.97139],[-118.13255,33.97203]]],[[[-118.13057,33.97097],[-118.13069,33.97098],[-118.13057,33.97097],[-118.13057,33.97097]]]],"type":"MultiPolygon"},"properties":{"bbox":{"roads":{"area":1044.66,"pct":8.63}},"city_same":1,"id":"hex:2109:17364"},"type":"Feature"},{"geometry":{"coordinates":[[[-118.13053,33.97303],[-118.13119,33.97204],[-118.13255,33.97203],[-118.13285,33.97246],[-118.13285,33.97246],[-118.13256,33.97252],[-118.13196,33.97268],[-118.13178,33.97274],[-118.13154,33.97282],[-118.13144,33.97286],[-118.13105,33.97301],[-118.13067,33.97317],[-118.13064,33.97318],[-118.13053,33.97303]]],"type":"Polygon"},"properties":{"bbox":{"roads":{"area":3027.67,"pct":21.76}},"city":{"roads":{"area":1350.92,"pct":9.71}},"id":"hex:2109:17365"},"type":"Feature"},{"geometry":{"coordinates":[[[-118.1295,33.97108],[-118.12941,33.97094],[-118.12944,33.97094],[-118.12947,33.97095],[-118.12951,33.97095],[-118.12954,33.97094],[-118.12957,33.97093],[-118.12959,33.9709],[-118.12959,33.97089],[-118.13057,33.97097],[-118.13057,33.97097],[-118.12973,33.9709],[-118.12973,33.9709],[-118.12974,33.97095],[-118.12976,33.971],[-118.1298,33.97104],[-118.12985,33.97106],[-118.12991,33.97107],[-118.12995,33.97108],[-118.1295,33.97108]]],"type":"Polygon"},"properties":{"bbox":{"roads":{"area":159.7,"pct":29.19}},"city_same":1,"id":"hex:2110:17364"},"type":"Feature"},{"geometry":{"coordinates":[[[-118.13119,33.97204],[-118.13053,33.97303],[-118.13051,33.97303],[-118.13044,33.97289],[-118.13035,33.97271],[-118.13002,33.9721],[-118.12995,33.97197],[-118.12971,33.97152],[-118.12966,33.97136],[-118.1295,33.97108],[-118.12995,33.97108],[-118.13061,33.97122],[-118.13119,33.97204]]],"type":"Polygon"},"properties":{"bbox":{"roads":{"area":3365.56,"pct":20.23}},"city_same":1,"id":"hex:2110:17365"},"type":"Feature"}],"type":"FeatureCollection","v":2}