{"features":[{"geometry":{"coordinates":[[[[-118.23971,34.01471],[-118.22767,34.01492],[-118.2275,34.01528],[-118.22571,34.01532],[-118.2257,34.01494],[-118.22369,34.01494],[-118.22371,34.01536],[-118.2234,34.01537],[-118.22208,34.01281],[-118.22075,34.01095],[-118.21729,34.00805],[-118.215,34.00713],[-118.21213,34.00664],[-118.20766,34.0067],[-118.20765,34.00633],[-118.20484,34.00638],[-118.20475,34.00214],[-118.20448,34.00214],[-118.20458,34.00667],[-118.20279,34.00636],[-118.17707,33.99133],[-118.17726,33.99112],[-118.17452,33.98889],[-118.17248,33.98646],[-118.17414,33.98629],[-118.17409,33.98661],[-118.17554,33.98675],[-118.1783,33.98952],[-118.17805,33.98991],[-118.18347,33.99316],[-118.18312,33.99361],[-118.1842,33.99424],[-118.18455,33.99427],[-118.1846,33.99391],[-118.18586,33.99404],[-118.1858,33.99441],[-118.19387,33.99521],[-118.19453,33.99533],[-118.1945,33.99574],[-118.20475,33.99675],[-118.2046,33.98903],[-118.20418,33.98898],[-118.2041,33.98317],[-118.21267,33.9841],[-118.21281,33.98968],[-118.21501,33.98968],[-118.21505,33.99156],[-118.22367,33.99156],[-118.22365,33.99626],[-118.22384,33.99626],[-118.22384,33.99608],[-118.22528,33.99606],[-118.22528,33.99574],[-118.22968,33.99571],[-118.22971,33.99068],[-118.23037,33.99068],[-118.23037,33.9893],[-118.2315,33.98927],[-118.23149,33.98955],[-118.23315,33.98937],[-118.23793,33.98929],[-118.23954,34.00805],[-118.23971,34.01471]]],[[[-118.21806,34.01496],[-118.21807,34.01598],[-118.2127,34.01429],[-118.2127,34.01499],[-118.20817,34.01501],[-118.20704,34.01278],[-118.20534,34.01282],[-118.20503,34.01263],[-118.20506,34.01437],[-118.20173,34.01364],[-118.19231,34.01284],[-118.19253,34.01139],[-118.19282,34.01148],[-118.19351,34.00971],[-118.19089,34.00863],[-118.18641,34.00731],[-118.18127,34.00556],[-118.17429,34.00134],[-118.17447,34.00104],[-118.17287,34.00036],[-118.16716,33.99862],[-118.16833,33.99602],[-118.17546,33.99835],[-118.17654,33.99783],[-118.17677,33.99718],[-118.17628,33.99591],[-118.17747,33.99541],[-118.17746,33.99577],[-118.17795,33.99557],[-118.177,33.99387],[-118.17596,33.99252],[-118.17641,33.99204],[-118.20161,34.00691],[-118.20294,34.00739],[-118.2046,34.00762],[-118.20464,34.00905],[-118.20772,34.00897],[-118.20768,34.00748],[-118.21309,34.00751],[-118.21462,34.0079],[-118.21877,34.01032],[-118.22043,34.01185],[-118.2215,34.01337],[-118.22218,34.01495],[-118.21806,34.01496]]]],"type":"MultiPolygon"},"properties":{"type":"boundary"},"type":"Feature"}],"type":"FeatureCollection"}