{"features":[{"geometry":{"coordinates":[[[-122.61994,37.9755],[-122.61693,37.9806],[-122.61338,37.97867],[-122.61323,37.97871],[-122.61241,37.97803],[-122.61201,37.9785],[-122.61141,37.97852],[-122.61105,37.97798],[-122.61049,37.97806],[-122.61008,37.97783],[-122.60961,37.97807],[-122.60918,37.97796],[-122.60916,37.97851],[-122.6087,37.97853],[-122.60856,37.97948],[-122.60796,37.97992],[-122.60708,37.97996],[-122.60702,37.98015],[-122.60599,37.98008],[-122.60561,37.98021],[-122.6053,37.97996],[-122.60505,37.98003],[-122.6052,37.98036],[-122.60566,37.98066],[-122.60434,37.9806],[-122.60403,37.97976],[-122.60374,37.98032],[-122.60291,37.98039],[-122.60252,37.98094],[-122.60178,37.98065],[-122.60055,37.98126],[-122.60064,37.9817],[-122.6019,37.98246],[-122.60145,37.98287],[-122.60199,37.98299],[-122.60194,37.98331],[-122.60223,37.98357],[-122.60206,37.98376],[-122.60212,37.98406],[-122.60151,37.98427],[-122.60141,37.98494],[-122.6007,37.9857],[-122.60115,37.98591],[-122.60275,37.9859],[-122.60299,37.98654],[-122.60466,37.98766],[-122.60511,37.98754],[-122.60614,37.98766],[-122.60705,37.98891],[-122.59899,37.99128],[-122.5998,37.99294],[-122.60088,37.99292],[-122.60156,37.99308],[-122.60204,37.99285],[-122.60247,37.99311],[-122.60306,37.99312],[-122.60349,37.99291],[-122.60333,37.9944],[-122.59868,37.99409],[-122.59878,37.99514],[-122.5985,37.99524],[-122.59892,37.99571],[-122.59883,37.99588],[-122.59957,37.99624],[-122.60218,37.99893],[-122.60375,37.99996],[-122.60542,38.00038],[-122.60766,38.00034],[-122.60803,38.0007],[-122.60909,38.00115],[-122.60969,38.00123],[-122.60894,38.00318],[-122.60724,38.00264],[-122.60713,38.0031],[-122.60747,38.0036],[-122.60531,38.00613],[-122.6045,38.00542],[-122.60447,38.00521],[-122.60233,38.0045],[-122.59875,38.00977],[-122.5961,38.00872],[-122.59619,38.00844],[-122.59583,38.00844],[-122.59582,38.00861],[-122.59514,38.00834],[-122.59519,38.00808],[-122.5954,38.00811],[-122.59578,38.00629],[-122.59622,38.00612],[-122.59643,38.00542],[-122.59709,38.00539],[-122.59669,38.00486],[-122.59634,38.00497],[-122.59412,38.00305],[-122.59403,38.00273],[-122.59457,38.00223],[-122.59434,38.00209],[-122.59451,38.002],[-122.59473,38.00213],[-122.59506,38.00143],[-122.59431,38.00062],[-122.59448,37.99897],[-122.59411,37.99895],[-122.59459,37.99886],[-122.59465,37.99819],[-122.59604,37.99639],[-122.59684,37.99671],[-122.59733,37.99616],[-122.59589,37.99541],[-122.59557,37.99617],[-122.593,37.99939],[-122.58699,37.99939],[-122.58585,37.99609],[-122.58183,37.98656],[-122.57936,37.98654],[-122.58256,37.97956],[-122.58099,37.97704],[-122.59021,37.9762],[-122.58942,37.97488],[-122.589,37.97505],[-122.58877,37.97468],[-122.58795,37.97446],[-122.58682,37.97361],[-122.58709,37.97336],[-122.58809,37.97308],[-122.58918,37.97396],[-122.59039,37.97618],[-122.59818,37.97553],[-122.5986,37.9748],[-122.59935,37.97402],[-122.5999,37.97394],[-122.60023,37.97407],[-122.60061,37.97366],[-122.60101,37.97367],[-122.60125,37.97524],[-122.60881,37.97449],[-122.60884,37.97466],[-122.60853,37.97478],[-122.60882,37.97484],[-122.60901,37.97567],[-122.61034,37.97623],[-122.61111,37.9761],[-122.61226,37.97648],[-122.61285,37.97642],[-122.61377,37.97671],[-122.61387,37.97711],[-122.61432,37.9773],[-122.61477,37.97729],[-122.6158,37.976],[-122.61695,37.97575],[-122.61729,37.97599],[-122.61819,37.97608],[-122.6191,37.97565],[-122.61958,37.97572],[-122.61994,37.9755]]],"type":"Polygon"},"properties":{"type":"boundary"},"type":"Feature"}],"type":"FeatureCollection"}