{"features":[{"geometry":{"coordinates":[[[-122.61514,37.97707],[-122.61571,37.97785],[-122.61513,37.97863],[-122.614,37.97863],[-122.61343,37.97785],[-122.61395,37.97714],[-122.61432,37.9773],[-122.61437,37.97724],[-122.61453,37.97731],[-122.61459,37.97721],[-122.61477,37.97729],[-122.61486,37.97718],[-122.61495,37.97707],[-122.61514,37.97707]]],"type":"Polygon"},"properties":{"bbox":{"roads":{"area":234.11,"pct":0.96}},"city_same":1,"id":"hex:3559:24268"},"type":"Feature"},{"geometry":{"coordinates":[[[-122.61343,37.97785],[-122.61229,37.97784],[-122.61173,37.97706],[-122.61217,37.97646],[-122.61226,37.97648],[-122.61228,37.97644],[-122.61262,37.97653],[-122.61266,37.97643],[-122.61282,37.97647],[-122.61285,37.97642],[-122.61354,37.97661],[-122.61374,37.9767],[-122.61376,37.97673],[-122.61369,37.97682],[-122.61385,37.97688],[-122.61378,37.97699],[-122.61392,37.97705],[-122.61387,37.97711],[-122.61395,37.97714],[-122.61343,37.97785]]],"type":"Polygon"},"properties":{"bbox":{"roads":{"area":947.15,"pct":4.15}},"city_same":1,"id":"hex:3560:24268"},"type":"Feature"},{"geometry":{"coordinates":[[[-122.61229,37.97784],[-122.61343,37.97785],[-122.614,37.97863],[-122.6138,37.9789],[-122.61338,37.97867],[-122.61335,37.97867],[-122.61323,37.97871],[-122.613,37.97847],[-122.61281,37.97842],[-122.61241,37.97803],[-122.61234,37.97804],[-122.6122,37.97832],[-122.61201,37.9785],[-122.6118,37.97851],[-122.61229,37.97784]]],"type":"Polygon"},"properties":{"bbox":{"roads":{"area":220.69,"pct":2.14}},"city_same":1,"id":"hex:3560:24269"},"type":"Feature"},{"geometry":{"coordinates":[[[-122.61173,37.97706],[-122.61059,37.97706],[-122.61002,37.97627],[-122.61011,37.97615],[-122.61034,37.97623],[-122.61038,37.97615],[-122.61053,37.97619],[-122.61057,37.97611],[-122.6109,37.9762],[-122.61093,37.97613],[-122.61109,37.97617],[-122.61111,37.9761],[-122.61162,37.97627],[-122.6116,37.97632],[-122.61217,37.97646],[-122.61173,37.97706]]],"type":"Polygon"},"properties":{"bbox":{"roads":{"area":839.03,"pct":6.05}},"city_same":1,"id":"hex:3561:24267"},"type":"Feature"},{"geometry":{"coordinates":[[[-122.61002,37.97784],[-122.61059,37.97706],[-122.61173,37.97706],[-122.61229,37.97784],[-122.6118,37.97851],[-122.61172,37.97852],[-122.61162,37.97859],[-122.61141,37.97852],[-122.61135,37.97837],[-122.61112,37.97826],[-122.61105,37.97798],[-122.61077,37.97806],[-122.61049,37.97806],[-122.6103,37.97788],[-122.61008,37.97783],[-122.61002,37.97784],[-122.61002,37.97784]]],"type":"Polygon"},"properties":{"bbox":{"roads":{"area":1030.86,"pct":5.08}},"city_same":1,"id":"hex:3561:24268"},"type":"Feature"},{"geometry":{"coordinates":[[[-122.61002,37.97627],[-122.60888,37.97627],[-122.60832,37.97549],[-122.6088,37.97483],[-122.60882,37.97484],[-122.60895,37.97501],[-122.60889,37.97541],[-122.60901,37.97567],[-122.60923,37.9758],[-122.60945,37.97579],[-122.6094,37.9759],[-122.61011,37.97615],[-122.61002,37.97627]]],"type":"Polygon"},"properties":{"bbox":{"roads":{"area":157.61,"pct":1.78}},"city_same":1,"id":"hex:3562:24267"},"type":"Feature"},{"geometry":{"coordinates":[[[-122.60831,37.97705],[-122.60888,37.97783],[-122.61002,37.97784],[-122.61059,37.97706],[-122.61002,37.97627],[-122.60888,37.97627],[-122.60831,37.97705]]],"type":"Polygon"},"properties":{"bbox":{"roads":{"area":1861.1,"pct":7.16}},"city_same":1,"id":"hex:3562:24268"},"type":"Feature"},{"geometry":{"coordinates":[[[-122.60874,38.00281],[-122.60818,38.00203],[-122.60875,38.00125],[-122.60968,38.00125],[-122.60914,38.00265],[-122.60908,38.00281],[-122.60874,38.00281]]],"type":"Polygon"},"properties":{"bbox":{"roads":{"area":546.22,"pct":3.91}},"city_same":1,"id":"hex:3562:24284"},"type":"Feature"},{"geometry":{"coordinates":[[[-122.60832,37.97549],[-122.60718,37.97548],[-122.60662,37.9747],[-122.60662,37.9747],[-122.60874,37.9745],[-122.60883,37.97463],[-122.60884,37.97466],[-122.60853,37.97478],[-122.60869,37.97478],[-122.6088,37.97483],[-122.60832,37.97549]]],"type":"Polygon"},"properties":{"bbox":{"roads":{"area":514.48,"pct":3.4}},"city_same":1,"id":"hex:3563:24266"},"type":"Feature"},{"geometry":{"coordinates":[[[-122.60661,37.97626],[-122.60717,37.97705],[-122.60831,37.97705],[-122.60888,37.97627],[-122.60832,37.97549],[-122.60718,37.97548],[-122.60661,37.97626]]],"type":"Polygon"},"properties":{"bbox":{"roads":{"area":1995.08,"pct":7.68}},"city_same":1,"id":"hex:3563:24267"},"type":"Feature"},{"geometry":{"coordinates":[[[-122.6066,37.97782],[-122.60716,37.97861],[-122.6083,37.97861],[-122.60888,37.97783],[-122.60831,37.97705],[-122.60717,37.97705],[-122.6066,37.97782]]],"type":"Polygon"},"properties":{"bbox":{"roads":{"area":1017.88,"pct":3.92}},"city_same":1,"id":"hex:3563:24268"},"type":"Feature"},{"geometry":{"coordinates":[[[-122.60705,38.00046],[-122.60693,38.0003],[-122.60707,38.00029],[-122.60766,38.00034],[-122.60785,38.00038],[-122.60781,38.00046],[-122.60705,38.00046]]],"type":"Polygon"},"properties":{"bbox":{"roads":{"area":532.45,"pct":46.22}},"city_same":1,"id":"hex:3563:24282"},"type":"Feature"},{"geometry":{"coordinates":[[[-122.60875,38.00125],[-122.60818,38.00203],[-122.60704,38.00202],[-122.60647,38.00124],[-122.60705,38.00046],[-122.60781,38.00046],[-122.60776,38.00056],[-122.60803,38.0007],[-122.6085,38.0009],[-122.60875,38.00125]]],"type":"Polygon"},"properties":{"bbox":{"roads":{"area":1304.37,"pct":5.28}},"city_same":1,"id":"hex:3563:24283"},"type":"Feature"},{"geometry":{"coordinates":[[[-122.60703,38.00358],[-122.60647,38.0028],[-122.60704,38.00202],[-122.60818,38.00203],[-122.60874,38.00281],[-122.60856,38.00306],[-122.60724,38.00264],[-122.60713,38.0031],[-122.60745,38.00358],[-122.60703,38.00358]]],"type":"Polygon"},"properties":{"bbox":{"roads":{"area":916.9,"pct":5.23}},"city_same":1,"id":"hex:3563:24284"},"type":"Feature"},{"geometry":{"coordinates":[[[-122.60662,37.9747],[-122.60718,37.97548],[-122.60661,37.97626],[-122.60547,37.97626],[-122.6049,37.97548],[-122.60539,37.97481],[-122.60656,37.9747],[-122.60662,37.9747]]],"type":"Polygon"},"properties":{"bbox":{"roads":{"area":1586.02,"pct":6.25}},"city_same":1,"id":"hex:3564:24267"},"type":"Feature"},{"geometry":{"coordinates":[[[-122.6049,37.97704],[-122.60546,37.97782],[-122.6066,37.97782],[-122.60717,37.97705],[-122.60661,37.97626],[-122.60547,37.97626],[-122.6049,37.97704]]],"type":"Polygon"},"properties":{"bbox":{"roads":{"area":1048.28,"pct":4.03}},"city_same":1,"id":"hex:3564:24268"},"type":"Feature"},{"geometry":{"coordinates":[[[-122.60489,37.9786],[-122.60545,37.97938],[-122.60659,37.97938],[-122.60716,37.97861],[-122.6066,37.97782],[-122.60546,37.97782],[-122.60489,37.9786]]],"type":"Polygon"},"properties":{"bbox":{"roads":{"area":84.8,"pct":0.33}},"city_same":1,"id":"hex:3564:24269"},"type":"Feature"},{"geometry":{"coordinates":[[[-122.60705,38.00046],[-122.60647,38.00124],[-122.60534,38.00124],[-122.60477,38.00045],[-122.60491,38.00026],[-122.60542,38.00033],[-122.60542,38.00038],[-122.60618,38.00038],[-122.60693,38.0003],[-122.60705,38.00046]]],"type":"Polygon"},"properties":{"bbox":{"roads":{"area":1433.84,"pct":9.28}},"city_same":1,"id":"hex:3564:24283"},"type":"Feature"},{"geometry":{"coordinates":[[[-122.60476,38.00201],[-122.60533,38.0028],[-122.60647,38.0028],[-122.60704,38.00202],[-122.60647,38.00124],[-122.60534,38.00124],[-122.60476,38.00201]]],"type":"Polygon"},"properties":{"bbox":{"roads":{"area":1011.5,"pct":3.89}},"city_same":1,"id":"hex:3564:24284"},"type":"Feature"},{"geometry":{"coordinates":[[[-122.60475,38.00358],[-122.60532,38.00436],[-122.60646,38.00436],[-122.60703,38.00358],[-122.60647,38.0028],[-122.60533,38.0028],[-122.60475,38.00358]]],"type":"Polygon"},"properties":{"bbox":{"roads":{"area":1585.25,"pct":6.1}},"city_same":1,"id":"hex:3564:24285"},"type":"Feature"},{"geometry":{"coordinates":[[[-122.6049,37.97548],[-122.60377,37.97547],[-122.60342,37.97499],[-122.60539,37.97481],[-122.6049,37.97548]]],"type":"Polygon"},"properties":{"bbox":{"roads":{"area":520.3,"pct":6.04}},"city_same":1,"id":"hex:3565:24266"},"type":"Feature"},{"geometry":{"coordinates":[[[-122.60319,37.97625],[-122.60376,37.97703],[-122.6049,37.97704],[-122.60547,37.97626],[-122.6049,37.97548],[-122.60377,37.97547],[-122.60319,37.97625]]],"type":"Polygon"},"properties":{"bbox":{"roads":{"area":1342.55,"pct":5.17}},"city_same":1,"id":"hex:3565:24267"},"type":"Feature"},{"geometry":{"coordinates":[[[-122.60318,37.97781],[-122.60375,37.97859],[-122.60489,37.9786],[-122.60546,37.97782],[-122.6049,37.97704],[-122.60376,37.97703],[-122.60318,37.97781]]],"type":"Polygon"},"properties":{"bbox":{"roads":{"area":376.08,"pct":1.45}},"city_same":1,"id":"hex:3565:24268"},"type":"Feature"},{"geometry":{"coordinates":[[[-122.60374,37.98016],[-122.60317,37.97937],[-122.60375,37.97859],[-122.60489,37.9786],[-122.60545,37.97938],[-122.60488,37.98016],[-122.60421,37.98016],[-122.60403,37.97976],[-122.60396,37.97982],[-122.60388,37.98014],[-122.60387,37.98016],[-122.60374,37.98016]]],"type":"Polygon"},"properties":{"bbox":{"roads":{"area":1897.07,"pct":7.51}},"city_same":1,"id":"hex:3565:24269"},"type":"Feature"},{"geometry":{"coordinates":[[[[-122.60488,37.98016],[-122.60526,37.98068],[-122.60525,37.98068],[-122.60462,37.98066],[-122.60434,37.9806],[-122.60422,37.98017],[-122.60421,37.98016],[-122.60488,37.98016]]],[[[-122.60374,37.98016],[-122.60387,37.98016],[-122.60374,37.98032],[-122.60361,37.98033],[-122.60374,37.98016]]]],"type":"MultiPolygon"},"properties":{"bbox":{"roads":{"area":116.29,"pct":2.94}},"city_same":1,"id":"hex:3565:24270"},"type":"Feature"},{"geometry":{"coordinates":[[[-122.6031,37.99342],[-122.60347,37.99292],[-122.60349,37.99291],[-122.60339,37.99383],[-122.6031,37.99342]]],"type":"Polygon"},"properties":{"bbox":{"roads":{"area":86.18,"pct":5.54}},"city_same":1,"id":"hex:3565:24278"},"type":"Feature"},{"geometry":{"coordinates":[[[-122.60477,38.00045],[-122.60363,38.00045],[-122.60307,37.99967],[-122.60314,37.99956],[-122.60375,37.99996],[-122.60462,38.00023],[-122.60491,38.00026],[-122.60477,38.00045]]],"type":"Polygon"},"properties":{"bbox":{"roads":{"area":1295.56,"pct":21.49}},"city_same":1,"id":"hex:3565:24282"},"type":"Feature"},{"geometry":{"coordinates":[[[-122.60306,38.00123],[-122.60362,38.00201],[-122.60476,38.00201],[-122.60534,38.00124],[-122.60477,38.00045],[-122.60363,38.00045],[-122.60306,38.00123]]],"type":"Polygon"},"properties":{"bbox":{"roads":{"area":1985.1,"pct":7.64}},"city_same":1,"id":"hex:3565:24283"},"type":"Feature"},{"geometry":{"coordinates":[[[-122.60304,38.00435],[-122.60361,38.00357],[-122.60475,38.00358],[-122.60532,38.00436],[-122.60474,38.00514],[-122.60424,38.00513],[-122.60341,38.00486],[-122.60304,38.00435]]],"type":"Polygon"},"properties":{"bbox":{"roads":{"area":649.19,"pct":2.58}},"city_same":1,"id":"hex:3565:24285"},"type":"Feature"},{"geometry":{"coordinates":[[[-122.60474,38.00514],[-122.60531,38.00592],[-122.60522,38.00604],[-122.60471,38.00549],[-122.6045,38.00542],[-122.60447,38.00521],[-122.60424,38.00513],[-122.60474,38.00514]]],"type":"Polygon"},"properties":{"bbox":{"roads":{"area":126.69,"pct":5.12}},"city_same":1,"id":"hex:3565:24286"},"type":"Feature"},{"geometry":{"coordinates":[[[-122.60377,37.97547],[-122.60319,37.97625],[-122.60205,37.97625],[-122.60149,37.97546],[-122.60169,37.97519],[-122.60337,37.975],[-122.60342,37.97499],[-122.60377,37.97547]]],"type":"Polygon"},"properties":{"bbox":{"roads":{"area":1010.93,"pct":4.96}},"city_same":1,"id":"hex:3566:24267"},"type":"Feature"},{"geometry":{"coordinates":[[[-122.60148,37.97703],[-122.60204,37.97781],[-122.60318,37.97781],[-122.60376,37.97703],[-122.60319,37.97625],[-122.60205,37.97625],[-122.60148,37.97703]]],"type":"Polygon"},"properties":{"bbox":{"roads":{"area":2360.36,"pct":9.09}},"city_same":1,"id":"hex:3566:24268"},"type":"Feature"},{"geometry":{"coordinates":[[[-122.60147,37.97859],[-122.60204,37.97937],[-122.60317,37.97937],[-122.60375,37.97859],[-122.60318,37.97781],[-122.60204,37.97781],[-122.60147,37.97859]]],"type":"Polygon"},"properties":{"bbox":{"roads":{"area":2954.38,"pct":11.37}},"city_same":1,"id":"hex:3566:24269"},"type":"Feature"},{"geometry":{"coordinates":[[[-122.60146,37.98015],[-122.60204,37.97937],[-122.60317,37.97937],[-122.60374,37.98016],[-122.60361,37.98033],[-122.60291,37.98039],[-122.60271,37.98052],[-122.60253,37.98093],[-122.60249,37.98093],[-122.60185,37.98068],[-122.60146,37.98015]]],"type":"Polygon"},"properties":{"bbox":{"roads":{"area":1928.07,"pct":8.97}},"city_same":1,"id":"hex:3566:24270"},"type":"Feature"},{"geometry":{"coordinates":[[[-122.60142,37.98795],[-122.60199,37.98874],[-122.60312,37.98874],[-122.6037,37.98796],[-122.60313,37.98718],[-122.60199,37.98717],[-122.60142,37.98795]]],"type":"Polygon"},"properties":{"bbox":{"roads":{"area":1424.15,"pct":5.48}},"city_same":1,"id":"hex:3566:24275"},"type":"Feature"},{"geometry":{"coordinates":[[[-122.60198,37.9903],[-122.60141,37.98951],[-122.60199,37.98874],[-122.60312,37.98874],[-122.60369,37.98952],[-122.60332,37.99002],[-122.60236,37.9903],[-122.60198,37.9903]]],"type":"Polygon"},"properties":{"bbox":{"roads":{"area":1099.34,"pct":4.41}},"city_same":1,"id":"hex:3566:24276"},"type":"Feature"},{"geometry":{"coordinates":[[[-122.6031,37.99342],[-122.60196,37.99342],[-122.6017,37.99306],[-122.60173,37.99306],[-122.60204,37.99285],[-122.60247,37.99311],[-122.6028,37.99306],[-122.60306,37.99312],[-122.60347,37.99292],[-122.6031,37.99342]]],"type":"Polygon"},"properties":{"bbox":{"roads":{"area":757.76,"pct":13.78}},"city_same":1,"id":"hex:3566:24278"},"type":"Feature"},{"geometry":{"coordinates":[[[-122.60139,37.9942],[-122.60196,37.99342],[-122.6031,37.99342],[-122.60339,37.99383],[-122.60333,37.9944],[-122.60144,37.99428],[-122.60139,37.9942]]],"type":"Polygon"},"properties":{"bbox":{"roads":{"area":777.27,"pct":5.17}},"city_same":1,"id":"hex:3566:24279"},"type":"Feature"},{"geometry":{"coordinates":[[[-122.60307,37.99967],[-122.60193,37.99966],[-122.60136,37.99888],[-122.6017,37.99842],[-122.60218,37.99893],[-122.60314,37.99956],[-122.60307,37.99967]]],"type":"Polygon"},"properties":{"bbox":{"roads":{"area":227.94,"pct":2.35}},"city_same":1,"id":"hex:3566:24282"},"type":"Feature"},{"geometry":{"coordinates":[[[-122.60135,38.00044],[-122.60192,38.00122],[-122.60306,38.00123],[-122.60363,38.00045],[-122.60307,37.99967],[-122.60193,37.99966],[-122.60135,38.00044]]],"type":"Polygon"},"properties":{"bbox":{"roads":{"area":4178.52,"pct":16.08}},"city_same":1,"id":"hex:3566:24283"},"type":"Feature"},{"geometry":{"coordinates":[[[-122.60134,38.002],[-122.60191,38.00279],[-122.60305,38.00279],[-122.60362,38.00201],[-122.60306,38.00123],[-122.60192,38.00122],[-122.60134,38.002]]],"type":"Polygon"},"properties":{"bbox":{"roads":{"area":2783.14,"pct":10.71}},"city_same":1,"id":"hex:3566:24284"},"type":"Feature"},{"geometry":{"coordinates":[[[-122.60134,38.00356],[-122.6019,38.00435],[-122.60304,38.00435],[-122.60361,38.00357],[-122.60305,38.00279],[-122.60191,38.00279],[-122.60134,38.00356]]],"type":"Polygon"},"properties":{"bbox":{"roads":{"area":8.36,"pct":0.03}},"city_same":1,"id":"hex:3566:24285"},"type":"Feature"},{"geometry":{"coordinates":[[[-122.60149,37.97546],[-122.60035,37.97546],[-122.59978,37.97468],[-122.60023,37.97407],[-122.60023,37.97407],[-122.60025,37.97405],[-122.60036,37.9739],[-122.60105,37.9739],[-122.60124,37.97521],[-122.60125,37.97524],[-122.60169,37.97519],[-122.60149,37.97546]]],"type":"Polygon"},"properties":{"bbox":{"roads":{"area":1251.36,"pct":7.19}},"city_same":1,"id":"hex:3567:24266"},"type":"Feature"},{"geometry":{"coordinates":[[[-122.59978,37.97624],[-122.60034,37.97702],[-122.60148,37.97703],[-122.60205,37.97625],[-122.60149,37.97546],[-122.60035,37.97546],[-122.59978,37.97624]]],"type":"Polygon"},"properties":{"bbox":{"roads":{"area":1558.3,"pct":6}},"city_same":1,"id":"hex:3567:24267"},"type":"Feature"},{"geometry":{"coordinates":[[[-122.59977,37.9778],[-122.60033,37.97858],[-122.60147,37.97859],[-122.60204,37.97781],[-122.60148,37.97703],[-122.60034,37.97702],[-122.59977,37.9778]]],"type":"Polygon"},"properties":{"bbox":{"roads":{"area":2507.23,"pct":9.65}},"city_same":1,"id":"hex:3567:24268"},"type":"Feature"},{"geometry":{"coordinates":[[[-122.59976,37.97936],[-122.60032,37.98014],[-122.60146,37.98015],[-122.60204,37.97937],[-122.60147,37.97859],[-122.60033,37.97858],[-122.59976,37.97936]]],"type":"Polygon"},"properties":{"bbox":{"roads":{"area":2015.95,"pct":7.76}},"city_same":1,"id":"hex:3567:24269"},"type":"Feature"},{"geometry":{"coordinates":[[[-122.60032,37.98171],[-122.59975,37.98092],[-122.60032,37.98014],[-122.60146,37.98015],[-122.60185,37.98068],[-122.60178,37.98065],[-122.60167,37.98077],[-122.60131,37.98089],[-122.60112,37.98103],[-122.60076,37.98107],[-122.60061,37.98113],[-122.60055,37.98126],[-122.60064,37.9817],[-122.60065,37.98171],[-122.60032,37.98171]]],"type":"Polygon"},"properties":{"bbox":{"roads":{"area":1548.92,"pct":9.08}},"city_same":1,"id":"hex:3567:24270"},"type":"Feature"},{"geometry":{"coordinates":[[[-122.60145,37.98327],[-122.60031,37.98327],[-122.59974,37.98248],[-122.60032,37.98171],[-122.60065,37.98171],[-122.60072,37.98177],[-122.60109,37.98185],[-122.60132,37.98217],[-122.6014,37.98222],[-122.60151,37.98229],[-122.60178,37.98232],[-122.6019,37.98246],[-122.60145,37.98277],[-122.60145,37.98287],[-122.60153,37.98297],[-122.60166,37.98297],[-122.60145,37.98327]]],"type":"Polygon"},"properties":{"bbox":{"roads":{"area":63.97,"pct":0.3}},"city_same":1,"id":"hex:3567:24271"},"type":"Feature"},{"geometry":{"coordinates":[[[-122.60143,37.98639],[-122.60029,37.98639],[-122.59973,37.98561],[-122.6003,37.98483],[-122.60138,37.98483],[-122.60141,37.98494],[-122.6007,37.9857],[-122.60115,37.98591],[-122.60144,37.98591],[-122.60179,37.98591],[-122.60143,37.98639]]],"type":"Polygon"},"properties":{"bbox":{"roads":{"area":826.61,"pct":4.45}},"city_same":1,"id":"hex:3567:24273"},"type":"Feature"},{"geometry":{"coordinates":[[[-122.59972,37.98717],[-122.60028,37.98795],[-122.60142,37.98795],[-122.60199,37.98717],[-122.60143,37.98639],[-122.60029,37.98639],[-122.59972,37.98717]]],"type":"Polygon"},"properties":{"bbox":{"parking":{"area":52.22,"pct":0.2},"roads":{"area":2793.44,"pct":10.75}},"city_same":1,"id":"hex:3567:24274"},"type":"Feature"},{"geometry":{"coordinates":[[[-122.59971,37.98873],[-122.60027,37.98951],[-122.60141,37.98951],[-122.60199,37.98874],[-122.60142,37.98795],[-122.60028,37.98795],[-122.59971,37.98873]]],"type":"Polygon"},"properties":{"bbox":{"roads":{"area":1991.62,"pct":7.67}},"city_same":1,"id":"hex:3567:24275"},"type":"Feature"},{"geometry":{"coordinates":[[[-122.5997,37.99029],[-122.60027,37.98951],[-122.60141,37.98951],[-122.60198,37.9903],[-122.60187,37.99044],[-122.60017,37.99093],[-122.5997,37.99029]]],"type":"Polygon"},"properties":{"bbox":{"roads":{"area":1807.26,"pct":8.58}},"city_same":1,"id":"hex:3567:24276"},"type":"Feature"},{"geometry":{"coordinates":[[[-122.60196,37.99342],[-122.60139,37.9942],[-122.60025,37.99419],[-122.59968,37.99341],[-122.60006,37.9929],[-122.60033,37.99297],[-122.60088,37.99292],[-122.60156,37.99308],[-122.60164,37.99307],[-122.6017,37.99306],[-122.60196,37.99342]]],"type":"Polygon"},"properties":{"bbox":{"roads":{"area":1679.44,"pct":7.84}},"city_same":1,"id":"hex:3567:24278"},"type":"Feature"},{"geometry":{"coordinates":[[[-122.60023,37.99732],[-122.59967,37.99653],[-122.59975,37.99642],[-122.60066,37.99732],[-122.60023,37.99732]]],"type":"Polygon"},"properties":{"bbox":{"roads":{"area":48.76,"pct":1.95}},"city_same":1,"id":"hex:3567:24280"},"type":"Feature"},{"geometry":{"coordinates":[[[-122.60136,37.99888],[-122.60022,37.99888],[-122.59966,37.99809],[-122.60023,37.99732],[-122.60066,37.99732],[-122.60103,37.99768],[-122.6017,37.99842],[-122.60136,37.99888]]],"type":"Polygon"},"properties":{"bbox":{"roads":{"area":1645.8,"pct":8.01}},"city_same":1,"id":"hex:3567:24281"},"type":"Feature"},{"geometry":{"coordinates":[[[-122.59965,37.99966],[-122.60021,38.00044],[-122.60135,38.00044],[-122.60193,37.99966],[-122.60136,37.99888],[-122.60022,37.99888],[-122.59965,37.99966]]],"type":"Polygon"},"properties":{"bbox":{"roads":{"area":3609.05,"pct":13.89}},"city_same":1,"id":"hex:3567:24282"},"type":"Feature"},{"geometry":{"coordinates":[[[-122.59964,38.00122],[-122.60021,38.002],[-122.60134,38.002],[-122.60192,38.00122],[-122.60135,38.00044],[-122.60021,38.00044],[-122.59964,38.00122]]],"type":"Polygon"},"properties":{"bbox":{"roads":{"area":447.22,"pct":1.72}},"city_same":1,"id":"hex:3567:24283"},"type":"Feature"},{"geometry":{"coordinates":[[[-122.59963,38.00278],[-122.6002,38.00356],[-122.60134,38.00356],[-122.60191,38.00279],[-122.60134,38.002],[-122.60021,38.002],[-122.59963,38.00278]]],"type":"Polygon"},"properties":{"bbox":{"roads":{"area":663.55,"pct":2.55}},"city_same":1,"id":"hex:3567:24284"},"type":"Feature"},{"geometry":{"coordinates":[[[-122.59978,37.97468],[-122.60035,37.97546],[-122.59978,37.97624],[-122.59864,37.97624],[-122.59813,37.97554],[-122.59818,37.97553],[-122.59854,37.97512],[-122.5986,37.9748],[-122.59872,37.97467],[-122.59978,37.97468]]],"type":"Polygon"},"properties":{"bbox":{"roads":{"area":1088.07,"pct":4.4}},"city_same":1,"id":"hex:3568:24267"},"type":"Feature"},{"geometry":{"coordinates":[[[-122.59806,37.97701],[-122.59863,37.9778],[-122.59977,37.9778],[-122.60034,37.97702],[-122.59978,37.97624],[-122.59864,37.97624],[-122.59806,37.97701]]],"type":"Polygon"},"properties":{"bbox":{"roads":{"area":1185.41,"pct":4.56}},"city_same":1,"id":"hex:3568:24268"},"type":"Feature"},{"geometry":{"coordinates":[[[-122.59806,37.97858],[-122.59862,37.97936],[-122.59976,37.97936],[-122.60033,37.97858],[-122.59977,37.9778],[-122.59863,37.9778],[-122.59806,37.97858]]],"type":"Polygon"},"properties":{"bbox":{"roads":{"area":3317.09,"pct":12.77}},"city_same":1,"id":"hex:3568:24269"},"type":"Feature"},{"geometry":{"coordinates":[[[-122.59805,37.98014],[-122.59861,37.98092],[-122.59975,37.98092],[-122.60032,37.98014],[-122.59976,37.97936],[-122.59862,37.97936],[-122.59805,37.98014]]],"type":"Polygon"},"properties":{"bbox":{"roads":{"area":1502.1,"pct":5.78}},"city_same":1,"id":"hex:3568:24270"},"type":"Feature"},{"geometry":{"coordinates":[[[-122.59804,37.9817],[-122.5986,37.98248],[-122.59974,37.98248],[-122.60032,37.98171],[-122.59975,37.98092],[-122.59861,37.98092],[-122.59804,37.9817]]],"type":"Polygon"},"properties":{"bbox":{"roads":{"area":565.23,"pct":2.18}},"city_same":1,"id":"hex:3568:24271"},"type":"Feature"},{"geometry":{"coordinates":[[[-122.59802,37.98482],[-122.59859,37.9856],[-122.59973,37.98561],[-122.6003,37.98483],[-122.59973,37.98404],[-122.59859,37.98404],[-122.59802,37.98482]]],"type":"Polygon"},"properties":{"bbox":{"roads":{"area":647.78,"pct":2.49}},"city_same":1,"id":"hex:3568:24273"},"type":"Feature"},{"geometry":{"coordinates":[[[-122.59801,37.98638],[-122.59858,37.98716],[-122.59972,37.98717],[-122.60029,37.98639],[-122.59973,37.98561],[-122.59859,37.9856],[-122.59801,37.98638]]],"type":"Polygon"},"properties":{"bbox":{"parking":{"area":134.32,"pct":0.52},"roads":{"area":3056.43,"pct":11.76}},"city_same":1,"id":"hex:3568:24274"},"type":"Feature"},{"geometry":{"coordinates":[[[-122.598,37.98794],[-122.59857,37.98872],[-122.59971,37.98873],[-122.60028,37.98795],[-122.59972,37.98717],[-122.59858,37.98716],[-122.598,37.98794]]],"type":"Polygon"},"properties":{"bbox":{"roads":{"area":2177.26,"pct":8.38}},"city_same":1,"id":"hex:3568:24275"},"type":"Feature"},{"geometry":{"coordinates":[[[-122.598,37.9895],[-122.59856,37.99029],[-122.5997,37.99029],[-122.60027,37.98951],[-122.59971,37.98873],[-122.59857,37.98872],[-122.598,37.9895]]],"type":"Polygon"},"properties":{"bbox":{"roads":{"area":2829.16,"pct":10.89}},"city_same":1,"id":"hex:3568:24276"},"type":"Feature"},{"geometry":{"coordinates":[[[-122.59855,37.99185],[-122.59799,37.99106],[-122.59856,37.99029],[-122.5997,37.99029],[-122.60017,37.99093],[-122.59899,37.99128],[-122.59927,37.99185],[-122.59855,37.99185]]],"type":"Polygon"},"properties":{"bbox":{"roads":{"area":786.34,"pct":4.01}},"city_same":1,"id":"hex:3568:24277"},"type":"Feature"},{"geometry":{"coordinates":[[[-122.59968,37.99341],[-122.59854,37.99341],[-122.59798,37.99262],[-122.59855,37.99185],[-122.59927,37.99185],[-122.5998,37.99294],[-122.60006,37.99289],[-122.60006,37.9929],[-122.59968,37.99341]]],"type":"Polygon"},"properties":{"bbox":{"roads":{"area":1393.85,"pct":6.67}},"city_same":1,"id":"hex:3568:24278"},"type":"Feature"},{"geometry":{"coordinates":[[[-122.59854,37.99497],[-122.59797,37.99419],[-122.59854,37.99341],[-122.59968,37.99341],[-122.60025,37.99419],[-122.60025,37.9942],[-122.59868,37.99409],[-122.59876,37.99497],[-122.59854,37.99497]]],"type":"Polygon"},"properties":{"bbox":{"roads":{"area":1041.6,"pct":6.55}},"city_same":1,"id":"hex:3568:24279"},"type":"Feature"},{"geometry":{"coordinates":[[[-122.59967,37.99653],[-122.59853,37.99653],[-122.59796,37.99575],[-122.59854,37.99497],[-122.59876,37.99497],[-122.59878,37.99514],[-122.5985,37.99524],[-122.59892,37.99571],[-122.59883,37.99588],[-122.59957,37.99624],[-122.59975,37.99642],[-122.59967,37.99653]]],"type":"Polygon"},"properties":{"bbox":{"roads":{"area":1486.61,"pct":12.53}},"city_same":1,"id":"hex:3568:24280"},"type":"Feature"},{"geometry":{"coordinates":[[[-122.59795,37.99731],[-122.59852,37.99809],[-122.59966,37.99809],[-122.60023,37.99732],[-122.59967,37.99653],[-122.59853,37.99653],[-122.59795,37.99731]]],"type":"Polygon"},"properties":{"bbox":{"roads":{"area":3064.45,"pct":11.8}},"city_same":1,"id":"hex:3568:24281"},"type":"Feature"},{"geometry":{"coordinates":[[[-122.59794,37.99887],[-122.59851,37.99965],[-122.59965,37.99966],[-122.60022,37.99888],[-122.59966,37.99809],[-122.59852,37.99809],[-122.59794,37.99887]]],"type":"Polygon"},"properties":{"bbox":{"roads":{"area":1143.8,"pct":4.4}},"city_same":1,"id":"hex:3568:24282"},"type":"Feature"},{"geometry":{"coordinates":[[[-122.59794,38.00043],[-122.5985,38.00121],[-122.59964,38.00122],[-122.60021,38.00044],[-122.59965,37.99966],[-122.59851,37.99965],[-122.59794,38.00043]]],"type":"Polygon"},"properties":{"bbox":{"roads":{"area":337.29,"pct":1.3}},"city_same":1,"id":"hex:3568:24283"},"type":"Feature"},{"geometry":{"coordinates":[[[-122.59864,37.97624],[-122.59806,37.97701],[-122.59693,37.97701],[-122.59636,37.97623],[-122.59679,37.97565],[-122.59806,37.97554],[-122.59813,37.97554],[-122.59864,37.97624]]],"type":"Polygon"},"properties":{"bbox":{"roads":{"area":2118.05,"pct":8.7}},"city_same":1,"id":"hex:3569:24267"},"type":"Feature"},{"geometry":{"coordinates":[[[-122.59635,37.97779],[-122.59692,37.97857],[-122.59806,37.97858],[-122.59863,37.9778],[-122.59806,37.97701],[-122.59693,37.97701],[-122.59635,37.97779]]],"type":"Polygon"},"properties":{"bbox":{"roads":{"area":2182.11,"pct":8.4}},"city_same":1,"id":"hex:3569:24268"},"type":"Feature"},{"geometry":{"coordinates":[[[-122.59634,37.97935],[-122.59691,37.98013],[-122.59805,37.98014],[-122.59862,37.97936],[-122.59806,37.97858],[-122.59692,37.97857],[-122.59634,37.97935]]],"type":"Polygon"},"properties":{"bbox":{"roads":{"area":1294.74,"pct":4.98}},"city_same":1,"id":"hex:3569:24269"},"type":"Feature"},{"geometry":{"coordinates":[[[-122.59633,37.98091],[-122.5969,37.98169],[-122.59804,37.9817],[-122.59861,37.98092],[-122.59805,37.98014],[-122.59691,37.98013],[-122.59633,37.98091]]],"type":"Polygon"},"properties":{"bbox":{"roads":{"area":1363.1,"pct":5.25}},"city_same":1,"id":"hex:3569:24270"},"type":"Feature"},{"geometry":{"coordinates":[[[-122.59633,37.98247],[-122.59689,37.98325],[-122.59803,37.98326],[-122.5986,37.98248],[-122.59804,37.9817],[-122.5969,37.98169],[-122.59633,37.98247]]],"type":"Polygon"},"properties":{"bbox":{"roads":{"area":1216.37,"pct":4.68}},"city_same":1,"id":"hex:3569:24271"},"type":"Feature"},{"geometry":{"coordinates":[[[-122.59632,37.98403],[-122.59688,37.98482],[-122.59802,37.98482],[-122.59859,37.98404],[-122.59803,37.98326],[-122.59689,37.98325],[-122.59632,37.98403]]],"type":"Polygon"},"properties":{"bbox":{"roads":{"area":294.87,"pct":1.13}},"city_same":1,"id":"hex:3569:24272"},"type":"Feature"},{"geometry":{"coordinates":[[[-122.59631,37.98559],[-122.59687,37.98638],[-122.59801,37.98638],[-122.59859,37.9856],[-122.59802,37.98482],[-122.59688,37.98482],[-122.59631,37.98559]]],"type":"Polygon"},"properties":{"bbox":{"roads":{"area":1820.19,"pct":7.01}},"city_same":1,"id":"hex:3569:24273"},"type":"Feature"},{"geometry":{"coordinates":[[[-122.5963,37.98716],[-122.59687,37.98794],[-122.598,37.98794],[-122.59858,37.98716],[-122.59801,37.98638],[-122.59687,37.98638],[-122.5963,37.98716]]],"type":"Polygon"},"properties":{"bbox":{"roads":{"area":2620.48,"pct":10.09}},"city_same":1,"id":"hex:3569:24274"},"type":"Feature"},{"geometry":{"coordinates":[[[-122.59629,37.98872],[-122.59686,37.9895],[-122.598,37.9895],[-122.59857,37.98872],[-122.598,37.98794],[-122.59687,37.98794],[-122.59629,37.98872]]],"type":"Polygon"},"properties":{"bbox":{"roads":{"area":3030.42,"pct":11.66}},"city_same":1,"id":"hex:3569:24275"},"type":"Feature"},{"geometry":{"coordinates":[[[-122.59628,37.99028],[-122.59685,37.99106],[-122.59799,37.99106],[-122.59856,37.99029],[-122.598,37.9895],[-122.59686,37.9895],[-122.59628,37.99028]]],"type":"Polygon"},"properties":{"bbox":{"roads":{"area":2328.77,"pct":8.96}},"city_same":1,"id":"hex:3569:24276"},"type":"Feature"},{"geometry":{"coordinates":[[[-122.59627,37.99184],[-122.59684,37.99262],[-122.59798,37.99262],[-122.59855,37.99185],[-122.59799,37.99106],[-122.59685,37.99106],[-122.59627,37.99184]]],"type":"Polygon"},"properties":{"bbox":{"roads":{"area":1537.01,"pct":5.92}},"city_same":1,"id":"hex:3569:24277"},"type":"Feature"},{"geometry":{"coordinates":[[[-122.59627,37.9934],[-122.59683,37.99418],[-122.59797,37.99419],[-122.59854,37.99341],[-122.59798,37.99262],[-122.59684,37.99262],[-122.59627,37.9934]]],"type":"Polygon"},"properties":{"bbox":{"roads":{"area":2077.89,"pct":8}},"city_same":1,"id":"hex:3569:24278"},"type":"Feature"},{"geometry":{"coordinates":[[[-122.59626,37.99496],[-122.59682,37.99574],[-122.59796,37.99575],[-122.59854,37.99497],[-122.59797,37.99419],[-122.59683,37.99418],[-122.59626,37.99496]]],"type":"Polygon"},"properties":{"bbox":{"roads":{"area":2018.82,"pct":7.77}},"city_same":1,"id":"hex:3569:24279"},"type":"Feature"},{"geometry":{"coordinates":[[[-122.59682,37.99574],[-122.59796,37.99575],[-122.59853,37.99653],[-122.59795,37.99731],[-122.59681,37.9973],[-122.59625,37.99652],[-122.59627,37.99649],[-122.59668,37.99668],[-122.59674,37.99662],[-122.59684,37.99671],[-122.59733,37.99616],[-122.59674,37.99585],[-122.59682,37.99574]]],"type":"Polygon"},"properties":{"bbox":{"roads":{"area":1725.06,"pct":8.07}},"city_same":1,"id":"hex:3569:24280"},"type":"Feature"},{"geometry":{"coordinates":[[[-122.59624,37.99808],[-122.59681,37.99886],[-122.59794,37.99887],[-122.59852,37.99809],[-122.59795,37.99731],[-122.59681,37.9973],[-122.59624,37.99808]]],"type":"Polygon"},"properties":{"bbox":{"roads":{"area":100.7,"pct":0.39}},"city_same":1,"id":"hex:3569:24281"},"type":"Feature"},{"geometry":{"coordinates":[[[-122.59622,38.0012],[-122.59679,38.00199],[-122.59793,38.00199],[-122.5985,38.00121],[-122.59794,38.00043],[-122.5968,38.00043],[-122.59622,38.0012]]],"type":"Polygon"},"properties":{"bbox":{"roads":{"area":28.51,"pct":0.11}},"city_same":1,"id":"hex:3569:24283"},"type":"Feature"},{"geometry":{"coordinates":[[[-122.59791,38.00511],[-122.59848,38.0059],[-122.5979,38.00667],[-122.59676,38.00667],[-122.59626,38.00598],[-122.59635,38.00568],[-122.59655,38.00541],[-122.59709,38.00539],[-122.59688,38.00511],[-122.59791,38.00511]]],"type":"Polygon"},"properties":{"bbox":{"roads":{"area":91.75,"pct":0.37}},"city_same":1,"id":"hex:3569:24286"},"type":"Feature"},{"geometry":{"coordinates":[[[-122.59636,37.97623],[-122.59522,37.97622],[-122.59492,37.9758],[-122.59679,37.97565],[-122.59636,37.97623]]],"type":"Polygon"},"properties":{"bbox":{"roads":{"area":301.03,"pct":4.12}},"city_same":1,"id":"hex:3570:24267"},"type":"Feature"},{"geometry":{"coordinates":[[[-122.59465,37.977],[-122.59521,37.97779],[-122.59635,37.97779],[-122.59693,37.97701],[-122.59636,37.97623],[-122.59522,37.97622],[-122.59465,37.977]]],"type":"Polygon"},"properties":{"bbox":{"roads":{"area":1024.56,"pct":3.94}},"city_same":1,"id":"hex:3570:24268"},"type":"Feature"},{"geometry":{"coordinates":[[[-122.59464,37.97856],[-122.5952,37.97935],[-122.59634,37.97935],[-122.59692,37.97857],[-122.59635,37.97779],[-122.59521,37.97779],[-122.59464,37.97856]]],"type":"Polygon"},"properties":{"bbox":{"roads":{"area":1150.37,"pct":4.43}},"city_same":1,"id":"hex:3570:24269"},"type":"Feature"},{"geometry":{"coordinates":[[[-122.59463,37.98012],[-122.5952,37.98091],[-122.59633,37.98091],[-122.59691,37.98013],[-122.59634,37.97935],[-122.5952,37.97935],[-122.59463,37.98012]]],"type":"Polygon"},"properties":{"bbox":{"roads":{"area":1888.81,"pct":7.27}},"city_same":1,"id":"hex:3570:24270"},"type":"Feature"},{"geometry":{"coordinates":[[[-122.59462,37.98169],[-122.59519,37.98247],[-122.59633,37.98247],[-122.5969,37.98169],[-122.59633,37.98091],[-122.5952,37.98091],[-122.59462,37.98169]]],"type":"Polygon"},"properties":{"bbox":{"roads":{"area":1692.97,"pct":6.52}},"city_same":1,"id":"hex:3570:24271"},"type":"Feature"},{"geometry":{"coordinates":[[[-122.59461,37.98325],[-122.59518,37.98403],[-122.59632,37.98403],[-122.59689,37.98325],[-122.59633,37.98247],[-122.59519,37.98247],[-122.59461,37.98325]]],"type":"Polygon"},"properties":{"bbox":{"roads":{"area":1975.08,"pct":7.6}},"city_same":1,"id":"hex:3570:24272"},"type":"Feature"},{"geometry":{"coordinates":[[[-122.59461,37.98481],[-122.59517,37.98559],[-122.59631,37.98559],[-122.59688,37.98482],[-122.59632,37.98403],[-122.59518,37.98403],[-122.59461,37.98481]]],"type":"Polygon"},"properties":{"bbox":{"roads":{"area":1283.92,"pct":4.94}},"city_same":1,"id":"hex:3570:24273"},"type":"Feature"},{"geometry":{"coordinates":[[[-122.5946,37.98637],[-122.59516,37.98715],[-122.5963,37.98716],[-122.59687,37.98638],[-122.59631,37.98559],[-122.59517,37.98559],[-122.5946,37.98637]]],"type":"Polygon"},"properties":{"bbox":{"roads":{"area":1584.91,"pct":6.1}},"city_same":1,"id":"hex:3570:24274"},"type":"Feature"},{"geometry":{"coordinates":[[[-122.59459,37.98793],[-122.59515,37.98871],[-122.59629,37.98872],[-122.59687,37.98794],[-122.5963,37.98716],[-122.59516,37.98715],[-122.59459,37.98793]]],"type":"Polygon"},"properties":{"bbox":{"roads":{"area":2144.22,"pct":8.25}},"city_same":1,"id":"hex:3570:24275"},"type":"Feature"},{"geometry":{"coordinates":[[[-122.59458,37.98949],[-122.59514,37.99027],[-122.59628,37.99028],[-122.59686,37.9895],[-122.59629,37.98872],[-122.59515,37.98871],[-122.59458,37.98949]]],"type":"Polygon"},"properties":{"bbox":{"roads":{"area":2507.92,"pct":9.65}},"city_same":1,"id":"hex:3570:24276"},"type":"Feature"},{"geometry":{"coordinates":[[[-122.59457,37.99105],[-122.59514,37.99183],[-122.59627,37.99184],[-122.59685,37.99106],[-122.59628,37.99028],[-122.59514,37.99027],[-122.59457,37.99105]]],"type":"Polygon"},"properties":{"bbox":{"roads":{"area":2728.29,"pct":10.5}},"city_same":1,"id":"hex:3570:24277"},"type":"Feature"},{"geometry":{"coordinates":[[[-122.59456,37.99261],[-122.59513,37.9934],[-122.59627,37.9934],[-122.59684,37.99262],[-122.59627,37.99184],[-122.59514,37.99183],[-122.59456,37.99261]]],"type":"Polygon"},"properties":{"bbox":{"roads":{"area":1856.68,"pct":7.15}},"city_same":1,"id":"hex:3570:24278"},"type":"Feature"},{"geometry":{"coordinates":[[[-122.59455,37.99417],[-122.59512,37.99496],[-122.59626,37.99496],[-122.59683,37.99418],[-122.59627,37.9934],[-122.59513,37.9934],[-122.59455,37.99417]]],"type":"Polygon"},"properties":{"bbox":{"roads":{"area":2895.16,"pct":11.14}},"city_same":1,"id":"hex:3570:24279"},"type":"Feature"},{"geometry":{"coordinates":[[[[-122.59511,37.99652],[-122.59454,37.99574],[-122.59512,37.99496],[-122.59626,37.99496],[-122.59682,37.99574],[-122.59674,37.99585],[-122.59589,37.99541],[-122.59557,37.99617],[-122.59529,37.99652],[-122.59511,37.99652]]],[[[-122.59625,37.99652],[-122.59594,37.99652],[-122.59604,37.99639],[-122.59627,37.99649],[-122.59625,37.99652]]]],"type":"MultiPolygon"},"properties":{"bbox":{"roads":{"area":1472.15,"pct":8.33}},"city_same":1,"id":"hex:3570:24280"},"type":"Feature"},{"geometry":{"coordinates":[[[[-122.59454,37.9973],[-122.59511,37.99652],[-122.59529,37.99652],[-122.5946,37.99739],[-122.59454,37.9973]]],[[[-122.59625,37.99652],[-122.59681,37.9973],[-122.59624,37.99808],[-122.5951,37.99808],[-122.59493,37.99783],[-122.59594,37.99652],[-122.59625,37.99652]]]],"type":"MultiPolygon"},"properties":{"bbox":{"roads":{"area":1124.25,"pct":5.93}},"city_same":1,"id":"hex:3570:24281"},"type":"Feature"},{"geometry":{"coordinates":[[[-122.5951,37.99808],[-122.59624,37.99808],[-122.59681,37.99886],[-122.59623,37.99964],[-122.59509,37.99964],[-122.59453,37.99886],[-122.59453,37.99886],[-122.59459,37.99886],[-122.5946,37.99875],[-122.5951,37.99808]]],"type":"Polygon"},"properties":{"bbox":{"roads":{"area":464.86,"pct":1.79}},"city_same":1,"id":"hex:3570:24282"},"type":"Feature"},{"geometry":{"coordinates":[[[-122.59508,38.0012],[-122.59622,38.0012],[-122.59679,38.00199],[-122.59621,38.00277],[-122.59508,38.00276],[-122.59454,38.00202],[-122.59473,38.00213],[-122.59504,38.0017],[-122.59506,38.00143],[-122.59498,38.00134],[-122.59508,38.0012]]],"type":"Polygon"},"properties":{"bbox":{"roads":{"area":588.52,"pct":2.43}},"city_same":1,"id":"hex:3570:24284"},"type":"Feature"},{"geometry":{"coordinates":[[[-122.59508,38.00276],[-122.59621,38.00277],[-122.59678,38.00355],[-122.59621,38.00433],[-122.59568,38.00432],[-122.59525,38.00399],[-122.5948,38.00352],[-122.59461,38.00339],[-122.59508,38.00276]]],"type":"Polygon"},"properties":{"bbox":{"roads":{"area":508.3,"pct":2.27}},"city_same":1,"id":"hex:3570:24285"},"type":"Feature"},{"geometry":{"coordinates":[[[-122.59676,38.00667],[-122.59619,38.00745],[-122.59554,38.00745],[-122.59578,38.00629],[-122.59583,38.00625],[-122.59605,38.00624],[-122.59602,38.0061],[-122.59622,38.00612],[-122.59626,38.00598],[-122.59676,38.00667]]],"type":"Polygon"},"properties":{"bbox":{"roads":{"area":122.91,"pct":1.15}},"city_same":1,"id":"hex:3570:24287"},"type":"Feature"},{"geometry":{"coordinates":[[[-122.59619,38.00745],[-122.59675,38.00823],[-122.59633,38.00881],[-122.5961,38.00872],[-122.59619,38.00844],[-122.59583,38.00844],[-122.59582,38.00861],[-122.59532,38.00842],[-122.59514,38.00834],[-122.59519,38.00808],[-122.5954,38.00811],[-122.59554,38.00745],[-122.59619,38.00745]]],"type":"Polygon"},"properties":{"bbox":{"roads":{"area":184.37,"pct":1.48}},"city_same":1,"id":"hex:3570:24288"},"type":"Feature"},{"geometry":{"coordinates":[[[-122.59294,37.97778],[-122.5935,37.97856],[-122.59464,37.97856],[-122.59521,37.97779],[-122.59465,37.977],[-122.59351,37.977],[-122.59294,37.97778]]],"type":"Polygon"},"properties":{"bbox":{"roads":{"area":891.9,"pct":3.43}},"city_same":1,"id":"hex:3571:24268"},"type":"Feature"},{"geometry":{"coordinates":[[[-122.59293,37.97934],[-122.59349,37.98012],[-122.59463,37.98012],[-122.5952,37.97935],[-122.59464,37.97856],[-122.5935,37.97856],[-122.59293,37.97934]]],"type":"Polygon"},"properties":{"bbox":{"parking":{"area":655.72,"pct":2.52},"roads":{"area":1028.4,"pct":3.96}},"city_same":1,"id":"hex:3571:24269"},"type":"Feature"},{"geometry":{"coordinates":[[[-122.59292,37.9809],[-122.59348,37.98168],[-122.59462,37.98169],[-122.5952,37.98091],[-122.59463,37.98012],[-122.59349,37.98012],[-122.59292,37.9809]]],"type":"Polygon"},"properties":{"bbox":{"roads":{"area":2297.98,"pct":8.84}},"city_same":1,"id":"hex:3571:24270"},"type":"Feature"},{"geometry":{"coordinates":[[[-122.59291,37.98246],[-122.59348,37.98324],[-122.59461,37.98325],[-122.59519,37.98247],[-122.59462,37.98169],[-122.59348,37.98168],[-122.59291,37.98246]]],"type":"Polygon"},"properties":{"bbox":{"roads":{"area":3704.07,"pct":14.26}},"city_same":1,"id":"hex:3571:24271"},"type":"Feature"},{"geometry":{"coordinates":[[[-122.5929,37.98402],[-122.59347,37.9848],[-122.59461,37.98481],[-122.59518,37.98403],[-122.59461,37.98325],[-122.59348,37.98324],[-122.5929,37.98402]]],"type":"Polygon"},"properties":{"bbox":{"roads":{"area":2961.24,"pct":11.4}},"city_same":1,"id":"hex:3571:24272"},"type":"Feature"},{"geometry":{"coordinates":[[[-122.59289,37.98558],[-122.59346,37.98636],[-122.5946,37.98637],[-122.59517,37.98559],[-122.59461,37.98481],[-122.59347,37.9848],[-122.59289,37.98558]]],"type":"Polygon"},"properties":{"bbox":{"roads":{"area":3058.61,"pct":11.77}},"city_same":1,"id":"hex:3571:24273"},"type":"Feature"},{"geometry":{"coordinates":[[[-122.59288,37.98714],[-122.59345,37.98793],[-122.59459,37.98793],[-122.59516,37.98715],[-122.5946,37.98637],[-122.59346,37.98636],[-122.59288,37.98714]]],"type":"Polygon"},"properties":{"bbox":{"roads":{"area":2444.64,"pct":9.41}},"city_same":1,"id":"hex:3571:24274"},"type":"Feature"},{"geometry":{"coordinates":[[[-122.59288,37.9887],[-122.59344,37.98949],[-122.59458,37.98949],[-122.59515,37.98871],[-122.59459,37.98793],[-122.59345,37.98793],[-122.59288,37.9887]]],"type":"Polygon"},"properties":{"bbox":{"roads":{"area":2813.81,"pct":10.83}},"city_same":1,"id":"hex:3571:24275"},"type":"Feature"},{"geometry":{"coordinates":[[[-122.59287,37.99027],[-122.59343,37.99105],[-122.59457,37.99105],[-122.59514,37.99027],[-122.59458,37.98949],[-122.59344,37.98949],[-122.59287,37.99027]]],"type":"Polygon"},"properties":{"bbox":{"roads":{"area":2093.6,"pct":8.06}},"city_same":1,"id":"hex:3571:24276"},"type":"Feature"},{"geometry":{"coordinates":[[[-122.59286,37.99183],[-122.59342,37.99261],[-122.59456,37.99261],[-122.59514,37.99183],[-122.59457,37.99105],[-122.59343,37.99105],[-122.59286,37.99183]]],"type":"Polygon"},"properties":{"bbox":{"roads":{"area":3115.71,"pct":11.99}},"city_same":1,"id":"hex:3571:24277"},"type":"Feature"},{"geometry":{"coordinates":[[[-122.59285,37.99339],[-122.59341,37.99417],[-122.59455,37.99417],[-122.59513,37.9934],[-122.59456,37.99261],[-122.59342,37.99261],[-122.59285,37.99339]]],"type":"Polygon"},"properties":{"bbox":{"roads":{"area":3265.74,"pct":12.57}},"city_same":1,"id":"hex:3571:24278"},"type":"Feature"},{"geometry":{"coordinates":[[[-122.59284,37.99495],[-122.59341,37.99573],[-122.59454,37.99574],[-122.59512,37.99496],[-122.59455,37.99417],[-122.59341,37.99417],[-122.59284,37.99495]]],"type":"Polygon"},"properties":{"bbox":{"roads":{"area":307.01,"pct":1.18}},"city_same":1,"id":"hex:3571:24279"},"type":"Feature"},{"geometry":{"coordinates":[[[-122.59283,37.99651],[-122.5934,37.99729],[-122.59454,37.9973],[-122.59511,37.99652],[-122.59454,37.99574],[-122.59341,37.99573],[-122.59283,37.99651]]],"type":"Polygon"},"properties":{"bbox":{"roads":{"area":426.08,"pct":1.64}},"city_same":1,"id":"hex:3571:24280"},"type":"Feature"},{"geometry":{"coordinates":[[[[-122.59339,37.99885],[-122.59282,37.99807],[-122.5934,37.99729],[-122.59454,37.9973],[-122.5946,37.99739],[-122.59343,37.99885],[-122.59339,37.99885]]],[[[-122.59453,37.99886],[-122.59418,37.99886],[-122.59418,37.99885],[-122.59453,37.99886],[-122.59453,37.99886]]],[[[-122.5951,37.99808],[-122.5946,37.99875],[-122.59465,37.99819],[-122.59493,37.99783],[-122.5951,37.99808]]]],"type":"MultiPolygon"},"properties":{"bbox":{"roads":{"area":1860.02,"pct":11.53}},"city_same":1,"id":"hex:3571:24281"},"type":"Feature"},{"geometry":{"coordinates":[[[-122.59508,38.00276],[-122.59461,38.00339],[-122.59412,38.00305],[-122.59403,38.00273],[-122.59445,38.00241],[-122.59457,38.00223],[-122.59434,38.00209],[-122.59451,38.002],[-122.59454,38.00202],[-122.59508,38.00276]]],"type":"Polygon"},"properties":{"bbox":{"roads":{"area":245.82,"pct":3.5}},"city_same":1,"id":"hex:3571:24284"},"type":"Feature"},{"geometry":{"coordinates":[[[-122.59123,37.97699],[-122.5918,37.97777],[-122.59294,37.97778],[-122.59351,37.977],[-122.59294,37.97622],[-122.59181,37.97621],[-122.59123,37.97699]]],"type":"Polygon"},"properties":{"bbox":{"roads":{"area":503.51,"pct":1.94}},"city_same":1,"id":"hex:3572:24268"},"type":"Feature"},{"geometry":{"coordinates":[[[-122.59122,37.97855],[-122.59179,37.97933],[-122.59293,37.97934],[-122.5935,37.97856],[-122.59294,37.97778],[-122.5918,37.97777],[-122.59122,37.97855]]],"type":"Polygon"},"properties":{"bbox":{"parking":{"area":39.52,"pct":0.15},"roads":{"area":1542.82,"pct":5.94}},"city_same":1,"id":"hex:3572:24269"},"type":"Feature"},{"geometry":{"coordinates":[[[-122.59121,37.98011],[-122.59178,37.9809],[-122.59292,37.9809],[-122.59349,37.98012],[-122.59293,37.97934],[-122.59179,37.97933],[-122.59121,37.98011]]],"type":"Polygon"},"properties":{"bbox":{"parking":{"area":2284,"pct":8.79},"roads":{"area":2267.42,"pct":8.73}},"city_same":1,"id":"hex:3572:24270"},"type":"Feature"},{"geometry":{"coordinates":[[[-122.59121,37.98167],[-122.59177,37.98246],[-122.59291,37.98246],[-122.59348,37.98168],[-122.59292,37.9809],[-122.59178,37.9809],[-122.59121,37.98167]]],"type":"Polygon"},"properties":{"bbox":{"roads":{"area":2518.56,"pct":9.69}},"city_same":1,"id":"hex:3572:24271"},"type":"Feature"},{"geometry":{"coordinates":[[[-122.5912,37.98323],[-122.59176,37.98402],[-122.5929,37.98402],[-122.59348,37.98324],[-122.59291,37.98246],[-122.59177,37.98246],[-122.5912,37.98323]]],"type":"Polygon"},"properties":{"bbox":{"roads":{"area":2622.55,"pct":10.09}},"city_same":1,"id":"hex:3572:24272"},"type":"Feature"},{"geometry":{"coordinates":[[[-122.59119,37.9848],[-122.59175,37.98558],[-122.59289,37.98558],[-122.59347,37.9848],[-122.5929,37.98402],[-122.59176,37.98402],[-122.59119,37.9848]]],"type":"Polygon"},"properties":{"bbox":{"roads":{"area":2461.79,"pct":9.48}},"city_same":1,"id":"hex:3572:24273"},"type":"Feature"},{"geometry":{"coordinates":[[[-122.59118,37.98636],[-122.59175,37.98714],[-122.59288,37.98714],[-122.59346,37.98636],[-122.59289,37.98558],[-122.59175,37.98558],[-122.59118,37.98636]]],"type":"Polygon"},"properties":{"bbox":{"roads":{"area":2667.09,"pct":10.27}},"city_same":1,"id":"hex:3572:24274"},"type":"Feature"},{"geometry":{"coordinates":[[[-122.59117,37.98792],[-122.59174,37.9887],[-122.59288,37.9887],[-122.59345,37.98793],[-122.59288,37.98714],[-122.59175,37.98714],[-122.59117,37.98792]]],"type":"Polygon"},"properties":{"bbox":{"roads":{"area":3097.99,"pct":11.92}},"city_same":1,"id":"hex:3572:24275"},"type":"Feature"},{"geometry":{"coordinates":[[[-122.59116,37.98948],[-122.59173,37.99026],[-122.59287,37.99027],[-122.59344,37.98949],[-122.59288,37.9887],[-122.59174,37.9887],[-122.59116,37.98948]]],"type":"Polygon"},"properties":{"bbox":{"parking":{"area":794.86,"pct":3.06},"roads":{"area":4268.52,"pct":16.43}},"city_same":1,"id":"hex:3572:24276"},"type":"Feature"},{"geometry":{"coordinates":[[[-122.59115,37.99104],[-122.59172,37.99182],[-122.59286,37.99183],[-122.59343,37.99105],[-122.59287,37.99027],[-122.59173,37.99026],[-122.59115,37.99104]]],"type":"Polygon"},"properties":{"bbox":{"parking":{"area":541.63,"pct":2.08},"roads":{"area":3007.13,"pct":11.57}},"city_same":1,"id":"hex:3572:24277"},"type":"Feature"},{"geometry":{"coordinates":[[[-122.59115,37.9926],[-122.59171,37.99338],[-122.59285,37.99339],[-122.59342,37.99261],[-122.59286,37.99183],[-122.59172,37.99182],[-122.59115,37.9926]]],"type":"Polygon"},"properties":{"bbox":{"roads":{"area":919.02,"pct":3.54}},"city_same":1,"id":"hex:3572:24278"},"type":"Feature"},{"geometry":{"coordinates":[[[-122.59114,37.99416],[-122.5917,37.99494],[-122.59284,37.99495],[-122.59341,37.99417],[-122.59285,37.99339],[-122.59171,37.99338],[-122.59114,37.99416]]],"type":"Polygon"},"properties":{"bbox":{"roads":{"area":141.47,"pct":0.54}},"city_same":1,"id":"hex:3572:24279"},"type":"Feature"},{"geometry":{"coordinates":[[[-122.59112,37.99728],[-122.59168,37.99807],[-122.59282,37.99807],[-122.5934,37.99729],[-122.59283,37.99651],[-122.59169,37.99651],[-122.59112,37.99728]]],"type":"Polygon"},"properties":{"bbox":{"roads":{"area":344.25,"pct":1.33}},"city_same":1,"id":"hex:3572:24281"},"type":"Feature"},{"geometry":{"coordinates":[[[-122.59111,37.99885],[-122.59168,37.99807],[-122.59282,37.99807],[-122.59339,37.99885],[-122.59299,37.99939],[-122.5915,37.99939],[-122.59111,37.99885]]],"type":"Polygon"},"properties":{"bbox":{"roads":{"area":1608.19,"pct":7.03}},"city_same":1,"id":"hex:3572:24282"},"type":"Feature"},{"geometry":{"coordinates":[[[-122.59181,37.97621],[-122.59123,37.97699],[-122.59009,37.97699],[-122.58957,37.97626],[-122.59021,37.9762],[-122.58991,37.97569],[-122.59001,37.97555],[-122.59039,37.97618],[-122.59171,37.97607],[-122.59181,37.97621]]],"type":"Polygon"},"properties":{"bbox":{"roads":{"area":1458.61,"pct":9.72}},"city_same":1,"id":"hex:3573:24267"},"type":"Feature"},{"geometry":{"coordinates":[[[-122.58952,37.97777],[-122.59008,37.97855],[-122.59122,37.97855],[-122.5918,37.97777],[-122.59123,37.97699],[-122.59009,37.97699],[-122.58952,37.97777]]],"type":"Polygon"},"properties":{"bbox":{"roads":{"area":1690.24,"pct":6.51}},"city_same":1,"id":"hex:3573:24268"},"type":"Feature"},{"geometry":{"coordinates":[[[-122.58951,37.97933],[-122.59008,37.98011],[-122.59121,37.98011],[-122.59179,37.97933],[-122.59122,37.97855],[-122.59008,37.97855],[-122.58951,37.97933]]],"type":"Polygon"},"properties":{"bbox":{"roads":{"area":2109.15,"pct":8.12}},"city_same":1,"id":"hex:3573:24269"},"type":"Feature"},{"geometry":{"coordinates":[[[-122.5895,37.98089],[-122.59007,37.98167],[-122.59121,37.98167],[-122.59178,37.9809],[-122.59121,37.98011],[-122.59008,37.98011],[-122.5895,37.98089]]],"type":"Polygon"},"properties":{"bbox":{"roads":{"area":2540.74,"pct":9.78}},"city_same":1,"id":"hex:3573:24270"},"type":"Feature"},{"geometry":{"coordinates":[[[-122.58949,37.98245],[-122.59006,37.98323],[-122.5912,37.98323],[-122.59177,37.98246],[-122.59121,37.98167],[-122.59007,37.98167],[-122.58949,37.98245]]],"type":"Polygon"},"properties":{"bbox":{"roads":{"area":3099,"pct":11.93}},"city_same":1,"id":"hex:3573:24271"},"type":"Feature"},{"geometry":{"coordinates":[[[-122.58949,37.98401],[-122.59005,37.98479],[-122.59119,37.9848],[-122.59176,37.98402],[-122.5912,37.98323],[-122.59006,37.98323],[-122.58949,37.98401]]],"type":"Polygon"},"properties":{"bbox":{"roads":{"area":2383,"pct":9.17}},"city_same":1,"id":"hex:3573:24272"},"type":"Feature"},{"geometry":{"coordinates":[[[-122.58948,37.98557],[-122.59004,37.98635],[-122.59118,37.98636],[-122.59175,37.98558],[-122.59119,37.9848],[-122.59005,37.98479],[-122.58948,37.98557]]],"type":"Polygon"},"properties":{"bbox":{"parking":{"area":125.16,"pct":0.48},"roads":{"area":3677.57,"pct":14.15}},"city_same":1,"id":"hex:3573:24273"},"type":"Feature"},{"geometry":{"coordinates":[[[-122.58947,37.98713],[-122.59003,37.98791],[-122.59117,37.98792],[-122.59175,37.98714],[-122.59118,37.98636],[-122.59004,37.98635],[-122.58947,37.98713]]],"type":"Polygon"},"properties":{"bbox":{"parking":{"area":1036.52,"pct":3.99},"roads":{"area":4309.77,"pct":16.59}},"city":{"parking":{"area":1036.52,"pct":3.99},"roads":{"area":4241.32,"pct":16.32}},"id":"hex:3573:24274"},"type":"Feature"},{"geometry":{"coordinates":[[[-122.58946,37.98869],[-122.59002,37.98948],[-122.59116,37.98948],[-122.59174,37.9887],[-122.59117,37.98792],[-122.59003,37.98791],[-122.58946,37.98869]]],"type":"Polygon"},"properties":{"bbox":{"roads":{"area":4376.73,"pct":16.85}},"city_same":1,"id":"hex:3573:24275"},"type":"Feature"},{"geometry":{"coordinates":[[[-122.58945,37.99025],[-122.59002,37.99104],[-122.59115,37.99104],[-122.59173,37.99026],[-122.59116,37.98948],[-122.59002,37.98948],[-122.58945,37.99025]]],"type":"Polygon"},"properties":{"bbox":{"roads":{"area":2026.26,"pct":7.8}},"city_same":1,"id":"hex:3573:24276"},"type":"Feature"},{"geometry":{"coordinates":[[[-122.58944,37.99181],[-122.59001,37.9926],[-122.59115,37.9926],[-122.59172,37.99182],[-122.59115,37.99104],[-122.59002,37.99104],[-122.58944,37.99181]]],"type":"Polygon"},"properties":{"bbox":{"roads":{"area":1863.07,"pct":7.17}},"city_same":1,"id":"hex:3573:24277"},"type":"Feature"},{"geometry":{"coordinates":[[[-122.58943,37.99338],[-122.59,37.99416],[-122.59114,37.99416],[-122.59171,37.99338],[-122.59115,37.9926],[-122.59001,37.9926],[-122.58943,37.99338]]],"type":"Polygon"},"properties":{"bbox":{"roads":{"area":785.95,"pct":3.03}},"city_same":1,"id":"hex:3573:24278"},"type":"Feature"},{"geometry":{"coordinates":[[[-122.58942,37.99494],[-122.58999,37.99572],[-122.59113,37.99572],[-122.5917,37.99494],[-122.59114,37.99416],[-122.59,37.99416],[-122.58942,37.99494]]],"type":"Polygon"},"properties":{"bbox":{"roads":{"area":153.28,"pct":0.59}},"city_same":1,"id":"hex:3573:24279"},"type":"Feature"},{"geometry":{"coordinates":[[[-122.58991,37.97569],[-122.58942,37.97488],[-122.589,37.97505],[-122.58877,37.97468],[-122.58863,37.97464],[-122.58946,37.97464],[-122.59001,37.97555],[-122.58991,37.97569]]],"type":"Polygon"},"properties":{"bbox":{"roads":{"area":146.17,"pct":4.24}},"city_same":1,"id":"hex:3574:24267"},"type":"Feature"},{"geometry":{"coordinates":[[[-122.59009,37.97699],[-122.58952,37.97777],[-122.58838,37.97776],[-122.58782,37.97698],[-122.58826,37.97637],[-122.58957,37.97626],[-122.59009,37.97699]]],"type":"Polygon"},"properties":{"bbox":{"roads":{"area":1043.97,"pct":4.23}},"city_same":1,"id":"hex:3574:24268"},"type":"Feature"},{"geometry":{"coordinates":[[[-122.58781,37.97854],[-122.58837,37.97932],[-122.58951,37.97933],[-122.59008,37.97855],[-122.58952,37.97777],[-122.58838,37.97776],[-122.58781,37.97854]]],"type":"Polygon"},"properties":{"bbox":{"roads":{"area":2852.29,"pct":10.98}},"city_same":1,"id":"hex:3574:24269"},"type":"Feature"},{"geometry":{"coordinates":[[[-122.5878,37.9801],[-122.58836,37.98088],[-122.5895,37.98089],[-122.59008,37.98011],[-122.58951,37.97933],[-122.58837,37.97932],[-122.5878,37.9801]]],"type":"Polygon"},"properties":{"bbox":{"roads":{"area":1979.35,"pct":7.62}},"city_same":1,"id":"hex:3574:24270"},"type":"Feature"},{"geometry":{"coordinates":[[[-122.58779,37.98166],[-122.58836,37.98244],[-122.58949,37.98245],[-122.59007,37.98167],[-122.5895,37.98089],[-122.58836,37.98088],[-122.58779,37.98166]]],"type":"Polygon"},"properties":{"bbox":{"roads":{"area":2029.5,"pct":7.81}},"city_same":1,"id":"hex:3574:24271"},"type":"Feature"},{"geometry":{"coordinates":[[[-122.58778,37.98322],[-122.58835,37.98401],[-122.58949,37.98401],[-122.59006,37.98323],[-122.58949,37.98245],[-122.58836,37.98244],[-122.58778,37.98322]]],"type":"Polygon"},"properties":{"bbox":{"roads":{"area":1446.23,"pct":5.57}},"city_same":1,"id":"hex:3574:24272"},"type":"Feature"},{"geometry":{"coordinates":[[[-122.58777,37.98478],[-122.58834,37.98557],[-122.58948,37.98557],[-122.59005,37.98479],[-122.58949,37.98401],[-122.58835,37.98401],[-122.58777,37.98478]]],"type":"Polygon"},"properties":{"bbox":{"roads":{"area":2544.82,"pct":9.8}},"city_same":1,"id":"hex:3574:24273"},"type":"Feature"},{"geometry":{"coordinates":[[[-122.58776,37.98635],[-122.58833,37.98713],[-122.58947,37.98713],[-122.59004,37.98635],[-122.58948,37.98557],[-122.58834,37.98557],[-122.58776,37.98635]]],"type":"Polygon"},"properties":{"bbox":{"parking":{"area":831.79,"pct":3.2},"roads":{"area":3914.25,"pct":15.07}},"city":{"parking":{"area":831.79,"pct":3.2},"roads":{"area":3148.93,"pct":12.12}},"id":"hex:3574:24274"},"type":"Feature"},{"geometry":{"coordinates":[[[-122.58776,37.98791],[-122.58832,37.98869],[-122.58946,37.98869],[-122.59003,37.98791],[-122.58947,37.98713],[-122.58833,37.98713],[-122.58776,37.98791]]],"type":"Polygon"},"properties":{"bbox":{"parking":{"area":1444.01,"pct":5.56},"roads":{"area":4865.37,"pct":18.73}},"city":{"parking":{"area":1444.01,"pct":5.56},"roads":{"area":4706.72,"pct":18.12}},"id":"hex:3574:24275"},"type":"Feature"},{"geometry":{"coordinates":[[[-122.58775,37.98947],[-122.58831,37.99025],[-122.58945,37.99025],[-122.59002,37.98948],[-122.58946,37.98869],[-122.58832,37.98869],[-122.58775,37.98947]]],"type":"Polygon"},"properties":{"bbox":{"roads":{"area":1676.04,"pct":6.45}},"city_same":1,"id":"hex:3574:24276"},"type":"Feature"},{"geometry":{"coordinates":[[[-122.58773,37.99259],[-122.58829,37.99337],[-122.58943,37.99338],[-122.59001,37.9926],[-122.58944,37.99181],[-122.5883,37.99181],[-122.58773,37.99259]]],"type":"Polygon"},"properties":{"bbox":{"roads":{"area":1777.84,"pct":6.84}},"city_same":1,"id":"hex:3574:24278"},"type":"Feature"},{"geometry":{"coordinates":[[[-122.58772,37.99415],[-122.58829,37.99493],[-122.58942,37.99494],[-122.59,37.99416],[-122.58943,37.99338],[-122.58829,37.99337],[-122.58772,37.99415]]],"type":"Polygon"},"properties":{"bbox":{"roads":{"area":1306.08,"pct":5.03}},"city_same":1,"id":"hex:3574:24279"},"type":"Feature"},{"geometry":{"coordinates":[[[-122.58782,37.97698],[-122.58668,37.97697],[-122.58636,37.97654],[-122.58826,37.97637],[-122.58782,37.97698]]],"type":"Polygon"},"properties":{"bbox":{"roads":{"area":96.25,"pct":1.25}},"city_same":1,"id":"hex:3575:24267"},"type":"Feature"},{"geometry":{"coordinates":[[[-122.5861,37.97775],[-122.58667,37.97854],[-122.58781,37.97854],[-122.58838,37.97776],[-122.58782,37.97698],[-122.58668,37.97697],[-122.5861,37.97775]]],"type":"Polygon"},"properties":{"bbox":{"roads":{"area":2227.75,"pct":8.57}},"city_same":1,"id":"hex:3575:24268"},"type":"Feature"},{"geometry":{"coordinates":[[[-122.5861,37.97931],[-122.58666,37.9801],[-122.5878,37.9801],[-122.58837,37.97932],[-122.58781,37.97854],[-122.58667,37.97854],[-122.5861,37.97931]]],"type":"Polygon"},"properties":{"bbox":{"roads":{"area":1171.43,"pct":4.51}},"city_same":1,"id":"hex:3575:24269"},"type":"Feature"},{"geometry":{"coordinates":[[[-122.58609,37.98088],[-122.58665,37.98166],[-122.58779,37.98166],[-122.58836,37.98088],[-122.5878,37.9801],[-122.58666,37.9801],[-122.58609,37.98088]]],"type":"Polygon"},"properties":{"bbox":{"parking":{"area":244.13,"pct":0.94},"roads":{"area":369.24,"pct":1.42}},"city_same":1,"id":"hex:3575:24270"},"type":"Feature"},{"geometry":{"coordinates":[[[-122.58608,37.98244],[-122.58664,37.98322],[-122.58778,37.98322],[-122.58836,37.98244],[-122.58779,37.98166],[-122.58665,37.98166],[-122.58608,37.98244]]],"type":"Polygon"},"properties":{"bbox":{"parking":{"area":279.97,"pct":1.08},"roads":{"area":2038.82,"pct":7.85}},"city_same":1,"id":"hex:3575:24271"},"type":"Feature"},{"geometry":{"coordinates":[[[-122.58607,37.984],[-122.58663,37.98478],[-122.58777,37.98478],[-122.58835,37.98401],[-122.58778,37.98322],[-122.58664,37.98322],[-122.58607,37.984]]],"type":"Polygon"},"properties":{"bbox":{"roads":{"area":1843.28,"pct":7.09}},"city_same":1,"id":"hex:3575:24272"},"type":"Feature"},{"geometry":{"coordinates":[[[-122.58606,37.98556],[-122.58663,37.98634],[-122.58776,37.98635],[-122.58834,37.98557],[-122.58777,37.98478],[-122.58663,37.98478],[-122.58606,37.98556]]],"type":"Polygon"},"properties":{"bbox":{"roads":{"area":1862.39,"pct":7.17}},"city_same":1,"id":"hex:3575:24273"},"type":"Feature"},{"geometry":{"coordinates":[[[-122.58605,37.98712],[-122.58662,37.9879],[-122.58776,37.98791],[-122.58833,37.98713],[-122.58776,37.98635],[-122.58663,37.98634],[-122.58605,37.98712]]],"type":"Polygon"},"properties":{"bbox":{"parking":{"area":1454.32,"pct":5.6},"roads":{"area":5668.68,"pct":21.82}},"city":{"parking":{"area":1454.32,"pct":5.6},"roads":{"area":4366.9,"pct":16.81}},"id":"hex:3575:24274"},"type":"Feature"},{"geometry":{"coordinates":[[[-122.58604,37.98868],[-122.58661,37.98946],[-122.58775,37.98947],[-122.58832,37.98869],[-122.58776,37.98791],[-122.58662,37.9879],[-122.58604,37.98868]]],"type":"Polygon"},"properties":{"bbox":{"roads":{"area":1693.05,"pct":6.52}},"city_same":1,"id":"hex:3575:24275"},"type":"Feature"},{"geometry":{"coordinates":[[[-122.58603,37.99024],[-122.5866,37.99102],[-122.58774,37.99103],[-122.58831,37.99025],[-122.58775,37.98947],[-122.58661,37.98946],[-122.58603,37.99024]]],"type":"Polygon"},"properties":{"bbox":{"roads":{"area":1441.71,"pct":5.55}},"city_same":1,"id":"hex:3575:24276"},"type":"Feature"},{"geometry":{"coordinates":[[[-122.58603,37.9918],[-122.58659,37.99259],[-122.58773,37.99259],[-122.5883,37.99181],[-122.58774,37.99103],[-122.5866,37.99102],[-122.58603,37.9918]]],"type":"Polygon"},"properties":{"bbox":{"roads":{"area":67.43,"pct":0.26}},"city_same":1,"id":"hex:3575:24277"},"type":"Feature"},{"geometry":{"coordinates":[[[-122.58602,37.99336],[-122.58658,37.99415],[-122.58772,37.99415],[-122.58829,37.99337],[-122.58773,37.99259],[-122.58659,37.99259],[-122.58602,37.99336]]],"type":"Polygon"},"properties":{"bbox":{"roads":{"area":1322.64,"pct":5.09}},"city_same":1,"id":"hex:3575:24278"},"type":"Feature"},{"geometry":{"coordinates":[[[-122.58601,37.99492],[-122.58657,37.99571],[-122.58771,37.99571],[-122.58829,37.99493],[-122.58772,37.99415],[-122.58658,37.99415],[-122.58601,37.99492]]],"type":"Polygon"},"properties":{"bbox":{"roads":{"area":451.1,"pct":1.74}},"city_same":1,"id":"hex:3575:24279"},"type":"Feature"},{"geometry":{"coordinates":[[[-122.58439,37.97853],[-122.58496,37.97931],[-122.5861,37.97931],[-122.58667,37.97854],[-122.5861,37.97775],[-122.58497,37.97775],[-122.58439,37.97853]]],"type":"Polygon"},"properties":{"bbox":{"roads":{"area":1085.32,"pct":4.18}},"city_same":1,"id":"hex:3576:24269"},"type":"Feature"},{"geometry":{"coordinates":[[[-122.58437,37.98165],[-122.58494,37.98243],[-122.58608,37.98244],[-122.58665,37.98166],[-122.58609,37.98088],[-122.58495,37.98087],[-122.58437,37.98165]]],"type":"Polygon"},"properties":{"bbox":{"roads":{"area":270.85,"pct":1.04}},"city_same":1,"id":"hex:3576:24271"},"type":"Feature"},{"geometry":{"coordinates":[[[-122.58437,37.98321],[-122.58493,37.98399],[-122.58607,37.984],[-122.58664,37.98322],[-122.58608,37.98244],[-122.58494,37.98243],[-122.58437,37.98321]]],"type":"Polygon"},"properties":{"bbox":{"roads":{"area":1093.94,"pct":4.21}},"city_same":1,"id":"hex:3576:24272"},"type":"Feature"},{"geometry":{"coordinates":[[[-122.58435,37.98633],[-122.58491,37.98712],[-122.58605,37.98712],[-122.58663,37.98634],[-122.58606,37.98556],[-122.58492,37.98555],[-122.58435,37.98633]]],"type":"Polygon"},"properties":{"bbox":{"parking":{"area":1084.66,"pct":4.17},"roads":{"area":4274.94,"pct":16.45}},"city":{"parking":{"area":1084.66,"pct":4.17},"roads":{"area":3002.73,"pct":11.56}},"id":"hex:3576:24274"},"type":"Feature"},{"geometry":{"coordinates":[[[-122.58434,37.98789],[-122.5849,37.98868],[-122.58604,37.98868],[-122.58662,37.9879],[-122.58605,37.98712],[-122.58491,37.98712],[-122.58434,37.98789]]],"type":"Polygon"},"properties":{"bbox":{"roads":{"area":2914.57,"pct":11.22}},"city_same":1,"id":"hex:3576:24275"},"type":"Feature"},{"geometry":{"coordinates":[[[-122.58433,37.98946],[-122.5849,37.99024],[-122.58603,37.99024],[-122.58661,37.98946],[-122.58604,37.98868],[-122.5849,37.98868],[-122.58433,37.98946]]],"type":"Polygon"},"properties":{"bbox":{"roads":{"area":2869.46,"pct":11.04}},"city_same":1,"id":"hex:3576:24276"},"type":"Feature"},{"geometry":{"coordinates":[[[-122.58432,37.99102],[-122.58489,37.9918],[-122.58603,37.9918],[-122.5866,37.99102],[-122.58603,37.99024],[-122.5849,37.99024],[-122.58432,37.99102]]],"type":"Polygon"},"properties":{"bbox":{"roads":{"area":2285.33,"pct":8.8}},"city_same":1,"id":"hex:3576:24277"},"type":"Feature"},{"geometry":{"coordinates":[[[-122.58489,37.9918],[-122.58603,37.9918],[-122.58659,37.99259],[-122.58602,37.99336],[-122.58488,37.99336],[-122.58449,37.99282],[-122.58436,37.99251],[-122.58489,37.9918]]],"type":"Polygon"},"properties":{"bbox":{"roads":{"area":1303.15,"pct":5.04}},"city_same":1,"id":"hex:3576:24278"},"type":"Feature"},{"geometry":{"coordinates":[[[-122.58269,37.97774],[-122.58325,37.97852],[-122.58439,37.97853],[-122.58497,37.97775],[-122.5844,37.97697],[-122.58326,37.97696],[-122.58269,37.97774]]],"type":"Polygon"},"properties":{"bbox":{"roads":{"area":959.59,"pct":3.69}},"city_same":1,"id":"hex:3577:24268"},"type":"Feature"},{"geometry":{"coordinates":[[[-122.58267,37.98086],[-122.58324,37.98165],[-122.58437,37.98165],[-122.58495,37.98087],[-122.58438,37.98009],[-122.58324,37.98008],[-122.58267,37.98086]]],"type":"Polygon"},"properties":{"bbox":{"roads":{"area":1072.88,"pct":4.13}},"city_same":1,"id":"hex:3577:24270"},"type":"Feature"},{"geometry":{"coordinates":[[[-122.58266,37.98242],[-122.58323,37.98321],[-122.58437,37.98321],[-122.58494,37.98243],[-122.58437,37.98165],[-122.58324,37.98165],[-122.58266,37.98242]]],"type":"Polygon"},"properties":{"bbox":{"roads":{"area":1182.03,"pct":4.55}},"city_same":1,"id":"hex:3577:24271"},"type":"Feature"},{"geometry":{"coordinates":[[[-122.58265,37.98399],[-122.58322,37.98477],[-122.58436,37.98477],[-122.58493,37.98399],[-122.58437,37.98321],[-122.58323,37.98321],[-122.58265,37.98399]]],"type":"Polygon"},"properties":{"bbox":{"roads":{"area":1131.84,"pct":4.36}},"city_same":1,"id":"hex:3577:24272"},"type":"Feature"},{"geometry":{"coordinates":[[[-122.58264,37.98555],[-122.58321,37.98633],[-122.58435,37.98633],[-122.58492,37.98555],[-122.58436,37.98477],[-122.58322,37.98477],[-122.58264,37.98555]]],"type":"Polygon"},"properties":{"bbox":{"parking":{"area":539.67,"pct":2.08},"roads":{"area":2135.88,"pct":8.22}},"city":{"parking":{"area":539.67,"pct":2.08},"roads":{"area":1122.88,"pct":4.32}},"id":"hex:3577:24273"},"type":"Feature"},{"geometry":{"coordinates":[[[-122.58264,37.98711],[-122.5832,37.98789],[-122.58434,37.98789],[-122.58491,37.98712],[-122.58435,37.98633],[-122.58321,37.98633],[-122.58264,37.98711]]],"type":"Polygon"},"properties":{"bbox":{"parking":{"area":1721.67,"pct":6.63},"roads":{"area":2266.73,"pct":8.72}},"city_same":1,"id":"hex:3577:24274"},"type":"Feature"},{"geometry":{"coordinates":[[[-122.5832,37.98789],[-122.58434,37.98789],[-122.5849,37.98868],[-122.58433,37.98946],[-122.58319,37.98945],[-122.58284,37.98897],[-122.58268,37.9886],[-122.5832,37.98789]]],"type":"Polygon"},"properties":{"bbox":{"roads":{"area":1837.37,"pct":7.11}},"city_same":1,"id":"hex:3577:24275"},"type":"Feature"},{"geometry":{"coordinates":[[[-122.58319,37.98945],[-122.58433,37.98946],[-122.5849,37.99024],[-122.58432,37.99102],[-122.58374,37.99101],[-122.58358,37.99063],[-122.58354,37.99055],[-122.58311,37.98956],[-122.58319,37.98945]]],"type":"Polygon"},"properties":{"bbox":{"roads":{"area":1408.42,"pct":7.7}},"city_same":1,"id":"hex:3577:24276"},"type":"Feature"},{"geometry":{"coordinates":[[[-122.58432,37.99102],[-122.58489,37.9918],[-122.58436,37.99251],[-122.58374,37.99101],[-122.58432,37.99102]]],"type":"Polygon"},"properties":{"bbox":{"roads":{"area":94.57,"pct":1.15}},"city_same":1,"id":"hex:3577:24277"},"type":"Feature"},{"geometry":{"coordinates":[[[-122.58326,37.97696],[-122.58269,37.97774],[-122.58155,37.97774],[-122.58104,37.97703],[-122.58125,37.97701],[-122.58149,37.97699],[-122.58317,37.97683],[-122.58326,37.97696]]],"type":"Polygon"},"properties":{"bbox":{"roads":{"area":605.66,"pct":4.45}},"city_same":1,"id":"hex:3578:24268"},"type":"Feature"},{"geometry":{"coordinates":[[[-122.58155,37.97774],[-122.58269,37.97774],[-122.58325,37.97852],[-122.58268,37.9793],[-122.5824,37.9793],[-122.58232,37.97917],[-122.58228,37.97912],[-122.58148,37.97783],[-122.58155,37.97774]]],"type":"Polygon"},"properties":{"bbox":{"roads":{"area":82.66,"pct":0.52}},"city_same":1,"id":"hex:3578:24269"},"type":"Feature"},{"geometry":{"coordinates":[[[-122.58268,37.9793],[-122.58324,37.98008],[-122.58267,37.98086],[-122.58196,37.98086],[-122.58256,37.97956],[-122.5824,37.9793],[-122.58268,37.9793]]],"type":"Polygon"},"properties":{"bbox":{"roads":{"area":36.13,"pct":0.36}},"city_same":1,"id":"hex:3578:24270"},"type":"Feature"},{"geometry":{"coordinates":[[[-122.58267,37.98086],[-122.58324,37.98165],[-122.58266,37.98242],[-122.58152,37.98242],[-122.58136,37.98219],[-122.58196,37.98086],[-122.58267,37.98086]]],"type":"Polygon"},"properties":{"bbox":{"roads":{"area":691.6,"pct":3.43}},"city_same":1,"id":"hex:3578:24271"},"type":"Feature"},{"geometry":{"coordinates":[[[-122.58095,37.9832],[-122.58151,37.98398],[-122.58265,37.98399],[-122.58323,37.98321],[-122.58266,37.98242],[-122.58152,37.98242],[-122.58095,37.9832]]],"type":"Polygon"},"properties":{"bbox":{"roads":{"area":1020.24,"pct":3.93}},"city_same":1,"id":"hex:3578:24272"},"type":"Feature"},{"geometry":{"coordinates":[[[-122.58094,37.98476],[-122.58151,37.98554],[-122.58264,37.98555],[-122.58322,37.98477],[-122.58265,37.98399],[-122.58151,37.98398],[-122.58094,37.98476]]],"type":"Polygon"},"properties":{"bbox":{"roads":{"area":3863.5,"pct":14.87}},"city":{"roads":{"area":2770.54,"pct":10.66}},"id":"hex:3578:24273"},"type":"Feature"},{"geometry":{"coordinates":[[[-122.58093,37.98632],[-122.58151,37.98554],[-122.58264,37.98555],[-122.58321,37.98633],[-122.58264,37.98711],[-122.58202,37.98711],[-122.58186,37.98676],[-122.58183,37.98656],[-122.5811,37.98655],[-122.58093,37.98632]]],"type":"Polygon"},"properties":{"bbox":{"parking":{"area":1934.95,"pct":8.5},"roads":{"area":4755.32,"pct":20.9}},"city":{"parking":{"area":1934.95,"pct":8.5},"roads":{"area":4375.8,"pct":19.23}},"id":"hex:3578:24274"},"type":"Feature"},{"geometry":{"coordinates":[[[-122.58264,37.98711],[-122.5832,37.98789],[-122.58268,37.9886],[-122.58202,37.98711],[-122.58264,37.98711]]],"type":"Polygon"},"properties":{"bbox":{"roads":{"area":710.25,"pct":8.43}},"city_same":1,"id":"hex:3578:24275"},"type":"Feature"},{"geometry":{"coordinates":[[[-122.58152,37.98242],[-122.58095,37.9832],[-122.58089,37.9832],[-122.58136,37.98219],[-122.58152,37.98242]]],"type":"Polygon"},"properties":{"bbox":{"roads":{"area":94.42,"pct":6.01}},"city_same":1,"id":"hex:3579:24271"},"type":"Feature"},{"geometry":{"coordinates":[[[-122.58095,37.9832],[-122.58151,37.98398],[-122.58094,37.98476],[-122.58018,37.98476],[-122.58089,37.9832],[-122.58095,37.9832]]],"type":"Polygon"},"properties":{"bbox":{"roads":{"area":1238.67,"pct":11.72}},"city":{"roads":{"area":733.57,"pct":6.94}},"id":"hex:3579:24272"},"type":"Feature"},{"geometry":{"coordinates":[[[-122.58094,37.98476],[-122.58151,37.98554],[-122.58093,37.98632],[-122.57979,37.98632],[-122.57959,37.98604],[-122.58018,37.98476],[-122.58094,37.98476]]],"type":"Polygon"},"properties":{"bbox":{"roads":{"area":2230.87,"pct":10.7}},"city_same":1,"id":"hex:3579:24273"},"type":"Feature"},{"geometry":{"coordinates":[[[-122.57979,37.98632],[-122.58093,37.98632],[-122.5811,37.98655],[-122.57963,37.98654],[-122.57979,37.98632]]],"type":"Polygon"},"properties":{"bbox":{"roads":{"area":315.99,"pct":10.84}},"city_same":1,"id":"hex:3579:24274"},"type":"Feature"},{"geometry":{"coordinates":[[[-122.57979,37.98632],[-122.57963,37.98654],[-122.57936,37.98654],[-122.57959,37.98604],[-122.57979,37.98632]]],"type":"Polygon"},"properties":{"bbox":{"roads":{"area":4.08,"pct":0.37}},"city_same":1,"id":"hex:3580:24274"},"type":"Feature"}],"type":"FeatureCollection","v":2}