{"features":[{"geometry":{"coordinates":[[[-118.16481,34.06248],[-118.16443,34.06451],[-118.16401,34.06571],[-118.16203,34.06967],[-118.16337,34.06975],[-118.16172,34.07179],[-118.16156,34.07297],[-118.16181,34.07462],[-118.16052,34.07531],[-118.16036,34.08108],[-118.16067,34.09374],[-118.15936,34.0945],[-118.15934,34.09429],[-118.15589,34.09682],[-118.15546,34.09751],[-118.1553,34.09863],[-118.14178,34.09874],[-118.14179,34.10403],[-118.13477,34.10413],[-118.13473,34.10572],[-118.13532,34.10644],[-118.12791,34.11115],[-118.12173,34.10499],[-118.11688,34.10731],[-118.11295,34.1016],[-118.11275,34.10087],[-118.11293,34.10083],[-118.11297,34.10034],[-118.1138,34.09992],[-118.11326,34.09894],[-118.11359,34.09877],[-118.11333,34.09817],[-118.11353,34.09675],[-118.11301,34.09598],[-118.11249,34.09389],[-118.10778,34.09583],[-118.10795,34.0916],[-118.10839,34.09162],[-118.10831,34.0852],[-118.10783,34.08475],[-118.10831,34.08393],[-118.10819,34.07168],[-118.10928,34.07169],[-118.10923,34.0699],[-118.13571,34.06978],[-118.13568,34.06792],[-118.13516,34.06793],[-118.13498,34.06327],[-118.13551,34.06327],[-118.13552,34.06246],[-118.1384,34.06244],[-118.13978,34.06232],[-118.14076,34.06204],[-118.14167,34.0615],[-118.14309,34.06096],[-118.14302,34.06059],[-118.14422,34.06001],[-118.14518,34.05996],[-118.14592,34.06014],[-118.14815,34.06142],[-118.14946,34.06169],[-118.15128,34.06177],[-118.1527,34.06228],[-118.16484,34.06228],[-118.16481,34.06248]],[[-118.11196,34.08982],[-118.11191,34.08956],[-118.11225,34.08873],[-118.1118,34.0884],[-118.11153,34.08855],[-118.11147,34.08897],[-118.11169,34.08973],[-118.11196,34.08982]],[[-118.11453,34.08839],[-118.11415,34.08796],[-118.11385,34.08816],[-118.11401,34.0885],[-118.11455,34.08859],[-118.11468,34.08844],[-118.11453,34.08839]],[[-118.11491,34.08948],[-118.11521,34.08945],[-118.11533,34.08918],[-118.11472,34.08851],[-118.11456,34.08922],[-118.11491,34.08948]]],"type":"Polygon"},"properties":{"type":"boundary"},"type":"Feature"}],"type":"FeatureCollection"}