{"features":[{"geometry":{"coordinates":[[[-118.18462,33.81643],[-118.1846,33.80438],[-118.18179,33.80432],[-118.18177,33.80064],[-118.16696,33.79105],[-118.16711,33.79088],[-118.16566,33.78994],[-118.15879,33.78993],[-118.15879,33.78979],[-118.15017,33.78979],[-118.15016,33.7899],[-118.14963,33.7899],[-118.15074,33.79083],[-118.15188,33.79254],[-118.15179,33.79343],[-118.15466,33.79344],[-118.15466,33.7964],[-118.15889,33.79638],[-118.15887,33.79708],[-118.15149,33.79707],[-118.15145,33.80439],[-118.15581,33.80439],[-118.15581,33.80399],[-118.15885,33.80209],[-118.15893,33.80986],[-118.16122,33.80987],[-118.16121,33.80905],[-118.16321,33.80915],[-118.16322,33.81167],[-118.1764,33.81166],[-118.1764,33.80444],[-118.18064,33.80445],[-118.18064,33.81162],[-118.17848,33.81162],[-118.1785,33.81352],[-118.17417,33.81353],[-118.17416,33.8153],[-118.17191,33.8153],[-118.17195,33.81865],[-118.17413,33.81866],[-118.17413,33.81887],[-118.17527,33.81887],[-118.17527,33.81864],[-118.18461,33.81865],[-118.18448,33.81698],[-118.18423,33.81698],[-118.18424,33.81638],[-118.18462,33.81643]]],"type":"Polygon"},"properties":{"type":"boundary"},"type":"Feature"}],"type":"FeatureCollection"}