{"features":[{"geometry":{"coordinates":[[[-118.18368,33.80461],[-118.1835,33.80436],[-118.1846,33.80438],[-118.1846,33.8046],[-118.18368,33.80461]]],"type":"Polygon"},"properties":{"bbox":{"roads":{"area":1325.2,"pct":53.98}},"city_same":1,"id":"hex:2082:17279"},"type":"Feature"},{"geometry":{"coordinates":[[[-118.1837,33.80656],[-118.18301,33.80559],[-118.18368,33.80461],[-118.1846,33.8046],[-118.1846,33.80655],[-118.1837,33.80656]]],"type":"Polygon"},"properties":{"bbox":{"parking":{"area":61.46,"pct":0.25},"roads":{"area":3494.33,"pct":13.96}},"city_same":1,"id":"hex:2082:17280"},"type":"Feature"},{"geometry":{"coordinates":[[[-118.18373,33.80851],[-118.18304,33.80754],[-118.1837,33.80656],[-118.1846,33.80655],[-118.1846,33.80851],[-118.18373,33.80851]]],"type":"Polygon"},"properties":{"bbox":{"roads":{"area":3318.4,"pct":13.52}},"city_same":1,"id":"hex:2082:17281"},"type":"Feature"},{"geometry":{"coordinates":[[[-118.18376,33.81047],[-118.18307,33.8095],[-118.18373,33.80851],[-118.1846,33.80851],[-118.18461,33.81046],[-118.18376,33.81047]]],"type":"Polygon"},"properties":{"bbox":{"roads":{"area":2188.68,"pct":9.1}},"city_same":1,"id":"hex:2082:17282"},"type":"Feature"},{"geometry":{"coordinates":[[[-118.18378,33.81242],[-118.18309,33.81145],[-118.18376,33.81047],[-118.18461,33.81046],[-118.18461,33.81241],[-118.18378,33.81242]]],"type":"Polygon"},"properties":{"bbox":{"parking":{"area":3586.42,"pct":15.21},"roads":{"area":3427.66,"pct":14.54}},"city":{"parking":{"area":3586.42,"pct":15.21},"roads":{"area":1206.13,"pct":5.12}},"id":"hex:2082:17283"},"type":"Feature"},{"geometry":{"coordinates":[[[-118.18381,33.81437],[-118.18312,33.8134],[-118.18378,33.81242],[-118.18461,33.81241],[-118.18461,33.81436],[-118.18381,33.81437]]],"type":"Polygon"},"properties":{"bbox":{"parking":{"area":8226.09,"pct":35.61},"roads":{"area":2526.25,"pct":10.94}},"city_same":1,"id":"hex:2082:17284"},"type":"Feature"},{"geometry":{"coordinates":[[[-118.18384,33.81632],[-118.18315,33.81535],[-118.18381,33.81437],[-118.18461,33.81436],[-118.18462,33.81632],[-118.18384,33.81632]]],"type":"Polygon"},"properties":{"bbox":{"roads":{"area":7588.69,"pct":33.55}},"id":"hex:2082:17285"},"type":"Feature"},{"geometry":{"coordinates":[[[-118.18386,33.81828],[-118.18318,33.81731],[-118.18384,33.81632],[-118.18462,33.81632],[-118.18462,33.81643],[-118.18424,33.81638],[-118.18423,33.81698],[-118.18448,33.81698],[-118.1845,33.81786],[-118.18461,33.81786],[-118.18461,33.81827],[-118.18386,33.81828]]],"type":"Polygon"},"properties":{"bbox":{"parking":{"area":546.77,"pct":2.92},"roads":{"area":3702.96,"pct":19.81}},"city":{"parking":{"area":546.77,"pct":2.92},"roads":{"area":3701.86,"pct":19.8}},"id":"hex:2082:17286"},"type":"Feature"},{"geometry":{"coordinates":[[[-118.18386,33.81828],[-118.18461,33.81827],[-118.18461,33.81865],[-118.18361,33.81865],[-118.18386,33.81828]]],"type":"Polygon"},"properties":{"bbox":{"roads":{"area":354.42,"pct":10.5}},"city_same":1,"id":"hex:2082:17287"},"type":"Feature"},{"geometry":{"coordinates":[[[-118.18161,33.8017],[-118.18092,33.80073],[-118.18122,33.80029],[-118.18177,33.80064],[-118.18177,33.8017],[-118.18161,33.8017]]],"type":"Polygon"},"properties":{"bbox":{"roads":{"area":751.82,"pct":10.46}},"city_same":1,"id":"hex:2083:17277"},"type":"Feature"},{"geometry":{"coordinates":[[[-118.18164,33.80365],[-118.18095,33.80268],[-118.18161,33.8017],[-118.18177,33.8017],[-118.18179,33.80365],[-118.18164,33.80365]]],"type":"Polygon"},"properties":{"bbox":{"roads":{"area":1450.59,"pct":14.67}},"city_same":1,"id":"hex:2083:17278"},"type":"Feature"},{"geometry":{"coordinates":[[[-118.18368,33.80461],[-118.18301,33.80559],[-118.18166,33.8056],[-118.18098,33.80464],[-118.18164,33.80365],[-118.18179,33.80365],[-118.18179,33.80432],[-118.1835,33.80436],[-118.18368,33.80461]]],"type":"Polygon"},"properties":{"bbox":{"parking":{"area":252.97,"pct":0.84},"roads":{"area":6500.21,"pct":21.5}},"city_same":1,"id":"hex:2083:17279"},"type":"Feature"},{"geometry":{"coordinates":[[[-118.181,33.80659],[-118.18169,33.80756],[-118.18304,33.80754],[-118.1837,33.80656],[-118.18301,33.80559],[-118.18166,33.8056],[-118.181,33.80659]]],"type":"Polygon"},"properties":{"bbox":{"roads":{"area":3780.61,"pct":9.31}},"city_same":1,"id":"hex:2083:17280"},"type":"Feature"},{"geometry":{"coordinates":[[[-118.18103,33.80854],[-118.18172,33.80951],[-118.18307,33.8095],[-118.18373,33.80851],[-118.18304,33.80754],[-118.18169,33.80756],[-118.18103,33.80854]]],"type":"Polygon"},"properties":{"bbox":{"roads":{"area":1338.97,"pct":3.3}},"city_same":1,"id":"hex:2083:17281"},"type":"Feature"},{"geometry":{"coordinates":[[[-118.18106,33.81049],[-118.18174,33.81146],[-118.18309,33.81145],[-118.18376,33.81047],[-118.18307,33.8095],[-118.18172,33.80951],[-118.18106,33.81049]]],"type":"Polygon"},"properties":{"bbox":{"roads":{"area":1845.63,"pct":4.55}},"city_same":1,"id":"hex:2083:17282"},"type":"Feature"},{"geometry":{"coordinates":[[[-118.18108,33.81244],[-118.18177,33.81341],[-118.18312,33.8134],[-118.18378,33.81242],[-118.18309,33.81145],[-118.18174,33.81146],[-118.18108,33.81244]]],"type":"Polygon"},"properties":{"bbox":{"parking":{"area":13416.85,"pct":33.05},"roads":{"area":7774.5,"pct":19.15}},"city":{"parking":{"area":13416.85,"pct":33.05},"roads":{"area":5503.12,"pct":13.56}},"id":"hex:2083:17283"},"type":"Feature"},{"geometry":{"coordinates":[[[-118.18111,33.8144],[-118.1818,33.81537],[-118.18315,33.81535],[-118.18381,33.81437],[-118.18312,33.8134],[-118.18177,33.81341],[-118.18111,33.8144]]],"type":"Polygon"},"properties":{"bbox":{"roads":{"area":12866.53,"pct":31.69}},"city":{"roads":{"area":1278.74,"pct":3.15}},"id":"hex:2083:17284"},"type":"Feature"},{"geometry":{"coordinates":[[[-118.18114,33.81635],[-118.18182,33.81732],[-118.18318,33.81731],[-118.18384,33.81632],[-118.18315,33.81535],[-118.1818,33.81537],[-118.18114,33.81635]]],"type":"Polygon"},"properties":{"bbox":{"roads":{"area":6475.05,"pct":15.95}},"city":{"roads":{"area":5831.6,"pct":14.37}},"id":"hex:2083:17285"},"type":"Feature"},{"geometry":{"coordinates":[[[-118.18116,33.8183],[-118.18182,33.81732],[-118.18318,33.81731],[-118.18386,33.81828],[-118.18361,33.81865],[-118.18141,33.81865],[-118.18116,33.8183]]],"type":"Polygon"},"properties":{"bbox":{"roads":{"area":2878.19,"pct":9.82}},"city_same":1,"id":"hex:2083:17286"},"type":"Feature"},{"geometry":{"coordinates":[[[-118.18092,33.80073],[-118.17957,33.80074],[-118.17888,33.79977],[-118.17935,33.79909],[-118.17943,33.79913],[-118.18122,33.80029],[-118.18092,33.80073]]],"type":"Polygon"},"properties":{"bbox":{"roads":{"area":1773.9,"pct":7.91}},"city_same":1,"id":"hex:2084:17277"},"type":"Feature"},{"geometry":{"coordinates":[[[-118.17891,33.80173],[-118.1796,33.8027],[-118.18095,33.80268],[-118.18161,33.8017],[-118.18092,33.80073],[-118.17957,33.80074],[-118.17891,33.80173]]],"type":"Polygon"},"properties":{"bbox":{"roads":{"area":5366.23,"pct":13.22}},"city_same":1,"id":"hex:2084:17278"},"type":"Feature"},{"geometry":{"coordinates":[[[-118.17894,33.80368],[-118.1796,33.8027],[-118.18095,33.80268],[-118.18164,33.80365],[-118.18098,33.80464],[-118.18064,33.80464],[-118.18064,33.80445],[-118.17948,33.80444],[-118.17894,33.80368]]],"type":"Polygon"},"properties":{"bbox":{"parking":{"area":58.16,"pct":0.15},"roads":{"area":8493.74,"pct":22.13}},"city_same":1,"id":"hex:2084:17279"},"type":"Feature"},{"geometry":{"coordinates":[[[-118.18098,33.80464],[-118.18166,33.8056],[-118.181,33.80659],[-118.18064,33.80659],[-118.18064,33.80464],[-118.18098,33.80464]]],"type":"Polygon"},"properties":{"bbox":{"parking":{"area":180.71,"pct":1.31},"roads":{"area":2135.44,"pct":15.51}},"city_same":1,"id":"hex:2084:17280"},"type":"Feature"},{"geometry":{"coordinates":[[[-118.181,33.80659],[-118.18169,33.80756],[-118.18103,33.80854],[-118.18064,33.80854],[-118.18064,33.80659],[-118.181,33.80659]]],"type":"Polygon"},"properties":{"bbox":{"roads":{"area":2358.33,"pct":16.52}},"city_same":1,"id":"hex:2084:17281"},"type":"Feature"},{"geometry":{"coordinates":[[[-118.18103,33.80854],[-118.18172,33.80951],[-118.18106,33.81049],[-118.18064,33.8105],[-118.18064,33.80854],[-118.18103,33.80854]]],"type":"Polygon"},"properties":{"bbox":{"roads":{"area":1709.02,"pct":11.56}},"city_same":1,"id":"hex:2084:17282"},"type":"Feature"},{"geometry":{"coordinates":[[[-118.18106,33.81049],[-118.18174,33.81146],[-118.18108,33.81244],[-118.17973,33.81246],[-118.17914,33.81162],[-118.18064,33.81162],[-118.18064,33.8105],[-118.18106,33.81049]]],"type":"Polygon"},"properties":{"bbox":{"parking":{"area":1044.56,"pct":4.07},"roads":{"area":5250.38,"pct":20.45}},"city":{"parking":{"area":1044.56,"pct":4.07},"roads":{"area":2515.9,"pct":9.8}},"id":"hex:2084:17283"},"type":"Feature"},{"geometry":{"coordinates":[[[-118.17907,33.81344],[-118.17976,33.81441],[-118.18111,33.8144],[-118.18177,33.81341],[-118.18108,33.81244],[-118.17973,33.81246],[-118.17907,33.81344]]],"type":"Polygon"},"properties":{"bbox":{"parking":{"area":4093.16,"pct":10.08},"roads":{"area":7547.09,"pct":18.59}},"city":{"parking":{"area":4093.16,"pct":10.08},"roads":{"area":2640.68,"pct":6.5}},"id":"hex:2084:17284"},"type":"Feature"},{"geometry":{"coordinates":[[[-118.1791,33.81539],[-118.17979,33.81636],[-118.18114,33.81635],[-118.1818,33.81537],[-118.18111,33.8144],[-118.17976,33.81441],[-118.1791,33.81539]]],"type":"Polygon"},"properties":{"bbox":{"roads":{"area":6371.8,"pct":15.7}},"city":{"roads":{"area":4561.02,"pct":11.24}},"id":"hex:2084:17285"},"type":"Feature"},{"geometry":{"coordinates":[[[-118.17912,33.81734],[-118.17981,33.81831],[-118.18116,33.8183],[-118.18182,33.81732],[-118.18114,33.81635],[-118.17979,33.81636],[-118.17912,33.81734]]],"type":"Polygon"},"properties":{"bbox":{"roads":{"area":4723.44,"pct":11.64}},"city_same":1,"id":"hex:2084:17286"},"type":"Feature"},{"geometry":{"coordinates":[[[-118.17981,33.81831],[-118.18116,33.8183],[-118.18141,33.81865],[-118.17959,33.81864],[-118.17981,33.81831]]],"type":"Polygon"},"properties":{"bbox":{"roads":{"area":1036.4,"pct":18.93}},"city_same":1,"id":"hex:2084:17287"},"type":"Feature"},{"geometry":{"coordinates":[[[-118.17888,33.79977],[-118.17753,33.79979],[-118.17684,33.79882],[-118.17746,33.7979],[-118.17928,33.79906],[-118.17935,33.79909],[-118.17888,33.79977]]],"type":"Polygon"},"properties":{"bbox":{"roads":{"area":3452.88,"pct":12.01}},"city_same":1,"id":"hex:2085:17276"},"type":"Feature"},{"geometry":{"coordinates":[[[-118.17687,33.80077],[-118.17756,33.80174],[-118.17891,33.80173],[-118.17957,33.80074],[-118.17888,33.79977],[-118.17753,33.79979],[-118.17687,33.80077]]],"type":"Polygon"},"properties":{"bbox":{"roads":{"area":4990.97,"pct":12.29}},"city_same":1,"id":"hex:2085:17277"},"type":"Feature"},{"geometry":{"coordinates":[[[-118.1769,33.80272],[-118.17759,33.80369],[-118.17894,33.80368],[-118.1796,33.8027],[-118.17891,33.80173],[-118.17756,33.80174],[-118.1769,33.80272]]],"type":"Polygon"},"properties":{"bbox":{"roads":{"area":4562.68,"pct":11.24}},"city_same":1,"id":"hex:2085:17278"},"type":"Feature"},{"geometry":{"coordinates":[[[-118.17759,33.80369],[-118.17894,33.80368],[-118.17948,33.80444],[-118.17708,33.80444],[-118.17759,33.80369]]],"type":"Polygon"},"properties":{"bbox":{"roads":{"area":5921.37,"pct":40.6}},"city_same":1,"id":"hex:2085:17279"},"type":"Feature"},{"geometry":{"coordinates":[[[-118.17973,33.81246],[-118.17907,33.81344],[-118.1785,33.81345],[-118.17848,33.81162],[-118.17914,33.81162],[-118.17973,33.81246]]],"type":"Polygon"},"properties":{"bbox":{"roads":{"area":879.99,"pct":5.06}},"city":{"roads":{"area":342.05,"pct":1.97}},"id":"hex:2085:17283"},"type":"Feature"},{"geometry":{"coordinates":[[[-118.17907,33.81344],[-118.17976,33.81441],[-118.1791,33.81539],[-118.17775,33.81541],[-118.17706,33.81444],[-118.17767,33.81352],[-118.1785,33.81352],[-118.1785,33.81345],[-118.17907,33.81344]]],"type":"Polygon"},"properties":{"bbox":{"roads":{"area":12767.31,"pct":31.92}},"city":{"roads":{"area":1827.9,"pct":4.57}},"id":"hex:2085:17284"},"type":"Feature"},{"geometry":{"coordinates":[[[-118.17708,33.81639],[-118.17777,33.81736],[-118.17912,33.81734],[-118.17979,33.81636],[-118.1791,33.81539],[-118.17775,33.81541],[-118.17708,33.81639]]],"type":"Polygon"},"properties":{"bbox":{"roads":{"area":4672.08,"pct":11.51}},"city_same":1,"id":"hex:2085:17285"},"type":"Feature"},{"geometry":{"coordinates":[[[-118.17711,33.81834],[-118.17777,33.81736],[-118.17912,33.81734],[-118.17981,33.81831],[-118.17959,33.81864],[-118.17733,33.81864],[-118.17711,33.81834]]],"type":"Polygon"},"properties":{"bbox":{"roads":{"area":3809.51,"pct":13.45}},"city_same":1,"id":"hex:2085:17286"},"type":"Feature"},{"geometry":{"coordinates":[[[-118.17684,33.79882],[-118.17549,33.79883],[-118.17481,33.79786],[-118.17547,33.79688],[-118.17596,33.79687],[-118.17612,33.79697],[-118.17647,33.79726],[-118.17693,33.79757],[-118.17746,33.7979],[-118.17684,33.79882]]],"type":"Polygon"},"properties":{"bbox":{"roads":{"area":3663.65,"pct":10.39}},"city":{"roads":{"area":2052.84,"pct":5.82}},"id":"hex:2086:17276"},"type":"Feature"},{"geometry":{"coordinates":[[[-118.17483,33.79981],[-118.17552,33.80078],[-118.17687,33.80077],[-118.17753,33.79979],[-118.17684,33.79882],[-118.17549,33.79883],[-118.17483,33.79981]]],"type":"Polygon"},"properties":{"bbox":{"roads":{"area":4922.08,"pct":12.12}},"city":{"roads":{"area":3093.77,"pct":7.62}},"id":"hex:2086:17277"},"type":"Feature"},{"geometry":{"coordinates":[[[-118.17486,33.80176],[-118.17555,33.80273],[-118.1769,33.80272],[-118.17756,33.80174],[-118.17687,33.80077],[-118.17552,33.80078],[-118.17486,33.80176]]],"type":"Polygon"},"properties":{"bbox":{"roads":{"area":5341.76,"pct":13.16}},"city":{"roads":{"area":3476.63,"pct":8.56}},"id":"hex:2086:17278"},"type":"Feature"},{"geometry":{"coordinates":[[[-118.17557,33.80469],[-118.17489,33.80372],[-118.17555,33.80273],[-118.1769,33.80272],[-118.17759,33.80369],[-118.17708,33.80444],[-118.1764,33.80444],[-118.1764,33.80468],[-118.17557,33.80469]]],"type":"Polygon"},"properties":{"bbox":{"roads":{"area":8179.75,"pct":20.9},"sidewalks":{"area":14.47,"pct":0.04}},"city":{"roads":{"area":5755.11,"pct":14.71},"sidewalks":{"area":14.47,"pct":0.04}},"id":"hex:2086:17279"},"type":"Feature"},{"geometry":{"coordinates":[[[-118.1756,33.80664],[-118.17491,33.80567],[-118.17557,33.80469],[-118.1764,33.80468],[-118.1764,33.80663],[-118.1756,33.80664]]],"type":"Polygon"},"properties":{"bbox":{"roads":{"area":3122.93,"pct":13.58}},"city":{"roads":{"area":1327.13,"pct":5.77}},"id":"hex:2086:17280"},"type":"Feature"},{"geometry":{"coordinates":[[[-118.17563,33.80859],[-118.17494,33.80762],[-118.1756,33.80664],[-118.1764,33.80663],[-118.1764,33.80858],[-118.17563,33.80859]]],"type":"Polygon"},"properties":{"bbox":{"roads":{"area":2643.18,"pct":11.77}},"city":{"roads":{"area":527.08,"pct":2.35}},"id":"hex:2086:17281"},"type":"Feature"},{"geometry":{"coordinates":[[[-118.17565,33.81054],[-118.17497,33.80957],[-118.17563,33.80859],[-118.1764,33.80858],[-118.1764,33.81054],[-118.17565,33.81054]]],"type":"Polygon"},"properties":{"bbox":{"roads":{"area":3670.53,"pct":16.75}},"city":{"roads":{"area":1654.01,"pct":7.55}},"id":"hex:2086:17282"},"type":"Feature"},{"geometry":{"coordinates":[[[-118.17499,33.81153],[-118.17565,33.81054],[-118.1764,33.81054],[-118.1764,33.81166],[-118.17509,33.81167],[-118.17499,33.81153]]],"type":"Polygon"},"properties":{"bbox":{"roads":{"area":2980.31,"pct":23.32}},"city":{"roads":{"area":291.71,"pct":2.28}},"id":"hex:2086:17283"},"type":"Feature"},{"geometry":{"coordinates":[[[-118.17706,33.81444],[-118.17571,33.81445],[-118.17506,33.81353],[-118.17767,33.81352],[-118.17706,33.81444]]],"type":"Polygon"},"properties":{"bbox":{"roads":{"area":6452.92,"pct":34.67}},"id":"hex:2086:17284"},"type":"Feature"},{"geometry":{"coordinates":[[[-118.17505,33.81543],[-118.17573,33.8164],[-118.17708,33.81639],[-118.17775,33.81541],[-118.17706,33.81444],[-118.17571,33.81445],[-118.17505,33.81543]]],"type":"Polygon"},"properties":{"bbox":{"roads":{"area":7301.25,"pct":17.99}},"city":{"roads":{"area":4323.96,"pct":10.65}},"id":"hex:2086:17285"},"type":"Feature"},{"geometry":{"coordinates":[[[-118.17507,33.81738],[-118.17576,33.81835],[-118.17711,33.81834],[-118.17777,33.81736],[-118.17708,33.81639],[-118.17573,33.8164],[-118.17507,33.81738]]],"type":"Polygon"},"properties":{"bbox":{"roads":{"area":4939.02,"pct":12.17},"sidewalks":{"area":53.45,"pct":0.13}},"city_same":1,"id":"hex:2086:17286"},"type":"Feature"},{"geometry":{"coordinates":[[[-118.17576,33.81835],[-118.17711,33.81834],[-118.17733,33.81864],[-118.17557,33.81864],[-118.17576,33.81835]]],"type":"Polygon"},"properties":{"bbox":{"roads":{"area":934.75,"pct":19.97}},"city_same":1,"id":"hex:2086:17287"},"type":"Feature"},{"geometry":{"coordinates":[[[-118.17343,33.79592],[-118.17274,33.79495],[-118.17281,33.79485],[-118.17368,33.79541],[-118.17445,33.79591],[-118.17343,33.79592]]],"type":"Polygon"},"properties":{"bbox":{"roads":{"area":525.13,"pct":8.3}},"city_same":1,"id":"hex:2087:17274"},"type":"Feature"},{"geometry":{"coordinates":[[[-118.17547,33.79688],[-118.17481,33.79786],[-118.17346,33.79787],[-118.17277,33.7969],[-118.17343,33.79592],[-118.17445,33.79591],[-118.17505,33.79629],[-118.17547,33.79688]]],"type":"Polygon"},"properties":{"bbox":{"roads":{"area":4154.88,"pct":10.4}},"city_same":1,"id":"hex:2087:17275"},"type":"Feature"},{"geometry":{"coordinates":[[[-118.17279,33.79886],[-118.17348,33.79983],[-118.17483,33.79981],[-118.17549,33.79883],[-118.17481,33.79786],[-118.17346,33.79787],[-118.17279,33.79886]]],"type":"Polygon"},"properties":{"bbox":{"parking":{"area":2072.21,"pct":5.1},"roads":{"area":3439.35,"pct":8.47}},"city_same":1,"id":"hex:2087:17276"},"type":"Feature"},{"geometry":{"coordinates":[[[-118.17282,33.80081],[-118.17351,33.80178],[-118.17486,33.80176],[-118.17552,33.80078],[-118.17483,33.79981],[-118.17348,33.79983],[-118.17282,33.80081]]],"type":"Polygon"},"properties":{"bbox":{"roads":{"area":4905.71,"pct":12.08}},"city_same":1,"id":"hex:2087:17277"},"type":"Feature"},{"geometry":{"coordinates":[[[-118.17285,33.80276],[-118.17354,33.80373],[-118.17489,33.80372],[-118.17555,33.80273],[-118.17486,33.80176],[-118.17351,33.80178],[-118.17285,33.80276]]],"type":"Polygon"},"properties":{"bbox":{"roads":{"area":1684.13,"pct":4.15}},"city_same":1,"id":"hex:2087:17278"},"type":"Feature"},{"geometry":{"coordinates":[[[-118.17287,33.80471],[-118.17356,33.80568],[-118.17491,33.80567],[-118.17557,33.80469],[-118.17489,33.80372],[-118.17354,33.80373],[-118.17287,33.80471]]],"type":"Polygon"},"properties":{"bbox":{"parking":{"area":4803.43,"pct":11.83},"roads":{"area":7366.56,"pct":18.15}},"city_same":1,"id":"hex:2087:17279"},"type":"Feature"},{"geometry":{"coordinates":[[[-118.1729,33.80666],[-118.17359,33.80763],[-118.17494,33.80762],[-118.1756,33.80664],[-118.17491,33.80567],[-118.17356,33.80568],[-118.1729,33.80666]]],"type":"Polygon"},"properties":{"bbox":{"parking":{"area":404.11,"pct":1},"roads":{"area":3635.98,"pct":8.96}},"city_same":1,"id":"hex:2087:17280"},"type":"Feature"},{"geometry":{"coordinates":[[[-118.17293,33.80862],[-118.17362,33.80959],[-118.17497,33.80957],[-118.17563,33.80859],[-118.17494,33.80762],[-118.17359,33.80763],[-118.17293,33.80862]]],"type":"Polygon"},"properties":{"bbox":{"roads":{"area":4486.94,"pct":11.05}},"city_same":1,"id":"hex:2087:17281"},"type":"Feature"},{"geometry":{"coordinates":[[[-118.17295,33.81057],[-118.17364,33.81154],[-118.17499,33.81153],[-118.17565,33.81054],[-118.17497,33.80957],[-118.17362,33.80959],[-118.17295,33.81057]]],"type":"Polygon"},"properties":{"bbox":{"roads":{"area":4584.97,"pct":11.29}},"city_same":1,"id":"hex:2087:17282"},"type":"Feature"},{"geometry":{"coordinates":[[[-118.17364,33.81154],[-118.17499,33.81153],[-118.17509,33.81167],[-118.17356,33.81167],[-118.17364,33.81154]]],"type":"Polygon"},"properties":{"bbox":{"roads":{"area":972.3,"pct":49.4}},"city":{"roads":{"area":15.43,"pct":0.78}},"id":"hex:2087:17283"},"type":"Feature"},{"geometry":{"coordinates":[[[-118.17571,33.81445],[-118.17505,33.81543],[-118.1737,33.81544],[-118.17359,33.8153],[-118.17416,33.8153],[-118.17417,33.81353],[-118.17506,33.81353],[-118.17571,33.81445]]],"type":"Polygon"},"properties":{"bbox":{"roads":{"area":7236.77,"pct":29.57}},"city":{"roads":{"area":299.5,"pct":1.22}},"id":"hex:2087:17284"},"type":"Feature"},{"geometry":{"coordinates":[[[-118.17303,33.81643],[-118.17372,33.8174],[-118.17507,33.81738],[-118.17573,33.8164],[-118.17505,33.81543],[-118.1737,33.81544],[-118.17303,33.81643]]],"type":"Polygon"},"properties":{"bbox":{"roads":{"area":3221.71,"pct":7.94},"sidewalks":{"area":191.52,"pct":0.47}},"city_same":1,"id":"hex:2087:17285"},"type":"Feature"},{"geometry":{"coordinates":[[[-118.17306,33.81838],[-118.17372,33.8174],[-118.17507,33.81738],[-118.17576,33.81835],[-118.17557,33.81864],[-118.17527,33.81864],[-118.17527,33.81887],[-118.17413,33.81887],[-118.17413,33.81866],[-118.17326,33.81866],[-118.17306,33.81838]]],"type":"Polygon"},"properties":{"bbox":{"roads":{"area":2543,"pct":8.41},"sidewalks":{"area":584.34,"pct":1.93}},"city_same":1,"id":"hex:2087:17286"},"type":"Feature"},{"geometry":{"coordinates":[[[-118.17274,33.79495],[-118.17139,33.79496],[-118.1707,33.79399],[-118.17095,33.79363],[-118.17147,33.79396],[-118.17281,33.79485],[-118.17274,33.79495]]],"type":"Polygon"},"properties":{"bbox":{"roads":{"area":1509.92,"pct":11.37},"sidewalks":{"area":285.21,"pct":2.15}},"city_same":1,"id":"hex:2088:17274"},"type":"Feature"},{"geometry":{"coordinates":[[[-118.17073,33.79595],[-118.17142,33.79692],[-118.17277,33.7969],[-118.17343,33.79592],[-118.17274,33.79495],[-118.17139,33.79496],[-118.17073,33.79595]]],"type":"Polygon"},"properties":{"bbox":{"roads":{"area":4253.79,"pct":10.48}},"city_same":1,"id":"hex:2088:17275"},"type":"Feature"},{"geometry":{"coordinates":[[[-118.17076,33.7979],[-118.17144,33.79887],[-118.17279,33.79886],[-118.17346,33.79787],[-118.17277,33.7969],[-118.17142,33.79692],[-118.17076,33.7979]]],"type":"Polygon"},"properties":{"bbox":{"roads":{"area":4041.72,"pct":9.96}},"city_same":1,"id":"hex:2088:17276"},"type":"Feature"},{"geometry":{"coordinates":[[[-118.17078,33.79985],[-118.17147,33.80082],[-118.17282,33.80081],[-118.17348,33.79983],[-118.17279,33.79886],[-118.17144,33.79887],[-118.17078,33.79985]]],"type":"Polygon"},"properties":{"bbox":{"roads":{"area":5317.69,"pct":13.1}},"city_same":1,"id":"hex:2088:17277"},"type":"Feature"},{"geometry":{"coordinates":[[[-118.17081,33.8018],[-118.1715,33.80277],[-118.17285,33.80276],[-118.17351,33.80178],[-118.17282,33.80081],[-118.17147,33.80082],[-118.17081,33.8018]]],"type":"Polygon"},"properties":{"bbox":{"roads":{"area":3153.78,"pct":7.77}},"city_same":1,"id":"hex:2088:17278"},"type":"Feature"},{"geometry":{"coordinates":[[[-118.17084,33.80376],[-118.17152,33.80473],[-118.17287,33.80471],[-118.17354,33.80373],[-118.17285,33.80276],[-118.1715,33.80277],[-118.17084,33.80376]]],"type":"Polygon"},"properties":{"bbox":{"parking":{"area":138.52,"pct":0.34},"roads":{"area":8307.14,"pct":20.46}},"city_same":1,"id":"hex:2088:17279"},"type":"Feature"},{"geometry":{"coordinates":[[[-118.17086,33.80571],[-118.17155,33.80668],[-118.1729,33.80666],[-118.17356,33.80568],[-118.17287,33.80471],[-118.17152,33.80473],[-118.17086,33.80571]]],"type":"Polygon"},"properties":{"bbox":{"parking":{"area":12.95,"pct":0.03},"roads":{"area":3443.15,"pct":8.48}},"city_same":1,"id":"hex:2088:17280"},"type":"Feature"},{"geometry":{"coordinates":[[[-118.17089,33.80766],[-118.17158,33.80863],[-118.17293,33.80862],[-118.17359,33.80763],[-118.1729,33.80666],[-118.17155,33.80668],[-118.17089,33.80766]]],"type":"Polygon"},"properties":{"bbox":{"roads":{"area":5268,"pct":12.98}},"city_same":1,"id":"hex:2088:17281"},"type":"Feature"},{"geometry":{"coordinates":[[[-118.17092,33.80961],[-118.1716,33.81058],[-118.17295,33.81057],[-118.17362,33.80959],[-118.17293,33.80862],[-118.17158,33.80863],[-118.17092,33.80961]]],"type":"Polygon"},"properties":{"bbox":{"roads":{"area":5800.86,"pct":14.29}},"city_same":1,"id":"hex:2088:17282"},"type":"Feature"},{"geometry":{"coordinates":[[[-118.17094,33.81156],[-118.1716,33.81058],[-118.17295,33.81057],[-118.17364,33.81154],[-118.17356,33.81167],[-118.17101,33.81167],[-118.17094,33.81156]]],"type":"Polygon"},"properties":{"bbox":{"roads":{"area":6039.38,"pct":25.83}},"city":{"roads":{"area":4098.32,"pct":17.53}},"id":"hex:2088:17283"},"type":"Feature"},{"geometry":{"coordinates":[[[-118.1737,33.81544],[-118.17303,33.81643],[-118.17192,33.81644],[-118.17191,33.8153],[-118.17359,33.8153],[-118.1737,33.81544]]],"type":"Polygon"},"properties":{"bbox":{"roads":{"area":1324.05,"pct":7.7}},"city_same":1,"id":"hex:2088:17285"},"type":"Feature"},{"geometry":{"coordinates":[[[-118.17303,33.81643],[-118.17372,33.8174],[-118.17306,33.81838],[-118.17194,33.81839],[-118.17192,33.81644],[-118.17303,33.81643]]],"type":"Polygon"},"properties":{"bbox":{"roads":{"area":4750.41,"pct":16.34}},"city_same":1,"id":"hex:2088:17286"},"type":"Feature"},{"geometry":{"coordinates":[[[-118.17306,33.81838],[-118.17326,33.81866],[-118.17195,33.81865],[-118.17194,33.81839],[-118.17306,33.81838]]],"type":"Polygon"},"properties":{"bbox":{"roads":{"area":516.86,"pct":15.15}},"city_same":1,"id":"hex:2088:17287"},"type":"Feature"},{"geometry":{"coordinates":[[[-118.1707,33.79399],[-118.16935,33.79401],[-118.16866,33.79304],[-118.16908,33.79242],[-118.17095,33.79363],[-118.1707,33.79399]]],"type":"Polygon"},"properties":{"bbox":{"roads":{"area":2072.78,"pct":10.22},"sidewalks":{"area":371.62,"pct":1.83}},"city_same":1,"id":"hex:2089:17273"},"type":"Feature"},{"geometry":{"coordinates":[[[-118.16869,33.79499],[-118.16938,33.79596],[-118.17073,33.79595],[-118.17139,33.79496],[-118.1707,33.79399],[-118.16935,33.79401],[-118.16869,33.79499]]],"type":"Polygon"},"properties":{"bbox":{"parking":{"area":1473.21,"pct":3.63},"roads":{"area":3593.54,"pct":8.85},"sidewalks":{"area":287.96,"pct":0.71}},"city_same":1,"id":"hex:2089:17274"},"type":"Feature"},{"geometry":{"coordinates":[[[-118.16872,33.79694],[-118.16941,33.79791],[-118.17076,33.7979],[-118.17142,33.79692],[-118.17073,33.79595],[-118.16938,33.79596],[-118.16872,33.79694]]],"type":"Polygon"},"properties":{"bbox":{"parking":{"area":632.13,"pct":1.56},"roads":{"area":5111.24,"pct":12.59},"sidewalks":{"area":211.72,"pct":0.52}},"city_same":1,"id":"hex:2089:17275"},"type":"Feature"},{"geometry":{"coordinates":[[[-118.16874,33.79889],[-118.16943,33.79986],[-118.17078,33.79985],[-118.17144,33.79887],[-118.17076,33.7979],[-118.16941,33.79791],[-118.16874,33.79889]]],"type":"Polygon"},"properties":{"bbox":{"roads":{"area":3324.54,"pct":8.19}},"city_same":1,"id":"hex:2089:17276"},"type":"Feature"},{"geometry":{"coordinates":[[[-118.16877,33.80085],[-118.16946,33.80182],[-118.17081,33.8018],[-118.17147,33.80082],[-118.17078,33.79985],[-118.16943,33.79986],[-118.16877,33.80085]]],"type":"Polygon"},"properties":{"bbox":{"roads":{"area":3181.85,"pct":7.84}},"city_same":1,"id":"hex:2089:17277"},"type":"Feature"},{"geometry":{"coordinates":[[[-118.1688,33.8028],[-118.16949,33.80377],[-118.17084,33.80376],[-118.1715,33.80277],[-118.17081,33.8018],[-118.16946,33.80182],[-118.1688,33.8028]]],"type":"Polygon"},"properties":{"bbox":{"parking":{"area":3872.38,"pct":9.54},"roads":{"area":5580.57,"pct":13.75}},"city_same":1,"id":"hex:2089:17278"},"type":"Feature"},{"geometry":{"coordinates":[[[-118.16882,33.80475],[-118.16951,33.80572],[-118.17086,33.80571],[-118.17152,33.80473],[-118.17084,33.80376],[-118.16949,33.80377],[-118.16882,33.80475]]],"type":"Polygon"},"properties":{"bbox":{"parking":{"area":4409.79,"pct":10.86},"roads":{"area":8623.23,"pct":21.24}},"city_same":1,"id":"hex:2089:17279"},"type":"Feature"},{"geometry":{"coordinates":[[[-118.16885,33.8067],[-118.16954,33.80767],[-118.17089,33.80766],[-118.17155,33.80668],[-118.17086,33.80571],[-118.16951,33.80572],[-118.16885,33.8067]]],"type":"Polygon"},"properties":{"bbox":{"roads":{"area":3540.56,"pct":8.72}},"city_same":1,"id":"hex:2089:17280"},"type":"Feature"},{"geometry":{"coordinates":[[[-118.16888,33.80866],[-118.16956,33.80963],[-118.17092,33.80961],[-118.17158,33.80863],[-118.17089,33.80766],[-118.16954,33.80767],[-118.16888,33.80866]]],"type":"Polygon"},"properties":{"bbox":{"roads":{"area":3513.71,"pct":8.66}},"city_same":1,"id":"hex:2089:17281"},"type":"Feature"},{"geometry":{"coordinates":[[[-118.1689,33.81061],[-118.16959,33.81158],[-118.17094,33.81156],[-118.1716,33.81058],[-118.17092,33.80961],[-118.16956,33.80963],[-118.1689,33.81061]]],"type":"Polygon"},"properties":{"bbox":{"roads":{"area":3663.25,"pct":9.02}},"city":{"roads":{"area":3408.84,"pct":8.4}},"id":"hex:2089:17282"},"type":"Feature"},{"geometry":{"coordinates":[[[-118.16959,33.81158],[-118.17094,33.81156],[-118.17101,33.81167],[-118.16953,33.81167],[-118.16959,33.81158]]],"type":"Polygon"},"properties":{"bbox":{"roads":{"area":659.26,"pct":46.9}},"city":{"roads":{"area":21.52,"pct":1.53}},"id":"hex:2089:17283"},"type":"Feature"},{"geometry":{"coordinates":[[[-118.16866,33.79304],[-118.16731,33.79305],[-118.16663,33.79208],[-118.16721,33.79121],[-118.16811,33.7918],[-118.16908,33.79242],[-118.16866,33.79304]]],"type":"Polygon"},"properties":{"bbox":{"roads":{"area":4343.51,"pct":15.98}},"city":{"roads":{"area":1885.7,"pct":6.94}},"id":"hex:2090:17273"},"type":"Feature"},{"geometry":{"coordinates":[[[-118.16665,33.79403],[-118.16734,33.795],[-118.16869,33.79499],[-118.16935,33.79401],[-118.16866,33.79304],[-118.16731,33.79305],[-118.16665,33.79403]]],"type":"Polygon"},"properties":{"bbox":{"roads":{"area":5654.85,"pct":13.93},"sidewalks":{"area":379.91,"pct":0.94}},"city":{"roads":{"area":2183.05,"pct":5.38},"sidewalks":{"area":379.91,"pct":0.94}},"id":"hex:2090:17274"},"type":"Feature"},{"geometry":{"coordinates":[[[-118.16668,33.79598],[-118.16737,33.79695],[-118.16872,33.79694],[-118.16938,33.79596],[-118.16869,33.79499],[-118.16734,33.795],[-118.16668,33.79598]]],"type":"Polygon"},"properties":{"bbox":{"parking":{"area":95.55,"pct":0.24},"roads":{"area":5820.54,"pct":14.34},"sidewalks":{"area":410.61,"pct":1.01}},"city":{"parking":{"area":95.55,"pct":0.24},"roads":{"area":2081.03,"pct":5.13},"sidewalks":{"area":410.61,"pct":1.01}},"id":"hex:2090:17275"},"type":"Feature"},{"geometry":{"coordinates":[[[-118.16671,33.79794],[-118.16739,33.79891],[-118.16874,33.79889],[-118.16941,33.79791],[-118.16872,33.79694],[-118.16737,33.79695],[-118.16671,33.79794]]],"type":"Polygon"},"properties":{"bbox":{"parking":{"area":2978.71,"pct":7.34},"roads":{"area":7921.87,"pct":19.51},"sidewalks":{"area":155.21,"pct":0.38}},"city":{"parking":{"area":2978.71,"pct":7.34},"roads":{"area":4378.13,"pct":10.78},"sidewalks":{"area":155.21,"pct":0.38}},"id":"hex:2090:17276"},"type":"Feature"},{"geometry":{"coordinates":[[[-118.16673,33.79989],[-118.16742,33.80086],[-118.16877,33.80085],[-118.16943,33.79986],[-118.16874,33.79889],[-118.16739,33.79891],[-118.16673,33.79989]]],"type":"Polygon"},"properties":{"bbox":{"roads":{"area":5908.87,"pct":14.56},"sidewalks":{"area":34.09,"pct":0.08}},"city":{"roads":{"area":2383.24,"pct":5.87},"sidewalks":{"area":34.09,"pct":0.08}},"id":"hex:2090:17277"},"type":"Feature"},{"geometry":{"coordinates":[[[-118.16676,33.80184],[-118.16745,33.80281],[-118.1688,33.8028],[-118.16946,33.80182],[-118.16877,33.80085],[-118.16742,33.80086],[-118.16676,33.80184]]],"type":"Polygon"},"properties":{"bbox":{"parking":{"area":5446.68,"pct":13.42},"roads":{"area":9755.44,"pct":24.03},"sidewalks":{"area":16.44,"pct":0.04}},"city":{"parking":{"area":5446.68,"pct":13.42},"roads":{"area":5151.12,"pct":12.69},"sidewalks":{"area":16.44,"pct":0.04}},"id":"hex:2090:17278"},"type":"Feature"},{"geometry":{"coordinates":[[[-118.16678,33.80379],[-118.16747,33.80476],[-118.16882,33.80475],[-118.16949,33.80377],[-118.1688,33.8028],[-118.16745,33.80281],[-118.16678,33.80379]]],"type":"Polygon"},"properties":{"bbox":{"parking":{"area":7116.38,"pct":17.53},"roads":{"area":13998.54,"pct":34.48},"sidewalks":{"area":34.52,"pct":0.09}},"city":{"parking":{"area":7116.38,"pct":17.53},"roads":{"area":8957.05,"pct":22.06},"sidewalks":{"area":34.52,"pct":0.09}},"id":"hex:2090:17279"},"type":"Feature"},{"geometry":{"coordinates":[[[-118.16681,33.80575],[-118.1675,33.80672],[-118.16885,33.8067],[-118.16951,33.80572],[-118.16882,33.80475],[-118.16747,33.80476],[-118.16681,33.80575]]],"type":"Polygon"},"properties":{"bbox":{"parking":{"area":571.49,"pct":1.41},"roads":{"area":9558.78,"pct":23.55}},"city":{"parking":{"area":571.49,"pct":1.41},"roads":{"area":4699.25,"pct":11.58}},"id":"hex:2090:17280"},"type":"Feature"},{"geometry":{"coordinates":[[[-118.16684,33.8077],[-118.16753,33.80867],[-118.16888,33.80866],[-118.16954,33.80767],[-118.16885,33.8067],[-118.1675,33.80672],[-118.16684,33.8077]]],"type":"Polygon"},"properties":{"bbox":{"parking":{"area":9620.84,"pct":23.7},"roads":{"area":10616.92,"pct":26.15}},"city":{"parking":{"area":9620.84,"pct":23.7},"roads":{"area":5825.84,"pct":14.35}},"id":"hex:2090:17281"},"type":"Feature"},{"geometry":{"coordinates":[[[-118.16686,33.80965],[-118.16755,33.81062],[-118.1689,33.81061],[-118.16956,33.80963],[-118.16888,33.80866],[-118.16753,33.80867],[-118.16686,33.80965]]],"type":"Polygon"},"properties":{"bbox":{"roads":{"area":9458.06,"pct":23.3},"sidewalks":{"area":250.05,"pct":0.62}},"city":{"roads":{"area":4814.86,"pct":11.86},"sidewalks":{"area":250.05,"pct":0.62}},"id":"hex:2090:17282"},"type":"Feature"},{"geometry":{"coordinates":[[[-118.16689,33.8116],[-118.16755,33.81062],[-118.1689,33.81061],[-118.16959,33.81158],[-118.16953,33.81167],[-118.16694,33.81167],[-118.16689,33.8116]]],"type":"Polygon"},"properties":{"bbox":{"roads":{"area":7248.98,"pct":32.32},"sidewalks":{"area":207.81,"pct":0.93}},"city":{"roads":{"area":2114.06,"pct":9.43},"sidewalks":{"area":207.81,"pct":0.93}},"id":"hex:2090:17283"},"type":"Feature"},{"geometry":{"coordinates":[[[-118.16525,33.79014],[-118.16511,33.78994],[-118.16566,33.78994],[-118.16595,33.79013],[-118.16525,33.79014]]],"type":"Polygon"},"properties":{"bbox":{"roads":{"area":112.3,"pct":8.88}},"id":"hex:2091:17271"},"type":"Feature"},{"geometry":{"coordinates":[[[-118.16663,33.79208],[-118.16528,33.79209],[-118.16459,33.79112],[-118.16525,33.79014],[-118.16595,33.79013],[-118.16711,33.79088],[-118.16696,33.79105],[-118.16721,33.79121],[-118.16663,33.79208]]],"type":"Polygon"},"properties":{"bbox":{"roads":{"area":4219.29,"pct":11.28}},"city_same":1,"id":"hex:2091:17272"},"type":"Feature"},{"geometry":{"coordinates":[[[-118.16461,33.79308],[-118.1653,33.79405],[-118.16665,33.79403],[-118.16731,33.79305],[-118.16663,33.79208],[-118.16528,33.79209],[-118.16461,33.79308]]],"type":"Polygon"},"properties":{"bbox":{"roads":{"area":5034.13,"pct":12.4}},"city_same":1,"id":"hex:2091:17273"},"type":"Feature"},{"geometry":{"coordinates":[[[-118.16464,33.79503],[-118.16533,33.796],[-118.16668,33.79598],[-118.16734,33.795],[-118.16665,33.79403],[-118.1653,33.79405],[-118.16464,33.79503]]],"type":"Polygon"},"properties":{"bbox":{"parking":{"area":1019.95,"pct":2.51},"roads":{"area":4358.5,"pct":10.74}},"city_same":1,"id":"hex:2091:17274"},"type":"Feature"},{"geometry":{"coordinates":[[[-118.16467,33.79698],[-118.16536,33.79795],[-118.16671,33.79794],[-118.16737,33.79695],[-118.16668,33.79598],[-118.16533,33.796],[-118.16467,33.79698]]],"type":"Polygon"},"properties":{"bbox":{"parking":{"area":27.32,"pct":0.07},"roads":{"area":2896.29,"pct":7.13}},"city_same":1,"id":"hex:2091:17275"},"type":"Feature"},{"geometry":{"coordinates":[[[-118.16469,33.79893],[-118.16538,33.7999],[-118.16673,33.79989],[-118.16739,33.79891],[-118.16671,33.79794],[-118.16536,33.79795],[-118.16469,33.79893]]],"type":"Polygon"},"properties":{"bbox":{"parking":{"area":250.05,"pct":0.62},"roads":{"area":3223.03,"pct":7.94},"sidewalks":{"area":132.41,"pct":0.33}},"city_same":1,"id":"hex:2091:17276"},"type":"Feature"},{"geometry":{"coordinates":[[[-118.16472,33.80088],[-118.16541,33.80185],[-118.16676,33.80184],[-118.16742,33.80086],[-118.16673,33.79989],[-118.16538,33.7999],[-118.16472,33.80088]]],"type":"Polygon"},"properties":{"bbox":{"parking":{"area":5021.41,"pct":12.37},"roads":{"area":4048.99,"pct":9.97}},"city_same":1,"id":"hex:2091:17277"},"type":"Feature"},{"geometry":{"coordinates":[[[-118.16475,33.80284],[-118.16543,33.80381],[-118.16678,33.80379],[-118.16745,33.80281],[-118.16676,33.80184],[-118.16541,33.80185],[-118.16475,33.80284]]],"type":"Polygon"},"properties":{"bbox":{"parking":{"area":11903.12,"pct":29.32},"roads":{"area":5980.69,"pct":14.73}},"city_same":1,"id":"hex:2091:17278"},"type":"Feature"},{"geometry":{"coordinates":[[[-118.16477,33.80479],[-118.16546,33.80576],[-118.16681,33.80575],[-118.16747,33.80476],[-118.16678,33.80379],[-118.16543,33.80381],[-118.16477,33.80479]]],"type":"Polygon"},"properties":{"bbox":{"parking":{"area":5076.18,"pct":12.5},"roads":{"area":12032.87,"pct":29.64}},"city":{"parking":{"area":5076.18,"pct":12.5},"roads":{"area":12023.14,"pct":29.62}},"id":"hex:2091:17279"},"type":"Feature"},{"geometry":{"coordinates":[[[-118.1648,33.80674],[-118.16549,33.80771],[-118.16684,33.8077],[-118.1675,33.80672],[-118.16681,33.80575],[-118.16546,33.80576],[-118.1648,33.80674]]],"type":"Polygon"},"properties":{"bbox":{"roads":{"area":5101.91,"pct":12.57}},"city_same":1,"id":"hex:2091:17280"},"type":"Feature"},{"geometry":{"coordinates":[[[-118.16483,33.80869],[-118.16551,33.80966],[-118.16686,33.80965],[-118.16753,33.80867],[-118.16684,33.8077],[-118.16549,33.80771],[-118.16483,33.80869]]],"type":"Polygon"},"properties":{"bbox":{"roads":{"area":4823.32,"pct":11.88}},"city":{"roads":{"area":4812.61,"pct":11.86}},"id":"hex:2091:17281"},"type":"Feature"},{"geometry":{"coordinates":[[[-118.16485,33.81065],[-118.16554,33.81162],[-118.16689,33.8116],[-118.16755,33.81062],[-118.16686,33.80965],[-118.16551,33.80966],[-118.16485,33.81065]]],"type":"Polygon"},"properties":{"bbox":{"roads":{"area":5199.79,"pct":12.81},"sidewalks":{"area":230.8,"pct":0.57}},"city":{"roads":{"area":4484.28,"pct":11.05},"sidewalks":{"area":230.8,"pct":0.57}},"id":"hex:2091:17282"},"type":"Feature"},{"geometry":{"coordinates":[[[-118.16554,33.81162],[-118.16689,33.8116],[-118.16694,33.81167],[-118.1655,33.81167],[-118.16554,33.81162]]],"type":"Polygon"},"properties":{"bbox":{"roads":{"area":776.73,"pct":90.11}},"city":{"roads":{"area":56.52,"pct":6.56}},"id":"hex:2091:17283"},"type":"Feature"},{"geometry":{"coordinates":[[[-118.16525,33.79014],[-118.16459,33.79112],[-118.16324,33.79114],[-118.16255,33.79017],[-118.1627,33.78994],[-118.16511,33.78994],[-118.16525,33.79014]]],"type":"Polygon"},"properties":{"bbox":{"parking":{"area":357.89,"pct":1.38},"roads":{"area":3882.89,"pct":14.98}},"city":{"parking":{"area":357.89,"pct":1.38},"roads":{"area":3182.23,"pct":12.27}},"id":"hex:2092:17272"},"type":"Feature"},{"geometry":{"coordinates":[[[-118.16258,33.79212],[-118.16326,33.79309],[-118.16461,33.79308],[-118.16528,33.79209],[-118.16459,33.79112],[-118.16324,33.79114],[-118.16258,33.79212]]],"type":"Polygon"},"properties":{"bbox":{"roads":{"area":5325.84,"pct":13.12}},"city_same":1,"id":"hex:2092:17273"},"type":"Feature"},{"geometry":{"coordinates":[[[-118.1626,33.79407],[-118.16329,33.79504],[-118.16464,33.79503],[-118.1653,33.79405],[-118.16461,33.79308],[-118.16326,33.79309],[-118.1626,33.79407]]],"type":"Polygon"},"properties":{"bbox":{"roads":{"area":4242.6,"pct":10.45}},"city_same":1,"id":"hex:2092:17274"},"type":"Feature"},{"geometry":{"coordinates":[[[-118.16263,33.79602],[-118.16332,33.79699],[-118.16467,33.79698],[-118.16533,33.796],[-118.16464,33.79503],[-118.16329,33.79504],[-118.16263,33.79602]]],"type":"Polygon"},"properties":{"bbox":{"roads":{"area":3916.64,"pct":9.65}},"city_same":1,"id":"hex:2092:17275"},"type":"Feature"},{"geometry":{"coordinates":[[[-118.16265,33.79798],[-118.16334,33.79895],[-118.16469,33.79893],[-118.16536,33.79795],[-118.16467,33.79698],[-118.16332,33.79699],[-118.16265,33.79798]]],"type":"Polygon"},"properties":{"bbox":{"roads":{"area":3211.73,"pct":7.91},"sidewalks":{"area":229.38,"pct":0.57}},"city_same":1,"id":"hex:2092:17276"},"type":"Feature"},{"geometry":{"coordinates":[[[-118.16268,33.79993],[-118.16337,33.8009],[-118.16472,33.80088],[-118.16538,33.7999],[-118.16469,33.79893],[-118.16334,33.79895],[-118.16268,33.79993]]],"type":"Polygon"},"properties":{"bbox":{"parking":{"area":96.03,"pct":0.24},"roads":{"area":3684.56,"pct":9.08},"sidewalks":{"area":227.89,"pct":0.56}},"city_same":1,"id":"hex:2092:17277"},"type":"Feature"},{"geometry":{"coordinates":[[[-118.16271,33.80188],[-118.1634,33.80285],[-118.16475,33.80284],[-118.16541,33.80185],[-118.16472,33.80088],[-118.16337,33.8009],[-118.16271,33.80188]]],"type":"Polygon"},"properties":{"bbox":{"parking":{"area":969.05,"pct":2.39},"roads":{"area":1293.21,"pct":3.19}},"city_same":1,"id":"hex:2092:17278"},"type":"Feature"},{"geometry":{"coordinates":[[[-118.16273,33.80383],[-118.16342,33.8048],[-118.16477,33.80479],[-118.16543,33.80381],[-118.16475,33.80284],[-118.1634,33.80285],[-118.16273,33.80383]]],"type":"Polygon"},"properties":{"bbox":{"parking":{"area":17863.93,"pct":44.01},"roads":{"area":10216.94,"pct":25.17}},"city_same":1,"id":"hex:2092:17279"},"type":"Feature"},{"geometry":{"coordinates":[[[-118.16276,33.80578],[-118.16345,33.80675],[-118.1648,33.80674],[-118.16546,33.80576],[-118.16477,33.80479],[-118.16342,33.8048],[-118.16276,33.80578]]],"type":"Polygon"},"properties":{"bbox":{"parking":{"area":697.52,"pct":1.72},"roads":{"area":5462.28,"pct":13.46}},"city_same":1,"id":"hex:2092:17280"},"type":"Feature"},{"geometry":{"coordinates":[[[-118.16279,33.80774],[-118.16348,33.80871],[-118.16483,33.80869],[-118.16549,33.80771],[-118.1648,33.80674],[-118.16345,33.80675],[-118.16279,33.80774]]],"type":"Polygon"},"properties":{"bbox":{"roads":{"area":6839.22,"pct":16.85}},"city_same":1,"id":"hex:2092:17281"},"type":"Feature"},{"geometry":{"coordinates":[[[-118.16348,33.80871],[-118.16483,33.80869],[-118.16551,33.80966],[-118.16485,33.81065],[-118.1635,33.81066],[-118.16322,33.81026],[-118.16321,33.80915],[-118.16317,33.80915],[-118.16348,33.80871]]],"type":"Polygon"},"properties":{"bbox":{"roads":{"area":6577.08,"pct":17.21}},"city_same":1,"id":"hex:2092:17282"},"type":"Feature"},{"geometry":{"coordinates":[[[-118.1635,33.81066],[-118.16485,33.81065],[-118.16554,33.81162],[-118.1655,33.81167],[-118.16322,33.81167],[-118.16322,33.81107],[-118.1635,33.81066]]],"type":"Polygon"},"properties":{"bbox":{"roads":{"area":4984.41,"pct":24.65},"sidewalks":{"area":301.04,"pct":1.49}},"city":{"roads":{"area":3115.51,"pct":15.41},"sidewalks":{"area":301.04,"pct":1.49}},"id":"hex:2092:17283"},"type":"Feature"},{"geometry":{"coordinates":[[[-118.16255,33.79017],[-118.1612,33.79018],[-118.16102,33.78993],[-118.1627,33.78994],[-118.16255,33.79017]]],"type":"Polygon"},"properties":{"bbox":{"parking":{"area":178.73,"pct":4.83},"roads":{"area":948.21,"pct":25.61}},"city":{"parking":{"area":178.73,"pct":4.83},"roads":{"area":466.09,"pct":12.59}},"id":"hex:2093:17271"},"type":"Feature"},{"geometry":{"coordinates":[[[-118.16054,33.79116],[-118.16123,33.79213],[-118.16258,33.79212],[-118.16324,33.79114],[-118.16255,33.79017],[-118.1612,33.79018],[-118.16054,33.79116]]],"type":"Polygon"},"properties":{"bbox":{"parking":{"area":482.28,"pct":1.19},"roads":{"area":4714.8,"pct":11.61}},"city_same":1,"id":"hex:2093:17272"},"type":"Feature"},{"geometry":{"coordinates":[[[-118.16056,33.79311],[-118.16125,33.79408],[-118.1626,33.79407],[-118.16326,33.79309],[-118.16258,33.79212],[-118.16123,33.79213],[-118.16056,33.79311]]],"type":"Polygon"},"properties":{"bbox":{"roads":{"area":3465.19,"pct":8.54}},"city_same":1,"id":"hex:2093:17273"},"type":"Feature"},{"geometry":{"coordinates":[[[-118.16059,33.79507],[-118.16128,33.79604],[-118.16263,33.79602],[-118.16329,33.79504],[-118.1626,33.79407],[-118.16125,33.79408],[-118.16059,33.79507]]],"type":"Polygon"},"properties":{"bbox":{"roads":{"area":3927.56,"pct":9.68}},"city_same":1,"id":"hex:2093:17274"},"type":"Feature"},{"geometry":{"coordinates":[[[-118.16062,33.79702],[-118.1613,33.79799],[-118.16265,33.79798],[-118.16332,33.79699],[-118.16263,33.79602],[-118.16128,33.79604],[-118.16062,33.79702]]],"type":"Polygon"},"properties":{"bbox":{"roads":{"area":2998.26,"pct":7.39}},"city_same":1,"id":"hex:2093:17275"},"type":"Feature"},{"geometry":{"coordinates":[[[-118.16064,33.79897],[-118.16133,33.79994],[-118.16268,33.79993],[-118.16334,33.79895],[-118.16265,33.79798],[-118.1613,33.79799],[-118.16064,33.79897]]],"type":"Polygon"},"properties":{"bbox":{"roads":{"area":4522.56,"pct":11.14}},"city_same":1,"id":"hex:2093:17276"},"type":"Feature"},{"geometry":{"coordinates":[[[-118.16067,33.80092],[-118.16136,33.80189],[-118.16271,33.80188],[-118.16337,33.8009],[-118.16268,33.79993],[-118.16133,33.79994],[-118.16067,33.80092]]],"type":"Polygon"},"properties":{"bbox":{"roads":{"area":1550.66,"pct":3.82}},"city_same":1,"id":"hex:2093:17277"},"type":"Feature"},{"geometry":{"coordinates":[[[-118.1607,33.80288],[-118.16138,33.80384],[-118.16273,33.80383],[-118.1634,33.80285],[-118.16271,33.80188],[-118.16136,33.80189],[-118.1607,33.80288]]],"type":"Polygon"},"properties":{"bbox":{"roads":{"area":4275.14,"pct":10.53}},"city_same":1,"id":"hex:2093:17278"},"type":"Feature"},{"geometry":{"coordinates":[[[-118.16072,33.80483],[-118.16141,33.8058],[-118.16276,33.80578],[-118.16342,33.8048],[-118.16273,33.80383],[-118.16138,33.80384],[-118.16072,33.80483]]],"type":"Polygon"},"properties":{"bbox":{"roads":{"area":7932.64,"pct":19.54}},"city_same":1,"id":"hex:2093:17279"},"type":"Feature"},{"geometry":{"coordinates":[[[-118.16075,33.80678],[-118.16144,33.80775],[-118.16279,33.80774],[-118.16345,33.80675],[-118.16276,33.80578],[-118.16141,33.8058],[-118.16075,33.80678]]],"type":"Polygon"},"properties":{"bbox":{"roads":{"area":4336.81,"pct":10.68}},"city_same":1,"id":"hex:2093:17280"},"type":"Feature"},{"geometry":{"coordinates":[[[-118.16077,33.80873],[-118.16144,33.80775],[-118.16279,33.80774],[-118.16348,33.80871],[-118.16317,33.80915],[-118.16219,33.80915],[-118.16219,33.80904],[-118.16121,33.80905],[-118.16121,33.80935],[-118.16077,33.80873]]],"type":"Polygon"},"properties":{"bbox":{"roads":{"area":4467.33,"pct":14.86}},"city_same":1,"id":"hex:2093:17281"},"type":"Feature"},{"geometry":{"coordinates":[[[-118.1635,33.81066],[-118.16322,33.81107],[-118.16322,33.81026],[-118.1635,33.81066]]],"type":"Polygon"},"properties":{"bbox":{"roads":{"area":586.97,"pct":49.58}},"city_same":1,"id":"hex:2093:17282"},"type":"Feature"},{"geometry":{"coordinates":[[[-118.1612,33.79018],[-118.16054,33.79116],[-118.15919,33.79117],[-118.1585,33.7902],[-118.15878,33.78979],[-118.15879,33.78979],[-118.15879,33.78993],[-118.16102,33.78993],[-118.1612,33.79018]]],"type":"Polygon"},"properties":{"bbox":{"parking":{"area":1904.14,"pct":7.02},"roads":{"area":4532.23,"pct":16.7},"sidewalks":{"area":120.29,"pct":0.44}},"city":{"parking":{"area":1904.14,"pct":7.02},"roads":{"area":3643.43,"pct":13.43},"sidewalks":{"area":120.29,"pct":0.44}},"id":"hex:2094:17272"},"type":"Feature"},{"geometry":{"coordinates":[[[-118.15853,33.79216],[-118.15921,33.79313],[-118.16056,33.79311],[-118.16123,33.79213],[-118.16054,33.79116],[-118.15919,33.79117],[-118.15853,33.79216]]],"type":"Polygon"},"properties":{"bbox":{"roads":{"area":3397.75,"pct":8.37}},"city_same":1,"id":"hex:2094:17273"},"type":"Feature"},{"geometry":{"coordinates":[[[-118.15855,33.79411],[-118.15924,33.79508],[-118.16059,33.79507],[-118.16125,33.79408],[-118.16056,33.79311],[-118.15921,33.79313],[-118.15855,33.79411]]],"type":"Polygon"},"properties":{"bbox":{"roads":{"area":3185.21,"pct":7.85}},"city_same":1,"id":"hex:2094:17274"},"type":"Feature"},{"geometry":{"coordinates":[[[-118.15858,33.79606],[-118.15924,33.79508],[-118.16059,33.79507],[-118.16128,33.79604],[-118.16062,33.79702],[-118.15927,33.79703],[-118.15889,33.7965],[-118.15889,33.79638],[-118.15881,33.79638],[-118.15858,33.79606]]],"type":"Polygon"},"properties":{"bbox":{"roads":{"area":4944.55,"pct":12.19}},"city_same":1,"id":"hex:2094:17275"},"type":"Feature"},{"geometry":{"coordinates":[[[-118.1586,33.79801],[-118.15929,33.79898],[-118.16064,33.79897],[-118.1613,33.79799],[-118.16062,33.79702],[-118.15927,33.79703],[-118.1586,33.79801]]],"type":"Polygon"},"properties":{"bbox":{"roads":{"area":5456.71,"pct":13.44}},"city_same":1,"id":"hex:2094:17276"},"type":"Feature"},{"geometry":{"coordinates":[[[-118.15863,33.79997],[-118.15932,33.80094],[-118.16067,33.80092],[-118.16133,33.79994],[-118.16064,33.79897],[-118.15929,33.79898],[-118.15863,33.79997]]],"type":"Polygon"},"properties":{"bbox":{"roads":{"area":2503.68,"pct":6.17}},"city_same":1,"id":"hex:2094:17277"},"type":"Feature"},{"geometry":{"coordinates":[[[-118.15866,33.80192],[-118.15932,33.80094],[-118.16067,33.80092],[-118.16136,33.80189],[-118.1607,33.80288],[-118.15935,33.80289],[-118.15885,33.80219],[-118.15885,33.80209],[-118.1588,33.80212],[-118.15866,33.80192]]],"type":"Polygon"},"properties":{"bbox":{"roads":{"area":4375.4,"pct":10.79}},"city":{"roads":{"area":3572.15,"pct":8.81}},"id":"hex:2094:17278"},"type":"Feature"},{"geometry":{"coordinates":[[[-118.15935,33.80289],[-118.1607,33.80288],[-118.16138,33.80384],[-118.16072,33.80483],[-118.15937,33.80484],[-118.15887,33.80413],[-118.15886,33.8036],[-118.15935,33.80289]]],"type":"Polygon"},"properties":{"bbox":{"roads":{"area":7543.45,"pct":18.81}},"city":{"roads":{"area":6413.04,"pct":15.99}},"id":"hex:2094:17279"},"type":"Feature"},{"geometry":{"coordinates":[[[-118.15937,33.80484],[-118.16072,33.80483],[-118.16141,33.8058],[-118.16075,33.80678],[-118.1594,33.80679],[-118.15888,33.80607],[-118.15888,33.80557],[-118.15937,33.80484]]],"type":"Polygon"},"properties":{"bbox":{"roads":{"area":4598.41,"pct":11.45}},"city":{"roads":{"area":3743.04,"pct":9.32}},"id":"hex:2094:17280"},"type":"Feature"},{"geometry":{"coordinates":[[[-118.1594,33.80679],[-118.16075,33.80678],[-118.16144,33.80775],[-118.16077,33.80873],[-118.15942,33.80874],[-118.1589,33.808],[-118.15889,33.80754],[-118.1594,33.80679]]],"type":"Polygon"},"properties":{"bbox":{"roads":{"area":6963.8,"pct":17.32}},"city":{"roads":{"area":6281.35,"pct":15.62}},"id":"hex:2094:17281"},"type":"Feature"},{"geometry":{"coordinates":[[[-118.15942,33.80874],[-118.16077,33.80873],[-118.16121,33.80935],[-118.16122,33.80987],[-118.15893,33.80986],[-118.15891,33.8095],[-118.15942,33.80874]]],"type":"Polygon"},"properties":{"bbox":{"roads":{"area":3213.26,"pct":13.85}},"city":{"roads":{"area":2721.16,"pct":11.73}},"id":"hex:2094:17282"},"type":"Feature"},{"geometry":{"coordinates":[[[-118.1585,33.7902],[-118.15715,33.79022],[-118.15685,33.78979],[-118.15878,33.78979],[-118.1585,33.7902]]],"type":"Polygon"},"properties":{"bbox":{"parking":{"area":363.97,"pct":5.13},"roads":{"area":3514.47,"pct":49.56},"sidewalks":{"area":231.69,"pct":3.27}},"city":{"parking":{"area":363.97,"pct":5.13},"roads":{"area":510.99,"pct":7.21},"sidewalks":{"area":231.69,"pct":3.27}},"id":"hex:2095:17271"},"type":"Feature"},{"geometry":{"coordinates":[[[-118.15649,33.7912],[-118.15718,33.79217],[-118.15853,33.79216],[-118.15919,33.79117],[-118.1585,33.7902],[-118.15715,33.79022],[-118.15649,33.7912]]],"type":"Polygon"},"properties":{"bbox":{"parking":{"area":410.91,"pct":1.01},"roads":{"area":4858.28,"pct":11.97}},"city_same":1,"id":"hex:2095:17272"},"type":"Feature"},{"geometry":{"coordinates":[[[-118.15651,33.79315],[-118.1572,33.79412],[-118.15855,33.79411],[-118.15921,33.79313],[-118.15853,33.79216],[-118.15718,33.79217],[-118.15651,33.79315]]],"type":"Polygon"},"properties":{"bbox":{"roads":{"area":4668.66,"pct":11.5}},"city_same":1,"id":"hex:2095:17273"},"type":"Feature"},{"geometry":{"coordinates":[[[-118.15654,33.7951],[-118.15723,33.79607],[-118.15858,33.79606],[-118.15924,33.79508],[-118.15855,33.79411],[-118.1572,33.79412],[-118.15654,33.7951]]],"type":"Polygon"},"properties":{"bbox":{"roads":{"area":3685.6,"pct":9.08}},"city_same":1,"id":"hex:2095:17274"},"type":"Feature"},{"geometry":{"coordinates":[[[[-118.15927,33.79703],[-118.1586,33.79801],[-118.15725,33.79803],[-118.15658,33.79708],[-118.15887,33.79708],[-118.15889,33.7965],[-118.15927,33.79703]]],[[[-118.15723,33.79607],[-118.15858,33.79606],[-118.15881,33.79638],[-118.15702,33.79639],[-118.15723,33.79607]]]],"type":"MultiPolygon"},"properties":{"bbox":{"parking":{"area":822.04,"pct":3.19},"roads":{"area":3346.17,"pct":12.98}},"city_same":1,"id":"hex:2095:17275"},"type":"Feature"},{"geometry":{"coordinates":[[[-118.15659,33.79901],[-118.15728,33.79998],[-118.15863,33.79997],[-118.15929,33.79898],[-118.1586,33.79801],[-118.15725,33.79803],[-118.15659,33.79901]]],"type":"Polygon"},"properties":{"bbox":{"roads":{"area":3721.18,"pct":9.17}},"city_same":1,"id":"hex:2095:17276"},"type":"Feature"},{"geometry":{"coordinates":[[[-118.15662,33.80096],[-118.15731,33.80193],[-118.15866,33.80192],[-118.15932,33.80094],[-118.15863,33.79997],[-118.15728,33.79998],[-118.15662,33.80096]]],"type":"Polygon"},"properties":{"bbox":{"roads":{"area":6853.22,"pct":16.88}},"city":{"roads":{"area":3381.23,"pct":8.33}},"id":"hex:2095:17277"},"type":"Feature"},{"geometry":{"coordinates":[[[[-118.15664,33.80291],[-118.15731,33.80193],[-118.15866,33.80192],[-118.1588,33.80212],[-118.15692,33.8033],[-118.15664,33.80291]]],[[[-118.15935,33.80289],[-118.15886,33.8036],[-118.15885,33.80219],[-118.15935,33.80289]]]],"type":"MultiPolygon"},"properties":{"bbox":{"roads":{"area":2837.71,"pct":15.37}},"city":{"roads":{"area":1008.86,"pct":5.46}},"id":"hex:2095:17278"},"type":"Feature"},{"geometry":{"coordinates":[[[-118.15937,33.80484],[-118.15888,33.80557],[-118.15887,33.80413],[-118.15937,33.80484]]],"type":"Polygon"},"properties":{"bbox":{"roads":{"area":2326.13,"pct":62.97}},"city":{"roads":{"area":784.11,"pct":21.23}},"id":"hex:2095:17279"},"type":"Feature"},{"geometry":{"coordinates":[[[-118.1594,33.80679],[-118.15889,33.80754],[-118.15888,33.80607],[-118.1594,33.80679]]],"type":"Polygon"},"properties":{"bbox":{"roads":{"area":1845.66,"pct":47.91}},"city":{"roads":{"area":397.36,"pct":10.32}},"id":"hex:2095:17280"},"type":"Feature"},{"geometry":{"coordinates":[[[-118.15942,33.80874],[-118.15891,33.8095],[-118.15891,33.80945],[-118.1589,33.808],[-118.15942,33.80874]]],"type":"Polygon"},"properties":{"bbox":{"roads":{"area":1778.41,"pct":44.32}},"city":{"roads":{"area":378.83,"pct":9.44}},"id":"hex:2095:17281"},"type":"Feature"},{"geometry":{"coordinates":[[[-118.15715,33.79022],[-118.15649,33.7912],[-118.15514,33.79121],[-118.15445,33.79024],[-118.15475,33.78979],[-118.15685,33.78979],[-118.15715,33.79022]]],"type":"Polygon"},"properties":{"bbox":{"parking":{"area":1377.5,"pct":4.43},"roads":{"area":7540.57,"pct":24.23},"sidewalks":{"area":12.99,"pct":0.04}},"city":{"parking":{"area":1377.5,"pct":4.43},"roads":{"area":3936.66,"pct":12.65},"sidewalks":{"area":12.99,"pct":0.04}},"id":"hex:2096:17272"},"type":"Feature"},{"geometry":{"coordinates":[[[-118.15448,33.79219],[-118.15516,33.79316],[-118.15651,33.79315],[-118.15718,33.79217],[-118.15649,33.7912],[-118.15514,33.79121],[-118.15448,33.79219]]],"type":"Polygon"},"properties":{"bbox":{"roads":{"area":5175.71,"pct":12.75}},"city_same":1,"id":"hex:2096:17273"},"type":"Feature"},{"geometry":{"coordinates":[[[-118.15516,33.79316],[-118.15651,33.79315],[-118.1572,33.79412],[-118.15654,33.7951],[-118.15519,33.79512],[-118.15466,33.79437],[-118.15466,33.79391],[-118.15516,33.79316]]],"type":"Polygon"},"properties":{"bbox":{"roads":{"area":4235.95,"pct":10.53}},"city_same":1,"id":"hex:2096:17274"},"type":"Feature"},{"geometry":{"coordinates":[[[-118.15466,33.79628],[-118.15466,33.79591],[-118.15519,33.79512],[-118.15654,33.7951],[-118.15723,33.79607],[-118.15702,33.79639],[-118.15474,33.79639],[-118.15466,33.79628]]],"type":"Polygon"},"properties":{"bbox":{"roads":{"area":2649.54,"pct":9.51}},"city_same":1,"id":"hex:2096:17275"},"type":"Feature"},{"geometry":{"coordinates":[[[-118.15725,33.79803],[-118.15659,33.79901],[-118.15524,33.79902],[-118.15455,33.79805],[-118.15521,33.79707],[-118.15658,33.79708],[-118.15725,33.79803]]],"type":"Polygon"},"properties":{"bbox":{"roads":{"area":3709.04,"pct":9.18}},"city":{"roads":{"area":3509.74,"pct":8.68}},"id":"hex:2096:17276"},"type":"Feature"},{"geometry":{"coordinates":[[[-118.15458,33.8],[-118.15527,33.80097],[-118.15662,33.80096],[-118.15728,33.79998],[-118.15659,33.79901],[-118.15524,33.79902],[-118.15458,33.8]]],"type":"Polygon"},"properties":{"bbox":{"roads":{"area":6125.89,"pct":15.09}},"city":{"roads":{"area":2695.48,"pct":6.64}},"id":"hex:2096:17277"},"type":"Feature"},{"geometry":{"coordinates":[[[-118.15461,33.80196],[-118.15529,33.80293],[-118.15664,33.80291],[-118.15731,33.80193],[-118.15662,33.80096],[-118.15527,33.80097],[-118.15461,33.80196]]],"type":"Polygon"},"properties":{"bbox":{"roads":{"area":3585.71,"pct":8.83}},"city_same":1,"id":"hex:2096:17278"},"type":"Feature"},{"geometry":{"coordinates":[[[-118.15463,33.80391],[-118.15529,33.80293],[-118.15664,33.80291],[-118.15692,33.8033],[-118.15581,33.80399],[-118.15581,33.80439],[-118.15497,33.80439],[-118.15463,33.80391]]],"type":"Polygon"},"properties":{"bbox":{"parking":{"area":2006.28,"pct":9.47},"roads":{"area":2870.15,"pct":13.54}},"city_same":1,"id":"hex:2096:17279"},"type":"Feature"},{"geometry":{"coordinates":[[[-118.15445,33.79024],[-118.1531,33.79025],[-118.15277,33.78979],[-118.15475,33.78979],[-118.15445,33.79024]]],"type":"Polygon"},"properties":{"bbox":{"parking":{"area":1566.59,"pct":19.9},"roads":{"area":4337.16,"pct":55.1}},"city":{"parking":{"area":1566.59,"pct":19.9},"roads":{"area":1573.11,"pct":19.99}},"id":"hex:2097:17271"},"type":"Feature"},{"geometry":{"coordinates":[[[-118.15244,33.79124],[-118.15313,33.79221],[-118.15448,33.79219],[-118.15514,33.79121],[-118.15445,33.79024],[-118.1531,33.79025],[-118.15244,33.79124]]],"type":"Polygon"},"properties":{"bbox":{"parking":{"area":1300.98,"pct":3.2},"roads":{"area":5852.1,"pct":14.42}},"city_same":1,"id":"hex:2097:17272"},"type":"Feature"},{"geometry":{"coordinates":[[[-118.15246,33.79319],[-118.15313,33.79221],[-118.15448,33.79219],[-118.15516,33.79316],[-118.15466,33.79391],[-118.15466,33.79344],[-118.15264,33.79343],[-118.15246,33.79319]]],"type":"Polygon"},"properties":{"bbox":{"parking":{"area":907.87,"pct":3.27},"roads":{"area":4693.13,"pct":16.88}},"city_same":1,"id":"hex:2097:17273"},"type":"Feature"},{"geometry":{"coordinates":[[[-118.15519,33.79512],[-118.15466,33.79591],[-118.15466,33.79437],[-118.15519,33.79512]]],"type":"Polygon"},"properties":{"bbox":{"roads":{"area":244.57,"pct":5.84}},"city_same":1,"id":"hex:2097:17274"},"type":"Feature"},{"geometry":{"coordinates":[[[[-118.15455,33.79805],[-118.1532,33.79806],[-118.15252,33.79709],[-118.15253,33.79707],[-118.15521,33.79707],[-118.15455,33.79805]]],[[[-118.15474,33.79639],[-118.15466,33.7964],[-118.15466,33.79628],[-118.15474,33.79639]]]],"type":"MultiPolygon"},"properties":{"bbox":{"roads":{"area":5458.25,"pct":26.5}},"city":{"roads":{"area":2392.07,"pct":11.62}},"id":"hex:2097:17275"},"type":"Feature"},{"geometry":{"coordinates":[[[-118.15254,33.79905],[-118.15323,33.80002],[-118.15458,33.8],[-118.15524,33.79902],[-118.15455,33.79805],[-118.1532,33.79806],[-118.15254,33.79905]]],"type":"Polygon"},"properties":{"bbox":{"parking":{"area":3348.5,"pct":8.25},"roads":{"area":6396.98,"pct":15.76}},"city":{"parking":{"area":3348.5,"pct":8.25},"roads":{"area":4466.15,"pct":11}},"id":"hex:2097:17276"},"type":"Feature"},{"geometry":{"coordinates":[[[-118.15257,33.801],[-118.15326,33.80197],[-118.15461,33.80196],[-118.15527,33.80097],[-118.15458,33.8],[-118.15323,33.80002],[-118.15257,33.801]]],"type":"Polygon"},"properties":{"bbox":{"roads":{"area":803.91,"pct":1.98}},"city_same":1,"id":"hex:2097:17277"},"type":"Feature"},{"geometry":{"coordinates":[[[-118.15259,33.80295],[-118.15328,33.80392],[-118.15463,33.80391],[-118.15529,33.80293],[-118.15461,33.80196],[-118.15326,33.80197],[-118.15259,33.80295]]],"type":"Polygon"},"properties":{"bbox":{"parking":{"area":4659.46,"pct":11.48},"roads":{"area":3810.9,"pct":9.39}},"city_same":1,"id":"hex:2097:17278"},"type":"Feature"},{"geometry":{"coordinates":[[[-118.15328,33.80392],[-118.15463,33.80391],[-118.15497,33.80439],[-118.15297,33.80439],[-118.15328,33.80392]]],"type":"Polygon"},"properties":{"bbox":{"parking":{"area":1869.81,"pct":22.93},"roads":{"area":2390.9,"pct":29.32}},"city_same":1,"id":"hex:2097:17279"},"type":"Feature"},{"geometry":{"coordinates":[[[-118.1504,33.79028],[-118.15073,33.78979],[-118.15277,33.78979],[-118.1531,33.79025],[-118.15244,33.79124],[-118.1511,33.79125],[-118.15106,33.7912],[-118.15102,33.79115],[-118.1504,33.79028]]],"type":"Polygon"},"properties":{"bbox":{"parking":{"area":3813.75,"pct":11.94},"roads":{"area":7954.62,"pct":24.9},"sidewalks":{"area":162.15,"pct":0.51}},"city":{"parking":{"area":3813.75,"pct":11.94},"roads":{"area":2084.56,"pct":6.53},"sidewalks":{"area":162.15,"pct":0.51}},"id":"hex:2098:17272"},"type":"Feature"},{"geometry":{"coordinates":[[[-118.15244,33.79124],[-118.15313,33.79221],[-118.15246,33.79319],[-118.15181,33.7932],[-118.15188,33.79254],[-118.15143,33.79169],[-118.1511,33.79125],[-118.15244,33.79124]]],"type":"Polygon"},"properties":{"bbox":{"parking":{"area":617.62,"pct":2.66},"roads":{"area":3745.63,"pct":16.11}},"city":{"parking":{"area":617.62,"pct":2.66},"roads":{"area":1695.32,"pct":7.29}},"id":"hex:2098:17273"},"type":"Feature"},{"geometry":{"coordinates":[[[-118.15246,33.79319],[-118.15264,33.79343],[-118.15179,33.79343],[-118.15181,33.7932],[-118.15246,33.79319]]],"type":"Polygon"},"properties":{"bbox":{"roads":{"area":14.81,"pct":0.81}},"id":"hex:2098:17274"},"type":"Feature"},{"geometry":{"coordinates":[[[-118.15252,33.79709],[-118.15149,33.7971],[-118.15149,33.79707],[-118.15253,33.79707],[-118.15252,33.79709]]],"type":"Polygon"},"properties":{"bbox":{"roads":{"area":75.2,"pct":24.84}},"id":"hex:2098:17275"},"type":"Feature"},{"geometry":{"coordinates":[[[-118.15252,33.79709],[-118.1532,33.79806],[-118.15254,33.79905],[-118.15148,33.79906],[-118.15149,33.7971],[-118.15252,33.79709]]],"type":"Polygon"},"properties":{"bbox":{"parking":{"area":2415.1,"pct":8.72},"roads":{"area":4150.88,"pct":14.99}},"city":{"parking":{"area":2415.1,"pct":8.72},"roads":{"area":3376.24,"pct":12.19}},"id":"hex:2098:17276"},"type":"Feature"},{"geometry":{"coordinates":[[[-118.15254,33.79905],[-118.15323,33.80002],[-118.15257,33.801],[-118.15147,33.80101],[-118.15148,33.79906],[-118.15254,33.79905]]],"type":"Polygon"},"properties":{"bbox":{"parking":{"area":1536.68,"pct":5.4},"roads":{"area":2122.39,"pct":7.46}},"city":{"parking":{"area":1536.68,"pct":5.4},"roads":{"area":1973.33,"pct":6.94}},"id":"hex:2098:17277"},"type":"Feature"},{"geometry":{"coordinates":[[[-118.15257,33.801],[-118.15326,33.80197],[-118.15259,33.80295],[-118.15146,33.80296],[-118.15147,33.80101],[-118.15257,33.801]]],"type":"Polygon"},"properties":{"bbox":{"roads":{"area":2701.36,"pct":9.25}},"city":{"roads":{"area":1896.34,"pct":6.49}},"id":"hex:2098:17278"},"type":"Feature"},{"geometry":{"coordinates":[[[-118.15259,33.80295],[-118.15328,33.80392],[-118.15297,33.80439],[-118.15145,33.80439],[-118.15146,33.80296],[-118.15259,33.80295]]],"type":"Polygon"},"properties":{"bbox":{"roads":{"area":3379.66,"pct":14.86},"sidewalks":{"area":8.18,"pct":0.04}},"city":{"roads":{"area":2510.47,"pct":11.04},"sidewalks":{"area":8.18,"pct":0.04}},"id":"hex:2098:17279"},"type":"Feature"},{"geometry":{"coordinates":[[[-118.1504,33.79028],[-118.15014,33.79028],[-118.14999,33.79016],[-118.14981,33.79003],[-118.14963,33.7899],[-118.15016,33.7899],[-118.15017,33.78979],[-118.15073,33.78979],[-118.1504,33.79028]]],"type":"Polygon"},"properties":{"bbox":{"parking":{"area":487.77,"pct":15.77},"roads":{"area":1327.75,"pct":42.94},"sidewalks":{"area":114.19,"pct":3.69}},"city":{"parking":{"area":487.77,"pct":15.77},"roads":{"area":267.86,"pct":8.66},"sidewalks":{"area":114.19,"pct":3.69}},"id":"hex:2099:17271"},"type":"Feature"}],"type":"FeatureCollection","v":2}