{"features":[{"geometry":{"coordinates":[[[-118.35551,33.79499],[-118.35687,33.79544],[-118.36381,33.79534],[-118.36568,33.79512],[-118.3672,33.79512],[-118.36751,33.79442],[-118.36845,33.79442],[-118.36882,33.79547],[-118.36972,33.79489],[-118.3717,33.79471],[-118.37501,33.79493],[-118.37768,33.79491],[-118.37854,33.79547],[-118.37862,33.79491],[-118.37923,33.7944],[-118.38142,33.79383],[-118.38144,33.79358],[-118.38238,33.79332],[-118.38284,33.79304],[-118.38421,33.79361],[-118.38495,33.79111],[-118.3863,33.78522],[-118.38731,33.78202],[-118.39386,33.78178],[-118.39996,33.78181],[-118.39998,33.78167],[-118.40372,33.78177],[-118.40369,33.76427],[-118.41791,33.76233],[-118.41888,33.76272],[-118.42011,33.76263],[-118.42158,33.76326],[-118.42247,33.76343],[-118.42249,33.76365],[-118.42209,33.76427],[-118.42183,33.76544],[-118.42212,33.76596],[-118.42268,33.76629],[-118.42395,33.76613],[-118.42443,33.76685],[-118.42445,33.76719],[-118.42424,33.76742],[-118.42296,33.76775],[-118.42176,33.76872],[-118.42188,33.76986],[-118.42238,33.77128],[-118.42323,33.77219],[-118.42457,33.77257],[-118.42528,33.77256],[-118.4265,33.77225],[-118.42698,33.7724],[-118.42752,33.7731],[-118.42832,33.77356],[-118.42844,33.77404],[-118.42827,33.77448],[-118.42776,33.77479],[-118.42679,33.77587],[-118.42457,33.77758],[-118.42433,33.7781],[-118.42417,33.78008],[-118.42363,33.78127],[-118.42207,33.78348],[-118.41948,33.78536],[-118.41867,33.78645],[-118.41589,33.78798],[-118.41513,33.7881],[-118.41455,33.78855],[-118.41431,33.78845],[-118.41046,33.79003],[-118.40929,33.7909],[-118.4074,33.79119],[-118.40702,33.79183],[-118.4069,33.7927],[-118.40707,33.79394],[-118.40787,33.79456],[-118.40757,33.79558],[-118.4078,33.79663],[-118.40809,33.79673],[-118.40881,33.79664],[-118.40827,33.79722],[-118.40759,33.79739],[-118.40645,33.79886],[-118.4051,33.79999],[-118.40197,33.80148],[-118.4,33.80216],[-118.39824,33.8022],[-118.39607,33.80338],[-118.39493,33.80357],[-118.39436,33.80428],[-118.3617,33.80417],[-118.35191,33.79597],[-118.35551,33.79499]]],"type":"Polygon"},"properties":{"type":"boundary"},"type":"Feature"}],"type":"FeatureCollection"}