{"features":[{"geometry":{"coordinates":[[[-118.42825,33.77371],[-118.42759,33.77469],[-118.42624,33.77471],[-118.42555,33.77374],[-118.42621,33.77276],[-118.42723,33.77274],[-118.4273,33.77287],[-118.42752,33.7731],[-118.42768,33.77317],[-118.42794,33.77327],[-118.42825,33.77371]]],"type":"Polygon"},"properties":{"bbox":{"roads":{"area":1894.03,"pct":4.85}},"city_same":1,"id":"hex:1962:17265"},"type":"Feature"},{"geometry":{"coordinates":[[[-118.42559,33.77569],[-118.42624,33.77471],[-118.42759,33.77469],[-118.42771,33.77485],[-118.4277,33.77487],[-118.42761,33.77506],[-118.42745,33.77525],[-118.42735,33.77534],[-118.42712,33.77548],[-118.42679,33.77587],[-118.42639,33.77617],[-118.4261,33.77642],[-118.42559,33.77569]]],"type":"Polygon"},"properties":{"bbox":{"roads":{"area":1049.84,"pct":5.14}},"city_same":1,"id":"hex:1962:17266"},"type":"Feature"},{"geometry":{"coordinates":[[[-118.42621,33.77276],[-118.42555,33.77374],[-118.4242,33.77376],[-118.42351,33.77279],[-118.42378,33.77239],[-118.42382,33.77241],[-118.42434,33.77249],[-118.42457,33.77257],[-118.42478,33.77258],[-118.42502,33.77256],[-118.42528,33.77256],[-118.42542,33.7725],[-118.42568,33.77249],[-118.42593,33.77236],[-118.42621,33.77276]]],"type":"Polygon"},"properties":{"bbox":{"roads":{"area":1332.41,"pct":4.88}},"city_same":1,"id":"hex:1963:17264"},"type":"Feature"},{"geometry":{"coordinates":[[[-118.42354,33.77474],[-118.42424,33.77571],[-118.42559,33.77569],[-118.42624,33.77471],[-118.42555,33.77374],[-118.4242,33.77376],[-118.42354,33.77474]]],"type":"Polygon"},"properties":{"bbox":{"roads":{"area":3411.36,"pct":8.4}},"city_same":1,"id":"hex:1963:17265"},"type":"Feature"},{"geometry":{"coordinates":[[[-118.42427,33.77766],[-118.42358,33.77669],[-118.42424,33.77571],[-118.42559,33.77569],[-118.4261,33.77642],[-118.42592,33.77657],[-118.42565,33.77678],[-118.4254,33.77691],[-118.42488,33.77727],[-118.42471,33.77746],[-118.42457,33.77758],[-118.42453,33.77766],[-118.42427,33.77766]]],"type":"Polygon"},"properties":{"bbox":{"roads":{"area":1701.59,"pct":5.43}},"city_same":1,"id":"hex:1963:17266"},"type":"Feature"},{"geometry":{"coordinates":[[[-118.42141,33.76793],[-118.42207,33.76695],[-118.42342,33.76693],[-118.42384,33.76753],[-118.42373,33.76757],[-118.42296,33.76775],[-118.42264,33.76799],[-118.42256,33.76811],[-118.42242,33.76821],[-118.42224,33.76827],[-118.4221,33.76835],[-118.42184,33.76854],[-118.42141,33.76793]]],"type":"Polygon"},"properties":{"bbox":{"roads":{"area":361.52,"pct":1.67}},"city_same":1,"id":"hex:1964:17262"},"type":"Feature"},{"geometry":{"coordinates":[[[-118.42351,33.77279],[-118.42216,33.7728],[-118.42147,33.77183],[-118.42213,33.77085],[-118.42222,33.77085],[-118.42223,33.77087],[-118.42238,33.77128],[-118.42261,33.77151],[-118.42271,33.77155],[-118.42282,33.77164],[-118.42311,33.77209],[-118.42323,33.77219],[-118.42356,33.77234],[-118.42378,33.77239],[-118.42351,33.77279]]],"type":"Polygon"},"properties":{"bbox":{"roads":{"area":941.29,"pct":4.13}},"city_same":1,"id":"hex:1964:17264"},"type":"Feature"},{"geometry":{"coordinates":[[[-118.4215,33.77379],[-118.4222,33.77475],[-118.42354,33.77474],[-118.4242,33.77376],[-118.42351,33.77279],[-118.42216,33.7728],[-118.4215,33.77379]]],"type":"Polygon"},"properties":{"bbox":{"roads":{"area":3625.31,"pct":8.93}},"city_same":1,"id":"hex:1964:17265"},"type":"Feature"},{"geometry":{"coordinates":[[[-118.42154,33.77574],[-118.42223,33.77671],[-118.42358,33.77669],[-118.42424,33.77571],[-118.42354,33.77474],[-118.4222,33.77475],[-118.42154,33.77574]]],"type":"Polygon"},"properties":{"bbox":{"roads":{"area":4308.65,"pct":10.61}},"city_same":1,"id":"hex:1964:17266"},"type":"Feature"},{"geometry":{"coordinates":[[[-118.42157,33.77769],[-118.42226,33.77866],[-118.42361,33.77864],[-118.42427,33.77766],[-118.42358,33.77669],[-118.42223,33.77671],[-118.42157,33.77769]]],"type":"Polygon"},"properties":{"bbox":{"roads":{"area":3360.21,"pct":8.28},"sidewalks":{"area":106.69,"pct":0.26}},"city_same":1,"id":"hex:1964:17267"},"type":"Feature"},{"geometry":{"coordinates":[[[-118.42364,33.7806],[-118.42229,33.78061],[-118.4216,33.77964],[-118.42226,33.77866],[-118.42361,33.77864],[-118.42427,33.77957],[-118.42425,33.77969],[-118.42364,33.7806]]],"type":"Polygon"},"properties":{"bbox":{"roads":{"area":2035.75,"pct":5.02}},"city_same":1,"id":"hex:1964:17268"},"type":"Feature"},{"geometry":{"coordinates":[[[-118.42232,33.78256],[-118.42163,33.78159],[-118.42229,33.78061],[-118.42364,33.7806],[-118.42383,33.78085],[-118.42382,33.78086],[-118.42374,33.78108],[-118.42363,33.78127],[-118.42334,33.7817],[-118.42303,33.78206],[-118.42297,33.78221],[-118.42292,33.78229],[-118.42283,33.78249],[-118.4228,33.78256],[-118.42232,33.78256]]],"type":"Polygon"},"properties":{"bbox":{"roads":{"area":227.67,"pct":0.81}},"city_same":1,"id":"hex:1964:17269"},"type":"Feature"},{"geometry":{"coordinates":[[[-118.42134,33.76403],[-118.41999,33.76404],[-118.4193,33.76307],[-118.4196,33.76262],[-118.41973,33.76261],[-118.41988,33.76261],[-118.42011,33.76263],[-118.42044,33.76273],[-118.42075,33.76287],[-118.42094,33.76293],[-118.4211,33.76305],[-118.42158,33.76326],[-118.42183,33.7633],[-118.42183,33.7633],[-118.42134,33.76403]]],"type":"Polygon"},"properties":{"bbox":{"roads":{"area":849.43,"pct":3.47}},"city_same":1,"id":"hex:1965:17259"},"type":"Feature"},{"geometry":{"coordinates":[[[-118.42138,33.76598],[-118.42003,33.76599],[-118.41934,33.76503],[-118.41999,33.76404],[-118.42134,33.76403],[-118.42201,33.76496],[-118.42197,33.76508],[-118.42196,33.76511],[-118.42138,33.76598]]],"type":"Polygon"},"properties":{"bbox":{"roads":{"area":2257.34,"pct":5.56}},"city_same":1,"id":"hex:1965:17260"},"type":"Feature"},{"geometry":{"coordinates":[[[-118.41937,33.76698],[-118.42006,33.76795],[-118.42141,33.76793],[-118.42207,33.76695],[-118.42138,33.76598],[-118.42003,33.76599],[-118.41937,33.76698]]],"type":"Polygon"},"properties":{"bbox":{"roads":{"area":2474.55,"pct":6.1}},"city_same":1,"id":"hex:1965:17261"},"type":"Feature"},{"geometry":{"coordinates":[[[-118.42144,33.76988],[-118.42009,33.7699],[-118.4194,33.76893],[-118.42006,33.76795],[-118.42141,33.76793],[-118.42184,33.76854],[-118.42183,33.76855],[-118.42177,33.76863],[-118.42176,33.76872],[-118.42178,33.76886],[-118.42184,33.76916],[-118.42184,33.76928],[-118.42144,33.76988]]],"type":"Polygon"},"properties":{"bbox":{"roads":{"area":1248.06,"pct":3.18}},"city_same":1,"id":"hex:1965:17262"},"type":"Feature"},{"geometry":{"coordinates":[[[-118.41943,33.77088],[-118.42012,33.77185],[-118.42147,33.77183],[-118.42213,33.77085],[-118.42144,33.76988],[-118.42009,33.7699],[-118.41943,33.77088]]],"type":"Polygon"},"properties":{"bbox":{"roads":{"area":3098.05,"pct":7.63}},"city_same":1,"id":"hex:1965:17263"},"type":"Feature"},{"geometry":{"coordinates":[[[-118.41946,33.77283],[-118.42015,33.7738],[-118.4215,33.77379],[-118.42216,33.7728],[-118.42147,33.77183],[-118.42012,33.77185],[-118.41946,33.77283]]],"type":"Polygon"},"properties":{"bbox":{"roads":{"area":3464.73,"pct":8.53}},"city_same":1,"id":"hex:1965:17264"},"type":"Feature"},{"geometry":{"coordinates":[[[-118.4195,33.77479],[-118.42019,33.77575],[-118.42154,33.77574],[-118.4222,33.77475],[-118.4215,33.77379],[-118.42015,33.7738],[-118.4195,33.77479]]],"type":"Polygon"},"properties":{"bbox":{"roads":{"area":3171.69,"pct":7.81}},"city_same":1,"id":"hex:1965:17265"},"type":"Feature"},{"geometry":{"coordinates":[[[-118.41953,33.77674],[-118.42022,33.77771],[-118.42157,33.77769],[-118.42223,33.77671],[-118.42154,33.77574],[-118.42019,33.77575],[-118.41953,33.77674]]],"type":"Polygon"},"properties":{"bbox":{"roads":{"area":2758.71,"pct":6.8},"sidewalks":{"area":206.6,"pct":0.51}},"city_same":1,"id":"hex:1965:17266"},"type":"Feature"},{"geometry":{"coordinates":[[[-118.41956,33.77869],[-118.42025,33.77966],[-118.4216,33.77964],[-118.42226,33.77866],[-118.42157,33.77769],[-118.42022,33.77771],[-118.41956,33.77869]]],"type":"Polygon"},"properties":{"bbox":{"roads":{"area":655.46,"pct":1.61},"sidewalks":{"area":269.12,"pct":0.66}},"city_same":1,"id":"hex:1965:17267"},"type":"Feature"},{"geometry":{"coordinates":[[[-118.41959,33.78064],[-118.42028,33.78161],[-118.42163,33.78159],[-118.42229,33.78061],[-118.4216,33.77964],[-118.42025,33.77966],[-118.41959,33.78064]]],"type":"Polygon"},"properties":{"bbox":{"parking":{"area":5905.89,"pct":14.55},"roads":{"area":3752.3,"pct":9.24},"sidewalks":{"area":1.29,"pct":0}},"city_same":1,"id":"hex:1965:17268"},"type":"Feature"},{"geometry":{"coordinates":[[[-118.41962,33.78259],[-118.42032,33.78356],[-118.42167,33.78355],[-118.42232,33.78256],[-118.42163,33.78159],[-118.42028,33.78161],[-118.41962,33.78259]]],"type":"Polygon"},"properties":{"bbox":{"roads":{"area":2760.72,"pct":6.8}},"city_same":1,"id":"hex:1965:17269"},"type":"Feature"},{"geometry":{"coordinates":[[[-118.41966,33.78455],[-118.42032,33.78356],[-118.42167,33.78355],[-118.4218,33.78373],[-118.42176,33.78377],[-118.42163,33.78385],[-118.42143,33.78398],[-118.42096,33.78435],[-118.4207,33.78449],[-118.42004,33.78494],[-118.41997,33.78499],[-118.41966,33.78455]]],"type":"Polygon"},"properties":{"bbox":{"roads":{"area":59.26,"pct":0.38}},"city_same":1,"id":"hex:1965:17270"},"type":"Feature"},{"geometry":{"coordinates":[[[-118.41729,33.76407],[-118.41799,33.76504],[-118.41934,33.76503],[-118.41999,33.76404],[-118.4193,33.76307],[-118.41795,33.76309],[-118.41729,33.76407]]],"type":"Polygon"},"properties":{"bbox":{"roads":{"area":2510.35,"pct":6.18}},"city_same":1,"id":"hex:1966:17260"},"type":"Feature"},{"geometry":{"coordinates":[[[-118.41733,33.76602],[-118.41802,33.76699],[-118.41937,33.76698],[-118.42003,33.76599],[-118.41934,33.76503],[-118.41799,33.76504],[-118.41733,33.76602]]],"type":"Polygon"},"properties":{"bbox":{"roads":{"area":3054.57,"pct":7.52}},"city_same":1,"id":"hex:1966:17261"},"type":"Feature"},{"geometry":{"coordinates":[[[-118.41736,33.76798],[-118.41805,33.76895],[-118.4194,33.76893],[-118.42006,33.76795],[-118.41937,33.76698],[-118.41802,33.76699],[-118.41736,33.76798]]],"type":"Polygon"},"properties":{"bbox":{"parking":{"area":64.74,"pct":0.16},"roads":{"area":2636.53,"pct":6.49},"sidewalks":{"area":306.4,"pct":0.75}},"city_same":1,"id":"hex:1966:17262"},"type":"Feature"},{"geometry":{"coordinates":[[[-118.41739,33.76993],[-118.41808,33.7709],[-118.41943,33.77088],[-118.42009,33.7699],[-118.4194,33.76893],[-118.41805,33.76895],[-118.41739,33.76993]]],"type":"Polygon"},"properties":{"bbox":{"roads":{"area":3679.76,"pct":9.06}},"city_same":1,"id":"hex:1966:17263"},"type":"Feature"},{"geometry":{"coordinates":[[[-118.41742,33.77188],[-118.41811,33.77285],[-118.41946,33.77283],[-118.42012,33.77185],[-118.41943,33.77088],[-118.41808,33.7709],[-118.41742,33.77188]]],"type":"Polygon"},"properties":{"bbox":{"roads":{"area":3906.98,"pct":9.62}},"city_same":1,"id":"hex:1966:17264"},"type":"Feature"},{"geometry":{"coordinates":[[[-118.41746,33.77383],[-118.41815,33.7748],[-118.4195,33.77479],[-118.42015,33.7738],[-118.41946,33.77283],[-118.41811,33.77285],[-118.41746,33.77383]]],"type":"Polygon"},"properties":{"bbox":{"roads":{"area":3406.92,"pct":8.39}},"city_same":1,"id":"hex:1966:17265"},"type":"Feature"},{"geometry":{"coordinates":[[[-118.41749,33.77579],[-118.41818,33.77675],[-118.41953,33.77674],[-118.42019,33.77575],[-118.4195,33.77479],[-118.41815,33.7748],[-118.41749,33.77579]]],"type":"Polygon"},"properties":{"bbox":{"parking":{"area":2.71,"pct":0.01},"roads":{"area":4424.63,"pct":10.9},"sidewalks":{"area":286.51,"pct":0.71}},"city_same":1,"id":"hex:1966:17266"},"type":"Feature"},{"geometry":{"coordinates":[[[-118.41752,33.77774],[-118.41821,33.77871],[-118.41956,33.77869],[-118.42022,33.77771],[-118.41953,33.77674],[-118.41818,33.77675],[-118.41752,33.77774]]],"type":"Polygon"},"properties":{"bbox":{"parking":{"area":415.22,"pct":1.02},"roads":{"area":2648.23,"pct":6.52},"sidewalks":{"area":409.14,"pct":1.01}},"city_same":1,"id":"hex:1966:17267"},"type":"Feature"},{"geometry":{"coordinates":[[[-118.41755,33.77969],[-118.41824,33.78066],[-118.41959,33.78064],[-118.42025,33.77966],[-118.41956,33.77869],[-118.41821,33.77871],[-118.41755,33.77969]]],"type":"Polygon"},"properties":{"bbox":{"parking":{"area":1803.27,"pct":4.44},"roads":{"area":1321.01,"pct":3.25},"sidewalks":{"area":116.85,"pct":0.29}},"city_same":1,"id":"hex:1966:17268"},"type":"Feature"},{"geometry":{"coordinates":[[[-118.41758,33.78164],[-118.41828,33.78261],[-118.41962,33.78259],[-118.42028,33.78161],[-118.41959,33.78064],[-118.41824,33.78066],[-118.41758,33.78164]]],"type":"Polygon"},"properties":{"bbox":{"parking":{"area":5274.01,"pct":12.99},"roads":{"area":5262.1,"pct":12.96},"sidewalks":{"area":488.98,"pct":1.2}},"city_same":1,"id":"hex:1966:17269"},"type":"Feature"},{"geometry":{"coordinates":[[[-118.41762,33.78359],[-118.41831,33.78456],[-118.41966,33.78455],[-118.42032,33.78356],[-118.41962,33.78259],[-118.41828,33.78261],[-118.41762,33.78359]]],"type":"Polygon"},"properties":{"bbox":{"roads":{"area":4189.94,"pct":10.32}},"city_same":1,"id":"hex:1966:17270"},"type":"Feature"},{"geometry":{"coordinates":[[[-118.41834,33.78651],[-118.41765,33.78555],[-118.41831,33.78456],[-118.41966,33.78455],[-118.41997,33.78499],[-118.41974,33.78515],[-118.41948,33.78536],[-118.41917,33.78588],[-118.41867,33.78645],[-118.41856,33.78651],[-118.41834,33.78651]]],"type":"Polygon"},"properties":{"bbox":{"roads":{"area":1154.93,"pct":4.15}},"city_same":1,"id":"hex:1966:17271"},"type":"Feature"},{"geometry":{"coordinates":[[[-118.41795,33.76309],[-118.41729,33.76407],[-118.41595,33.76409],[-118.41525,33.76312],[-118.41557,33.76265],[-118.41639,33.76254],[-118.41674,33.76249],[-118.41746,33.76239],[-118.41795,33.76309]]],"type":"Polygon"},"properties":{"bbox":{"roads":{"area":2252.18,"pct":6.59}},"city_same":1,"id":"hex:1967:17259"},"type":"Feature"},{"geometry":{"coordinates":[[[-118.41529,33.76507],[-118.41598,33.76604],[-118.41733,33.76602],[-118.41799,33.76504],[-118.41729,33.76407],[-118.41595,33.76409],[-118.41529,33.76507]]],"type":"Polygon"},"properties":{"bbox":{"roads":{"area":1768.31,"pct":4.36}},"city_same":1,"id":"hex:1967:17260"},"type":"Feature"},{"geometry":{"coordinates":[[[-118.41532,33.76702],[-118.41601,33.76799],[-118.41736,33.76798],[-118.41802,33.76699],[-118.41733,33.76602],[-118.41598,33.76604],[-118.41532,33.76702]]],"type":"Polygon"},"properties":{"bbox":{"roads":{"area":2178.75,"pct":5.37}},"city_same":1,"id":"hex:1967:17261"},"type":"Feature"},{"geometry":{"coordinates":[[[-118.41535,33.76898],[-118.41604,33.76994],[-118.41739,33.76993],[-118.41805,33.76895],[-118.41736,33.76798],[-118.41601,33.76799],[-118.41535,33.76898]]],"type":"Polygon"},"properties":{"bbox":{"parking":{"area":1893.75,"pct":4.66},"roads":{"area":5107.54,"pct":12.58},"sidewalks":{"area":358.43,"pct":0.88}},"city_same":1,"id":"hex:1967:17262"},"type":"Feature"},{"geometry":{"coordinates":[[[-118.41538,33.77093],[-118.41607,33.7719],[-118.41742,33.77188],[-118.41808,33.7709],[-118.41739,33.76993],[-118.41604,33.76994],[-118.41538,33.77093]]],"type":"Polygon"},"properties":{"bbox":{"roads":{"area":3618.44,"pct":8.91}},"city_same":1,"id":"hex:1967:17263"},"type":"Feature"},{"geometry":{"coordinates":[[[-118.41542,33.77288],[-118.41611,33.77385],[-118.41746,33.77383],[-118.41811,33.77285],[-118.41742,33.77188],[-118.41607,33.7719],[-118.41542,33.77288]]],"type":"Polygon"},"properties":{"bbox":{"roads":{"area":4751.11,"pct":11.7},"sidewalks":{"area":64.25,"pct":0.16}},"city_same":1,"id":"hex:1967:17264"},"type":"Feature"},{"geometry":{"coordinates":[[[-118.41545,33.77483],[-118.41614,33.7758],[-118.41749,33.77579],[-118.41815,33.7748],[-118.41746,33.77383],[-118.41611,33.77385],[-118.41545,33.77483]]],"type":"Polygon"},"properties":{"bbox":{"parking":{"area":1354.59,"pct":3.34},"roads":{"area":6689.54,"pct":16.48},"sidewalks":{"area":748.05,"pct":1.84}},"city_same":1,"id":"hex:1967:17265"},"type":"Feature"},{"geometry":{"coordinates":[[[-118.41548,33.77678],[-118.41617,33.77775],[-118.41752,33.77774],[-118.41818,33.77675],[-118.41749,33.77579],[-118.41614,33.7758],[-118.41548,33.77678]]],"type":"Polygon"},"properties":{"bbox":{"roads":{"area":5887.65,"pct":14.5},"sidewalks":{"area":44.75,"pct":0.11}},"city_same":1,"id":"hex:1967:17266"},"type":"Feature"},{"geometry":{"coordinates":[[[-118.41551,33.77874],[-118.4162,33.7797],[-118.41755,33.77969],[-118.41821,33.77871],[-118.41752,33.77774],[-118.41617,33.77775],[-118.41551,33.77874]]],"type":"Polygon"},"properties":{"bbox":{"parking":{"area":624.03,"pct":1.54},"roads":{"area":4568.15,"pct":11.25},"sidewalks":{"area":179.48,"pct":0.44}},"city_same":1,"id":"hex:1967:17267"},"type":"Feature"},{"geometry":{"coordinates":[[[-118.41554,33.78069],[-118.41623,33.78166],[-118.41758,33.78164],[-118.41824,33.78066],[-118.41755,33.77969],[-118.4162,33.7797],[-118.41554,33.78069]]],"type":"Polygon"},"properties":{"bbox":{"roads":{"area":3200.4,"pct":7.88},"sidewalks":{"area":130.96,"pct":0.32}},"city_same":1,"id":"hex:1967:17268"},"type":"Feature"},{"geometry":{"coordinates":[[[-118.41558,33.78264],[-118.41627,33.78361],[-118.41762,33.78359],[-118.41828,33.78261],[-118.41758,33.78164],[-118.41623,33.78166],[-118.41558,33.78264]]],"type":"Polygon"},"properties":{"bbox":{"roads":{"area":2815.29,"pct":6.94}},"city_same":1,"id":"hex:1967:17269"},"type":"Feature"},{"geometry":{"coordinates":[[[-118.41561,33.78459],[-118.4163,33.78556],[-118.41765,33.78555],[-118.41831,33.78456],[-118.41762,33.78359],[-118.41627,33.78361],[-118.41561,33.78459]]],"type":"Polygon"},"properties":{"bbox":{"roads":{"area":2673.82,"pct":6.59}},"city_same":1,"id":"hex:1967:17270"},"type":"Feature"},{"geometry":{"coordinates":[[[-118.41633,33.78751],[-118.41564,33.78655],[-118.4163,33.78556],[-118.41765,33.78555],[-118.41834,33.78651],[-118.41822,33.78669],[-118.41792,33.78681],[-118.41747,33.78704],[-118.41714,33.78725],[-118.41664,33.78751],[-118.41633,33.78751]]],"type":"Polygon"},"properties":{"bbox":{"roads":{"area":2163.41,"pct":6.01}},"city_same":1,"id":"hex:1967:17271"},"type":"Feature"},{"geometry":{"coordinates":[[[-118.41525,33.76312],[-118.41391,33.76314],[-118.41374,33.7629],[-118.41439,33.76281],[-118.41481,33.76275],[-118.41557,33.76265],[-118.41525,33.76312]]],"type":"Polygon"},"properties":{"bbox":{"roads":{"area":704.04,"pct":12.4}},"city_same":1,"id":"hex:1968:17259"},"type":"Feature"},{"geometry":{"coordinates":[[[-118.41325,33.76412],[-118.41394,33.76509],[-118.41529,33.76507],[-118.41595,33.76409],[-118.41525,33.76312],[-118.41391,33.76314],[-118.41325,33.76412]]],"type":"Polygon"},"properties":{"bbox":{"roads":{"area":5133.87,"pct":12.65}},"city_same":1,"id":"hex:1968:17260"},"type":"Feature"},{"geometry":{"coordinates":[[[-118.41328,33.76607],[-118.41397,33.76704],[-118.41532,33.76702],[-118.41598,33.76604],[-118.41529,33.76507],[-118.41394,33.76509],[-118.41328,33.76607]]],"type":"Polygon"},"properties":{"bbox":{"roads":{"area":5653.74,"pct":13.93}},"city_same":1,"id":"hex:1968:17261"},"type":"Feature"},{"geometry":{"coordinates":[[[-118.41331,33.76802],[-118.414,33.76899],[-118.41535,33.76898],[-118.41601,33.76799],[-118.41532,33.76702],[-118.41397,33.76704],[-118.41331,33.76802]]],"type":"Polygon"},"properties":{"bbox":{"roads":{"area":4825.41,"pct":11.89},"sidewalks":{"area":244.1,"pct":0.6}},"city_same":1,"id":"hex:1968:17262"},"type":"Feature"},{"geometry":{"coordinates":[[[-118.41334,33.76998],[-118.41403,33.77094],[-118.41538,33.77093],[-118.41604,33.76994],[-118.41535,33.76898],[-118.414,33.76899],[-118.41334,33.76998]]],"type":"Polygon"},"properties":{"bbox":{"roads":{"area":4549.85,"pct":11.21}},"city_same":1,"id":"hex:1968:17263"},"type":"Feature"},{"geometry":{"coordinates":[[[-118.41337,33.77193],[-118.41407,33.7729],[-118.41542,33.77288],[-118.41607,33.7719],[-118.41538,33.77093],[-118.41403,33.77094],[-118.41337,33.77193]]],"type":"Polygon"},"properties":{"bbox":{"roads":{"area":4250.21,"pct":10.47}},"city_same":1,"id":"hex:1968:17264"},"type":"Feature"},{"geometry":{"coordinates":[[[-118.41341,33.77388],[-118.4141,33.77485],[-118.41545,33.77483],[-118.41611,33.77385],[-118.41542,33.77288],[-118.41407,33.7729],[-118.41341,33.77388]]],"type":"Polygon"},"properties":{"bbox":{"roads":{"area":3654.01,"pct":9}},"city_same":1,"id":"hex:1968:17265"},"type":"Feature"},{"geometry":{"coordinates":[[[-118.41344,33.77583],[-118.41413,33.7768],[-118.41548,33.77678],[-118.41614,33.7758],[-118.41545,33.77483],[-118.4141,33.77485],[-118.41344,33.77583]]],"type":"Polygon"},"properties":{"bbox":{"roads":{"area":2011.39,"pct":4.95}},"city_same":1,"id":"hex:1968:17266"},"type":"Feature"},{"geometry":{"coordinates":[[[-118.41347,33.77778],[-118.41416,33.77875],[-118.41551,33.77874],[-118.41617,33.77775],[-118.41548,33.77678],[-118.41413,33.7768],[-118.41347,33.77778]]],"type":"Polygon"},"properties":{"bbox":{"parking":{"area":262.65,"pct":0.65},"roads":{"area":5.8,"pct":0.01}},"city_same":1,"id":"hex:1968:17267"},"type":"Feature"},{"geometry":{"coordinates":[[[-118.4135,33.77974],[-118.41419,33.7807],[-118.41554,33.78069],[-118.4162,33.7797],[-118.41551,33.77874],[-118.41416,33.77875],[-118.4135,33.77974]]],"type":"Polygon"},"properties":{"bbox":{"parking":{"area":299.46,"pct":0.74},"roads":{"area":4013.64,"pct":9.89},"sidewalks":{"area":175.09,"pct":0.43}},"city_same":1,"id":"hex:1968:17268"},"type":"Feature"},{"geometry":{"coordinates":[[[-118.41354,33.78169],[-118.41423,33.78266],[-118.41558,33.78264],[-118.41623,33.78166],[-118.41554,33.78069],[-118.41419,33.7807],[-118.41354,33.78169]]],"type":"Polygon"},"properties":{"bbox":{"roads":{"area":4258.16,"pct":10.49}},"city_same":1,"id":"hex:1968:17269"},"type":"Feature"},{"geometry":{"coordinates":[[[-118.41357,33.78364],[-118.41426,33.78461],[-118.41561,33.78459],[-118.41627,33.78361],[-118.41558,33.78264],[-118.41423,33.78266],[-118.41357,33.78364]]],"type":"Polygon"},"properties":{"bbox":{"roads":{"area":3997.47,"pct":9.85}},"city_same":1,"id":"hex:1968:17270"},"type":"Feature"},{"geometry":{"coordinates":[[[-118.4136,33.78559],[-118.41429,33.78656],[-118.41564,33.78655],[-118.4163,33.78556],[-118.41561,33.78459],[-118.41426,33.78461],[-118.4136,33.78559]]],"type":"Polygon"},"properties":{"bbox":{"roads":{"area":3316.97,"pct":8.17}},"city_same":1,"id":"hex:1968:17271"},"type":"Feature"},{"geometry":{"coordinates":[[[-118.41363,33.78754],[-118.41429,33.78656],[-118.41564,33.78655],[-118.41633,33.78751],[-118.41612,33.78783],[-118.41589,33.78798],[-118.4154,33.78803],[-118.41513,33.7881],[-118.4149,33.78819],[-118.41474,33.78837],[-118.41459,33.78851],[-118.41447,33.78851],[-118.41431,33.78845],[-118.41429,33.78846],[-118.41363,33.78754]]],"type":"Polygon"},"properties":{"bbox":{"roads":{"area":1411.44,"pct":3.96}},"city_same":1,"id":"hex:1968:17272"},"type":"Feature"},{"geometry":{"coordinates":[[[-118.41391,33.76314],[-118.41325,33.76412],[-118.4119,33.76413],[-118.41126,33.76324],[-118.41292,33.76301],[-118.41374,33.7629],[-118.41391,33.76314]]],"type":"Polygon"},"properties":{"bbox":{"roads":{"area":1003.06,"pct":4.44}},"city_same":1,"id":"hex:1969:17259"},"type":"Feature"},{"geometry":{"coordinates":[[[-118.41124,33.76512],[-118.41193,33.76609],[-118.41328,33.76607],[-118.41394,33.76509],[-118.41325,33.76412],[-118.4119,33.76413],[-118.41124,33.76512]]],"type":"Polygon"},"properties":{"bbox":{"roads":{"area":2564.92,"pct":6.32}},"city_same":1,"id":"hex:1969:17260"},"type":"Feature"},{"geometry":{"coordinates":[[[-118.41127,33.76707],[-118.41196,33.76804],[-118.41331,33.76802],[-118.41397,33.76704],[-118.41328,33.76607],[-118.41193,33.76609],[-118.41127,33.76707]]],"type":"Polygon"},"properties":{"bbox":{"roads":{"area":3325.59,"pct":8.19}},"city_same":1,"id":"hex:1969:17261"},"type":"Feature"},{"geometry":{"coordinates":[[[-118.4113,33.76902],[-118.41199,33.76999],[-118.41334,33.76998],[-118.414,33.76899],[-118.41331,33.76802],[-118.41196,33.76804],[-118.4113,33.76902]]],"type":"Polygon"},"properties":{"bbox":{"roads":{"area":6553.51,"pct":16.14},"sidewalks":{"area":23,"pct":0.06}},"city_same":1,"id":"hex:1969:17262"},"type":"Feature"},{"geometry":{"coordinates":[[[-118.41133,33.77097],[-118.41203,33.77194],[-118.41337,33.77193],[-118.41403,33.77094],[-118.41334,33.76998],[-118.41199,33.76999],[-118.41133,33.77097]]],"type":"Polygon"},"properties":{"bbox":{"roads":{"area":4463.77,"pct":11}},"city_same":1,"id":"hex:1969:17263"},"type":"Feature"},{"geometry":{"coordinates":[[[-118.41137,33.77293],[-118.41206,33.77389],[-118.41341,33.77388],[-118.41407,33.7729],[-118.41337,33.77193],[-118.41203,33.77194],[-118.41137,33.77293]]],"type":"Polygon"},"properties":{"bbox":{"roads":{"area":4461.42,"pct":10.99}},"city_same":1,"id":"hex:1969:17264"},"type":"Feature"},{"geometry":{"coordinates":[[[-118.4114,33.77488],[-118.41209,33.77585],[-118.41344,33.77583],[-118.4141,33.77485],[-118.41341,33.77388],[-118.41206,33.77389],[-118.4114,33.77488]]],"type":"Polygon"},"properties":{"bbox":{"roads":{"area":3790.1,"pct":9.34},"sidewalks":{"area":19.55,"pct":0.05}},"city_same":1,"id":"hex:1969:17265"},"type":"Feature"},{"geometry":{"coordinates":[[[-118.41143,33.77683],[-118.41212,33.7778],[-118.41347,33.77778],[-118.41413,33.7768],[-118.41344,33.77583],[-118.41209,33.77585],[-118.41143,33.77683]]],"type":"Polygon"},"properties":{"bbox":{"parking":{"area":2056.01,"pct":5.06},"roads":{"area":1915.8,"pct":4.72},"sidewalks":{"area":218.74,"pct":0.54}},"city_same":1,"id":"hex:1969:17266"},"type":"Feature"},{"geometry":{"coordinates":[[[-118.41146,33.77878],[-118.41215,33.77975],[-118.4135,33.77974],[-118.41416,33.77875],[-118.41347,33.77778],[-118.41212,33.7778],[-118.41146,33.77878]]],"type":"Polygon"},"properties":{"bbox":{"roads":{"area":1305.55,"pct":3.22},"sidewalks":{"area":289.02,"pct":0.71}},"city_same":1,"id":"hex:1969:17267"},"type":"Feature"},{"geometry":{"coordinates":[[[-118.41149,33.78074],[-118.41219,33.7817],[-118.41354,33.78169],[-118.41419,33.7807],[-118.4135,33.77974],[-118.41215,33.77975],[-118.41149,33.78074]]],"type":"Polygon"},"properties":{"bbox":{"roads":{"area":1931.62,"pct":4.76},"sidewalks":{"area":119.69,"pct":0.29}},"city_same":1,"id":"hex:1969:17268"},"type":"Feature"},{"geometry":{"coordinates":[[[-118.41153,33.78269],[-118.41222,33.78366],[-118.41357,33.78364],[-118.41423,33.78266],[-118.41354,33.78169],[-118.41219,33.7817],[-118.41153,33.78269]]],"type":"Polygon"},"properties":{"bbox":{"roads":{"area":3830.91,"pct":9.44}},"city_same":1,"id":"hex:1969:17269"},"type":"Feature"},{"geometry":{"coordinates":[[[-118.41156,33.78464],[-118.41225,33.78561],[-118.4136,33.78559],[-118.41426,33.78461],[-118.41357,33.78364],[-118.41222,33.78366],[-118.41156,33.78464]]],"type":"Polygon"},"properties":{"bbox":{"roads":{"area":4775.35,"pct":11.76}},"city_same":1,"id":"hex:1969:17270"},"type":"Feature"},{"geometry":{"coordinates":[[[-118.41159,33.78659],[-118.41228,33.78756],[-118.41363,33.78754],[-118.41429,33.78656],[-118.4136,33.78559],[-118.41225,33.78561],[-118.41159,33.78659]]],"type":"Polygon"},"properties":{"bbox":{"roads":{"area":4410.28,"pct":10.86}},"city_same":1,"id":"hex:1969:17271"},"type":"Feature"},{"geometry":{"coordinates":[[[-118.41162,33.78854],[-118.41228,33.78756],[-118.41363,33.78754],[-118.41429,33.78846],[-118.41407,33.78858],[-118.41386,33.78866],[-118.41367,33.7887],[-118.41336,33.7888],[-118.41308,33.78894],[-118.41271,33.78909],[-118.41242,33.78919],[-118.41218,33.78932],[-118.41162,33.78854]]],"type":"Polygon"},"properties":{"bbox":{"roads":{"area":281.02,"pct":0.93}},"city_same":1,"id":"hex:1969:17272"},"type":"Feature"},{"geometry":{"coordinates":[[[-118.4119,33.76413],[-118.41124,33.76512],[-118.40989,33.76513],[-118.4092,33.76417],[-118.40967,33.76345],[-118.41126,33.76324],[-118.4119,33.76413]]],"type":"Polygon"},"properties":{"bbox":{"roads":{"area":2685.48,"pct":7.05}},"city_same":1,"id":"hex:1970:17260"},"type":"Feature"},{"geometry":{"coordinates":[[[-118.40923,33.76612],[-118.40992,33.76709],[-118.41127,33.76707],[-118.41193,33.76609],[-118.41124,33.76512],[-118.40989,33.76513],[-118.40923,33.76612]]],"type":"Polygon"},"properties":{"bbox":{"roads":{"area":3791.43,"pct":9.34}},"city_same":1,"id":"hex:1970:17261"},"type":"Feature"},{"geometry":{"coordinates":[[[-118.40926,33.76807],[-118.40995,33.76904],[-118.4113,33.76902],[-118.41196,33.76804],[-118.41127,33.76707],[-118.40992,33.76709],[-118.40926,33.76807]]],"type":"Polygon"},"properties":{"bbox":{"roads":{"area":2552.55,"pct":6.29}},"city_same":1,"id":"hex:1970:17262"},"type":"Feature"},{"geometry":{"coordinates":[[[-118.40929,33.77002],[-118.40998,33.77099],[-118.41133,33.77097],[-118.41199,33.76999],[-118.4113,33.76902],[-118.40995,33.76904],[-118.40929,33.77002]]],"type":"Polygon"},"properties":{"bbox":{"roads":{"area":3031.26,"pct":7.47}},"city_same":1,"id":"hex:1970:17263"},"type":"Feature"},{"geometry":{"coordinates":[[[-118.40933,33.77197],[-118.41002,33.77294],[-118.41137,33.77293],[-118.41203,33.77194],[-118.41133,33.77097],[-118.40998,33.77099],[-118.40933,33.77197]]],"type":"Polygon"},"properties":{"bbox":{"roads":{"area":3734.17,"pct":9.2}},"city_same":1,"id":"hex:1970:17264"},"type":"Feature"},{"geometry":{"coordinates":[[[-118.40936,33.77393],[-118.41005,33.77489],[-118.4114,33.77488],[-118.41206,33.77389],[-118.41137,33.77293],[-118.41002,33.77294],[-118.40936,33.77393]]],"type":"Polygon"},"properties":{"bbox":{"roads":{"area":3167.63,"pct":7.8}},"city_same":1,"id":"hex:1970:17265"},"type":"Feature"},{"geometry":{"coordinates":[[[-118.40939,33.77588],[-118.41008,33.77685],[-118.41143,33.77683],[-118.41209,33.77585],[-118.4114,33.77488],[-118.41005,33.77489],[-118.40939,33.77588]]],"type":"Polygon"},"properties":{"bbox":{"roads":{"area":3685.94,"pct":9.08}},"city_same":1,"id":"hex:1970:17266"},"type":"Feature"},{"geometry":{"coordinates":[[[-118.40942,33.77783],[-118.41011,33.7788],[-118.41146,33.77878],[-118.41212,33.7778],[-118.41143,33.77683],[-118.41008,33.77685],[-118.40942,33.77783]]],"type":"Polygon"},"properties":{"bbox":{"parking":{"area":2731.25,"pct":6.73},"roads":{"area":2272.13,"pct":5.6},"sidewalks":{"area":344.5,"pct":0.85}},"city_same":1,"id":"hex:1970:17267"},"type":"Feature"},{"geometry":{"coordinates":[[[-118.40945,33.77978],[-118.41014,33.78075],[-118.41149,33.78074],[-118.41215,33.77975],[-118.41146,33.77878],[-118.41011,33.7788],[-118.40945,33.77978]]],"type":"Polygon"},"properties":{"bbox":{"roads":{"area":3022.56,"pct":7.45},"sidewalks":{"area":307.01,"pct":0.76}},"city_same":1,"id":"hex:1970:17268"},"type":"Feature"},{"geometry":{"coordinates":[[[-118.40949,33.78173],[-118.41018,33.7827],[-118.41153,33.78269],[-118.41219,33.7817],[-118.41149,33.78074],[-118.41014,33.78075],[-118.40949,33.78173]]],"type":"Polygon"},"properties":{"bbox":{"roads":{"area":1387.08,"pct":3.42}},"city_same":1,"id":"hex:1970:17269"},"type":"Feature"},{"geometry":{"coordinates":[[[-118.40952,33.78369],[-118.41021,33.78465],[-118.41156,33.78464],[-118.41222,33.78366],[-118.41153,33.78269],[-118.41018,33.7827],[-118.40952,33.78369]]],"type":"Polygon"},"properties":{"bbox":{"roads":{"area":2041.04,"pct":5.03}},"city_same":1,"id":"hex:1970:17270"},"type":"Feature"},{"geometry":{"coordinates":[[[-118.40955,33.78564],[-118.41024,33.78661],[-118.41159,33.78659],[-118.41225,33.78561],[-118.41156,33.78464],[-118.41021,33.78465],[-118.40955,33.78564]]],"type":"Polygon"},"properties":{"bbox":{"roads":{"area":1083.03,"pct":2.67}},"city_same":1,"id":"hex:1970:17271"},"type":"Feature"},{"geometry":{"coordinates":[[[-118.40958,33.78759],[-118.41027,33.78856],[-118.41162,33.78854],[-118.41228,33.78756],[-118.41159,33.78659],[-118.41024,33.78661],[-118.40958,33.78759]]],"type":"Polygon"},"properties":{"bbox":{"roads":{"area":5129.65,"pct":12.64}},"city_same":1,"id":"hex:1970:17272"},"type":"Feature"},{"geometry":{"coordinates":[[[-118.40961,33.78954],[-118.41027,33.78856],[-118.41162,33.78854],[-118.41218,33.78932],[-118.41216,33.78933],[-118.41186,33.78952],[-118.41164,33.78956],[-118.4112,33.78976],[-118.41101,33.78978],[-118.41046,33.79003],[-118.41023,33.79018],[-118.41013,33.79027],[-118.40961,33.78954]]],"type":"Polygon"},"properties":{"bbox":{"parking":{"area":654.19,"pct":2.41},"roads":{"area":516.43,"pct":1.91}},"city_same":1,"id":"hex:1970:17273"},"type":"Feature"},{"geometry":{"coordinates":[[[-118.4092,33.76417],[-118.40785,33.76418],[-118.40754,33.76375],[-118.40853,33.76361],[-118.40967,33.76345],[-118.4092,33.76417]]],"type":"Polygon"},"properties":{"bbox":{"roads":{"area":526.11,"pct":5.19}},"city_same":1,"id":"hex:1971:17259"},"type":"Feature"},{"geometry":{"coordinates":[[[-118.40719,33.76516],[-118.40788,33.76613],[-118.40923,33.76612],[-118.40989,33.76513],[-118.4092,33.76417],[-118.40785,33.76418],[-118.40719,33.76516]]],"type":"Polygon"},"properties":{"bbox":{"roads":{"area":2648.16,"pct":6.52}},"city_same":1,"id":"hex:1971:17260"},"type":"Feature"},{"geometry":{"coordinates":[[[-118.40722,33.76712],[-118.40791,33.76808],[-118.40926,33.76807],[-118.40992,33.76709],[-118.40923,33.76612],[-118.40788,33.76613],[-118.40722,33.76712]]],"type":"Polygon"},"properties":{"bbox":{"roads":{"area":1141.82,"pct":2.81}},"city_same":1,"id":"hex:1971:17261"},"type":"Feature"},{"geometry":{"coordinates":[[[-118.40725,33.76907],[-118.40794,33.77004],[-118.40929,33.77002],[-118.40995,33.76904],[-118.40926,33.76807],[-118.40791,33.76808],[-118.40725,33.76907]]],"type":"Polygon"},"properties":{"bbox":{"roads":{"area":2729.16,"pct":6.72}},"city_same":1,"id":"hex:1971:17262"},"type":"Feature"},{"geometry":{"coordinates":[[[-118.40729,33.77102],[-118.40798,33.77199],[-118.40933,33.77197],[-118.40998,33.77099],[-118.40929,33.77002],[-118.40794,33.77004],[-118.40729,33.77102]]],"type":"Polygon"},"properties":{"bbox":{"roads":{"area":2418.52,"pct":5.96}},"city_same":1,"id":"hex:1971:17263"},"type":"Feature"},{"geometry":{"coordinates":[[[-118.40732,33.77297],[-118.40801,33.77394],[-118.40936,33.77393],[-118.41002,33.77294],[-118.40933,33.77197],[-118.40798,33.77199],[-118.40732,33.77297]]],"type":"Polygon"},"properties":{"bbox":{"roads":{"area":2280.4,"pct":5.62}},"city_same":1,"id":"hex:1971:17264"},"type":"Feature"},{"geometry":{"coordinates":[[[-118.40735,33.77493],[-118.40804,33.77589],[-118.40939,33.77588],[-118.41005,33.77489],[-118.40936,33.77393],[-118.40801,33.77394],[-118.40735,33.77493]]],"type":"Polygon"},"properties":{"bbox":{"roads":{"area":3698.15,"pct":9.11}},"city_same":1,"id":"hex:1971:17265"},"type":"Feature"},{"geometry":{"coordinates":[[[-118.40738,33.77688],[-118.40807,33.77785],[-118.40942,33.77783],[-118.41008,33.77685],[-118.40939,33.77588],[-118.40804,33.77589],[-118.40738,33.77688]]],"type":"Polygon"},"properties":{"bbox":{"roads":{"area":2807.46,"pct":6.92}},"city_same":1,"id":"hex:1971:17266"},"type":"Feature"},{"geometry":{"coordinates":[[[-118.40741,33.77883],[-118.4081,33.7798],[-118.40945,33.77978],[-118.41011,33.7788],[-118.40942,33.77783],[-118.40807,33.77785],[-118.40741,33.77883]]],"type":"Polygon"},"properties":{"bbox":{"roads":{"area":2096.34,"pct":5.16},"sidewalks":{"area":141,"pct":0.35}},"city_same":1,"id":"hex:1971:17267"},"type":"Feature"},{"geometry":{"coordinates":[[[-118.40745,33.78078],[-118.40814,33.78175],[-118.40949,33.78173],[-118.41014,33.78075],[-118.40945,33.77978],[-118.4081,33.7798],[-118.40745,33.78078]]],"type":"Polygon"},"properties":{"bbox":{"roads":{"area":4754.06,"pct":11.71}},"city_same":1,"id":"hex:1971:17268"},"type":"Feature"},{"geometry":{"coordinates":[[[-118.40748,33.78273],[-118.40817,33.7837],[-118.40952,33.78369],[-118.41018,33.7827],[-118.40949,33.78173],[-118.40814,33.78175],[-118.40748,33.78273]]],"type":"Polygon"},"properties":{"bbox":{"roads":{"area":3416.22,"pct":8.42}},"city_same":1,"id":"hex:1971:17269"},"type":"Feature"},{"geometry":{"coordinates":[[[-118.40751,33.78469],[-118.4082,33.78565],[-118.40955,33.78564],[-118.41021,33.78465],[-118.40952,33.78369],[-118.40817,33.7837],[-118.40751,33.78469]]],"type":"Polygon"},"properties":{"bbox":{"roads":{"area":1588.47,"pct":3.91}},"city_same":1,"id":"hex:1971:17270"},"type":"Feature"},{"geometry":{"coordinates":[[[-118.40754,33.78664],[-118.40823,33.78761],[-118.40958,33.78759],[-118.41024,33.78661],[-118.40955,33.78564],[-118.4082,33.78565],[-118.40754,33.78664]]],"type":"Polygon"},"properties":{"bbox":{"roads":{"area":2.34,"pct":0.01}},"city_same":1,"id":"hex:1971:17271"},"type":"Feature"},{"geometry":{"coordinates":[[[-118.40757,33.78859],[-118.40826,33.78956],[-118.40961,33.78954],[-118.41027,33.78856],[-118.40958,33.78759],[-118.40823,33.78761],[-118.40757,33.78859]]],"type":"Polygon"},"properties":{"bbox":{"parking":{"area":0.01,"pct":0},"roads":{"area":2565.7,"pct":6.32}},"city_same":1,"id":"hex:1971:17272"},"type":"Feature"},{"geometry":{"coordinates":[[[-118.40761,33.79054],[-118.40826,33.78956],[-118.40961,33.78954],[-118.41013,33.79027],[-118.41009,33.7903],[-118.40995,33.79048],[-118.40976,33.79063],[-118.40952,33.79079],[-118.40929,33.7909],[-118.40917,33.79093],[-118.409,33.79094],[-118.40882,33.79098],[-118.40856,33.79097],[-118.40797,33.79106],[-118.40761,33.79054]]],"type":"Polygon"},"properties":{"bbox":{"roads":{"area":166.89,"pct":0.59}},"city_same":1,"id":"hex:1971:17273"},"type":"Feature"},{"geometry":{"coordinates":[[[-118.40785,33.76418],[-118.40719,33.76516],[-118.40584,33.76518],[-118.40515,33.76421],[-118.40525,33.76406],[-118.40754,33.76375],[-118.40785,33.76418]]],"type":"Polygon"},"properties":{"bbox":{"roads":{"area":1732.42,"pct":6.18}},"city_same":1,"id":"hex:1972:17260"},"type":"Feature"},{"geometry":{"coordinates":[[[-118.40521,33.76812],[-118.4059,33.76908],[-118.40725,33.76907],[-118.40791,33.76808],[-118.40722,33.76712],[-118.40587,33.76713],[-118.40521,33.76812]]],"type":"Polygon"},"properties":{"bbox":{"roads":{"area":59.64,"pct":0.15}},"city_same":1,"id":"hex:1972:17262"},"type":"Feature"},{"geometry":{"coordinates":[[[-118.40525,33.77007],[-118.40594,33.77104],[-118.40729,33.77102],[-118.40794,33.77004],[-118.40725,33.76907],[-118.4059,33.76908],[-118.40525,33.77007]]],"type":"Polygon"},"properties":{"bbox":{"roads":{"area":2582.54,"pct":6.36}},"city_same":1,"id":"hex:1972:17263"},"type":"Feature"},{"geometry":{"coordinates":[[[-118.40528,33.77202],[-118.40597,33.77299],[-118.40732,33.77297],[-118.40798,33.77199],[-118.40729,33.77102],[-118.40594,33.77104],[-118.40528,33.77202]]],"type":"Polygon"},"properties":{"bbox":{"roads":{"area":2433.24,"pct":5.99}},"city_same":1,"id":"hex:1972:17264"},"type":"Feature"},{"geometry":{"coordinates":[[[-118.40531,33.77397],[-118.406,33.77494],[-118.40735,33.77493],[-118.40801,33.77394],[-118.40732,33.77297],[-118.40597,33.77299],[-118.40531,33.77397]]],"type":"Polygon"},"properties":{"bbox":{"roads":{"area":3220.91,"pct":7.93}},"city_same":1,"id":"hex:1972:17265"},"type":"Feature"},{"geometry":{"coordinates":[[[-118.40534,33.77592],[-118.40603,33.77689],[-118.40738,33.77688],[-118.40804,33.77589],[-118.40735,33.77493],[-118.406,33.77494],[-118.40534,33.77592]]],"type":"Polygon"},"properties":{"bbox":{"roads":{"area":2417,"pct":5.95}},"city_same":1,"id":"hex:1972:17266"},"type":"Feature"},{"geometry":{"coordinates":[[[-118.40537,33.77788],[-118.40606,33.77884],[-118.40741,33.77883],[-118.40807,33.77785],[-118.40738,33.77688],[-118.40603,33.77689],[-118.40537,33.77788]]],"type":"Polygon"},"properties":{"bbox":{"roads":{"area":2292.15,"pct":5.65}},"city_same":1,"id":"hex:1972:17267"},"type":"Feature"},{"geometry":{"coordinates":[[[-118.4054,33.77983],[-118.4061,33.7808],[-118.40745,33.78078],[-118.4081,33.7798],[-118.40741,33.77883],[-118.40606,33.77884],[-118.4054,33.77983]]],"type":"Polygon"},"properties":{"bbox":{"roads":{"area":2702.79,"pct":6.66}},"city_same":1,"id":"hex:1972:17268"},"type":"Feature"},{"geometry":{"coordinates":[[[-118.40544,33.78178],[-118.40613,33.78275],[-118.40748,33.78273],[-118.40814,33.78175],[-118.40745,33.78078],[-118.4061,33.7808],[-118.40544,33.78178]]],"type":"Polygon"},"properties":{"bbox":{"roads":{"area":2446.82,"pct":6.03}},"city_same":1,"id":"hex:1972:17269"},"type":"Feature"},{"geometry":{"coordinates":[[[-118.40547,33.78373],[-118.40616,33.7847],[-118.40751,33.78469],[-118.40817,33.7837],[-118.40748,33.78273],[-118.40613,33.78275],[-118.40547,33.78373]]],"type":"Polygon"},"properties":{"bbox":{"roads":{"area":3157.8,"pct":7.78}},"city_same":1,"id":"hex:1972:17270"},"type":"Feature"},{"geometry":{"coordinates":[[[-118.4055,33.78568],[-118.40619,33.78665],[-118.40754,33.78664],[-118.4082,33.78565],[-118.40751,33.78469],[-118.40616,33.7847],[-118.4055,33.78568]]],"type":"Polygon"},"properties":{"bbox":{"roads":{"area":1306.54,"pct":3.22}},"city_same":1,"id":"hex:1972:17271"},"type":"Feature"},{"geometry":{"coordinates":[[[-118.40553,33.78764],[-118.40622,33.78861],[-118.40757,33.78859],[-118.40823,33.78761],[-118.40754,33.78664],[-118.40619,33.78665],[-118.40553,33.78764]]],"type":"Polygon"},"properties":{"bbox":{"roads":{"area":2062.02,"pct":5.08}},"city_same":1,"id":"hex:1972:17272"},"type":"Feature"},{"geometry":{"coordinates":[[[-118.40556,33.78959],[-118.40626,33.79056],[-118.40761,33.79054],[-118.40826,33.78956],[-118.40757,33.78859],[-118.40622,33.78861],[-118.40556,33.78959]]],"type":"Polygon"},"properties":{"bbox":{"roads":{"area":2131.84,"pct":5.25}},"city_same":1,"id":"hex:1972:17273"},"type":"Feature"},{"geometry":{"coordinates":[[[-118.40629,33.79251],[-118.4056,33.79154],[-118.40626,33.79056],[-118.40761,33.79054],[-118.40797,33.79106],[-118.40754,33.79113],[-118.4074,33.79119],[-118.40731,33.79127],[-118.40719,33.79146],[-118.40702,33.79183],[-118.407,33.79205],[-118.40693,33.7925],[-118.40629,33.79251]]],"type":"Polygon"},"properties":{"bbox":{"roads":{"area":0.99,"pct":0}},"city_same":1,"id":"hex:1972:17274"},"type":"Feature"},{"geometry":{"coordinates":[[[-118.40635,33.79641],[-118.40566,33.79545],[-118.40632,33.79446],[-118.40767,33.79445],[-118.40785,33.7947],[-118.40763,33.79524],[-118.40757,33.79558],[-118.40757,33.7958],[-118.40761,33.79615],[-118.40769,33.7964],[-118.40635,33.79641]]],"type":"Polygon"},"properties":{"bbox":{"roads":{"area":254.18,"pct":0.76}},"city_same":1,"id":"hex:1972:17276"},"type":"Feature"},{"geometry":{"coordinates":[[[-118.40638,33.79837],[-118.40569,33.7974],[-118.40635,33.79641],[-118.40769,33.7964],[-118.40771,33.79645],[-118.4078,33.79663],[-118.40789,33.79669],[-118.40792,33.7967],[-118.40828,33.79721],[-118.40827,33.79722],[-118.40813,33.79719],[-118.40806,33.79719],[-118.40804,33.79725],[-118.40808,33.79731],[-118.40797,33.79733],[-118.40792,33.79731],[-118.40789,33.79737],[-118.40776,33.79739],[-118.4077,33.79735],[-118.40759,33.79739],[-118.40693,33.79816],[-118.40684,33.7983],[-118.4068,33.79836],[-118.40638,33.79837]]],"type":"Polygon"},"properties":{"bbox":{"roads":{"area":1310.12,"pct":4.21}},"city_same":1,"id":"hex:1972:17277"},"type":"Feature"},{"geometry":{"coordinates":[[[-118.40515,33.76421],[-118.40584,33.76518],[-118.40518,33.76616],[-118.40383,33.76618],[-118.40369,33.76598],[-118.40369,33.76516],[-118.40369,33.76499],[-118.40369,33.76439],[-118.40378,33.76426],[-118.40403,33.76422],[-118.40515,33.76421]]],"type":"Polygon"},"properties":{"bbox":{"roads":{"area":834.92,"pct":2.31}},"city_same":1,"id":"hex:1973:17260"},"type":"Feature"},{"geometry":{"coordinates":[[[-118.40383,33.76618],[-118.40518,33.76616],[-118.40587,33.76713],[-118.40521,33.76812],[-118.40386,33.76813],[-118.4037,33.76789],[-118.40369,33.76746],[-118.40369,33.76639],[-118.40383,33.76618]]],"type":"Polygon"},"properties":{"bbox":{"roads":{"area":1500.03,"pct":4.1}},"city_same":1,"id":"hex:1973:17261"},"type":"Feature"},{"geometry":{"coordinates":[[[-118.40386,33.76813],[-118.40521,33.76812],[-118.4059,33.76908],[-118.40525,33.77007],[-118.4039,33.77008],[-118.4037,33.76981],[-118.4037,33.76838],[-118.40386,33.76813]]],"type":"Polygon"},"properties":{"bbox":{"roads":{"area":4206.53,"pct":11.37}},"city_same":1,"id":"hex:1973:17262"},"type":"Feature"},{"geometry":{"coordinates":[[[-118.4039,33.77008],[-118.40525,33.77007],[-118.40594,33.77104],[-118.40528,33.77202],[-118.40393,33.77204],[-118.4037,33.77172],[-118.4037,33.77037],[-118.4039,33.77008]]],"type":"Polygon"},"properties":{"bbox":{"roads":{"area":3152.69,"pct":8.43}},"city_same":1,"id":"hex:1973:17263"},"type":"Feature"},{"geometry":{"coordinates":[[[-118.40393,33.77204],[-118.40528,33.77202],[-118.40597,33.77299],[-118.40531,33.77397],[-118.40396,33.77399],[-118.40371,33.77363],[-118.4037,33.77237],[-118.40393,33.77204]]],"type":"Polygon"},"properties":{"bbox":{"roads":{"area":2769.2,"pct":7.33}},"city_same":1,"id":"hex:1973:17264"},"type":"Feature"},{"geometry":{"coordinates":[[[-118.40396,33.77399],[-118.40531,33.77397],[-118.406,33.77494],[-118.40534,33.77592],[-118.40399,33.77594],[-118.40371,33.77555],[-118.40371,33.77531],[-118.40371,33.77436],[-118.40396,33.77399]]],"type":"Polygon"},"properties":{"bbox":{"roads":{"area":2087.15,"pct":5.48}},"city_same":1,"id":"hex:1973:17265"},"type":"Feature"},{"geometry":{"coordinates":[[[-118.40399,33.77594],[-118.40534,33.77592],[-118.40603,33.77689],[-118.40537,33.77788],[-118.40402,33.77789],[-118.40372,33.77746],[-118.40371,33.77636],[-118.40399,33.77594]]],"type":"Polygon"},"properties":{"bbox":{"roads":{"area":2985.25,"pct":7.77}},"city_same":1,"id":"hex:1973:17266"},"type":"Feature"},{"geometry":{"coordinates":[[[-118.40402,33.77789],[-118.40537,33.77788],[-118.40606,33.77884],[-118.4054,33.77983],[-118.40406,33.77984],[-118.40372,33.77937],[-118.40372,33.77835],[-118.40402,33.77789]]],"type":"Polygon"},"properties":{"bbox":{"roads":{"area":2579.41,"pct":6.66}},"city_same":1,"id":"hex:1973:17267"},"type":"Feature"},{"geometry":{"coordinates":[[[-118.40406,33.77984],[-118.4054,33.77983],[-118.4061,33.7808],[-118.40544,33.78178],[-118.40409,33.7818],[-118.40372,33.78129],[-118.40372,33.78034],[-118.40406,33.77984]]],"type":"Polygon"},"properties":{"bbox":{"roads":{"area":2701.63,"pct":6.92}},"city_same":1,"id":"hex:1973:17268"},"type":"Feature"},{"geometry":{"coordinates":[[[-118.40343,33.78278],[-118.40412,33.78375],[-118.40547,33.78373],[-118.40613,33.78275],[-118.40544,33.78178],[-118.40409,33.7818],[-118.40343,33.78278]]],"type":"Polygon"},"properties":{"bbox":{"roads":{"area":867.17,"pct":2.14}},"city_same":1,"id":"hex:1973:17269"},"type":"Feature"},{"geometry":{"coordinates":[[[-118.40346,33.78473],[-118.40415,33.7857],[-118.4055,33.78568],[-118.40616,33.7847],[-118.40547,33.78373],[-118.40412,33.78375],[-118.40346,33.78473]]],"type":"Polygon"},"properties":{"bbox":{"roads":{"area":2377,"pct":5.86}},"city_same":1,"id":"hex:1973:17270"},"type":"Feature"},{"geometry":{"coordinates":[[[-118.40349,33.78668],[-118.40418,33.78765],[-118.40553,33.78764],[-118.40619,33.78665],[-118.4055,33.78568],[-118.40415,33.7857],[-118.40349,33.78668]]],"type":"Polygon"},"properties":{"bbox":{"roads":{"area":341.22,"pct":0.84}},"city_same":1,"id":"hex:1973:17271"},"type":"Feature"},{"geometry":{"coordinates":[[[-118.40352,33.78864],[-118.40421,33.7896],[-118.40556,33.78959],[-118.40622,33.78861],[-118.40553,33.78764],[-118.40418,33.78765],[-118.40352,33.78864]]],"type":"Polygon"},"properties":{"bbox":{"roads":{"area":2497.41,"pct":6.15}},"city_same":1,"id":"hex:1973:17272"},"type":"Feature"},{"geometry":{"coordinates":[[[-118.40356,33.79059],[-118.40425,33.79156],[-118.4056,33.79154],[-118.40626,33.79056],[-118.40556,33.78959],[-118.40421,33.7896],[-118.40356,33.79059]]],"type":"Polygon"},"properties":{"bbox":{"roads":{"area":3661.11,"pct":9.02}},"city_same":1,"id":"hex:1973:17273"},"type":"Feature"},{"geometry":{"coordinates":[[[-118.40359,33.79254],[-118.40428,33.79351],[-118.40563,33.79349],[-118.40629,33.79251],[-118.4056,33.79154],[-118.40425,33.79156],[-118.40359,33.79254]]],"type":"Polygon"},"properties":{"bbox":{"roads":{"area":2691.74,"pct":6.63}},"city_same":1,"id":"hex:1973:17274"},"type":"Feature"},{"geometry":{"coordinates":[[[-118.40362,33.79449],[-118.40431,33.79546],[-118.40566,33.79545],[-118.40632,33.79446],[-118.40563,33.79349],[-118.40428,33.79351],[-118.40362,33.79449]]],"type":"Polygon"},"properties":{"bbox":{"roads":{"area":3076.04,"pct":7.58}},"city_same":1,"id":"hex:1973:17275"},"type":"Feature"},{"geometry":{"coordinates":[[[-118.40365,33.79644],[-118.40434,33.79741],[-118.40569,33.7974],[-118.40635,33.79641],[-118.40566,33.79545],[-118.40431,33.79546],[-118.40365,33.79644]]],"type":"Polygon"},"properties":{"bbox":{"roads":{"area":5304.49,"pct":13.07}},"city_same":1,"id":"hex:1973:17276"},"type":"Feature"},{"geometry":{"coordinates":[[[-118.40368,33.7984],[-118.40437,33.79937],[-118.40572,33.79935],[-118.40638,33.79837],[-118.40569,33.7974],[-118.40434,33.79741],[-118.40368,33.7984]]],"type":"Polygon"},"properties":{"bbox":{"roads":{"area":3081.04,"pct":7.59}},"city_same":1,"id":"hex:1973:17277"},"type":"Feature"},{"geometry":{"coordinates":[[[-118.40371,33.80035],[-118.40437,33.79937],[-118.40572,33.79935],[-118.40579,33.79945],[-118.40565,33.79957],[-118.40545,33.79976],[-118.4051,33.79999],[-118.40445,33.80036],[-118.40388,33.80059],[-118.40371,33.80035]]],"type":"Polygon"},"properties":{"bbox":{"roads":{"area":1003.92,"pct":7.65}},"city_same":1,"id":"hex:1973:17278"},"type":"Feature"},{"geometry":{"coordinates":[[[-118.40409,33.7818],[-118.40343,33.78278],[-118.40208,33.7828],[-118.40139,33.78183],[-118.40144,33.78175],[-118.40174,33.78177],[-118.40372,33.78177],[-118.40372,33.78129],[-118.40409,33.7818]]],"type":"Polygon"},"properties":{"bbox":{"roads":{"area":1910.36,"pct":8.58}},"city_same":1,"id":"hex:1974:17269"},"type":"Feature"},{"geometry":{"coordinates":[[[-118.40142,33.78378],[-118.40211,33.78475],[-118.40346,33.78473],[-118.40412,33.78375],[-118.40343,33.78278],[-118.40208,33.7828],[-118.40142,33.78378]]],"type":"Polygon"},"properties":{"bbox":{"roads":{"area":2703.17,"pct":6.66}},"city_same":1,"id":"hex:1974:17270"},"type":"Feature"},{"geometry":{"coordinates":[[[-118.40145,33.78573],[-118.40214,33.7867],[-118.40349,33.78668],[-118.40415,33.7857],[-118.40346,33.78473],[-118.40211,33.78475],[-118.40145,33.78573]]],"type":"Polygon"},"properties":{"bbox":{"roads":{"area":1882.84,"pct":4.64}},"city_same":1,"id":"hex:1974:17271"},"type":"Feature"},{"geometry":{"coordinates":[[[-118.40148,33.78768],[-118.40217,33.78865],[-118.40352,33.78864],[-118.40418,33.78765],[-118.40349,33.78668],[-118.40214,33.7867],[-118.40148,33.78768]]],"type":"Polygon"},"properties":{"bbox":{"roads":{"area":1884.81,"pct":4.64}},"city_same":1,"id":"hex:1974:17272"},"type":"Feature"},{"geometry":{"coordinates":[[[-118.40151,33.78964],[-118.40221,33.7906],[-118.40356,33.79059],[-118.40421,33.7896],[-118.40352,33.78864],[-118.40217,33.78865],[-118.40151,33.78964]]],"type":"Polygon"},"properties":{"bbox":{"roads":{"area":317.59,"pct":0.78}},"city_same":1,"id":"hex:1974:17273"},"type":"Feature"},{"geometry":{"coordinates":[[[-118.40155,33.79159],[-118.40224,33.79256],[-118.40359,33.79254],[-118.40425,33.79156],[-118.40356,33.79059],[-118.40221,33.7906],[-118.40155,33.79159]]],"type":"Polygon"},"properties":{"bbox":{"roads":{"area":545.25,"pct":1.34}},"city_same":1,"id":"hex:1974:17274"},"type":"Feature"},{"geometry":{"coordinates":[[[-118.40158,33.79354],[-118.40227,33.79451],[-118.40362,33.79449],[-118.40428,33.79351],[-118.40359,33.79254],[-118.40224,33.79256],[-118.40158,33.79354]]],"type":"Polygon"},"properties":{"bbox":{"roads":{"area":1550.94,"pct":3.82}},"city_same":1,"id":"hex:1974:17275"},"type":"Feature"},{"geometry":{"coordinates":[[[-118.40161,33.79549],[-118.4023,33.79646],[-118.40365,33.79644],[-118.40431,33.79546],[-118.40362,33.79449],[-118.40227,33.79451],[-118.40161,33.79549]]],"type":"Polygon"},"properties":{"bbox":{"roads":{"area":3277.88,"pct":8.07}},"city_same":1,"id":"hex:1974:17276"},"type":"Feature"},{"geometry":{"coordinates":[[[-118.40164,33.79744],[-118.40233,33.79841],[-118.40368,33.7984],[-118.40434,33.79741],[-118.40365,33.79644],[-118.4023,33.79646],[-118.40164,33.79744]]],"type":"Polygon"},"properties":{"bbox":{"roads":{"area":2631.75,"pct":6.48}},"city_same":1,"id":"hex:1974:17277"},"type":"Feature"},{"geometry":{"coordinates":[[[-118.40167,33.7994],[-118.40236,33.80036],[-118.40371,33.80035],[-118.40437,33.79937],[-118.40368,33.7984],[-118.40233,33.79841],[-118.40167,33.7994]]],"type":"Polygon"},"properties":{"bbox":{"roads":{"area":3231.17,"pct":7.96}},"city_same":1,"id":"hex:1974:17278"},"type":"Feature"},{"geometry":{"coordinates":[[[-118.40171,33.80135],[-118.40236,33.80036],[-118.40371,33.80035],[-118.40388,33.80059],[-118.40354,33.80073],[-118.40264,33.80115],[-118.40197,33.80148],[-118.40183,33.80153],[-118.40171,33.80135]]],"type":"Polygon"},"properties":{"bbox":{"parking":{"area":10.51,"pct":0.08},"roads":{"area":870.71,"pct":6.97}},"city_same":1,"id":"hex:1974:17279"},"type":"Feature"},{"geometry":{"coordinates":[[[-118.39938,33.78283],[-118.40007,33.78379],[-118.40142,33.78378],[-118.40208,33.7828],[-118.40139,33.78183],[-118.40004,33.78184],[-118.39938,33.78283]]],"type":"Polygon"},"properties":{"bbox":{"roads":{"area":3203.66,"pct":7.89}},"city_same":1,"id":"hex:1975:17269"},"type":"Feature"},{"geometry":{"coordinates":[[[-118.39941,33.78478],[-118.4001,33.78575],[-118.40145,33.78573],[-118.40211,33.78475],[-118.40142,33.78378],[-118.40007,33.78379],[-118.39941,33.78478]]],"type":"Polygon"},"properties":{"bbox":{"roads":{"area":2212.51,"pct":5.45}},"city_same":1,"id":"hex:1975:17270"},"type":"Feature"},{"geometry":{"coordinates":[[[-118.39944,33.78673],[-118.40013,33.7877],[-118.40148,33.78768],[-118.40214,33.7867],[-118.40145,33.78573],[-118.4001,33.78575],[-118.39944,33.78673]]],"type":"Polygon"},"properties":{"bbox":{"roads":{"area":2213.19,"pct":5.45}},"city_same":1,"id":"hex:1975:17271"},"type":"Feature"},{"geometry":{"coordinates":[[[-118.39947,33.78868],[-118.40016,33.78965],[-118.40151,33.78964],[-118.40217,33.78865],[-118.40148,33.78768],[-118.40013,33.7877],[-118.39947,33.78868]]],"type":"Polygon"},"properties":{"bbox":{"roads":{"area":2698.36,"pct":6.65}},"city_same":1,"id":"hex:1975:17272"},"type":"Feature"},{"geometry":{"coordinates":[[[-118.39951,33.79063],[-118.4002,33.7916],[-118.40155,33.79159],[-118.40221,33.7906],[-118.40151,33.78964],[-118.40016,33.78965],[-118.39951,33.79063]]],"type":"Polygon"},"properties":{"bbox":{"roads":{"area":1532.6,"pct":3.78}},"city_same":1,"id":"hex:1975:17273"},"type":"Feature"},{"geometry":{"coordinates":[[[-118.39954,33.79259],[-118.40023,33.79355],[-118.40158,33.79354],[-118.40224,33.79256],[-118.40155,33.79159],[-118.4002,33.7916],[-118.39954,33.79259]]],"type":"Polygon"},"properties":{"bbox":{"roads":{"area":271.63,"pct":0.67}},"city_same":1,"id":"hex:1975:17274"},"type":"Feature"},{"geometry":{"coordinates":[[[-118.39957,33.79454],[-118.40026,33.79551],[-118.40161,33.79549],[-118.40227,33.79451],[-118.40158,33.79354],[-118.40023,33.79355],[-118.39957,33.79454]]],"type":"Polygon"},"properties":{"bbox":{"parking":{"area":1493.05,"pct":3.68},"roads":{"area":4593.5,"pct":11.32}},"city_same":1,"id":"hex:1975:17275"},"type":"Feature"},{"geometry":{"coordinates":[[[-118.3996,33.79649],[-118.40029,33.79746],[-118.40164,33.79744],[-118.4023,33.79646],[-118.40161,33.79549],[-118.40026,33.79551],[-118.3996,33.79649]]],"type":"Polygon"},"properties":{"bbox":{"roads":{"area":4186.43,"pct":10.31}},"city_same":1,"id":"hex:1975:17276"},"type":"Feature"},{"geometry":{"coordinates":[[[-118.39963,33.79844],[-118.40032,33.79941],[-118.40167,33.7994],[-118.40233,33.79841],[-118.40164,33.79744],[-118.40029,33.79746],[-118.39963,33.79844]]],"type":"Polygon"},"properties":{"bbox":{"roads":{"area":2530.76,"pct":6.23}},"city_same":1,"id":"hex:1975:17277"},"type":"Feature"},{"geometry":{"coordinates":[[[-118.39966,33.80039],[-118.40036,33.80136],[-118.40171,33.80135],[-118.40236,33.80036],[-118.40167,33.7994],[-118.40032,33.79941],[-118.39966,33.80039]]],"type":"Polygon"},"properties":{"bbox":{"parking":{"area":2362.09,"pct":5.82},"roads":{"area":4598.04,"pct":11.33}},"city_same":1,"id":"hex:1975:17278"},"type":"Feature"},{"geometry":{"coordinates":[[[-118.40036,33.80136],[-118.40171,33.80135],[-118.40183,33.80153],[-118.40137,33.80169],[-118.40071,33.80188],[-118.40026,33.80208],[-118.4,33.80216],[-118.39982,33.80216],[-118.40036,33.80136]]],"type":"Polygon"},"properties":{"bbox":{"parking":{"area":1238.84,"pct":15.23},"roads":{"area":272.75,"pct":3.35}},"city_same":1,"id":"hex:1975:17279"},"type":"Feature"},{"geometry":{"coordinates":[[[-118.40004,33.78184],[-118.39938,33.78283],[-118.39803,33.78284],[-118.39734,33.78187],[-118.39735,33.78185],[-118.39996,33.78181],[-118.39996,33.78177],[-118.39997,33.78174],[-118.40004,33.78184]]],"type":"Polygon"},"properties":{"bbox":{"roads":{"area":325.52,"pct":1.55}},"city_same":1,"id":"hex:1976:17269"},"type":"Feature"},{"geometry":{"coordinates":[[[-118.39737,33.78382],[-118.39806,33.78479],[-118.39941,33.78478],[-118.40007,33.78379],[-118.39938,33.78283],[-118.39803,33.78284],[-118.39737,33.78382]]],"type":"Polygon"},"properties":{"bbox":{"roads":{"area":2359.15,"pct":5.81}},"city_same":1,"id":"hex:1976:17270"},"type":"Feature"},{"geometry":{"coordinates":[[[-118.3974,33.78578],[-118.39809,33.78675],[-118.39944,33.78673],[-118.4001,33.78575],[-118.39941,33.78478],[-118.39806,33.78479],[-118.3974,33.78578]]],"type":"Polygon"},"properties":{"bbox":{"roads":{"area":3584.11,"pct":8.83},"sidewalks":{"area":176.74,"pct":0.44}},"city_same":1,"id":"hex:1976:17271"},"type":"Feature"},{"geometry":{"coordinates":[[[-118.39743,33.78773],[-118.39812,33.7887],[-118.39947,33.78868],[-118.40013,33.7877],[-118.39944,33.78673],[-118.39809,33.78675],[-118.39743,33.78773]]],"type":"Polygon"},"properties":{"bbox":{"roads":{"area":3590.05,"pct":8.84},"sidewalks":{"area":331.15,"pct":0.82}},"city_same":1,"id":"hex:1976:17272"},"type":"Feature"},{"geometry":{"coordinates":[[[-118.39747,33.78968],[-118.39816,33.79065],[-118.39951,33.79063],[-118.40016,33.78965],[-118.39947,33.78868],[-118.39812,33.7887],[-118.39747,33.78968]]],"type":"Polygon"},"properties":{"bbox":{"roads":{"area":3322.24,"pct":8.18}},"city_same":1,"id":"hex:1976:17273"},"type":"Feature"},{"geometry":{"coordinates":[[[-118.3975,33.79163],[-118.39819,33.7926],[-118.39954,33.79259],[-118.4002,33.7916],[-118.39951,33.79063],[-118.39816,33.79065],[-118.3975,33.79163]]],"type":"Polygon"},"properties":{"bbox":{"roads":{"area":2031.53,"pct":5}},"city_same":1,"id":"hex:1976:17274"},"type":"Feature"},{"geometry":{"coordinates":[[[-118.39753,33.79359],[-118.39822,33.79455],[-118.39957,33.79454],[-118.40023,33.79355],[-118.39954,33.79259],[-118.39819,33.7926],[-118.39753,33.79359]]],"type":"Polygon"},"properties":{"bbox":{"roads":{"area":2496.73,"pct":6.15}},"city_same":1,"id":"hex:1976:17275"},"type":"Feature"},{"geometry":{"coordinates":[[[-118.39756,33.79554],[-118.39825,33.79651],[-118.3996,33.79649],[-118.40026,33.79551],[-118.39957,33.79454],[-118.39822,33.79455],[-118.39756,33.79554]]],"type":"Polygon"},"properties":{"bbox":{"roads":{"area":3586.4,"pct":8.83}},"city_same":1,"id":"hex:1976:17276"},"type":"Feature"},{"geometry":{"coordinates":[[[-118.39759,33.79749],[-118.39828,33.79846],[-118.39963,33.79844],[-118.40029,33.79746],[-118.3996,33.79649],[-118.39825,33.79651],[-118.39759,33.79749]]],"type":"Polygon"},"properties":{"bbox":{"roads":{"area":1868.98,"pct":4.6}},"city_same":1,"id":"hex:1976:17277"},"type":"Feature"},{"geometry":{"coordinates":[[[-118.39762,33.79944],[-118.39831,33.80041],[-118.39966,33.80039],[-118.40032,33.79941],[-118.39963,33.79844],[-118.39828,33.79846],[-118.39762,33.79944]]],"type":"Polygon"},"properties":{"bbox":{"roads":{"area":3174.91,"pct":7.82}},"city_same":1,"id":"hex:1976:17278"},"type":"Feature"},{"geometry":{"coordinates":[[[-118.39766,33.80139],[-118.39831,33.80041],[-118.39966,33.80039],[-118.40036,33.80136],[-118.39982,33.80216],[-118.39961,33.80217],[-118.3992,33.80215],[-118.39878,33.80213],[-118.39824,33.8022],[-118.39823,33.8022],[-118.39766,33.80139]]],"type":"Polygon"},"properties":{"bbox":{"parking":{"area":1482.67,"pct":3.94},"roads":{"area":3794.91,"pct":10.09},"sidewalks":{"area":318.55,"pct":0.85}},"city_same":1,"id":"hex:1976:17279"},"type":"Feature"},{"geometry":{"coordinates":[[[-118.39533,33.78287],[-118.39602,33.78384],[-118.39737,33.78382],[-118.39803,33.78284],[-118.39734,33.78187],[-118.39599,33.78189],[-118.39533,33.78287]]],"type":"Polygon"},"properties":{"bbox":{"roads":{"area":3675.25,"pct":9.05}},"city_same":1,"id":"hex:1977:17269"},"type":"Feature"},{"geometry":{"coordinates":[[[-118.39536,33.78482],[-118.39605,33.78579],[-118.3974,33.78578],[-118.39806,33.78479],[-118.39737,33.78382],[-118.39602,33.78384],[-118.39536,33.78482]]],"type":"Polygon"},"properties":{"bbox":{"roads":{"area":1266.55,"pct":3.12}},"city_same":1,"id":"hex:1977:17270"},"type":"Feature"},{"geometry":{"coordinates":[[[-118.39539,33.78678],[-118.39608,33.78774],[-118.39743,33.78773],[-118.39809,33.78675],[-118.3974,33.78578],[-118.39605,33.78579],[-118.39539,33.78678]]],"type":"Polygon"},"properties":{"bbox":{"roads":{"area":1769.92,"pct":4.36},"sidewalks":{"area":21.91,"pct":0.05}},"city_same":1,"id":"hex:1977:17271"},"type":"Feature"},{"geometry":{"coordinates":[[[-118.39542,33.78873],[-118.39612,33.7897],[-118.39747,33.78968],[-118.39812,33.7887],[-118.39743,33.78773],[-118.39608,33.78774],[-118.39542,33.78873]]],"type":"Polygon"},"properties":{"bbox":{"roads":{"area":3446.66,"pct":8.49},"sidewalks":{"area":181.14,"pct":0.45}},"city_same":1,"id":"hex:1977:17272"},"type":"Feature"},{"geometry":{"coordinates":[[[-118.39546,33.79068],[-118.39615,33.79165],[-118.3975,33.79163],[-118.39816,33.79065],[-118.39747,33.78968],[-118.39612,33.7897],[-118.39546,33.79068]]],"type":"Polygon"},"properties":{"bbox":{"roads":{"area":2090.94,"pct":5.15}},"city_same":1,"id":"hex:1977:17273"},"type":"Feature"},{"geometry":{"coordinates":[[[-118.39549,33.79263],[-118.39618,33.7936],[-118.39753,33.79359],[-118.39819,33.7926],[-118.3975,33.79163],[-118.39615,33.79165],[-118.39549,33.79263]]],"type":"Polygon"},"properties":{"bbox":{"roads":{"area":2475.73,"pct":6.1}},"city_same":1,"id":"hex:1977:17274"},"type":"Feature"},{"geometry":{"coordinates":[[[-118.39552,33.79458],[-118.39621,33.79555],[-118.39756,33.79554],[-118.39822,33.79455],[-118.39753,33.79359],[-118.39618,33.7936],[-118.39552,33.79458]]],"type":"Polygon"},"properties":{"bbox":{"roads":{"area":3061.24,"pct":7.54}},"city_same":1,"id":"hex:1977:17275"},"type":"Feature"},{"geometry":{"coordinates":[[[-118.39555,33.79654],[-118.39624,33.7975],[-118.39759,33.79749],[-118.39825,33.79651],[-118.39756,33.79554],[-118.39621,33.79555],[-118.39555,33.79654]]],"type":"Polygon"},"properties":{"bbox":{"roads":{"area":3422.46,"pct":8.43}},"city_same":1,"id":"hex:1977:17276"},"type":"Feature"},{"geometry":{"coordinates":[[[-118.39558,33.79849],[-118.39627,33.79946],[-118.39762,33.79944],[-118.39828,33.79846],[-118.39759,33.79749],[-118.39624,33.7975],[-118.39558,33.79849]]],"type":"Polygon"},"properties":{"bbox":{"roads":{"area":2082.52,"pct":5.13}},"city_same":1,"id":"hex:1977:17277"},"type":"Feature"},{"geometry":{"coordinates":[[[-118.39561,33.80044],[-118.39631,33.80141],[-118.39766,33.80139],[-118.39831,33.80041],[-118.39762,33.79944],[-118.39627,33.79946],[-118.39561,33.80044]]],"type":"Polygon"},"properties":{"bbox":{"parking":{"area":219.79,"pct":0.54},"roads":{"area":4303.14,"pct":10.6},"sidewalks":{"area":378.69,"pct":0.93}},"city_same":1,"id":"hex:1977:17278"},"type":"Feature"},{"geometry":{"coordinates":[[[-118.39565,33.80239],[-118.39631,33.80141],[-118.39766,33.80139],[-118.39823,33.8022],[-118.3979,33.80234],[-118.39744,33.80272],[-118.39702,33.80296],[-118.39669,33.80309],[-118.39663,33.80311],[-118.39628,33.80328],[-118.39565,33.80239]]],"type":"Polygon"},"properties":{"bbox":{"parking":{"area":5403.67,"pct":17.38},"roads":{"area":3002.52,"pct":9.66},"sidewalks":{"area":746.78,"pct":2.4}},"city_same":1,"id":"hex:1977:17279"},"type":"Feature"},{"geometry":{"coordinates":[[[-118.39599,33.78189],[-118.39533,33.78287],[-118.39398,33.78289],[-118.39329,33.78192],[-118.39335,33.78183],[-118.39386,33.78178],[-118.39595,33.78183],[-118.39599,33.78189]]],"type":"Polygon"},"properties":{"bbox":{"roads":{"area":2080.34,"pct":9.05}},"city_same":1,"id":"hex:1978:17269"},"type":"Feature"},{"geometry":{"coordinates":[[[-118.39332,33.78387],[-118.39401,33.78484],[-118.39536,33.78482],[-118.39602,33.78384],[-118.39533,33.78287],[-118.39398,33.78289],[-118.39332,33.78387]]],"type":"Polygon"},"properties":{"bbox":{"roads":{"area":2649.59,"pct":6.53}},"city_same":1,"id":"hex:1978:17270"},"type":"Feature"},{"geometry":{"coordinates":[[[-118.39335,33.78582],[-118.39404,33.78679],[-118.39539,33.78678],[-118.39605,33.78579],[-118.39536,33.78482],[-118.39401,33.78484],[-118.39335,33.78582]]],"type":"Polygon"},"properties":{"bbox":{"roads":{"area":2376.3,"pct":5.85}},"city_same":1,"id":"hex:1978:17271"},"type":"Feature"},{"geometry":{"coordinates":[[[-118.39338,33.78777],[-118.39407,33.78874],[-118.39542,33.78873],[-118.39608,33.78774],[-118.39539,33.78678],[-118.39404,33.78679],[-118.39338,33.78777]]],"type":"Polygon"},"properties":{"bbox":{"roads":{"area":4033.64,"pct":9.94},"sidewalks":{"area":89.27,"pct":0.22}},"city_same":1,"id":"hex:1978:17272"},"type":"Feature"},{"geometry":{"coordinates":[[[-118.39342,33.78973],[-118.39411,33.7907],[-118.39546,33.79068],[-118.39612,33.7897],[-118.39542,33.78873],[-118.39407,33.78874],[-118.39342,33.78973]]],"type":"Polygon"},"properties":{"bbox":{"parking":{"area":939.08,"pct":2.31},"roads":{"area":2371.32,"pct":5.84}},"city_same":1,"id":"hex:1978:17273"},"type":"Feature"},{"geometry":{"coordinates":[[[-118.39345,33.79168],[-118.39414,33.79265],[-118.39549,33.79263],[-118.39615,33.79165],[-118.39546,33.79068],[-118.39411,33.7907],[-118.39345,33.79168]]],"type":"Polygon"},"properties":{"bbox":{"roads":{"area":2646.65,"pct":6.52}},"city_same":1,"id":"hex:1978:17274"},"type":"Feature"},{"geometry":{"coordinates":[[[-118.39348,33.79363],[-118.39417,33.7946],[-118.39552,33.79458],[-118.39618,33.7936],[-118.39549,33.79263],[-118.39414,33.79265],[-118.39348,33.79363]]],"type":"Polygon"},"properties":{"bbox":{"roads":{"area":2528.97,"pct":6.23}},"city_same":1,"id":"hex:1978:17275"},"type":"Feature"},{"geometry":{"coordinates":[[[-118.39351,33.79558],[-118.3942,33.79655],[-118.39555,33.79654],[-118.39621,33.79555],[-118.39552,33.79458],[-118.39417,33.7946],[-118.39351,33.79558]]],"type":"Polygon"},"properties":{"bbox":{"roads":{"area":3063.45,"pct":7.55}},"city_same":1,"id":"hex:1978:17276"},"type":"Feature"},{"geometry":{"coordinates":[[[-118.39354,33.79754],[-118.39423,33.7985],[-118.39558,33.79849],[-118.39624,33.7975],[-118.39555,33.79654],[-118.3942,33.79655],[-118.39354,33.79754]]],"type":"Polygon"},"properties":{"bbox":{"roads":{"area":3094.82,"pct":7.62}},"city_same":1,"id":"hex:1978:17277"},"type":"Feature"},{"geometry":{"coordinates":[[[-118.39357,33.79949],[-118.39426,33.80046],[-118.39561,33.80044],[-118.39627,33.79946],[-118.39558,33.79849],[-118.39423,33.7985],[-118.39357,33.79949]]],"type":"Polygon"},"properties":{"bbox":{"roads":{"area":2836.88,"pct":6.99}},"city_same":1,"id":"hex:1978:17278"},"type":"Feature"},{"geometry":{"coordinates":[[[-118.39361,33.80144],[-118.3943,33.80241],[-118.39565,33.80239],[-118.39631,33.80141],[-118.39561,33.80044],[-118.39426,33.80046],[-118.39361,33.80144]]],"type":"Polygon"},"properties":{"bbox":{"parking":{"area":2164.03,"pct":5.33},"roads":{"area":2953.69,"pct":7.28},"sidewalks":{"area":227.4,"pct":0.56}},"city_same":1,"id":"hex:1978:17279"},"type":"Feature"},{"geometry":{"coordinates":[[[-118.39128,33.78292],[-118.39197,33.78389],[-118.39332,33.78387],[-118.39398,33.78289],[-118.39329,33.78192],[-118.39194,33.78193],[-118.39128,33.78292]]],"type":"Polygon"},"properties":{"bbox":{"roads":{"area":897.17,"pct":2.21}},"city_same":1,"id":"hex:1979:17269"},"type":"Feature"},{"geometry":{"coordinates":[[[-118.39131,33.78487],[-118.392,33.78584],[-118.39335,33.78582],[-118.39401,33.78484],[-118.39332,33.78387],[-118.39197,33.78389],[-118.39131,33.78487]]],"type":"Polygon"},"properties":{"bbox":{"roads":{"area":1994.54,"pct":4.91}},"city_same":1,"id":"hex:1979:17270"},"type":"Feature"},{"geometry":{"coordinates":[[[-118.39134,33.78682],[-118.39203,33.78779],[-118.39338,33.78777],[-118.39404,33.78679],[-118.39335,33.78582],[-118.392,33.78584],[-118.39134,33.78682]]],"type":"Polygon"},"properties":{"bbox":{"roads":{"area":1330.41,"pct":3.28}},"city_same":1,"id":"hex:1979:17271"},"type":"Feature"},{"geometry":{"coordinates":[[[-118.39138,33.78877],[-118.39207,33.78974],[-118.39342,33.78973],[-118.39407,33.78874],[-118.39338,33.78777],[-118.39203,33.78779],[-118.39138,33.78877]]],"type":"Polygon"},"properties":{"bbox":{"roads":{"area":2242.91,"pct":5.53}},"city_same":1,"id":"hex:1979:17272"},"type":"Feature"},{"geometry":{"coordinates":[[[-118.39141,33.79073],[-118.3921,33.79169],[-118.39345,33.79168],[-118.39411,33.7907],[-118.39342,33.78973],[-118.39207,33.78974],[-118.39141,33.79073]]],"type":"Polygon"},"properties":{"bbox":{"parking":{"area":155.72,"pct":0.38},"roads":{"area":452.63,"pct":1.11}},"city_same":1,"id":"hex:1979:17273"},"type":"Feature"},{"geometry":{"coordinates":[[[-118.39144,33.79268],[-118.39213,33.79365],[-118.39348,33.79363],[-118.39414,33.79265],[-118.39345,33.79168],[-118.3921,33.79169],[-118.39144,33.79268]]],"type":"Polygon"},"properties":{"bbox":{"roads":{"area":1264.6,"pct":3.12}},"city_same":1,"id":"hex:1979:17274"},"type":"Feature"},{"geometry":{"coordinates":[[[-118.39147,33.79463],[-118.39216,33.7956],[-118.39351,33.79558],[-118.39417,33.7946],[-118.39348,33.79363],[-118.39213,33.79365],[-118.39147,33.79463]]],"type":"Polygon"},"properties":{"bbox":{"roads":{"area":1533.49,"pct":3.78}},"city_same":1,"id":"hex:1979:17275"},"type":"Feature"},{"geometry":{"coordinates":[[[-118.3915,33.79658],[-118.39219,33.79755],[-118.39354,33.79754],[-118.3942,33.79655],[-118.39351,33.79558],[-118.39216,33.7956],[-118.3915,33.79658]]],"type":"Polygon"},"properties":{"bbox":{"roads":{"area":1254.32,"pct":3.09}},"city_same":1,"id":"hex:1979:17276"},"type":"Feature"},{"geometry":{"coordinates":[[[-118.39153,33.79853],[-118.39222,33.7995],[-118.39357,33.79949],[-118.39423,33.7985],[-118.39354,33.79754],[-118.39219,33.79755],[-118.39153,33.79853]]],"type":"Polygon"},"properties":{"bbox":{"roads":{"area":1736.81,"pct":4.28}},"city_same":1,"id":"hex:1979:17277"},"type":"Feature"},{"geometry":{"coordinates":[[[-118.39156,33.80049],[-118.39226,33.80145],[-118.39361,33.80144],[-118.39426,33.80046],[-118.39357,33.79949],[-118.39222,33.7995],[-118.39156,33.80049]]],"type":"Polygon"},"properties":{"bbox":{"roads":{"area":4242.83,"pct":10.45},"sidewalks":{"area":253.56,"pct":0.62}},"city_same":1,"id":"hex:1979:17278"},"type":"Feature"},{"geometry":{"coordinates":[[[-118.3916,33.80244],[-118.39229,33.80341],[-118.39364,33.80339],[-118.3943,33.80241],[-118.39361,33.80144],[-118.39226,33.80145],[-118.3916,33.80244]]],"type":"Polygon"},"properties":{"bbox":{"parking":{"area":733.75,"pct":1.81}},"city_same":1,"id":"hex:1979:17279"},"type":"Feature"},{"geometry":{"coordinates":[[[-118.39194,33.78193],[-118.39128,33.78292],[-118.38993,33.78293],[-118.38924,33.78196],[-118.38925,33.78195],[-118.39193,33.78192],[-118.39194,33.78193]]],"type":"Polygon"},"properties":{"bbox":{"roads":{"area":1124.92,"pct":5.46}},"city_same":1,"id":"hex:1980:17269"},"type":"Feature"},{"geometry":{"coordinates":[[[-118.38927,33.78392],[-118.38996,33.78488],[-118.39131,33.78487],[-118.39197,33.78389],[-118.39128,33.78292],[-118.38993,33.78293],[-118.38927,33.78392]]],"type":"Polygon"},"properties":{"bbox":{"roads":{"area":482.76,"pct":1.19}},"city_same":1,"id":"hex:1980:17270"},"type":"Feature"},{"geometry":{"coordinates":[[[-118.3893,33.78587],[-118.38999,33.78684],[-118.39134,33.78682],[-118.392,33.78584],[-118.39131,33.78487],[-118.38996,33.78488],[-118.3893,33.78587]]],"type":"Polygon"},"properties":{"bbox":{"roads":{"area":1272.45,"pct":3.13}},"city_same":1,"id":"hex:1980:17271"},"type":"Feature"},{"geometry":{"coordinates":[[[-118.38937,33.78977],[-118.39006,33.79074],[-118.39141,33.79073],[-118.39207,33.78974],[-118.39138,33.78877],[-118.39003,33.78879],[-118.38937,33.78977]]],"type":"Polygon"},"properties":{"bbox":{"roads":{"area":1564.5,"pct":3.85}},"city_same":1,"id":"hex:1980:17273"},"type":"Feature"},{"geometry":{"coordinates":[[[-118.3894,33.79172],[-118.39009,33.79269],[-118.39144,33.79268],[-118.3921,33.79169],[-118.39141,33.79073],[-118.39006,33.79074],[-118.3894,33.79172]]],"type":"Polygon"},"properties":{"bbox":{"roads":{"area":452.05,"pct":1.11}},"city_same":1,"id":"hex:1980:17274"},"type":"Feature"},{"geometry":{"coordinates":[[[-118.38943,33.79368],[-118.39012,33.79465],[-118.39147,33.79463],[-118.39213,33.79365],[-118.39144,33.79268],[-118.39009,33.79269],[-118.38943,33.79368]]],"type":"Polygon"},"properties":{"bbox":{"roads":{"area":2062.61,"pct":5.08}},"city_same":1,"id":"hex:1980:17275"},"type":"Feature"},{"geometry":{"coordinates":[[[-118.38946,33.79563],[-118.39015,33.7966],[-118.3915,33.79658],[-118.39216,33.7956],[-118.39147,33.79463],[-118.39012,33.79465],[-118.38946,33.79563]]],"type":"Polygon"},"properties":{"bbox":{"roads":{"area":1035.63,"pct":2.55}},"city_same":1,"id":"hex:1980:17276"},"type":"Feature"},{"geometry":{"coordinates":[[[-118.38952,33.79953],[-118.39021,33.8005],[-118.39156,33.80049],[-118.39222,33.7995],[-118.39153,33.79853],[-118.39018,33.79855],[-118.38952,33.79953]]],"type":"Polygon"},"properties":{"bbox":{"parking":{"area":1803.23,"pct":4.44},"roads":{"area":1181.8,"pct":2.91},"sidewalks":{"area":825.41,"pct":2.03}},"city_same":1,"id":"hex:1980:17278"},"type":"Feature"},{"geometry":{"coordinates":[[[-118.38956,33.80149],[-118.39025,33.80245],[-118.3916,33.80244],[-118.39226,33.80145],[-118.39156,33.80049],[-118.39021,33.8005],[-118.38956,33.80149]]],"type":"Polygon"},"properties":{"bbox":{"roads":{"area":1056.55,"pct":2.6},"sidewalks":{"area":357.98,"pct":0.88}},"city_same":1,"id":"hex:1980:17279"},"type":"Feature"},{"geometry":{"coordinates":[[[-118.38959,33.80344],[-118.39025,33.80245],[-118.3916,33.80244],[-118.39229,33.80341],[-118.39171,33.80427],[-118.39017,33.80426],[-118.38959,33.80344]]],"type":"Polygon"},"properties":{"bbox":{"parking":{"area":2086.07,"pct":5.4}},"city_same":1,"id":"hex:1980:17280"},"type":"Feature"},{"geometry":{"coordinates":[[[-118.38924,33.78196],[-118.38993,33.78293],[-118.38927,33.78392],[-118.38792,33.78393],[-118.38723,33.78296],[-118.38788,33.78199],[-118.38846,33.78197],[-118.38924,33.78196]]],"type":"Polygon"},"properties":{"bbox":{"roads":{"area":546.92,"pct":1.35}},"city_same":1,"id":"hex:1981:17269"},"type":"Feature"},{"geometry":{"coordinates":[[[-118.38726,33.78492],[-118.38795,33.78588],[-118.3893,33.78587],[-118.38996,33.78488],[-118.38927,33.78392],[-118.38792,33.78393],[-118.38726,33.78492]]],"type":"Polygon"},"properties":{"bbox":{"roads":{"area":2.2,"pct":0.01}},"city_same":1,"id":"hex:1981:17270"},"type":"Feature"},{"geometry":{"coordinates":[[[-118.38736,33.79077],[-118.38805,33.79174],[-118.3894,33.79172],[-118.39006,33.79074],[-118.38937,33.78977],[-118.38802,33.78979],[-118.38736,33.79077]]],"type":"Polygon"},"properties":{"bbox":{"roads":{"area":1166.6,"pct":2.87}},"city_same":1,"id":"hex:1981:17273"},"type":"Feature"},{"geometry":{"coordinates":[[[-118.38739,33.79272],[-118.38808,33.79369],[-118.38943,33.79368],[-118.39009,33.79269],[-118.3894,33.79172],[-118.38805,33.79174],[-118.38739,33.79272]]],"type":"Polygon"},"properties":{"bbox":{"roads":{"area":2574.05,"pct":6.34}},"city_same":1,"id":"hex:1981:17274"},"type":"Feature"},{"geometry":{"coordinates":[[[-118.38748,33.79858],[-118.38817,33.79955],[-118.38952,33.79953],[-118.39018,33.79855],[-118.38949,33.79758],[-118.38814,33.7976],[-118.38748,33.79858]]],"type":"Polygon"},"properties":{"bbox":{"parking":{"area":719.04,"pct":1.77},"roads":{"area":220.88,"pct":0.54},"sidewalks":{"area":374.43,"pct":0.92}},"city_same":1,"id":"hex:1981:17277"},"type":"Feature"},{"geometry":{"coordinates":[[[-118.38751,33.80053],[-118.38821,33.8015],[-118.38956,33.80149],[-118.39021,33.8005],[-118.38952,33.79953],[-118.38817,33.79955],[-118.38751,33.80053]]],"type":"Polygon"},"properties":{"bbox":{"parking":{"area":4607.65,"pct":11.35},"sidewalks":{"area":792.22,"pct":1.95}},"city_same":1,"id":"hex:1981:17278"},"type":"Feature"},{"geometry":{"coordinates":[[[-118.38547,33.79958],[-118.38616,33.80055],[-118.38751,33.80053],[-118.38817,33.79955],[-118.38748,33.79858],[-118.38613,33.7986],[-118.38547,33.79958]]],"type":"Polygon"},"properties":{"bbox":{"sidewalks":{"area":7.01,"pct":0.02}},"city_same":1,"id":"hex:1982:17278"},"type":"Feature"},{"geometry":{"coordinates":[[[-118.38551,33.80153],[-118.3862,33.8025],[-118.38755,33.80248],[-118.38821,33.8015],[-118.38751,33.80053],[-118.38616,33.80055],[-118.38551,33.80153]]],"type":"Polygon"},"properties":{"bbox":{"sidewalks":{"area":10.01,"pct":0.02}},"city_same":1,"id":"hex:1982:17279"},"type":"Feature"},{"geometry":{"coordinates":[[[-118.37596,33.79578],[-118.3753,33.79676],[-118.37395,33.79678],[-118.37326,33.79581],[-118.37388,33.79489],[-118.37429,33.79491],[-118.37437,33.79491],[-118.37461,33.79492],[-118.37501,33.79493],[-118.37507,33.79493],[-118.37514,33.79493],[-118.37536,33.79494],[-118.37596,33.79578]]],"type":"Polygon"},"properties":{"bbox":{"parking":{"area":3213.94,"pct":8.2}},"city_same":1,"id":"hex:1988:17276"},"type":"Feature"},{"geometry":{"coordinates":[[[-118.37326,33.79581],[-118.37191,33.79583],[-118.37122,33.79486],[-118.37131,33.79472],[-118.3717,33.79471],[-118.37208,33.79473],[-118.37231,33.79478],[-118.37246,33.79481],[-118.37259,33.79482],[-118.37262,33.79483],[-118.37273,33.79483],[-118.37298,33.79484],[-118.37386,33.79488],[-118.37388,33.79489],[-118.37326,33.79581]]],"type":"Polygon"},"properties":{"bbox":{"parking":{"area":5978.97,"pct":27.83}},"city_same":1,"id":"hex:1989:17275"},"type":"Feature"},{"geometry":{"coordinates":[[[-118.37122,33.79486],[-118.36987,33.79487],[-118.36986,33.79486],[-118.36994,33.79484],[-118.3702,33.79481],[-118.37028,33.7948],[-118.37043,33.79478],[-118.37083,33.79475],[-118.37099,33.79474],[-118.37112,33.79473],[-118.37121,33.79472],[-118.37131,33.79472],[-118.37122,33.79486]]],"type":"Polygon"},"properties":{"bbox":{"parking":{"area":34.45,"pct":2.76}},"city_same":1,"id":"hex:1990:17275"},"type":"Feature"},{"geometry":{"coordinates":[[[-118.36921,33.79586],[-118.3699,33.79682],[-118.37125,33.79681],[-118.37191,33.79583],[-118.37122,33.79486],[-118.36987,33.79487],[-118.36921,33.79586]]],"type":"Polygon"},"properties":{"bbox":{"parking":{"area":1007.93,"pct":2.48}},"city_same":1,"id":"hex:1990:17276"},"type":"Feature"}],"type":"FeatureCollection","v":2}