{"features":[{"geometry":{"coordinates":[[[-118.23027,33.92898],[-118.22935,33.92901],[-118.22689,33.92964],[-118.22573,33.92977],[-118.22685,33.93713],[-118.22832,33.93696],[-118.22841,33.93737],[-118.22923,33.93726],[-118.22865,33.93901],[-118.2295,33.9431],[-118.22749,33.9431],[-118.22691,33.94017],[-118.22302,33.93976],[-118.22325,33.93784],[-118.21392,33.93689],[-118.21401,33.93737],[-118.21424,33.93741],[-118.21422,33.9384],[-118.21453,33.93844],[-118.21442,33.93885],[-118.21482,33.93986],[-118.21471,33.9401],[-118.21506,33.9402],[-118.21511,33.94121],[-118.21552,33.94135],[-118.2154,33.94231],[-118.2163,33.94252],[-118.21608,33.94393],[-118.21623,33.9439],[-118.21655,33.94498],[-118.21683,33.94502],[-118.21677,33.94544],[-118.21315,33.94503],[-118.21379,33.94018],[-118.21054,33.93985],[-118.21086,33.93706],[-118.19443,33.93542],[-118.19366,33.93539],[-118.19348,33.93552],[-118.18182,33.93437],[-118.18205,33.93295],[-118.18298,33.93076],[-118.18089,33.93105],[-118.17687,33.93069],[-118.17886,33.91879],[-118.17954,33.91339],[-118.18038,33.90987],[-118.18084,33.90864],[-118.18197,33.90703],[-118.18363,33.90632],[-118.18464,33.90545],[-118.18586,33.90484],[-118.18645,33.90527],[-118.18714,33.90534],[-118.18687,33.90708],[-118.18942,33.90728],[-118.18962,33.90611],[-118.19021,33.90618],[-118.19027,33.90578],[-118.19587,33.90631],[-118.19396,33.91091],[-118.19505,33.91122],[-118.19704,33.90639],[-118.19999,33.90668],[-118.19842,33.91057],[-118.20577,33.91266],[-118.20638,33.91061],[-118.21385,33.91311],[-118.21395,33.91265],[-118.21689,33.91232],[-118.21828,33.92138],[-118.219,33.92212],[-118.22423,33.92217],[-118.22438,33.9232],[-118.22882,33.92271],[-118.23027,33.92898]]],"type":"Polygon"},"properties":{"type":"boundary"},"type":"Feature"}],"type":"FeatureCollection"}