{"features":[{"geometry":{"coordinates":[[[[-118.11145,33.92227],[-118.11052,33.92464],[-118.10717,33.93135],[-118.10603,33.93311],[-118.10478,33.93203],[-118.09026,33.93206],[-118.08848,33.92955],[-118.08449,33.93344],[-118.08234,33.93345],[-118.08231,33.93175],[-118.07261,33.93177],[-118.07259,33.92806],[-118.06834,33.92809],[-118.06838,33.92991],[-118.06401,33.92991],[-118.06388,33.91718],[-118.06068,33.91719],[-118.05958,33.91548],[-118.05737,33.91337],[-118.05552,33.91228],[-118.05552,33.91257],[-118.0553,33.91246],[-118.0553,33.91217],[-118.05105,33.90977],[-118.05102,33.90603],[-118.05285,33.90602],[-118.05283,33.90335],[-118.05354,33.90334],[-118.05355,33.90249],[-118.04442,33.90252],[-118.04438,33.89878],[-118.04223,33.89879],[-118.04222,33.89521],[-118.04673,33.89514],[-118.04673,33.89392],[-118.06016,33.90119],[-118.0619,33.90233],[-118.06394,33.90232],[-118.06397,33.89544],[-118.06312,33.89545],[-118.06312,33.89507],[-118.0553,33.89513],[-118.05533,33.88722],[-118.06423,33.88718],[-118.06435,33.88762],[-118.0685,33.88759],[-118.06847,33.88588],[-118.07279,33.88586],[-118.07268,33.88042],[-118.09571,33.88031],[-118.09556,33.88742],[-118.0999,33.88741],[-118.09989,33.88699],[-118.10058,33.88698],[-118.10059,33.8874],[-118.10437,33.88737],[-118.10435,33.88696],[-118.10816,33.88693],[-118.10815,33.88734],[-118.10785,33.88761],[-118.10784,33.88791],[-118.10813,33.88812],[-118.10832,33.90164],[-118.10811,33.9022],[-118.10827,33.90263],[-118.10851,33.9071],[-118.1094,33.90985],[-118.10981,33.9098],[-118.11117,33.91436],[-118.11165,33.92099],[-118.11145,33.92227]],[[-118.0703,33.90863],[-118.07057,33.90866],[-118.0705,33.90846],[-118.07016,33.90848],[-118.0703,33.90863]],[[-118.09239,33.88957],[-118.09239,33.8895],[-118.09233,33.8895],[-118.09233,33.88957],[-118.09236,33.88957],[-118.09239,33.88957]],[[-118.1068,33.92751],[-118.1067,33.92745],[-118.10655,33.92757],[-118.10694,33.92778],[-118.1068,33.92751]]],[[[-118.10684,33.92764],[-118.10685,33.92764],[-118.10686,33.92764],[-118.10686,33.92765],[-118.10687,33.92766],[-118.10687,33.92767],[-118.10686,33.92768],[-118.10685,33.92769],[-118.10684,33.92771],[-118.10682,33.92771],[-118.1068,33.92771],[-118.10679,33.9277],[-118.10678,33.92769],[-118.10678,33.92768],[-118.10679,33.92767],[-118.10681,33.92767],[-118.10682,33.92766],[-118.10682,33.92765],[-118.10684,33.92764]]],[[[-118.10693,33.92774],[-118.10693,33.92774],[-118.10693,33.92775],[-118.10692,33.92775],[-118.10691,33.92775],[-118.1069,33.92775],[-118.10689,33.92773],[-118.10688,33.92772],[-118.10688,33.92772],[-118.10688,33.9277],[-118.10689,33.9277],[-118.10689,33.9277],[-118.1069,33.92769],[-118.10691,33.9277],[-118.10692,33.9277],[-118.10692,33.92771],[-118.10692,33.92772],[-118.10692,33.92773],[-118.10693,33.92774]]]],"type":"MultiPolygon"},"properties":{"type":"boundary"},"type":"Feature"}],"type":"FeatureCollection"}