{"features":[{"geometry":{"coordinates":[[[-118.40859,33.87732],[-118.40717,33.87774],[-118.40694,33.87723],[-118.40486,33.87785],[-118.40454,33.87715],[-118.40312,33.87765],[-118.40276,33.87705],[-118.40204,33.87731],[-118.40156,33.87709],[-118.39597,33.87711],[-118.39597,33.87399],[-118.39554,33.8728],[-118.39142,33.87279],[-118.38589,33.86438],[-118.38516,33.86085],[-118.38555,33.86079],[-118.38501,33.85807],[-118.38529,33.85806],[-118.38508,33.85772],[-118.38482,33.85652],[-118.39033,33.8549],[-118.39012,33.85434],[-118.39333,33.85381],[-118.39968,33.85183],[-118.40469,33.86678],[-118.40949,33.87702],[-118.40859,33.87732]]],"type":"Polygon"},"properties":{"type":"boundary"},"type":"Feature"}],"type":"FeatureCollection"}