{"features":[{"geometry":{"coordinates":[[[-118.40901,33.87644],[-118.40766,33.87645],[-118.40697,33.87548],[-118.40763,33.8745],[-118.40837,33.87449],[-118.40877,33.87539],[-118.40914,33.87624],[-118.40901,33.87644]]],"type":"Polygon"},"properties":{"bbox":{"roads":{"area":1360.35,"pct":4.59},"sidewalks":{"area":32.42,"pct":0.11}},"city":{"roads":{"area":589.96,"pct":1.99},"sidewalks":{"area":32.42,"pct":0.11}},"id":"hex:1972:17317"},"type":"Feature"},{"geometry":{"coordinates":[[[-118.40709,33.87756],[-118.40702,33.87741],[-118.40766,33.87645],[-118.40901,33.87644],[-118.40944,33.87703],[-118.40859,33.87732],[-118.40832,33.87742],[-118.40829,33.87736],[-118.40721,33.87772],[-118.40709,33.87756]]],"type":"Polygon"},"properties":{"bbox":{"roads":{"area":2183.59,"pct":11.4},"sidewalks":{"area":363.28,"pct":1.9}},"city":{"roads":{"area":743.83,"pct":3.88},"sidewalks":{"area":363.28,"pct":1.9}},"id":"hex:1972:17318"},"type":"Feature"},{"geometry":{"coordinates":[[[-118.40694,33.87353],[-118.40559,33.87355],[-118.4049,33.87258],[-118.40556,33.87159],[-118.40691,33.87158],[-118.40691,33.87159],[-118.4074,33.87251],[-118.4075,33.8727],[-118.40694,33.87353]]],"type":"Polygon"},"properties":{"bbox":{"roads":{"area":3097.08,"pct":7.83},"sidewalks":{"area":320.94,"pct":0.81}},"city":{"roads":{"area":1837.67,"pct":4.64},"sidewalks":{"area":320.94,"pct":0.81}},"id":"hex:1973:17315"},"type":"Feature"},{"geometry":{"coordinates":[[[-118.40493,33.87453],[-118.40562,33.8755],[-118.40697,33.87548],[-118.40763,33.8745],[-118.40694,33.87353],[-118.40559,33.87355],[-118.40493,33.87453]]],"type":"Polygon"},"properties":{"bbox":{"roads":{"area":6885.09,"pct":16.96},"sidewalks":{"area":798.14,"pct":1.97}},"city":{"roads":{"area":5313.94,"pct":13.09},"sidewalks":{"area":798.14,"pct":1.97}},"id":"hex:1973:17316"},"type":"Feature"},{"geometry":{"coordinates":[[[-118.40565,33.87745],[-118.40496,33.87648],[-118.40562,33.8755],[-118.40697,33.87548],[-118.40766,33.87645],[-118.40702,33.87741],[-118.40694,33.87723],[-118.40633,33.87744],[-118.40565,33.87745]]],"type":"Polygon"},"properties":{"bbox":{"roads":{"area":8538.5,"pct":21.43},"sidewalks":{"area":1504.88,"pct":3.78}},"city":{"roads":{"area":8355.52,"pct":20.97},"sidewalks":{"area":1504.88,"pct":3.78}},"id":"hex:1973:17317"},"type":"Feature"},{"geometry":{"coordinates":[[[[-118.40721,33.87772],[-118.40717,33.87774],[-118.40709,33.87756],[-118.40721,33.87772]]],[[[-118.40565,33.87745],[-118.40633,33.87744],[-118.40597,33.87757],[-118.40592,33.87747],[-118.40556,33.87759],[-118.40565,33.87745]]]],"type":"MultiPolygon"},"properties":{"bbox":{"roads":{"area":349.29,"pct":64.37},"sidewalks":{"area":6.95,"pct":1.28}},"city":{"roads":{"area":314.73,"pct":58},"sidewalks":{"area":6.95,"pct":1.28}},"id":"hex:1973:17318"},"type":"Feature"},{"geometry":{"coordinates":[[[-118.40483,33.86867],[-118.40348,33.86869],[-118.40279,33.86772],[-118.40345,33.86674],[-118.40466,33.86672],[-118.40469,33.86678],[-118.40523,33.86808],[-118.40483,33.86867]]],"type":"Polygon"},"properties":{"bbox":{"roads":{"area":1447.86,"pct":3.92}},"city_same":1,"id":"hex:1974:17313"},"type":"Feature"},{"geometry":{"coordinates":[[[-118.40282,33.86967],[-118.40351,33.87064],[-118.40486,33.87063],[-118.40552,33.86964],[-118.40483,33.86867],[-118.40348,33.86869],[-118.40282,33.86967]]],"type":"Polygon"},"properties":{"bbox":{"roads":{"area":6386.93,"pct":15.73},"sidewalks":{"area":342.59,"pct":0.84}},"city":{"roads":{"area":3468.99,"pct":8.55},"sidewalks":{"area":342.59,"pct":0.84}},"id":"hex:1974:17314"},"type":"Feature"},{"geometry":{"coordinates":[[[-118.40285,33.87162],[-118.40355,33.87259],[-118.4049,33.87258],[-118.40556,33.87159],[-118.40486,33.87063],[-118.40351,33.87064],[-118.40285,33.87162]]],"type":"Polygon"},"properties":{"bbox":{"roads":{"area":7945.74,"pct":19.57},"sidewalks":{"area":203.32,"pct":0.5}},"city":{"roads":{"area":5727.93,"pct":14.11},"sidewalks":{"area":203.32,"pct":0.5}},"id":"hex:1974:17315"},"type":"Feature"},{"geometry":{"coordinates":[[[-118.40289,33.87358],[-118.40358,33.87454],[-118.40493,33.87453],[-118.40559,33.87355],[-118.4049,33.87258],[-118.40355,33.87259],[-118.40289,33.87358]]],"type":"Polygon"},"properties":{"bbox":{"parking":{"area":394.71,"pct":0.97},"roads":{"area":7775.95,"pct":19.15},"sidewalks":{"area":371.33,"pct":0.91}},"city_same":1,"id":"hex:1974:17316"},"type":"Feature"},{"geometry":{"coordinates":[[[-118.40292,33.87553],[-118.40361,33.8765],[-118.40496,33.87648],[-118.40562,33.8755],[-118.40493,33.87453],[-118.40358,33.87454],[-118.40292,33.87553]]],"type":"Polygon"},"properties":{"bbox":{"roads":{"area":5295.19,"pct":13.04},"sidewalks":{"area":237.99,"pct":0.59}},"city_same":1,"id":"hex:1974:17317"},"type":"Feature"},{"geometry":{"coordinates":[[[-118.40361,33.8765],[-118.40496,33.87648],[-118.40565,33.87745],[-118.40556,33.87759],[-118.40544,33.87763],[-118.40486,33.87785],[-118.40468,33.87746],[-118.40454,33.87715],[-118.40409,33.87731],[-118.40312,33.87765],[-118.40299,33.87742],[-118.40361,33.8765]]],"type":"Polygon"},"properties":{"bbox":{"roads":{"area":3875.74,"pct":18.18},"sidewalks":{"area":382.9,"pct":1.8}},"city_same":1,"id":"hex:1974:17318"},"type":"Feature"},{"geometry":{"coordinates":[[[-118.40269,33.86186],[-118.40134,33.86188],[-118.40065,33.86091],[-118.40131,33.85993],[-118.40242,33.85991],[-118.40295,33.86149],[-118.40269,33.86186]]],"type":"Polygon"},"properties":{"bbox":{"parking":{"area":188.25,"pct":0.55},"roads":{"area":1342.74,"pct":3.89}},"city_same":1,"id":"hex:1975:17309"},"type":"Feature"},{"geometry":{"coordinates":[[[-118.40068,33.86286],[-118.40137,33.86383],[-118.40273,33.86382],[-118.40339,33.86283],[-118.40269,33.86186],[-118.40134,33.86188],[-118.40068,33.86286]]],"type":"Polygon"},"properties":{"bbox":{"parking":{"area":3826.34,"pct":9.43},"roads":{"area":3341.18,"pct":8.23},"sidewalks":{"area":39.82,"pct":0.1}},"city_same":1,"id":"hex:1975:17310"},"type":"Feature"},{"geometry":{"coordinates":[[[-118.40072,33.86481],[-118.40141,33.86578],[-118.40276,33.86577],[-118.40342,33.86478],[-118.40273,33.86382],[-118.40137,33.86383],[-118.40072,33.86481]]],"type":"Polygon"},"properties":{"bbox":{"roads":{"area":3552.81,"pct":8.75},"sidewalks":{"area":75.59,"pct":0.19}},"city":{"roads":{"area":3393.03,"pct":8.36},"sidewalks":{"area":75.59,"pct":0.19}},"id":"hex:1975:17311"},"type":"Feature"},{"geometry":{"coordinates":[[[-118.40075,33.86677],[-118.40144,33.86774],[-118.40279,33.86772],[-118.40345,33.86674],[-118.40276,33.86577],[-118.40141,33.86578],[-118.40075,33.86677]]],"type":"Polygon"},"properties":{"bbox":{"roads":{"area":6412.55,"pct":15.8},"sidewalks":{"area":663.45,"pct":1.63}},"city":{"roads":{"area":3646.11,"pct":8.98},"sidewalks":{"area":663.45,"pct":1.63}},"id":"hex:1975:17312"},"type":"Feature"},{"geometry":{"coordinates":[[[-118.40078,33.86872],[-118.40147,33.86969],[-118.40282,33.86967],[-118.40348,33.86869],[-118.40279,33.86772],[-118.40144,33.86774],[-118.40078,33.86872]]],"type":"Polygon"},"properties":{"bbox":{"roads":{"area":7083.26,"pct":17.45},"sidewalks":{"area":501.61,"pct":1.24}},"city":{"roads":{"area":4618.18,"pct":11.38},"sidewalks":{"area":501.61,"pct":1.24}},"id":"hex:1975:17313"},"type":"Feature"},{"geometry":{"coordinates":[[[-118.40081,33.87067],[-118.4015,33.87164],[-118.40285,33.87162],[-118.40351,33.87064],[-118.40282,33.86967],[-118.40147,33.86969],[-118.40081,33.87067]]],"type":"Polygon"},"properties":{"bbox":{"roads":{"area":6741.42,"pct":16.61},"sidewalks":{"area":28.73,"pct":0.07}},"city_same":1,"id":"hex:1975:17314"},"type":"Feature"},{"geometry":{"coordinates":[[[-118.40084,33.87262],[-118.40153,33.87359],[-118.40289,33.87358],[-118.40355,33.87259],[-118.40285,33.87162],[-118.4015,33.87164],[-118.40084,33.87262]]],"type":"Polygon"},"properties":{"bbox":{"parking":{"area":1101.54,"pct":2.71},"roads":{"area":3395.58,"pct":8.36}},"city_same":1,"id":"hex:1975:17315"},"type":"Feature"},{"geometry":{"coordinates":[[[-118.40087,33.87458],[-118.40157,33.87554],[-118.40292,33.87553],[-118.40358,33.87454],[-118.40289,33.87358],[-118.40153,33.87359],[-118.40087,33.87458]]],"type":"Polygon"},"properties":{"bbox":{"roads":{"area":6785.04,"pct":16.71},"sidewalks":{"area":698.24,"pct":1.72}},"city":{"roads":{"area":5875.9,"pct":14.47},"sidewalks":{"area":698.24,"pct":1.72}},"id":"hex:1975:17316"},"type":"Feature"},{"geometry":{"coordinates":[[[-118.40091,33.87653],[-118.40157,33.87554],[-118.40292,33.87553],[-118.40361,33.8765],[-118.40299,33.87742],[-118.40294,33.87735],[-118.40276,33.87705],[-118.40204,33.87731],[-118.40178,33.8771],[-118.40156,33.87709],[-118.40131,33.87709],[-118.40091,33.87653]]],"type":"Polygon"},"properties":{"bbox":{"roads":{"area":7424.75,"pct":20.85},"sidewalks":{"area":616.18,"pct":1.73}},"city":{"roads":{"area":5168.09,"pct":14.51},"sidewalks":{"area":616.18,"pct":1.73}},"id":"hex:1975:17317"},"type":"Feature"},{"geometry":{"coordinates":[[[-118.40059,33.85701],[-118.39924,33.85702],[-118.39855,33.85605],[-118.39921,33.85507],[-118.40056,33.85505],[-118.40093,33.85558],[-118.40098,33.8557],[-118.40114,33.85618],[-118.40059,33.85701]]],"type":"Polygon"},"properties":{"bbox":{"roads":{"area":1426.81,"pct":3.56},"sidewalks":{"area":23.4,"pct":0.06}},"city_same":1,"id":"hex:1976:17307"},"type":"Feature"},{"geometry":{"coordinates":[[[-118.39858,33.85801],[-118.39927,33.85897],[-118.40062,33.85896],[-118.40128,33.85797],[-118.40059,33.85701],[-118.39924,33.85702],[-118.39858,33.85801]]],"type":"Polygon"},"properties":{"bbox":{"roads":{"area":4345.91,"pct":10.71}},"city":{"roads":{"area":2485.84,"pct":6.12}},"id":"hex:1976:17308"},"type":"Feature"},{"geometry":{"coordinates":[[[-118.39861,33.85996],[-118.3993,33.86093],[-118.40065,33.86091],[-118.40131,33.85993],[-118.40062,33.85896],[-118.39927,33.85897],[-118.39861,33.85996]]],"type":"Polygon"},"properties":{"bbox":{"roads":{"area":6339.42,"pct":15.62},"sidewalks":{"area":499.74,"pct":1.23}},"city":{"roads":{"area":3470.7,"pct":8.55},"sidewalks":{"area":499.74,"pct":1.23}},"id":"hex:1976:17309"},"type":"Feature"},{"geometry":{"coordinates":[[[-118.39864,33.86191],[-118.39933,33.86288],[-118.40068,33.86286],[-118.40134,33.86188],[-118.40065,33.86091],[-118.3993,33.86093],[-118.39864,33.86191]]],"type":"Polygon"},"properties":{"bbox":{"parking":{"area":3925.74,"pct":9.67},"roads":{"area":8110.07,"pct":19.98},"sidewalks":{"area":808.06,"pct":1.99}},"city":{"parking":{"area":3925.74,"pct":9.67},"roads":{"area":3722.8,"pct":9.17},"sidewalks":{"area":808.06,"pct":1.99}},"id":"hex:1976:17310"},"type":"Feature"},{"geometry":{"coordinates":[[[-118.39867,33.86386],[-118.39936,33.86483],[-118.40072,33.86481],[-118.40137,33.86383],[-118.40068,33.86286],[-118.39933,33.86288],[-118.39867,33.86386]]],"type":"Polygon"},"properties":{"bbox":{"parking":{"area":1029.77,"pct":2.54},"roads":{"area":8513.52,"pct":20.97},"sidewalks":{"area":1420.9,"pct":3.5}},"city":{"parking":{"area":1029.77,"pct":2.54},"roads":{"area":5394.9,"pct":13.29},"sidewalks":{"area":1420.9,"pct":3.5}},"id":"hex:1976:17311"},"type":"Feature"},{"geometry":{"coordinates":[[[-118.3987,33.86581],[-118.3994,33.86678],[-118.40075,33.86677],[-118.40141,33.86578],[-118.40072,33.86481],[-118.39936,33.86483],[-118.3987,33.86581]]],"type":"Polygon"},"properties":{"bbox":{"roads":{"area":7422.68,"pct":18.28},"sidewalks":{"area":1851.86,"pct":4.56}},"city":{"roads":{"area":5388.63,"pct":13.27},"sidewalks":{"area":1851.86,"pct":4.56}},"id":"hex:1976:17312"},"type":"Feature"},{"geometry":{"coordinates":[[[-118.39874,33.86777],[-118.39943,33.86873],[-118.40078,33.86872],[-118.40144,33.86774],[-118.40075,33.86677],[-118.3994,33.86678],[-118.39874,33.86777]]],"type":"Polygon"},"properties":{"bbox":{"roads":{"area":5794.21,"pct":14.27},"sidewalks":{"area":841.46,"pct":2.07}},"city_same":1,"id":"hex:1976:17313"},"type":"Feature"},{"geometry":{"coordinates":[[[-118.39877,33.86972],[-118.39946,33.87069],[-118.40081,33.87067],[-118.40147,33.86969],[-118.40078,33.86872],[-118.39943,33.86873],[-118.39877,33.86972]]],"type":"Polygon"},"properties":{"bbox":{"roads":{"area":3975.56,"pct":9.79}},"city_same":1,"id":"hex:1976:17314"},"type":"Feature"},{"geometry":{"coordinates":[[[-118.3988,33.87167],[-118.39949,33.87264],[-118.40084,33.87262],[-118.4015,33.87164],[-118.40081,33.87067],[-118.39946,33.87069],[-118.3988,33.87167]]],"type":"Polygon"},"properties":{"bbox":{"roads":{"area":3138.83,"pct":7.73}},"city_same":1,"id":"hex:1976:17315"},"type":"Feature"},{"geometry":{"coordinates":[[[-118.39883,33.87362],[-118.39952,33.87459],[-118.40087,33.87458],[-118.40153,33.87359],[-118.40084,33.87262],[-118.39949,33.87264],[-118.39883,33.87362]]],"type":"Polygon"},"properties":{"bbox":{"parking":{"area":1480.84,"pct":3.65},"roads":{"area":5379.33,"pct":13.25},"sidewalks":{"area":726.07,"pct":1.79}},"city":{"parking":{"area":1480.84,"pct":3.65},"roads":{"area":956.28,"pct":2.36},"sidewalks":{"area":726.07,"pct":1.79}},"id":"hex:1976:17316"},"type":"Feature"},{"geometry":{"coordinates":[[[-118.39886,33.87557],[-118.39956,33.87654],[-118.40091,33.87653],[-118.40157,33.87554],[-118.40087,33.87458],[-118.39952,33.87459],[-118.39886,33.87557]]],"type":"Polygon"},"properties":{"bbox":{"roads":{"area":5635.86,"pct":13.88},"sidewalks":{"area":479.91,"pct":1.18}},"city":{"roads":{"area":4352.89,"pct":10.72},"sidewalks":{"area":479.91,"pct":1.18}},"id":"hex:1976:17317"},"type":"Feature"},{"geometry":{"coordinates":[[[-118.39956,33.87654],[-118.40091,33.87653],[-118.40131,33.87709],[-118.40032,33.87709],[-118.39919,33.87709],[-118.39956,33.87654]]],"type":"Polygon"},"properties":{"bbox":{"roads":{"area":873.1,"pct":8.87}},"city_same":1,"id":"hex:1976:17318"},"type":"Feature"},{"geometry":{"coordinates":[[[-118.39917,33.85312],[-118.39851,33.8541],[-118.39716,33.85412],[-118.39647,33.85315],[-118.39678,33.85269],[-118.39735,33.8525],[-118.39754,33.85251],[-118.39852,33.8522],[-118.39917,33.85312]]],"type":"Polygon"},"properties":{"bbox":{"roads":{"area":5154.25,"pct":14.17},"sidewalks":{"area":1015.97,"pct":2.79}},"city":{"roads":{"area":2376.28,"pct":6.53},"sidewalks":{"area":1015.97,"pct":2.79}},"id":"hex:1977:17305"},"type":"Feature"},{"geometry":{"coordinates":[[[-118.3965,33.8551],[-118.39719,33.85607],[-118.39855,33.85605],[-118.39921,33.85507],[-118.39851,33.8541],[-118.39716,33.85412],[-118.3965,33.8551]]],"type":"Polygon"},"properties":{"bbox":{"roads":{"area":7928.68,"pct":19.53},"sidewalks":{"area":1623.6,"pct":4}},"city":{"roads":{"area":4796.99,"pct":11.82},"sidewalks":{"area":1623.6,"pct":4}},"id":"hex:1977:17306"},"type":"Feature"},{"geometry":{"coordinates":[[[-118.39654,33.85705],[-118.39723,33.85802],[-118.39858,33.85801],[-118.39924,33.85702],[-118.39855,33.85605],[-118.39719,33.85607],[-118.39654,33.85705]]],"type":"Polygon"},"properties":{"bbox":{"roads":{"area":7118.14,"pct":17.53},"sidewalks":{"area":459.69,"pct":1.13}},"city":{"roads":{"area":4571.52,"pct":11.26},"sidewalks":{"area":459.69,"pct":1.13}},"id":"hex:1977:17307"},"type":"Feature"},{"geometry":{"coordinates":[[[-118.39657,33.859],[-118.39726,33.85997],[-118.39861,33.85996],[-118.39927,33.85897],[-118.39858,33.85801],[-118.39723,33.85802],[-118.39657,33.859]]],"type":"Polygon"},"properties":{"bbox":{"roads":{"area":6190.53,"pct":15.25}},"city":{"roads":{"area":5656.98,"pct":13.94}},"id":"hex:1977:17308"},"type":"Feature"},{"geometry":{"coordinates":[[[-118.3966,33.86096],[-118.39729,33.86193],[-118.39864,33.86191],[-118.3993,33.86093],[-118.39861,33.85996],[-118.39726,33.85997],[-118.3966,33.86096]]],"type":"Polygon"},"properties":{"bbox":{"roads":{"area":5726.7,"pct":14.11}},"city_same":1,"id":"hex:1977:17309"},"type":"Feature"},{"geometry":{"coordinates":[[[-118.39663,33.86291],[-118.39732,33.86388],[-118.39867,33.86386],[-118.39933,33.86288],[-118.39864,33.86191],[-118.39729,33.86193],[-118.39663,33.86291]]],"type":"Polygon"},"properties":{"bbox":{"roads":{"area":7070.91,"pct":17.42},"sidewalks":{"area":436.9,"pct":1.08}},"city":{"roads":{"area":4828.5,"pct":11.89},"sidewalks":{"area":436.9,"pct":1.08}},"id":"hex:1977:17310"},"type":"Feature"},{"geometry":{"coordinates":[[[-118.39666,33.86486],[-118.39735,33.86583],[-118.3987,33.86581],[-118.39936,33.86483],[-118.39867,33.86386],[-118.39732,33.86388],[-118.39666,33.86486]]],"type":"Polygon"},"properties":{"bbox":{"parking":{"area":407.32,"pct":1},"roads":{"area":6023.33,"pct":14.84},"sidewalks":{"area":990.73,"pct":2.44}},"city":{"parking":{"area":407.32,"pct":1},"roads":{"area":4295.47,"pct":10.58},"sidewalks":{"area":990.73,"pct":2.44}},"id":"hex:1977:17311"},"type":"Feature"},{"geometry":{"coordinates":[[[-118.39669,33.86681],[-118.39739,33.86778],[-118.39874,33.86777],[-118.3994,33.86678],[-118.3987,33.86581],[-118.39735,33.86583],[-118.39669,33.86681]]],"type":"Polygon"},"properties":{"bbox":{"roads":{"area":2226.63,"pct":5.48}},"city_same":1,"id":"hex:1977:17312"},"type":"Feature"},{"geometry":{"coordinates":[[[-118.39673,33.86877],[-118.39742,33.86973],[-118.39877,33.86972],[-118.39943,33.86873],[-118.39874,33.86777],[-118.39739,33.86778],[-118.39673,33.86877]]],"type":"Polygon"},"properties":{"bbox":{"roads":{"area":4035.45,"pct":9.94},"sidewalks":{"area":159.92,"pct":0.39}},"city":{"roads":{"area":3515.56,"pct":8.66},"sidewalks":{"area":159.92,"pct":0.39}},"id":"hex:1977:17313"},"type":"Feature"},{"geometry":{"coordinates":[[[-118.39676,33.87072],[-118.39745,33.87169],[-118.3988,33.87167],[-118.39946,33.87069],[-118.39877,33.86972],[-118.39742,33.86973],[-118.39676,33.87072]]],"type":"Polygon"},"properties":{"bbox":{"roads":{"area":4712.35,"pct":11.61},"sidewalks":{"area":302.91,"pct":0.75}},"city":{"roads":{"area":1873.28,"pct":4.61},"sidewalks":{"area":302.91,"pct":0.75}},"id":"hex:1977:17314"},"type":"Feature"},{"geometry":{"coordinates":[[[-118.39679,33.87267],[-118.39748,33.87364],[-118.39883,33.87362],[-118.39949,33.87264],[-118.3988,33.87167],[-118.39745,33.87169],[-118.39679,33.87267]]],"type":"Polygon"},"properties":{"bbox":{"parking":{"area":28.53,"pct":0.07},"roads":{"area":5353.98,"pct":13.19},"sidewalks":{"area":350.23,"pct":0.86}},"city":{"parking":{"area":28.53,"pct":0.07},"roads":{"area":1934.04,"pct":4.76},"sidewalks":{"area":350.23,"pct":0.86}},"id":"hex:1977:17315"},"type":"Feature"},{"geometry":{"coordinates":[[[-118.39682,33.87462],[-118.39751,33.87559],[-118.39886,33.87557],[-118.39952,33.87459],[-118.39883,33.87362],[-118.39748,33.87364],[-118.39682,33.87462]]],"type":"Polygon"},"properties":{"bbox":{"roads":{"area":4107.38,"pct":10.12},"sidewalks":{"area":424.41,"pct":1.05}},"city":{"roads":{"area":2225.74,"pct":5.48},"sidewalks":{"area":424.41,"pct":1.05}},"id":"hex:1977:17316"},"type":"Feature"},{"geometry":{"coordinates":[[[-118.39685,33.87657],[-118.39751,33.87559],[-118.39886,33.87557],[-118.39956,33.87654],[-118.39919,33.87709],[-118.39822,33.87709],[-118.39723,33.8771],[-118.39685,33.87657]]],"type":"Polygon"},"properties":{"bbox":{"roads":{"area":4095.04,"pct":12.36}},"city_same":1,"id":"hex:1977:17317"},"type":"Feature"},{"geometry":{"coordinates":[[[-118.39647,33.85315],[-118.39533,33.85316],[-118.39678,33.85269],[-118.39647,33.85315]]],"type":"Polygon"},"properties":{"bbox":{"roads":{"area":807.89,"pct":30.04},"sidewalks":{"area":126.37,"pct":4.7}},"city":{"roads":{"area":81.66,"pct":3.04},"sidewalks":{"area":126.37,"pct":4.7}},"id":"hex:1978:17305"},"type":"Feature"},{"geometry":{"coordinates":[[[-118.39647,33.85315],[-118.39716,33.85412],[-118.3965,33.8551],[-118.39515,33.85512],[-118.39446,33.85415],[-118.39506,33.85325],[-118.39533,33.85316],[-118.39647,33.85315]]],"type":"Polygon"},"properties":{"bbox":{"parking":{"area":210.82,"pct":0.52},"roads":{"area":4494.39,"pct":11.1},"sidewalks":{"area":1288.48,"pct":3.18}},"city":{"parking":{"area":210.82,"pct":0.52},"roads":{"area":4079.07,"pct":10.07},"sidewalks":{"area":1288.48,"pct":3.18}},"id":"hex:1978:17306"},"type":"Feature"},{"geometry":{"coordinates":[[[-118.39449,33.8561],[-118.39518,33.85707],[-118.39654,33.85705],[-118.39719,33.85607],[-118.3965,33.8551],[-118.39515,33.85512],[-118.39449,33.8561]]],"type":"Polygon"},"properties":{"bbox":{"roads":{"area":5450.48,"pct":13.43},"sidewalks":{"area":940.63,"pct":2.32}},"city":{"roads":{"area":5039.23,"pct":12.41},"sidewalks":{"area":940.63,"pct":2.32}},"id":"hex:1978:17307"},"type":"Feature"},{"geometry":{"coordinates":[[[-118.39452,33.85805],[-118.39522,33.85902],[-118.39657,33.859],[-118.39723,33.85802],[-118.39654,33.85705],[-118.39518,33.85707],[-118.39452,33.85805]]],"type":"Polygon"},"properties":{"bbox":{"parking":{"area":455.81,"pct":1.12},"roads":{"area":4235.79,"pct":10.43},"sidewalks":{"area":182.8,"pct":0.45}},"city_same":1,"id":"hex:1978:17308"},"type":"Feature"},{"geometry":{"coordinates":[[[-118.39456,33.86],[-118.39525,33.86097],[-118.3966,33.86096],[-118.39726,33.85997],[-118.39657,33.859],[-118.39522,33.85902],[-118.39456,33.86]]],"type":"Polygon"},"properties":{"bbox":{"roads":{"area":5146.43,"pct":12.68}},"city_same":1,"id":"hex:1978:17309"},"type":"Feature"},{"geometry":{"coordinates":[[[-118.39459,33.86196],[-118.39528,33.86292],[-118.39663,33.86291],[-118.39729,33.86193],[-118.3966,33.86096],[-118.39525,33.86097],[-118.39459,33.86196]]],"type":"Polygon"},"properties":{"bbox":{"parking":{"area":1136.5,"pct":2.8},"roads":{"area":3395.68,"pct":8.36},"sidewalks":{"area":176.25,"pct":0.43}},"city":{"parking":{"area":1136.5,"pct":2.8},"roads":{"area":2985,"pct":7.35},"sidewalks":{"area":176.25,"pct":0.43}},"id":"hex:1978:17310"},"type":"Feature"},{"geometry":{"coordinates":[[[-118.39462,33.86391],[-118.39531,33.86488],[-118.39666,33.86486],[-118.39732,33.86388],[-118.39663,33.86291],[-118.39528,33.86292],[-118.39462,33.86391]]],"type":"Polygon"},"properties":{"bbox":{"parking":{"area":4586.82,"pct":11.3},"roads":{"area":8427.9,"pct":20.76},"sidewalks":{"area":835.02,"pct":2.06}},"city":{"parking":{"area":4586.82,"pct":11.3},"roads":{"area":4188.14,"pct":10.32},"sidewalks":{"area":835.02,"pct":2.06}},"id":"hex:1978:17311"},"type":"Feature"},{"geometry":{"coordinates":[[[-118.39465,33.86586],[-118.39534,33.86683],[-118.39669,33.86681],[-118.39735,33.86583],[-118.39666,33.86486],[-118.39531,33.86488],[-118.39465,33.86586]]],"type":"Polygon"},"properties":{"bbox":{"parking":{"area":1539.46,"pct":3.79},"roads":{"area":5566.29,"pct":13.71},"sidewalks":{"area":321.58,"pct":0.79}},"city":{"parking":{"area":1539.46,"pct":3.79},"roads":{"area":2546.87,"pct":6.27},"sidewalks":{"area":321.58,"pct":0.79}},"id":"hex:1978:17312"},"type":"Feature"},{"geometry":{"coordinates":[[[-118.39468,33.86781],[-118.39537,33.86878],[-118.39673,33.86877],[-118.39739,33.86778],[-118.39669,33.86681],[-118.39534,33.86683],[-118.39468,33.86781]]],"type":"Polygon"},"properties":{"bbox":{"parking":{"area":2014.33,"pct":4.96},"roads":{"area":5718.43,"pct":14.09},"sidewalks":{"area":265.6,"pct":0.65}},"city":{"parking":{"area":2014.33,"pct":4.96},"roads":{"area":2551.6,"pct":6.29},"sidewalks":{"area":265.6,"pct":0.65}},"id":"hex:1978:17313"},"type":"Feature"},{"geometry":{"coordinates":[[[-118.39471,33.86976],[-118.39541,33.87073],[-118.39676,33.87072],[-118.39742,33.86973],[-118.39673,33.86877],[-118.39537,33.86878],[-118.39471,33.86976]]],"type":"Polygon"},"properties":{"bbox":{"roads":{"area":5789.73,"pct":14.26},"sidewalks":{"area":29.79,"pct":0.07}},"city":{"roads":{"area":4082.44,"pct":10.06},"sidewalks":{"area":29.79,"pct":0.07}},"id":"hex:1978:17314"},"type":"Feature"},{"geometry":{"coordinates":[[[-118.39475,33.87172],[-118.39544,33.87268],[-118.39679,33.87267],[-118.39745,33.87169],[-118.39676,33.87072],[-118.39541,33.87073],[-118.39475,33.87172]]],"type":"Polygon"},"properties":{"bbox":{"parking":{"area":590.96,"pct":1.46},"roads":{"area":5956.15,"pct":14.67},"sidewalks":{"area":315,"pct":0.78}},"city":{"parking":{"area":590.96,"pct":1.46},"roads":{"area":3062.22,"pct":7.54},"sidewalks":{"area":315,"pct":0.78}},"id":"hex:1978:17315"},"type":"Feature"},{"geometry":{"coordinates":[[[-118.39544,33.87268],[-118.39679,33.87267],[-118.39748,33.87364],[-118.39682,33.87462],[-118.39597,33.87463],[-118.39597,33.87399],[-118.39595,33.8738],[-118.39554,33.8728],[-118.39536,33.87279],[-118.39544,33.87268]]],"type":"Polygon"},"properties":{"bbox":{"parking":{"area":2035.92,"pct":7.68},"roads":{"area":8778.72,"pct":33.1},"sidewalks":{"area":560.21,"pct":2.11}},"city":{"parking":{"area":2035.92,"pct":7.68},"roads":{"area":2978.48,"pct":11.23},"sidewalks":{"area":560.21,"pct":2.11}},"id":"hex:1978:17316"},"type":"Feature"},{"geometry":{"coordinates":[[[-118.39682,33.87462],[-118.39751,33.87559],[-118.39685,33.87657],[-118.39597,33.87658],[-118.39597,33.87601],[-118.39597,33.8755],[-118.39597,33.87529],[-118.39597,33.87484],[-118.39597,33.87463],[-118.39682,33.87462]]],"type":"Polygon"},"properties":{"bbox":{"roads":{"area":4406.79,"pct":18.28},"sidewalks":{"area":304.32,"pct":1.26}},"city":{"roads":{"area":2030.01,"pct":8.42},"sidewalks":{"area":304.32,"pct":1.26}},"id":"hex:1978:17317"},"type":"Feature"},{"geometry":{"coordinates":[[[-118.39685,33.87657],[-118.39723,33.8771],[-118.39597,33.87711],[-118.39597,33.87671],[-118.39597,33.87658],[-118.39685,33.87657]]],"type":"Polygon"},"properties":{"bbox":{"roads":{"area":1198.68,"pct":20.67},"sidewalks":{"area":21.9,"pct":0.38}},"city":{"roads":{"area":543.03,"pct":9.37},"sidewalks":{"area":21.9,"pct":0.38}},"id":"hex:1978:17318"},"type":"Feature"},{"geometry":{"coordinates":[[[-118.39446,33.85415],[-118.39311,33.85416],[-118.39291,33.85388],[-118.39333,33.85381],[-118.39506,33.85325],[-118.39446,33.85415]]],"type":"Polygon"},"properties":{"bbox":{"parking":{"area":418.03,"pct":4.49},"roads":{"area":2313.14,"pct":24.83},"sidewalks":{"area":267.51,"pct":2.87}},"city":{"parking":{"area":418.03,"pct":4.49},"roads":{"area":403.84,"pct":4.33},"sidewalks":{"area":267.51,"pct":2.87}},"id":"hex:1979:17305"},"type":"Feature"},{"geometry":{"coordinates":[[[-118.39245,33.85515],[-118.39314,33.85611],[-118.39449,33.8561],[-118.39515,33.85512],[-118.39446,33.85415],[-118.39311,33.85416],[-118.39245,33.85515]]],"type":"Polygon"},"properties":{"bbox":{"roads":{"area":4573.83,"pct":11.27},"sidewalks":{"area":710.59,"pct":1.75}},"city":{"roads":{"area":2978.73,"pct":7.34},"sidewalks":{"area":710.59,"pct":1.75}},"id":"hex:1979:17306"},"type":"Feature"},{"geometry":{"coordinates":[[[-118.39248,33.8571],[-118.39317,33.85807],[-118.39452,33.85805],[-118.39518,33.85707],[-118.39449,33.8561],[-118.39314,33.85611],[-118.39248,33.8571]]],"type":"Polygon"},"properties":{"bbox":{"parking":{"area":539.69,"pct":1.33},"roads":{"area":5078.18,"pct":12.51},"sidewalks":{"area":711.39,"pct":1.75}},"city":{"parking":{"area":539.69,"pct":1.33},"roads":{"area":3712.28,"pct":9.14},"sidewalks":{"area":711.39,"pct":1.75}},"id":"hex:1979:17307"},"type":"Feature"},{"geometry":{"coordinates":[[[-118.39251,33.85905],[-118.39321,33.86002],[-118.39456,33.86],[-118.39522,33.85902],[-118.39452,33.85805],[-118.39317,33.85807],[-118.39251,33.85905]]],"type":"Polygon"},"properties":{"bbox":{"roads":{"area":6420.1,"pct":15.82},"sidewalks":{"area":329.23,"pct":0.81}},"city":{"roads":{"area":4854.91,"pct":11.96},"sidewalks":{"area":329.23,"pct":0.81}},"id":"hex:1979:17308"},"type":"Feature"},{"geometry":{"coordinates":[[[-118.39255,33.861],[-118.39324,33.86197],[-118.39459,33.86196],[-118.39525,33.86097],[-118.39456,33.86],[-118.39321,33.86002],[-118.39255,33.861]]],"type":"Polygon"},"properties":{"bbox":{"parking":{"area":1717.22,"pct":4.23},"roads":{"area":5970.74,"pct":14.71},"sidewalks":{"area":564.25,"pct":1.39}},"city":{"parking":{"area":1717.22,"pct":4.23},"roads":{"area":4544.02,"pct":11.19},"sidewalks":{"area":564.25,"pct":1.39}},"id":"hex:1979:17309"},"type":"Feature"},{"geometry":{"coordinates":[[[-118.39258,33.86295],[-118.39327,33.86392],[-118.39462,33.86391],[-118.39528,33.86292],[-118.39459,33.86196],[-118.39324,33.86197],[-118.39258,33.86295]]],"type":"Polygon"},"properties":{"bbox":{"parking":{"area":4876.73,"pct":12.01},"roads":{"area":6406.87,"pct":15.78},"sidewalks":{"area":476.31,"pct":1.17}},"city":{"parking":{"area":4876.73,"pct":12.01},"roads":{"area":5591.9,"pct":13.77},"sidewalks":{"area":476.31,"pct":1.17}},"id":"hex:1979:17310"},"type":"Feature"},{"geometry":{"coordinates":[[[-118.39261,33.86491],[-118.3933,33.86588],[-118.39465,33.86586],[-118.39531,33.86488],[-118.39462,33.86391],[-118.39327,33.86392],[-118.39261,33.86491]]],"type":"Polygon"},"properties":{"bbox":{"parking":{"area":11554.95,"pct":28.46},"roads":{"area":11596.46,"pct":28.57},"sidewalks":{"area":999.29,"pct":2.46}},"city":{"parking":{"area":11554.95,"pct":28.46},"roads":{"area":4717.62,"pct":11.62},"sidewalks":{"area":999.29,"pct":2.46}},"id":"hex:1979:17311"},"type":"Feature"},{"geometry":{"coordinates":[[[-118.39264,33.86686],[-118.39333,33.86783],[-118.39468,33.86781],[-118.39534,33.86683],[-118.39465,33.86586],[-118.3933,33.86588],[-118.39264,33.86686]]],"type":"Polygon"},"properties":{"bbox":{"parking":{"area":3112.95,"pct":7.67},"roads":{"area":8318.36,"pct":20.49},"sidewalks":{"area":680.41,"pct":1.68}},"city":{"parking":{"area":3112.95,"pct":7.67},"roads":{"area":3393.91,"pct":8.36},"sidewalks":{"area":680.41,"pct":1.68}},"id":"hex:1979:17312"},"type":"Feature"},{"geometry":{"coordinates":[[[-118.39267,33.86881],[-118.39336,33.86978],[-118.39471,33.86976],[-118.39537,33.86878],[-118.39468,33.86781],[-118.39333,33.86783],[-118.39267,33.86881]]],"type":"Polygon"},"properties":{"bbox":{"roads":{"area":9320.36,"pct":22.96},"sidewalks":{"area":625.21,"pct":1.54}},"city":{"roads":{"area":4059,"pct":10},"sidewalks":{"area":625.21,"pct":1.54}},"id":"hex:1979:17313"},"type":"Feature"},{"geometry":{"coordinates":[[[-118.3927,33.87076],[-118.3934,33.87173],[-118.39475,33.87172],[-118.39541,33.87073],[-118.39471,33.86976],[-118.39336,33.86978],[-118.3927,33.87076]]],"type":"Polygon"},"properties":{"bbox":{"parking":{"area":858.37,"pct":2.11},"roads":{"area":9644.26,"pct":23.76},"sidewalks":{"area":505.65,"pct":1.25}},"city":{"parking":{"area":858.37,"pct":2.11},"roads":{"area":5304.34,"pct":13.07},"sidewalks":{"area":505.65,"pct":1.25}},"id":"hex:1979:17314"},"type":"Feature"},{"geometry":{"coordinates":[[[-118.39274,33.87272],[-118.3934,33.87173],[-118.39475,33.87172],[-118.39544,33.87268],[-118.39536,33.87279],[-118.39393,33.87278],[-118.39279,33.87279],[-118.39274,33.87272]]],"type":"Polygon"},"properties":{"bbox":{"parking":{"area":7433.46,"pct":32.85},"roads":{"area":5775.48,"pct":25.52},"sidewalks":{"area":512.54,"pct":2.26}},"city":{"parking":{"area":7433.46,"pct":32.85},"roads":{"area":5066.87,"pct":22.39},"sidewalks":{"area":512.54,"pct":2.26}},"id":"hex:1979:17315"},"type":"Feature"},{"geometry":{"coordinates":[[[-118.39311,33.85416],[-118.39245,33.85515],[-118.3911,33.85516],[-118.39047,33.85428],[-118.39291,33.85388],[-118.39311,33.85416]]],"type":"Polygon"},"properties":{"bbox":{"parking":{"area":2564.99,"pct":11.19},"roads":{"area":3345.69,"pct":14.6},"sidewalks":{"area":861.95,"pct":3.76}},"city":{"parking":{"area":2564.99,"pct":11.19},"roads":{"area":1561.59,"pct":6.81},"sidewalks":{"area":861.95,"pct":3.76}},"id":"hex:1980:17306"},"type":"Feature"},{"geometry":{"coordinates":[[[-118.39044,33.85615],[-118.39113,33.85711],[-118.39248,33.8571],[-118.39314,33.85611],[-118.39245,33.85515],[-118.3911,33.85516],[-118.39044,33.85615]]],"type":"Polygon"},"properties":{"bbox":{"parking":{"area":3977.43,"pct":9.8},"roads":{"area":6057.66,"pct":14.92},"sidewalks":{"area":1601.75,"pct":3.95}},"city":{"parking":{"area":3977.43,"pct":9.8},"roads":{"area":5143.16,"pct":12.67},"sidewalks":{"area":1601.75,"pct":3.95}},"id":"hex:1980:17307"},"type":"Feature"},{"geometry":{"coordinates":[[[-118.39047,33.8581],[-118.39116,33.85907],[-118.39251,33.85905],[-118.39317,33.85807],[-118.39248,33.8571],[-118.39113,33.85711],[-118.39047,33.8581]]],"type":"Polygon"},"properties":{"bbox":{"parking":{"area":1903.49,"pct":4.69},"roads":{"area":9040.05,"pct":22.27},"sidewalks":{"area":503.18,"pct":1.24}},"city":{"parking":{"area":1903.49,"pct":4.69},"roads":{"area":4984.3,"pct":12.28},"sidewalks":{"area":503.18,"pct":1.24}},"id":"hex:1980:17308"},"type":"Feature"},{"geometry":{"coordinates":[[[-118.3905,33.86005],[-118.39119,33.86102],[-118.39255,33.861],[-118.39321,33.86002],[-118.39251,33.85905],[-118.39116,33.85907],[-118.3905,33.86005]]],"type":"Polygon"},"properties":{"bbox":{"parking":{"area":505.03,"pct":1.24},"roads":{"area":10836.27,"pct":26.69},"sidewalks":{"area":848.58,"pct":2.09}},"city":{"parking":{"area":505.03,"pct":1.24},"roads":{"area":6109.77,"pct":15.05},"sidewalks":{"area":848.58,"pct":2.09}},"id":"hex:1980:17309"},"type":"Feature"},{"geometry":{"coordinates":[[[-118.39054,33.862],[-118.39123,33.86297],[-118.39258,33.86295],[-118.39324,33.86197],[-118.39255,33.861],[-118.39119,33.86102],[-118.39054,33.862]]],"type":"Polygon"},"properties":{"bbox":{"parking":{"area":973.67,"pct":2.4},"roads":{"area":10927.46,"pct":26.92},"sidewalks":{"area":1063.61,"pct":2.62}},"city":{"parking":{"area":973.67,"pct":2.4},"roads":{"area":5168.58,"pct":12.73},"sidewalks":{"area":1063.61,"pct":2.62}},"id":"hex:1980:17310"},"type":"Feature"},{"geometry":{"coordinates":[[[-118.39057,33.86395],[-118.39126,33.86492],[-118.39261,33.86491],[-118.39327,33.86392],[-118.39258,33.86295],[-118.39123,33.86297],[-118.39057,33.86395]]],"type":"Polygon"},"properties":{"bbox":{"parking":{"area":8483.68,"pct":20.9},"roads":{"area":10404.87,"pct":25.63},"sidewalks":{"area":810.37,"pct":2}},"city":{"parking":{"area":8483.68,"pct":20.9},"roads":{"area":5357.55,"pct":13.2},"sidewalks":{"area":810.37,"pct":2}},"id":"hex:1980:17311"},"type":"Feature"},{"geometry":{"coordinates":[[[-118.3906,33.86591],[-118.39129,33.86687],[-118.39264,33.86686],[-118.3933,33.86588],[-118.39261,33.86491],[-118.39126,33.86492],[-118.3906,33.86591]]],"type":"Polygon"},"properties":{"bbox":{"parking":{"area":477.29,"pct":1.18},"roads":{"area":4509.77,"pct":11.11},"sidewalks":{"area":185.1,"pct":0.46}},"city":{"parking":{"area":477.29,"pct":1.18},"roads":{"area":4350.01,"pct":10.72},"sidewalks":{"area":185.1,"pct":0.46}},"id":"hex:1980:17312"},"type":"Feature"},{"geometry":{"coordinates":[[[-118.39063,33.86786],[-118.39132,33.86883],[-118.39267,33.86881],[-118.39333,33.86783],[-118.39264,33.86686],[-118.39129,33.86687],[-118.39063,33.86786]]],"type":"Polygon"},"properties":{"bbox":{"roads":{"area":4376.73,"pct":10.78},"sidewalks":{"area":468.81,"pct":1.15}},"city_same":1,"id":"hex:1980:17313"},"type":"Feature"},{"geometry":{"coordinates":[[[-118.39066,33.86981],[-118.39135,33.87078],[-118.3927,33.87076],[-118.39336,33.86978],[-118.39267,33.86881],[-118.39132,33.86883],[-118.39066,33.86981]]],"type":"Polygon"},"properties":{"bbox":{"roads":{"area":4459.58,"pct":10.99},"sidewalks":{"area":28.33,"pct":0.07}},"city_same":1,"id":"hex:1980:17314"},"type":"Feature"},{"geometry":{"coordinates":[[[-118.39135,33.87078],[-118.3927,33.87076],[-118.3934,33.87173],[-118.39274,33.87272],[-118.39138,33.87273],[-118.39134,33.87267],[-118.39072,33.87172],[-118.39135,33.87078]]],"type":"Polygon"},"properties":{"bbox":{"roads":{"area":5930.67,"pct":14.7},"sidewalks":{"area":10.55,"pct":0.03}},"city_same":1,"id":"hex:1980:17315"},"type":"Feature"},{"geometry":{"coordinates":[[[-118.39138,33.87273],[-118.39274,33.87272],[-118.39279,33.87279],[-118.39229,33.87279],[-118.39142,33.87279],[-118.39138,33.87273],[-118.39138,33.87273]]],"type":"Polygon"},"properties":{"bbox":{"roads":{"area":644.89,"pct":69.36}},"city_same":1,"id":"hex:1980:17316"},"type":"Feature"},{"geometry":{"coordinates":[[[-118.3911,33.85516],[-118.39044,33.85615],[-118.38909,33.85616],[-118.38857,33.85543],[-118.38934,33.85514],[-118.39033,33.8549],[-118.39012,33.85434],[-118.39047,33.85428],[-118.3911,33.85516]]],"type":"Polygon"},"properties":{"bbox":{"parking":{"area":413.9,"pct":1.62},"roads":{"area":6446.5,"pct":25.16},"sidewalks":{"area":761.38,"pct":2.97}},"city":{"parking":{"area":413.9,"pct":1.62},"roads":{"area":2670.33,"pct":10.42},"sidewalks":{"area":761.38,"pct":2.97}},"id":"hex:1981:17306"},"type":"Feature"},{"geometry":{"coordinates":[[[-118.38843,33.85714],[-118.38912,33.85811],[-118.39047,33.8581],[-118.39113,33.85711],[-118.39044,33.85615],[-118.38909,33.85616],[-118.38843,33.85714]]],"type":"Polygon"},"properties":{"bbox":{"parking":{"area":1120.7,"pct":2.76},"roads":{"area":6119.34,"pct":15.07},"sidewalks":{"area":564.53,"pct":1.39}},"city":{"parking":{"area":1120.7,"pct":2.76},"roads":{"area":3528.25,"pct":8.69},"sidewalks":{"area":564.53,"pct":1.39}},"id":"hex:1981:17307"},"type":"Feature"},{"geometry":{"coordinates":[[[-118.38846,33.8591],[-118.38915,33.86006],[-118.3905,33.86005],[-118.39116,33.85907],[-118.39047,33.8581],[-118.38912,33.85811],[-118.38846,33.8591]]],"type":"Polygon"},"properties":{"bbox":{"parking":{"area":225.29,"pct":0.55},"roads":{"area":5168.94,"pct":12.73},"sidewalks":{"area":169.69,"pct":0.42}},"city_same":1,"id":"hex:1981:17308"},"type":"Feature"},{"geometry":{"coordinates":[[[-118.38849,33.86105],[-118.38918,33.86202],[-118.39054,33.862],[-118.39119,33.86102],[-118.3905,33.86005],[-118.38915,33.86006],[-118.38849,33.86105]]],"type":"Polygon"},"properties":{"bbox":{"roads":{"area":4084.4,"pct":10.06}},"city_same":1,"id":"hex:1981:17309"},"type":"Feature"},{"geometry":{"coordinates":[[[-118.38852,33.863],[-118.38922,33.86397],[-118.39057,33.86395],[-118.39123,33.86297],[-118.39054,33.862],[-118.38918,33.86202],[-118.38852,33.863]]],"type":"Polygon"},"properties":{"bbox":{"parking":{"area":1429.08,"pct":3.52},"roads":{"area":8357.01,"pct":20.59},"sidewalks":{"area":659.08,"pct":1.62}},"city":{"parking":{"area":1429.08,"pct":3.52},"roads":{"area":5740.64,"pct":14.14},"sidewalks":{"area":659.08,"pct":1.62}},"id":"hex:1981:17310"},"type":"Feature"},{"geometry":{"coordinates":[[[-118.38856,33.86495],[-118.38925,33.86592],[-118.3906,33.86591],[-118.39126,33.86492],[-118.39057,33.86395],[-118.38922,33.86397],[-118.38856,33.86495]]],"type":"Polygon"},"properties":{"bbox":{"roads":{"area":4789.33,"pct":11.8}},"city_same":1,"id":"hex:1981:17311"},"type":"Feature"},{"geometry":{"coordinates":[[[-118.38859,33.8669],[-118.38928,33.86787],[-118.39063,33.86786],[-118.39129,33.86687],[-118.3906,33.86591],[-118.38925,33.86592],[-118.38859,33.8669]]],"type":"Polygon"},"properties":{"bbox":{"roads":{"area":4901.88,"pct":12.08},"sidewalks":{"area":139.33,"pct":0.34}},"city_same":1,"id":"hex:1981:17312"},"type":"Feature"},{"geometry":{"coordinates":[[[-118.38928,33.86787],[-118.39063,33.86786],[-118.39132,33.86883],[-118.39066,33.86981],[-118.38947,33.86982],[-118.38873,33.8687],[-118.38928,33.86787]]],"type":"Polygon"},"properties":{"bbox":{"roads":{"area":1409.8,"pct":3.66}},"city_same":1,"id":"hex:1981:17313"},"type":"Feature"},{"geometry":{"coordinates":[[[-118.39066,33.86981],[-118.39135,33.87078],[-118.39072,33.87172],[-118.38947,33.86982],[-118.39066,33.86981]]],"type":"Polygon"},"properties":{"bbox":{"roads":{"area":1882.01,"pct":10.33}},"city_same":1,"id":"hex:1981:17314"},"type":"Feature"},{"geometry":{"coordinates":[[[-118.38909,33.85616],[-118.38843,33.85714],[-118.38708,33.85716],[-118.38639,33.85619],[-118.38646,33.85609],[-118.38759,33.85578],[-118.38857,33.85543],[-118.38909,33.85616]]],"type":"Polygon"},"properties":{"bbox":{"roads":{"area":2974.28,"pct":9.64},"sidewalks":{"area":555.75,"pct":1.8}},"city_same":1,"id":"hex:1982:17307"},"type":"Feature"},{"geometry":{"coordinates":[[[-118.38642,33.85814],[-118.38711,33.85911],[-118.38846,33.8591],[-118.38912,33.85811],[-118.38843,33.85714],[-118.38708,33.85716],[-118.38642,33.85814]]],"type":"Polygon"},"properties":{"bbox":{"roads":{"area":4743.58,"pct":11.69},"sidewalks":{"area":492.37,"pct":1.21}},"city_same":1,"id":"hex:1982:17308"},"type":"Feature"},{"geometry":{"coordinates":[[[-118.38645,33.8601],[-118.38714,33.86106],[-118.38849,33.86105],[-118.38915,33.86006],[-118.38846,33.8591],[-118.38711,33.85911],[-118.38645,33.8601]]],"type":"Polygon"},"properties":{"bbox":{"roads":{"area":5408.98,"pct":13.32},"sidewalks":{"area":624.85,"pct":1.54}},"city_same":1,"id":"hex:1982:17309"},"type":"Feature"},{"geometry":{"coordinates":[[[-118.38648,33.86205],[-118.38717,33.86302],[-118.38852,33.863],[-118.38918,33.86202],[-118.38849,33.86105],[-118.38714,33.86106],[-118.38648,33.86205]]],"type":"Polygon"},"properties":{"bbox":{"roads":{"area":4885.22,"pct":12.03},"sidewalks":{"area":593.23,"pct":1.46}},"city_same":1,"id":"hex:1982:17310"},"type":"Feature"},{"geometry":{"coordinates":[[[-118.38651,33.864],[-118.3872,33.86497],[-118.38856,33.86495],[-118.38922,33.86397],[-118.38852,33.863],[-118.38717,33.86302],[-118.38651,33.864]]],"type":"Polygon"},"properties":{"bbox":{"parking":{"area":1974.26,"pct":4.86},"roads":{"area":8203.46,"pct":20.21},"sidewalks":{"area":1145.04,"pct":2.82}},"city":{"parking":{"area":1974.26,"pct":4.86},"roads":{"area":5443.89,"pct":13.41},"sidewalks":{"area":1145.04,"pct":2.82}},"id":"hex:1982:17311"},"type":"Feature"},{"geometry":{"coordinates":[[[-118.3872,33.86497],[-118.38856,33.86495],[-118.38925,33.86592],[-118.38859,33.8669],[-118.38756,33.86692],[-118.38674,33.86567],[-118.3872,33.86497]]],"type":"Polygon"},"properties":{"bbox":{"parking":{"area":4280.62,"pct":11.7},"roads":{"area":5814.98,"pct":15.9},"sidewalks":{"area":97,"pct":0.27}},"city":{"parking":{"area":4280.62,"pct":11.7},"roads":{"area":5330.43,"pct":14.57},"sidewalks":{"area":97,"pct":0.27}},"id":"hex:1982:17312"},"type":"Feature"},{"geometry":{"coordinates":[[[-118.38859,33.8669],[-118.38928,33.86787],[-118.38873,33.8687],[-118.38756,33.86692],[-118.38859,33.8669]]],"type":"Polygon"},"properties":{"bbox":{"roads":{"area":602.56,"pct":3.98}},"city_same":1,"id":"hex:1982:17313"},"type":"Feature"},{"geometry":{"coordinates":[[[-118.38639,33.85619],[-118.38708,33.85716],[-118.38642,33.85814],[-118.38507,33.85816],[-118.38501,33.85808],[-118.38501,33.85807],[-118.38529,33.85806],[-118.38517,33.85791],[-118.38513,33.85785],[-118.3851,33.8578],[-118.38508,33.85772],[-118.38504,33.85756],[-118.38501,33.85739],[-118.385,33.85734],[-118.38497,33.85721],[-118.38494,33.85695],[-118.38486,33.85665],[-118.38482,33.85653],[-118.38482,33.85652],[-118.38606,33.85619],[-118.38639,33.85619]]],"type":"Polygon"},"properties":{"bbox":{"roads":{"area":4257.52,"pct":12.78},"sidewalks":{"area":796.13,"pct":2.39}},"city_same":1,"id":"hex:1983:17307"},"type":"Feature"},{"geometry":{"coordinates":[[[-118.38507,33.85816],[-118.38642,33.85814],[-118.38711,33.85911],[-118.38645,33.8601],[-118.38541,33.86011],[-118.38504,33.85821],[-118.38507,33.85816]]],"type":"Polygon"},"properties":{"bbox":{"roads":{"area":3543.67,"pct":11.39},"sidewalks":{"area":273.78,"pct":0.88}},"city_same":1,"id":"hex:1983:17308"},"type":"Feature"},{"geometry":{"coordinates":[[[-118.38645,33.8601],[-118.38714,33.86106],[-118.38648,33.86205],[-118.38541,33.86206],[-118.38516,33.86085],[-118.38555,33.86079],[-118.38541,33.86011],[-118.38645,33.8601]]],"type":"Polygon"},"properties":{"bbox":{"roads":{"area":2811.74,"pct":9.68}},"city_same":1,"id":"hex:1983:17309"},"type":"Feature"},{"geometry":{"coordinates":[[[-118.38648,33.86205],[-118.38717,33.86302],[-118.38651,33.864],[-118.38581,33.86401],[-118.38568,33.86335],[-118.38541,33.86206],[-118.38648,33.86205]]],"type":"Polygon"},"properties":{"bbox":{"roads":{"area":1782.22,"pct":7.27}},"city_same":1,"id":"hex:1983:17310"},"type":"Feature"},{"geometry":{"coordinates":[[[-118.38651,33.864],[-118.3872,33.86497],[-118.38674,33.86567],[-118.38651,33.86532],[-118.38589,33.86438],[-118.38581,33.86401],[-118.38651,33.864]]],"type":"Polygon"},"properties":{"bbox":{"parking":{"area":369.72,"pct":3.09},"roads":{"area":2326.64,"pct":19.45},"sidewalks":{"area":486.33,"pct":4.07}},"city":{"parking":{"area":369.72,"pct":3.09},"roads":{"area":1472.99,"pct":12.32},"sidewalks":{"area":486.33,"pct":4.07}},"id":"hex:1983:17311"},"type":"Feature"}],"type":"FeatureCollection","v":2}