{"features":[{"geometry":{"coordinates":[[[-118.20184,33.97064],[-118.19961,33.97039],[-118.19953,33.97095],[-118.19435,33.9704],[-118.19442,33.96985],[-118.19398,33.9698],[-118.19407,33.96922],[-118.19195,33.96899],[-118.19203,33.9685],[-118.19188,33.96848],[-118.19181,33.96898],[-118.19133,33.96893],[-118.19141,33.96844],[-118.19128,33.96842],[-118.19119,33.96892],[-118.19023,33.96882],[-118.19014,33.96938],[-118.18793,33.96914],[-118.18824,33.97027],[-118.18579,33.96999],[-118.18594,33.96894],[-118.17794,33.96809],[-118.17799,33.96776],[-118.17536,33.96739],[-118.1753,33.96782],[-118.17289,33.96756],[-118.17305,33.96651],[-118.17236,33.96644],[-118.1722,33.96748],[-118.17152,33.96741],[-118.17164,33.9666],[-118.17148,33.96658],[-118.17153,33.96635],[-118.1695,33.96613],[-118.16974,33.96451],[-118.17008,33.96388],[-118.16907,33.9638],[-118.16956,33.96225],[-118.17044,33.95569],[-118.17038,33.95403],[-118.17191,33.9542],[-118.17007,33.96619],[-118.17121,33.96632],[-118.17295,33.95462],[-118.1729,33.9563],[-118.17777,33.95681],[-118.17765,33.95763],[-118.17951,33.9578],[-118.17971,33.95648],[-118.17841,33.95638],[-118.17989,33.95508],[-118.18431,33.9555],[-118.18535,33.95599],[-118.19564,33.96414],[-118.19939,33.96739],[-118.20077,33.96894],[-118.20184,33.97064]]],"type":"Polygon"},"properties":{"type":"boundary"},"type":"Feature"}],"type":"FeatureCollection"}