{"features":[{"geometry":{"coordinates":[[[-118.20016,33.96944],[-118.19947,33.96847],[-118.19986,33.96788],[-118.20019,33.96823],[-118.20077,33.96894],[-118.20113,33.96943],[-118.20016,33.96944]]],"type":"Polygon"},"properties":{"bbox":{"roads":{"area":1882.64,"pct":15.36}},"city_same":1,"id":"hex:2075:17363"},"type":"Feature"},{"geometry":{"coordinates":[[[-118.1995,33.97042],[-118.20016,33.96944],[-118.20113,33.96943],[-118.20147,33.96989],[-118.20192,33.9706],[-118.20184,33.97064],[-118.20032,33.97047],[-118.19961,33.97039],[-118.19959,33.97055],[-118.1995,33.97042]]],"type":"Polygon"},"properties":{"bbox":{"roads":{"area":1706.34,"pct":8.95}},"city_same":1,"id":"hex:2075:17364"},"type":"Feature"},{"geometry":{"coordinates":[[[-118.19809,33.96653],[-118.19761,33.96585],[-118.19792,33.9661],[-118.19843,33.96653],[-118.19809,33.96653]]],"type":"Polygon"},"properties":{"bbox":{"roads":{"area":0.02,"pct":0}},"city_same":1,"id":"hex:2076:17362"},"type":"Feature"},{"geometry":{"coordinates":[[[-118.19947,33.96847],[-118.19812,33.96848],[-118.19743,33.96751],[-118.19809,33.96653],[-118.19843,33.96653],[-118.19877,33.96681],[-118.19939,33.96739],[-118.19986,33.96788],[-118.19947,33.96847]]],"type":"Polygon"},"properties":{"bbox":{"roads":{"area":2693.65,"pct":8.64}},"city_same":1,"id":"hex:2076:17363"},"type":"Feature"},{"geometry":{"coordinates":[[[-118.19746,33.96946],[-118.19815,33.97043],[-118.1995,33.97042],[-118.20016,33.96944],[-118.19947,33.96847],[-118.19812,33.96848],[-118.19746,33.96946]]],"type":"Polygon"},"properties":{"bbox":{"roads":{"area":4051.84,"pct":9.98}},"city_same":1,"id":"hex:2076:17364"},"type":"Feature"},{"geometry":{"coordinates":[[[-118.19815,33.97043],[-118.1995,33.97042],[-118.19959,33.97055],[-118.19953,33.97095],[-118.19791,33.97078],[-118.19815,33.97043]]],"type":"Polygon"},"properties":{"bbox":{"roads":{"area":241.36,"pct":3.48}},"city_same":1,"id":"hex:2076:17365"},"type":"Feature"},{"geometry":{"coordinates":[[[-118.19605,33.96557],[-118.19536,33.9646],[-118.19566,33.96416],[-118.19722,33.96545],[-118.19716,33.96549],[-118.19725,33.96556],[-118.19605,33.96557]]],"type":"Polygon"},"properties":{"bbox":{"roads":{"area":2325.68,"pct":18.72},"sidewalks":{"area":434.61,"pct":3.5}},"city_same":1,"id":"hex:2077:17361"},"type":"Feature"},{"geometry":{"coordinates":[[[-118.19809,33.96653],[-118.19743,33.96751],[-118.19608,33.96753],[-118.19539,33.96656],[-118.19605,33.96557],[-118.19725,33.96556],[-118.19761,33.96585],[-118.19809,33.96653]]],"type":"Polygon"},"properties":{"bbox":{"roads":{"area":2711.69,"pct":6.72}},"city_same":1,"id":"hex:2077:17362"},"type":"Feature"},{"geometry":{"coordinates":[[[-118.19541,33.96851],[-118.1961,33.96948],[-118.19746,33.96946],[-118.19812,33.96848],[-118.19743,33.96751],[-118.19608,33.96753],[-118.19541,33.96851]]],"type":"Polygon"},"properties":{"bbox":{"roads":{"area":3907.72,"pct":9.63}},"city_same":1,"id":"hex:2077:17363"},"type":"Feature"},{"geometry":{"coordinates":[[[-118.19544,33.97046],[-118.1961,33.96948],[-118.19746,33.96946],[-118.19815,33.97043],[-118.19791,33.97078],[-118.19548,33.97052],[-118.19544,33.97046]]],"type":"Polygon"},"properties":{"bbox":{"roads":{"area":2601.07,"pct":10.11}},"city_same":1,"id":"hex:2077:17364"},"type":"Feature"},{"geometry":{"coordinates":[[[-118.19536,33.9646],[-118.19401,33.96462],[-118.19332,33.96365],[-118.19389,33.96279],[-118.19404,33.96291],[-118.19493,33.96362],[-118.19551,33.96405],[-118.19564,33.96414],[-118.19566,33.96416],[-118.19536,33.9646]]],"type":"Polygon"},"properties":{"bbox":{"parking":{"area":1434.06,"pct":5.86},"roads":{"area":4244.7,"pct":17.36},"sidewalks":{"area":947.71,"pct":3.88}},"city_same":1,"id":"hex:2078:17361"},"type":"Feature"},{"geometry":{"coordinates":[[[-118.19334,33.9656],[-118.19403,33.96657],[-118.19539,33.96656],[-118.19605,33.96557],[-118.19536,33.9646],[-118.19401,33.96462],[-118.19334,33.9656]]],"type":"Polygon"},"properties":{"bbox":{"parking":{"area":1783.76,"pct":4.39},"roads":{"area":4973.84,"pct":12.25},"sidewalks":{"area":731.94,"pct":1.8}},"city_same":1,"id":"hex:2078:17362"},"type":"Feature"},{"geometry":{"coordinates":[[[-118.19337,33.96755],[-118.19406,33.96852],[-118.19541,33.96851],[-118.19608,33.96753],[-118.19539,33.96656],[-118.19403,33.96657],[-118.19337,33.96755]]],"type":"Polygon"},"properties":{"bbox":{"roads":{"area":4451.06,"pct":10.96}},"city_same":1,"id":"hex:2078:17363"},"type":"Feature"},{"geometry":{"coordinates":[[[-118.19406,33.96852],[-118.19541,33.96851],[-118.1961,33.96948],[-118.19544,33.97046],[-118.19495,33.97047],[-118.19435,33.9704],[-118.19442,33.96985],[-118.19398,33.9698],[-118.19407,33.96922],[-118.19362,33.96917],[-118.19406,33.96852]]],"type":"Polygon"},"properties":{"bbox":{"roads":{"area":4103.42,"pct":12.22}},"city_same":1,"id":"hex:2078:17364"},"type":"Feature"},{"geometry":{"coordinates":[[[-118.19194,33.96171],[-118.19125,33.96074],[-118.19126,33.96071],[-118.19173,33.96108],[-118.19238,33.9616],[-118.1925,33.9617],[-118.19194,33.96171]]],"type":"Polygon"},"properties":{"bbox":{"roads":{"area":1319.67,"pct":42.05},"sidewalks":{"area":222.49,"pct":7.09}},"city_same":1,"id":"hex:2079:17359"},"type":"Feature"},{"geometry":{"coordinates":[[[-118.19332,33.96365],[-118.19196,33.96366],[-118.19127,33.96269],[-118.19194,33.96171],[-118.1925,33.9617],[-118.19297,33.96209],[-118.19389,33.96279],[-118.19332,33.96365]]],"type":"Polygon"},"properties":{"bbox":{"roads":{"area":2760.98,"pct":7.86},"sidewalks":{"area":282.08,"pct":0.8}},"city_same":1,"id":"hex:2079:17360"},"type":"Feature"},{"geometry":{"coordinates":[[[-118.1913,33.96464],[-118.19199,33.96561],[-118.19334,33.9656],[-118.19401,33.96462],[-118.19332,33.96365],[-118.19196,33.96366],[-118.1913,33.96464]]],"type":"Polygon"},"properties":{"bbox":{"parking":{"area":1.38,"pct":0},"roads":{"area":3170.8,"pct":7.81},"sidewalks":{"area":475.95,"pct":1.17}},"city_same":1,"id":"hex:2079:17361"},"type":"Feature"},{"geometry":{"coordinates":[[[-118.19133,33.9666],[-118.19202,33.96757],[-118.19337,33.96755],[-118.19403,33.96657],[-118.19334,33.9656],[-118.19199,33.96561],[-118.19133,33.9666]]],"type":"Polygon"},"properties":{"bbox":{"parking":{"area":4555.55,"pct":11.22},"roads":{"area":4921.44,"pct":12.12},"sidewalks":{"area":298.45,"pct":0.74}},"city_same":1,"id":"hex:2079:17362"},"type":"Feature"},{"geometry":{"coordinates":[[[-118.19139,33.96859],[-118.1914,33.96847],[-118.19202,33.96757],[-118.19337,33.96755],[-118.19406,33.96852],[-118.19362,33.96917],[-118.19342,33.96915],[-118.19341,33.9692],[-118.19229,33.96909],[-118.1923,33.96903],[-118.19195,33.96899],[-118.19203,33.9685],[-118.19188,33.96848],[-118.19181,33.96898],[-118.19165,33.96896],[-118.19139,33.96859]]],"type":"Polygon"},"properties":{"bbox":{"roads":{"area":3265.69,"pct":9.9}},"city_same":1,"id":"hex:2079:17363"},"type":"Feature"},{"geometry":{"coordinates":[[[-118.19125,33.96074],[-118.18989,33.96075],[-118.1892,33.95978],[-118.18952,33.95932],[-118.18963,33.9594],[-118.19126,33.96071],[-118.19125,33.96074]]],"type":"Polygon"},"properties":{"bbox":{"roads":{"area":2088.17,"pct":15.4},"sidewalks":{"area":323.36,"pct":2.38}},"city_same":1,"id":"hex:2080:17359"},"type":"Feature"},{"geometry":{"coordinates":[[[-118.18923,33.96173],[-118.18992,33.9627],[-118.19127,33.96269],[-118.19194,33.96171],[-118.19125,33.96074],[-118.18989,33.96075],[-118.18923,33.96173]]],"type":"Polygon"},"properties":{"bbox":{"roads":{"area":6499.7,"pct":16.01},"sidewalks":{"area":673,"pct":1.66}},"city_same":1,"id":"hex:2080:17360"},"type":"Feature"},{"geometry":{"coordinates":[[[-118.18926,33.96369],[-118.18995,33.96466],[-118.1913,33.96464],[-118.19196,33.96366],[-118.19127,33.96269],[-118.18992,33.9627],[-118.18926,33.96369]]],"type":"Polygon"},"properties":{"bbox":{"roads":{"area":6555.29,"pct":16.15},"sidewalks":{"area":702.31,"pct":1.73}},"city_same":1,"id":"hex:2080:17361"},"type":"Feature"},{"geometry":{"coordinates":[[[-118.18928,33.96564],[-118.18997,33.96661],[-118.19133,33.9666],[-118.19199,33.96561],[-118.1913,33.96464],[-118.18995,33.96466],[-118.18928,33.96564]]],"type":"Polygon"},"properties":{"bbox":{"roads":{"area":5470.6,"pct":13.48},"sidewalks":{"area":326.32,"pct":0.8}},"city_same":1,"id":"hex:2080:17362"},"type":"Feature"},{"geometry":{"coordinates":[[[-118.19,33.96856],[-118.18931,33.96759],[-118.18997,33.96661],[-118.19133,33.9666],[-118.19202,33.96757],[-118.1914,33.96847],[-118.19141,33.96844],[-118.19128,33.96842],[-118.19125,33.96855],[-118.19,33.96856]]],"type":"Polygon"},"properties":{"bbox":{"roads":{"area":3837.66,"pct":9.49}},"city_same":1,"id":"hex:2080:17363"},"type":"Feature"},{"geometry":{"coordinates":[[[[-118.19165,33.96896],[-118.19133,33.96893],[-118.19139,33.96859],[-118.19165,33.96896]]],[[[-118.19,33.96856],[-118.19125,33.96855],[-118.19119,33.96892],[-118.19023,33.96882],[-118.19014,33.96938],[-118.1895,33.96931],[-118.19,33.96856]]]],"type":"MultiPolygon"},"properties":{"bbox":{"roads":{"area":293.38,"pct":3.9}},"city_same":1,"id":"hex:2080:17364"},"type":"Feature"},{"geometry":{"coordinates":[[[-118.1892,33.95978],[-118.18785,33.9598],[-118.18716,33.95883],[-118.18777,33.95792],[-118.18952,33.95932],[-118.1892,33.95978]]],"type":"Polygon"},"properties":{"bbox":{"roads":{"area":3653.19,"pct":14.21},"sidewalks":{"area":853.91,"pct":3.32}},"city_same":1,"id":"hex:2081:17358"},"type":"Feature"},{"geometry":{"coordinates":[[[-118.18719,33.96078],[-118.18788,33.96175],[-118.18923,33.96173],[-118.18989,33.96075],[-118.1892,33.95978],[-118.18785,33.9598],[-118.18719,33.96078]]],"type":"Polygon"},"properties":{"bbox":{"parking":{"area":623.17,"pct":1.54},"roads":{"area":5540.92,"pct":13.65},"sidewalks":{"area":607.25,"pct":1.5}},"city_same":1,"id":"hex:2081:17359"},"type":"Feature"},{"geometry":{"coordinates":[[[-118.18721,33.96273],[-118.1879,33.9637],[-118.18926,33.96369],[-118.18992,33.9627],[-118.18923,33.96173],[-118.18788,33.96175],[-118.18721,33.96273]]],"type":"Polygon"},"properties":{"bbox":{"parking":{"area":3036.16,"pct":7.48},"roads":{"area":4815.04,"pct":11.86},"sidewalks":{"area":466.98,"pct":1.15}},"city_same":1,"id":"hex:2081:17360"},"type":"Feature"},{"geometry":{"coordinates":[[[-118.18724,33.96468],[-118.18793,33.96565],[-118.18928,33.96564],[-118.18995,33.96466],[-118.18926,33.96369],[-118.1879,33.9637],[-118.18724,33.96468]]],"type":"Polygon"},"properties":{"bbox":{"roads":{"area":5427,"pct":13.37},"sidewalks":{"area":31.8,"pct":0.08}},"city_same":1,"id":"hex:2081:17361"},"type":"Feature"},{"geometry":{"coordinates":[[[-118.18727,33.96663],[-118.18796,33.9676],[-118.18931,33.96759],[-118.18997,33.96661],[-118.18928,33.96564],[-118.18793,33.96565],[-118.18727,33.96663]]],"type":"Polygon"},"properties":{"bbox":{"roads":{"area":5935.68,"pct":14.62},"sidewalks":{"area":174.61,"pct":0.43}},"city_same":1,"id":"hex:2081:17362"},"type":"Feature"},{"geometry":{"coordinates":[[[-118.18799,33.96956],[-118.1873,33.96859],[-118.18796,33.9676],[-118.18931,33.96759],[-118.19,33.96856],[-118.1895,33.96931],[-118.18793,33.96914],[-118.18805,33.96956],[-118.18799,33.96956]]],"type":"Polygon"},"properties":{"bbox":{"roads":{"area":5534.58,"pct":15.46}},"city_same":1,"id":"hex:2081:17363"},"type":"Feature"},{"geometry":{"coordinates":[[[-118.18799,33.96956],[-118.18805,33.96956],[-118.18824,33.97027],[-118.18756,33.97019],[-118.18799,33.96956]]],"type":"Polygon"},"properties":{"bbox":{"roads":{"area":1718.88,"pct":65.64}},"city_same":1,"id":"hex:2081:17364"},"type":"Feature"},{"geometry":{"coordinates":[[[-118.18578,33.95689],[-118.18509,33.95592],[-118.18514,33.95584],[-118.18535,33.95599],[-118.18648,33.95688],[-118.18578,33.95689]]],"type":"Polygon"},"properties":{"bbox":{"roads":{"area":1133.93,"pct":25.9},"sidewalks":{"area":217.77,"pct":4.97}},"city_same":1,"id":"hex:2082:17357"},"type":"Feature"},{"geometry":{"coordinates":[[[-118.18716,33.95883],[-118.18581,33.95884],[-118.18512,33.95787],[-118.18578,33.95689],[-118.18648,33.95688],[-118.1868,33.95713],[-118.18777,33.95792],[-118.18716,33.95883]]],"type":"Polygon"},"properties":{"bbox":{"roads":{"area":3040.29,"pct":8.31},"sidewalks":{"area":523.13,"pct":1.43}},"city_same":1,"id":"hex:2082:17358"},"type":"Feature"},{"geometry":{"coordinates":[[[-118.18514,33.95982],[-118.18583,33.96079],[-118.18719,33.96078],[-118.18785,33.9598],[-118.18716,33.95883],[-118.18581,33.95884],[-118.18514,33.95982]]],"type":"Polygon"},"properties":{"bbox":{"roads":{"area":3750.27,"pct":9.24},"sidewalks":{"area":812.17,"pct":2}},"city_same":1,"id":"hex:2082:17359"},"type":"Feature"},{"geometry":{"coordinates":[[[-118.18517,33.96177],[-118.18586,33.96274],[-118.18721,33.96273],[-118.18788,33.96175],[-118.18719,33.96078],[-118.18583,33.96079],[-118.18517,33.96177]]],"type":"Polygon"},"properties":{"bbox":{"parking":{"area":12251.84,"pct":30.18},"roads":{"area":9788.28,"pct":24.11},"sidewalks":{"area":813.55,"pct":2}},"city_same":1,"id":"hex:2082:17360"},"type":"Feature"},{"geometry":{"coordinates":[[[-118.1852,33.96373],[-118.18589,33.9647],[-118.18724,33.96468],[-118.1879,33.9637],[-118.18721,33.96273],[-118.18586,33.96274],[-118.1852,33.96373]]],"type":"Polygon"},"properties":{"bbox":{"parking":{"area":2768.07,"pct":6.82},"roads":{"area":8092.37,"pct":19.93},"sidewalks":{"area":617.99,"pct":1.52}},"city_same":1,"id":"hex:2082:17361"},"type":"Feature"},{"geometry":{"coordinates":[[[-118.18523,33.96568],[-118.18592,33.96665],[-118.18727,33.96663],[-118.18793,33.96565],[-118.18724,33.96468],[-118.18589,33.9647],[-118.18523,33.96568]]],"type":"Polygon"},"properties":{"bbox":{"roads":{"area":7774.07,"pct":19.15},"sidewalks":{"area":260.3,"pct":0.64}},"city_same":1,"id":"hex:2082:17362"},"type":"Feature"},{"geometry":{"coordinates":[[[-118.18525,33.96763],[-118.18594,33.9686],[-118.1873,33.96859],[-118.18796,33.9676],[-118.18727,33.96663],[-118.18592,33.96665],[-118.18525,33.96763]]],"type":"Polygon"},"properties":{"bbox":{"roads":{"area":8940.68,"pct":22.02}},"city_same":1,"id":"hex:2082:17363"},"type":"Feature"},{"geometry":{"coordinates":[[[-118.18594,33.9686],[-118.1873,33.96859],[-118.18799,33.96956],[-118.18756,33.97019],[-118.18579,33.96999],[-118.18594,33.96894],[-118.18573,33.96892],[-118.18594,33.9686]]],"type":"Polygon"},"properties":{"bbox":{"roads":{"area":3590.78,"pct":12.62}},"city_same":1,"id":"hex:2082:17364"},"type":"Feature"},{"geometry":{"coordinates":[[[-118.18509,33.95592],[-118.18374,33.95593],[-118.18337,33.95541],[-118.18431,33.9555],[-118.18454,33.95555],[-118.1848,33.95563],[-118.18506,33.95578],[-118.18514,33.95584],[-118.18509,33.95592]]],"type":"Polygon"},"properties":{"bbox":{"roads":{"area":2647.89,"pct":44.11},"sidewalks":{"area":235.95,"pct":3.93}},"city_same":1,"id":"hex:2083:17356"},"type":"Feature"},{"geometry":{"coordinates":[[[-118.18308,33.95691],[-118.18376,33.95788],[-118.18512,33.95787],[-118.18578,33.95689],[-118.18509,33.95592],[-118.18374,33.95593],[-118.18308,33.95691]]],"type":"Polygon"},"properties":{"bbox":{"roads":{"area":5052.15,"pct":12.45},"sidewalks":{"area":939.19,"pct":2.31}},"city_same":1,"id":"hex:2083:17357"},"type":"Feature"},{"geometry":{"coordinates":[[[-118.1831,33.95886],[-118.18379,33.95983],[-118.18514,33.95982],[-118.18581,33.95884],[-118.18512,33.95787],[-118.18376,33.95788],[-118.1831,33.95886]]],"type":"Polygon"},"properties":{"bbox":{"roads":{"area":6238.87,"pct":15.37},"sidewalks":{"area":630.67,"pct":1.55}},"city_same":1,"id":"hex:2083:17358"},"type":"Feature"},{"geometry":{"coordinates":[[[-118.18313,33.96082],[-118.18382,33.96179],[-118.18517,33.96177],[-118.18583,33.96079],[-118.18514,33.95982],[-118.18379,33.95983],[-118.18313,33.96082]]],"type":"Polygon"},"properties":{"bbox":{"roads":{"area":6059.62,"pct":14.93},"sidewalks":{"area":126.19,"pct":0.31}},"city_same":1,"id":"hex:2083:17359"},"type":"Feature"},{"geometry":{"coordinates":[[[-118.18316,33.96277],[-118.18385,33.96374],[-118.1852,33.96373],[-118.18586,33.96274],[-118.18517,33.96177],[-118.18382,33.96179],[-118.18316,33.96277]]],"type":"Polygon"},"properties":{"bbox":{"roads":{"area":4598.55,"pct":11.33}},"city_same":1,"id":"hex:2083:17360"},"type":"Feature"},{"geometry":{"coordinates":[[[-118.18318,33.96472],[-118.18387,33.96569],[-118.18523,33.96568],[-118.18589,33.9647],[-118.1852,33.96373],[-118.18385,33.96374],[-118.18318,33.96472]]],"type":"Polygon"},"properties":{"bbox":{"roads":{"area":2635.14,"pct":6.49}},"city_same":1,"id":"hex:2083:17361"},"type":"Feature"},{"geometry":{"coordinates":[[[-118.18321,33.96667],[-118.1839,33.96764],[-118.18525,33.96763],[-118.18592,33.96665],[-118.18523,33.96568],[-118.18387,33.96569],[-118.18321,33.96667]]],"type":"Polygon"},"properties":{"bbox":{"roads":{"area":4949.65,"pct":12.19}},"city_same":1,"id":"hex:2083:17362"},"type":"Feature"},{"geometry":{"coordinates":[[[-118.18324,33.96863],[-118.1839,33.96764],[-118.18525,33.96763],[-118.18594,33.9686],[-118.18573,33.96892],[-118.18326,33.96866],[-118.18324,33.96863]]],"type":"Polygon"},"properties":{"bbox":{"roads":{"area":2945.23,"pct":11.78}},"city_same":1,"id":"hex:2083:17363"},"type":"Feature"},{"geometry":{"coordinates":[[[-118.18374,33.95593],[-118.18308,33.95691],[-118.18172,33.95693],[-118.18103,33.95596],[-118.18152,33.95524],[-118.18337,33.95541],[-118.18374,33.95593]]],"type":"Polygon"},"properties":{"bbox":{"roads":{"area":3381.58,"pct":9.73}},"city_same":1,"id":"hex:2084:17357"},"type":"Feature"},{"geometry":{"coordinates":[[[-118.18106,33.95791],[-118.18175,33.95888],[-118.1831,33.95886],[-118.18376,33.95788],[-118.18308,33.95691],[-118.18172,33.95693],[-118.18106,33.95791]]],"type":"Polygon"},"properties":{"bbox":{"roads":{"area":2015.31,"pct":4.96}},"city_same":1,"id":"hex:2084:17358"},"type":"Feature"},{"geometry":{"coordinates":[[[-118.18109,33.95986],[-118.18178,33.96083],[-118.18313,33.96082],[-118.18379,33.95983],[-118.1831,33.95886],[-118.18175,33.95888],[-118.18109,33.95986]]],"type":"Polygon"},"properties":{"bbox":{"roads":{"area":4448.86,"pct":10.96}},"city_same":1,"id":"hex:2084:17359"},"type":"Feature"},{"geometry":{"coordinates":[[[-118.18111,33.96181],[-118.1818,33.96278],[-118.18316,33.96277],[-118.18382,33.96179],[-118.18313,33.96082],[-118.18178,33.96083],[-118.18111,33.96181]]],"type":"Polygon"},"properties":{"bbox":{"roads":{"area":4441.26,"pct":10.94}},"city_same":1,"id":"hex:2084:17360"},"type":"Feature"},{"geometry":{"coordinates":[[[-118.18114,33.96376],[-118.18183,33.96473],[-118.18318,33.96472],[-118.18385,33.96374],[-118.18316,33.96277],[-118.1818,33.96278],[-118.18114,33.96376]]],"type":"Polygon"},"properties":{"bbox":{"roads":{"area":1739.53,"pct":4.29}},"city_same":1,"id":"hex:2084:17361"},"type":"Feature"},{"geometry":{"coordinates":[[[-118.18117,33.96572],[-118.18186,33.96669],[-118.18321,33.96667],[-118.18387,33.96569],[-118.18318,33.96472],[-118.18183,33.96473],[-118.18117,33.96572]]],"type":"Polygon"},"properties":{"bbox":{"roads":{"area":3412.45,"pct":8.41}},"city_same":1,"id":"hex:2084:17362"},"type":"Feature"},{"geometry":{"coordinates":[[[-118.18119,33.96767],[-118.18186,33.96669],[-118.18321,33.96667],[-118.1839,33.96764],[-118.18324,33.96863],[-118.183,33.96863],[-118.18179,33.9685],[-118.18119,33.96767]]],"type":"Polygon"},"properties":{"bbox":{"roads":{"area":6393.67,"pct":16.07}},"city_same":1,"id":"hex:2084:17363"},"type":"Feature"},{"geometry":{"coordinates":[[[-118.18103,33.95596],[-118.17968,33.95597],[-118.17937,33.95554],[-118.17989,33.95508],[-118.18152,33.95524],[-118.18103,33.95596]]],"type":"Polygon"},"properties":{"bbox":{"roads":{"area":2492.64,"pct":17.38}},"city_same":1,"id":"hex:2085:17356"},"type":"Feature"},{"geometry":{"coordinates":[[[-118.17968,33.95597],[-118.18103,33.95596],[-118.18172,33.95693],[-118.18106,33.95791],[-118.17971,33.95792],[-118.17953,33.95767],[-118.17971,33.95648],[-118.17935,33.95646],[-118.17968,33.95597]]],"type":"Polygon"},"properties":{"bbox":{"roads":{"area":3830.63,"pct":10.69}},"city_same":1,"id":"hex:2085:17357"},"type":"Feature"},{"geometry":{"coordinates":[[[-118.17904,33.9589],[-118.17973,33.95987],[-118.18109,33.95986],[-118.18175,33.95888],[-118.18106,33.95791],[-118.17971,33.95792],[-118.17904,33.9589]]],"type":"Polygon"},"properties":{"bbox":{"roads":{"area":4380.6,"pct":10.79}},"city_same":1,"id":"hex:2085:17358"},"type":"Feature"},{"geometry":{"coordinates":[[[-118.17907,33.96086],[-118.17976,33.96183],[-118.18111,33.96181],[-118.18178,33.96083],[-118.18109,33.95986],[-118.17973,33.95987],[-118.17907,33.96086]]],"type":"Polygon"},"properties":{"bbox":{"roads":{"area":5544.22,"pct":13.66}},"city_same":1,"id":"hex:2085:17359"},"type":"Feature"},{"geometry":{"coordinates":[[[-118.1791,33.96281],[-118.17979,33.96378],[-118.18114,33.96376],[-118.1818,33.96278],[-118.18111,33.96181],[-118.17976,33.96183],[-118.1791,33.96281]]],"type":"Polygon"},"properties":{"bbox":{"roads":{"area":6058.36,"pct":14.92}},"city_same":1,"id":"hex:2085:17360"},"type":"Feature"},{"geometry":{"coordinates":[[[-118.17913,33.96476],[-118.17981,33.96573],[-118.18117,33.96572],[-118.18183,33.96473],[-118.18114,33.96376],[-118.17979,33.96378],[-118.17913,33.96476]]],"type":"Polygon"},"properties":{"bbox":{"roads":{"area":6517.66,"pct":16.06}},"city_same":1,"id":"hex:2085:17361"},"type":"Feature"},{"geometry":{"coordinates":[[[-118.17915,33.96671],[-118.17984,33.96768],[-118.18119,33.96767],[-118.18186,33.96669],[-118.18117,33.96572],[-118.17981,33.96573],[-118.17915,33.96671]]],"type":"Polygon"},"properties":{"bbox":{"roads":{"area":5785.37,"pct":14.25}},"city_same":1,"id":"hex:2085:17362"},"type":"Feature"},{"geometry":{"coordinates":[[[-118.17984,33.96768],[-118.18119,33.96767],[-118.18179,33.9685],[-118.17946,33.96825],[-118.17984,33.96768]]],"type":"Polygon"},"properties":{"bbox":{"roads":{"area":1324.78,"pct":10.12}},"city_same":1,"id":"hex:2085:17363"},"type":"Feature"},{"geometry":{"coordinates":[[[-118.17971,33.95792],[-118.17904,33.9589],[-118.17769,33.95892],[-118.177,33.95795],[-118.17766,33.95696],[-118.17775,33.95696],[-118.17765,33.95763],[-118.17834,33.95771],[-118.17945,33.95784],[-118.17951,33.9578],[-118.17953,33.95767],[-118.17971,33.95792]]],"type":"Polygon"},"properties":{"bbox":{"roads":{"area":3119.62,"pct":11.21}},"city_same":1,"id":"hex:2086:17358"},"type":"Feature"},{"geometry":{"coordinates":[[[-118.17703,33.9599],[-118.17772,33.96087],[-118.17907,33.96086],[-118.17973,33.95987],[-118.17904,33.9589],[-118.17769,33.95892],[-118.17703,33.9599]]],"type":"Polygon"},"properties":{"bbox":{"roads":{"area":5132.3,"pct":12.64}},"city_same":1,"id":"hex:2086:17359"},"type":"Feature"},{"geometry":{"coordinates":[[[-118.17706,33.96185],[-118.17775,33.96282],[-118.1791,33.96281],[-118.17976,33.96183],[-118.17907,33.96086],[-118.17772,33.96087],[-118.17706,33.96185]]],"type":"Polygon"},"properties":{"bbox":{"roads":{"area":4947.18,"pct":12.19}},"city_same":1,"id":"hex:2086:17360"},"type":"Feature"},{"geometry":{"coordinates":[[[-118.17708,33.9638],[-118.17777,33.96477],[-118.17913,33.96476],[-118.17979,33.96378],[-118.1791,33.96281],[-118.17775,33.96282],[-118.17708,33.9638]]],"type":"Polygon"},"properties":{"bbox":{"roads":{"area":5583.74,"pct":13.75}},"city_same":1,"id":"hex:2086:17361"},"type":"Feature"},{"geometry":{"coordinates":[[[-118.17711,33.96576],[-118.1778,33.96673],[-118.17915,33.96671],[-118.17981,33.96573],[-118.17913,33.96476],[-118.17777,33.96477],[-118.17711,33.96576]]],"type":"Polygon"},"properties":{"bbox":{"roads":{"area":5051.4,"pct":12.44}},"city_same":1,"id":"hex:2086:17362"},"type":"Feature"},{"geometry":{"coordinates":[[[-118.1778,33.96673],[-118.17915,33.96671],[-118.17984,33.96768],[-118.17946,33.96825],[-118.17794,33.96809],[-118.17799,33.96776],[-118.17738,33.9677],[-118.17739,33.96761],[-118.17722,33.96759],[-118.1778,33.96673]]],"type":"Polygon"},"properties":{"bbox":{"roads":{"area":3856.71,"pct":13.43}},"city_same":1,"id":"hex:2086:17363"},"type":"Feature"},{"geometry":{"coordinates":[[[-118.17766,33.95696],[-118.177,33.95795],[-118.17565,33.95796],[-118.17496,33.95699],[-118.17526,33.95655],[-118.17754,33.95679],[-118.17766,33.95696]]],"type":"Polygon"},"properties":{"bbox":{"roads":{"area":2402.58,"pct":8.49}},"city_same":1,"id":"hex:2087:17357"},"type":"Feature"},{"geometry":{"coordinates":[[[-118.17499,33.95894],[-118.17568,33.95991],[-118.17703,33.9599],[-118.17769,33.95892],[-118.177,33.95795],[-118.17565,33.95796],[-118.17499,33.95894]]],"type":"Polygon"},"properties":{"bbox":{"roads":{"area":4608.36,"pct":11.35}},"city_same":1,"id":"hex:2087:17358"},"type":"Feature"},{"geometry":{"coordinates":[[[-118.17501,33.96089],[-118.1757,33.96186],[-118.17706,33.96185],[-118.17772,33.96087],[-118.17703,33.9599],[-118.17568,33.95991],[-118.17501,33.96089]]],"type":"Polygon"},"properties":{"bbox":{"roads":{"area":3769.74,"pct":9.29}},"city_same":1,"id":"hex:2087:17359"},"type":"Feature"},{"geometry":{"coordinates":[[[-118.17504,33.96285],[-118.17573,33.96382],[-118.17708,33.9638],[-118.17775,33.96282],[-118.17706,33.96185],[-118.1757,33.96186],[-118.17504,33.96285]]],"type":"Polygon"},"properties":{"bbox":{"roads":{"area":5054.54,"pct":12.45}},"city_same":1,"id":"hex:2087:17360"},"type":"Feature"},{"geometry":{"coordinates":[[[-118.17507,33.9648],[-118.17576,33.96577],[-118.17711,33.96576],[-118.17777,33.96477],[-118.17708,33.9638],[-118.17573,33.96382],[-118.17507,33.9648]]],"type":"Polygon"},"properties":{"bbox":{"roads":{"area":6317.52,"pct":15.56}},"city_same":1,"id":"hex:2087:17361"},"type":"Feature"},{"geometry":{"coordinates":[[[-118.17509,33.96675],[-118.17576,33.96577],[-118.17711,33.96576],[-118.1778,33.96673],[-118.17722,33.96759],[-118.17556,33.96741],[-118.17509,33.96675]]],"type":"Polygon"},"properties":{"bbox":{"roads":{"area":4968.33,"pct":13.3}},"city_same":1,"id":"hex:2087:17362"},"type":"Feature"},{"geometry":{"coordinates":[[[-118.17496,33.95699],[-118.17361,33.957],[-118.17312,33.95632],[-118.17526,33.95655],[-118.17496,33.95699]]],"type":"Polygon"},"properties":{"bbox":{"roads":{"area":773.23,"pct":7.75}},"city_same":1,"id":"hex:2088:17357"},"type":"Feature"},{"geometry":{"coordinates":[[[-118.17294,33.95799],[-118.17363,33.95896],[-118.17499,33.95894],[-118.17565,33.95796],[-118.17496,33.95699],[-118.17361,33.957],[-118.17294,33.95799]]],"type":"Polygon"},"properties":{"bbox":{"parking":{"area":524.84,"pct":1.29},"roads":{"area":1468.95,"pct":3.62}},"city_same":1,"id":"hex:2088:17358"},"type":"Feature"},{"geometry":{"coordinates":[[[-118.17297,33.95994],[-118.17366,33.96091],[-118.17501,33.96089],[-118.17568,33.95991],[-118.17499,33.95894],[-118.17363,33.95896],[-118.17297,33.95994]]],"type":"Polygon"},"properties":{"bbox":{"parking":{"area":2440.13,"pct":6.01},"roads":{"area":4678.83,"pct":11.53}},"city_same":1,"id":"hex:2088:17359"},"type":"Feature"},{"geometry":{"coordinates":[[[-118.173,33.96189],[-118.17369,33.96286],[-118.17504,33.96285],[-118.1757,33.96186],[-118.17501,33.96089],[-118.17366,33.96091],[-118.173,33.96189]]],"type":"Polygon"},"properties":{"bbox":{"roads":{"area":5684.07,"pct":14}},"city_same":1,"id":"hex:2088:17360"},"type":"Feature"},{"geometry":{"coordinates":[[[-118.17302,33.96384],[-118.17371,33.96481],[-118.17507,33.9648],[-118.17573,33.96382],[-118.17504,33.96285],[-118.17369,33.96286],[-118.17302,33.96384]]],"type":"Polygon"},"properties":{"bbox":{"roads":{"area":5171.51,"pct":12.74},"sidewalks":{"area":130.43,"pct":0.32}},"city_same":1,"id":"hex:2088:17361"},"type":"Feature"},{"geometry":{"coordinates":[[[-118.17305,33.96579],[-118.17374,33.96676],[-118.17509,33.96675],[-118.17576,33.96577],[-118.17507,33.9648],[-118.17371,33.96481],[-118.17305,33.96579]]],"type":"Polygon"},"properties":{"bbox":{"roads":{"area":4738.13,"pct":11.67}},"city_same":1,"id":"hex:2088:17362"},"type":"Feature"},{"geometry":{"coordinates":[[[-118.17374,33.96676],[-118.17509,33.96675],[-118.17556,33.96741],[-118.17536,33.96739],[-118.1753,33.96782],[-118.17318,33.96759],[-118.17374,33.96676]]],"type":"Polygon"},"properties":{"bbox":{"roads":{"area":1455.21,"pct":7.9}},"city_same":1,"id":"hex:2088:17363"},"type":"Feature"},{"geometry":{"coordinates":[[[[-118.17156,33.95605],[-118.17087,33.95508],[-118.1715,33.95416],[-118.17189,33.95419],[-118.17191,33.9542],[-118.17163,33.95605],[-118.17156,33.95605]]],[[[-118.17273,33.95604],[-118.17295,33.95462],[-118.1729,33.95603],[-118.17273,33.95604]]]],"type":"MultiPolygon"},"properties":{"bbox":{"roads":{"area":1000.79,"pct":8.25}},"city_same":1,"id":"hex:2089:17356"},"type":"Feature"},{"geometry":{"coordinates":[[[[-118.1709,33.95703],[-118.17156,33.95605],[-118.17163,33.95605],[-118.17138,33.9577],[-118.1709,33.95703]]],[[[-118.17361,33.957],[-118.17294,33.95799],[-118.17244,33.95799],[-118.17273,33.95604],[-118.1729,33.95603],[-118.1729,33.9563],[-118.17297,33.9563],[-118.17312,33.95632],[-118.17361,33.957]]]],"type":"MultiPolygon"},"properties":{"bbox":{"parking":{"area":298.55,"pct":1.61},"roads":{"area":1606.85,"pct":8.68}},"city_same":1,"id":"hex:2089:17357"},"type":"Feature"},{"geometry":{"coordinates":[[[[-118.17093,33.95898],[-118.17126,33.95849],[-118.17126,33.9585],[-118.17114,33.95928],[-118.17093,33.95898]]],[[[-118.17294,33.95799],[-118.17363,33.95896],[-118.17297,33.95994],[-118.17215,33.95995],[-118.17244,33.95799],[-118.17294,33.95799]]]],"type":"MultiPolygon"},"properties":{"bbox":{"parking":{"area":704.39,"pct":3.35},"roads":{"area":1412.19,"pct":6.71}},"city_same":1,"id":"hex:2089:17358"},"type":"Feature"},{"geometry":{"coordinates":[[[-118.17297,33.95994],[-118.17366,33.96091],[-118.173,33.96189],[-118.17186,33.9619],[-118.17215,33.95995],[-118.17297,33.95994]]],"type":"Polygon"},"properties":{"bbox":{"roads":{"area":1867.45,"pct":7.08}},"city_same":1,"id":"hex:2089:17359"},"type":"Feature"},{"geometry":{"coordinates":[[[-118.173,33.96189],[-118.17369,33.96286],[-118.17302,33.96384],[-118.17167,33.96386],[-118.17158,33.96373],[-118.1716,33.9636],[-118.17186,33.9619],[-118.173,33.96189]]],"type":"Polygon"},"properties":{"bbox":{"roads":{"area":4402.82,"pct":13.46}},"city_same":1,"id":"hex:2089:17360"},"type":"Feature"},{"geometry":{"coordinates":[[[-118.17167,33.96386],[-118.17302,33.96384],[-118.17371,33.96481],[-118.17305,33.96579],[-118.1717,33.96581],[-118.17135,33.96532],[-118.17154,33.96405],[-118.17167,33.96386]]],"type":"Polygon"},"properties":{"bbox":{"roads":{"area":4855.18,"pct":12.82},"sidewalks":{"area":457.07,"pct":1.21}},"city_same":1,"id":"hex:2089:17361"},"type":"Feature"},{"geometry":{"coordinates":[[[-118.1717,33.96581],[-118.17305,33.96579],[-118.17374,33.96676],[-118.17318,33.96759],[-118.17289,33.96756],[-118.17305,33.96651],[-118.17236,33.96644],[-118.1722,33.96748],[-118.17152,33.96741],[-118.17164,33.9666],[-118.17148,33.96658],[-118.17153,33.96635],[-118.17135,33.96633],[-118.1717,33.96581]]],"type":"Polygon"},"properties":{"bbox":{"roads":{"area":4059.74,"pct":15.94}},"city_same":1,"id":"hex:2089:17362"},"type":"Feature"},{"geometry":{"coordinates":[[[-118.17087,33.95508],[-118.17046,33.95508],[-118.17047,33.95504],[-118.17045,33.95437],[-118.17038,33.95403],[-118.17052,33.95404],[-118.1707,33.95407],[-118.17079,33.95408],[-118.17133,33.95414],[-118.1715,33.95416],[-118.17087,33.95508]]],"type":"Polygon"},"properties":{"bbox":{"roads":{"area":3230.04,"pct":42.3}},"city":{"roads":{"area":19.63,"pct":0.26}},"id":"hex:2090:17356"},"type":"Feature"},{"geometry":{"coordinates":[[[-118.17087,33.95508],[-118.17156,33.95605],[-118.1709,33.95703],[-118.17025,33.95704],[-118.17037,33.95615],[-118.17044,33.95569],[-118.17046,33.95508],[-118.17087,33.95508]]],"type":"Polygon"},"properties":{"bbox":{"roads":{"area":6976.46,"pct":41.03}},"city":{"roads":{"area":786.47,"pct":4.63}},"id":"hex:2090:17357"},"type":"Feature"},{"geometry":{"coordinates":[[[-118.17093,33.95898],[-118.16998,33.95899],[-118.17001,33.95876],[-118.17014,33.95781],[-118.17025,33.95704],[-118.1709,33.95703],[-118.17138,33.9577],[-118.17126,33.95849],[-118.17093,33.95898]]],"type":"Polygon"},"properties":{"bbox":{"roads":{"area":7779.92,"pct":35.68}},"city":{"roads":{"area":1337.35,"pct":6.13}},"id":"hex:2090:17358"},"type":"Feature"},{"geometry":{"coordinates":[[[-118.16973,33.96095],[-118.16998,33.95899],[-118.17093,33.95898],[-118.17114,33.95928],[-118.17088,33.96093],[-118.16973,33.96095]]],"type":"Polygon"},"properties":{"bbox":{"roads":{"area":7985.55,"pct":34.36}},"city":{"roads":{"area":1522.75,"pct":6.55}},"id":"hex:2090:17359"},"type":"Feature"},{"geometry":{"coordinates":[[[-118.16963,33.9629],[-118.16945,33.96264],[-118.16949,33.96249],[-118.16956,33.96225],[-118.16973,33.96095],[-118.17088,33.96093],[-118.17058,33.96289],[-118.16963,33.9629]]],"type":"Polygon"},"properties":{"bbox":{"roads":{"area":7905.88,"pct":35.04}},"city":{"roads":{"area":1531.28,"pct":6.79}},"id":"hex:2090:17360"},"type":"Feature"},{"geometry":{"coordinates":[[[[-118.16969,33.96485],[-118.16974,33.96451],[-118.17008,33.96388],[-118.16981,33.96384],[-118.16979,33.9639],[-118.16907,33.9638],[-118.16916,33.96361],[-118.16917,33.96359],[-118.16963,33.9629],[-118.17058,33.96289],[-118.17048,33.9635],[-118.17028,33.96484],[-118.16969,33.96485]]],[[[-118.17167,33.96386],[-118.17154,33.96405],[-118.17158,33.96373],[-118.17167,33.96386]]]],"type":"MultiPolygon"},"properties":{"bbox":{"roads":{"area":4748.93,"pct":28.01},"sidewalks":{"area":337.29,"pct":1.99}},"city":{"roads":{"area":2017.53,"pct":11.9},"sidewalks":{"area":337.29,"pct":1.99}},"id":"hex:2090:17361"},"type":"Feature"},{"geometry":{"geometries":[{"coordinates":[[[-118.1717,33.96581],[-118.17135,33.96633],[-118.17121,33.96632],[-118.17135,33.96532],[-118.1717,33.96581]]],"type":"Polygon"},{"coordinates":[[[-118.17028,33.96484],[-118.17007,33.96619],[-118.1695,33.96613],[-118.16969,33.96485],[-118.17028,33.96484]]],"type":"Polygon"},{"coordinates":[[-118.17121,33.96632],[-118.17065,33.96626]],"type":"LineString"},{"coordinates":[[-118.17065,33.96626],[-118.17007,33.96619]],"type":"LineString"}],"type":"GeometryCollection"},"properties":{"bbox":{"roads":{"area":518.07,"pct":5.02}},"city_same":1,"id":"hex:2090:17362"},"type":"Feature"},{"geometry":{"coordinates":[[[-118.16963,33.9629],[-118.16917,33.96359],[-118.16919,33.96348],[-118.16937,33.96291],[-118.16945,33.96264],[-118.16963,33.9629]]],"type":"Polygon"},"properties":{"bbox":{"roads":{"area":360.27,"pct":28.41},"sidewalks":{"area":3.88,"pct":0.31}},"city":{"roads":{"area":1.94,"pct":0.15},"sidewalks":{"area":3.88,"pct":0.31}},"id":"hex:2091:17360"},"type":"Feature"}],"type":"FeatureCollection","v":2}