{"features":[{"geometry":{"coordinates":[[[-118.36444,33.76826],[-118.36494,33.76807],[-118.36508,33.76834],[-118.36723,33.76783],[-118.36934,33.76849],[-118.3705,33.76848],[-118.37124,33.76935],[-118.37519,33.77176],[-118.37643,33.77031],[-118.37775,33.76957],[-118.3806,33.76895],[-118.38057,33.76819],[-118.37955,33.76529],[-118.37932,33.76411],[-118.37916,33.76409],[-118.37921,33.76333],[-118.37864,33.76156],[-118.37898,33.76154],[-118.37881,33.75937],[-118.38397,33.75906],[-118.38512,33.75864],[-118.38757,33.75728],[-118.38862,33.75718],[-118.38924,33.7574],[-118.38986,33.75795],[-118.39045,33.75922],[-118.39137,33.76011],[-118.39323,33.76106],[-118.39125,33.76414],[-118.39081,33.76544],[-118.39055,33.76504],[-118.38972,33.76532],[-118.38902,33.76575],[-118.38779,33.76696],[-118.3869,33.7683],[-118.38083,33.7695],[-118.38123,33.7709],[-118.38123,33.77187],[-118.38152,33.77293],[-118.38139,33.77334],[-118.38344,33.77308],[-118.38379,33.77478],[-118.38239,33.77425],[-118.38165,33.77437],[-118.38106,33.77479],[-118.38006,33.7764],[-118.37893,33.77719],[-118.37828,33.77671],[-118.37464,33.77781],[-118.37292,33.78429],[-118.37205,33.78274],[-118.36965,33.78107],[-118.3701,33.77982],[-118.37121,33.77843],[-118.3728,33.77719],[-118.37503,33.77653],[-118.37511,33.77538],[-118.3747,33.77434],[-118.37333,33.77305],[-118.37197,33.77215],[-118.37144,33.77251],[-118.37102,33.77251],[-118.36894,33.77141],[-118.36651,33.77094],[-118.36621,33.771],[-118.36618,33.77085],[-118.36583,33.7709],[-118.36562,33.77078],[-118.36579,33.77007],[-118.36453,33.76932],[-118.36402,33.76982],[-118.36314,33.77133],[-118.36111,33.77251],[-118.36051,33.77372],[-118.36217,33.77523],[-118.36244,33.77698],[-118.36341,33.77801],[-118.36327,33.77909],[-118.36446,33.78118],[-118.36483,33.7822],[-118.36506,33.78486],[-118.36551,33.78563],[-118.36795,33.78438],[-118.36888,33.785],[-118.37059,33.78551],[-118.3726,33.78557],[-118.37219,33.78724],[-118.37152,33.78834],[-118.36991,33.78954],[-118.36892,33.79091],[-118.36857,33.79121],[-118.36791,33.79146],[-118.36873,33.79266],[-118.3676,33.79347],[-118.36751,33.79442],[-118.3672,33.79512],[-118.36568,33.79512],[-118.36381,33.79534],[-118.35687,33.79544],[-118.35551,33.79499],[-118.35191,33.79597],[-118.34476,33.78978],[-118.34205,33.78762],[-118.34489,33.78563],[-118.34571,33.78523],[-118.34964,33.78458],[-118.35085,33.78408],[-118.34671,33.78122],[-118.3423,33.77987],[-118.34181,33.78152],[-118.34053,33.78362],[-118.34048,33.78625],[-118.33415,33.78086],[-118.33272,33.78028],[-118.33001,33.78048],[-118.32991,33.78528],[-118.32801,33.78528],[-118.32806,33.78612],[-118.32779,33.78623],[-118.32546,33.78621],[-118.32545,33.78591],[-118.32215,33.78587],[-118.31666,33.78375],[-118.319,33.78171],[-118.31804,33.78169],[-118.31771,33.78072],[-118.31654,33.78092],[-118.31659,33.78018],[-118.3157,33.77957],[-118.31693,33.77873],[-118.31541,33.77864],[-118.31621,33.77802],[-118.3157,33.7771],[-118.31603,33.77697],[-118.31677,33.77742],[-118.31829,33.77574],[-118.31836,33.76492],[-118.32164,33.76508],[-118.32138,33.76546],[-118.32158,33.76597],[-118.32239,33.76655],[-118.32287,33.76775],[-118.32325,33.76763],[-118.32359,33.76849],[-118.32448,33.76803],[-118.32573,33.7681],[-118.32567,33.76775],[-118.32622,33.76776],[-118.32663,33.76744],[-118.32686,33.76765],[-118.32742,33.76706],[-118.32865,33.76744],[-118.33023,33.76748],[-118.33177,33.76694],[-118.33162,33.7677],[-118.33176,33.76814],[-118.33071,33.76858],[-118.33122,33.76938],[-118.33175,33.7694],[-118.33307,33.7685],[-118.33344,33.76749],[-118.33552,33.76663],[-118.33568,33.76693],[-118.33648,33.76674],[-118.33717,33.76755],[-118.33398,33.76878],[-118.33265,33.77213],[-118.33685,33.77223],[-118.33817,33.77253],[-118.35238,33.78253],[-118.35263,33.78163],[-118.35302,33.78165],[-118.35408,33.7823],[-118.35405,33.78284],[-118.35374,33.783],[-118.35375,33.78324],[-118.35409,33.78349],[-118.35586,33.78312],[-118.35703,33.78268],[-118.35748,33.7818],[-118.3586,33.78155],[-118.35938,33.78097],[-118.36116,33.7806],[-118.36216,33.77961],[-118.36309,33.77809],[-118.36228,33.77702],[-118.36208,33.77522],[-118.35995,33.77333],[-118.36027,33.77261],[-118.36089,33.77207],[-118.36222,33.77148],[-118.36308,33.77065],[-118.36368,33.76931],[-118.36334,33.76916],[-118.36444,33.76826]],[[-118.32493,33.77312],[-118.32563,33.77255],[-118.32559,33.77215],[-118.32523,33.77186],[-118.32284,33.77092],[-118.3217,33.77096],[-118.32103,33.77134],[-118.32066,33.77182],[-118.32057,33.77251],[-118.32082,33.77311],[-118.3212,33.77346],[-118.32187,33.77374],[-118.32266,33.77375],[-118.32493,33.77312]],[[-118.32779,33.78495],[-118.32748,33.78478],[-118.32676,33.78481],[-118.32725,33.78542],[-118.32794,33.78548],[-118.32779,33.78495]]],"type":"Polygon"},"properties":{"type":"boundary"},"type":"Feature"}],"type":"FeatureCollection"}