{"features":[{"geometry":{"coordinates":[[[[-118.00703,34.06004],[-118.0059,34.06342],[-118.00558,34.06336],[-118.00518,34.06462],[-118.00546,34.06458],[-118.0018,34.07533],[-118.00147,34.07691],[-118.0011,34.07699],[-118.00221,34.07289],[-118.00741,34.05793],[-118.00763,34.05806],[-118.00703,34.06004]]],[[[-117.98238,34.08127],[-117.9824,34.09199],[-117.98455,34.09196],[-117.98457,34.09927],[-117.97805,34.09936],[-117.97809,34.10469],[-117.97809,34.10441],[-117.97509,34.107],[-117.94295,34.10706],[-117.94305,34.0998],[-117.95476,34.09967],[-117.9546,34.09601],[-117.95351,34.09589],[-117.95355,34.09235],[-117.95478,34.09234],[-117.95476,34.08902],[-117.95197,34.09144],[-117.95053,34.09208],[-117.94879,34.0924],[-117.94881,34.08932],[-117.94493,34.09011],[-117.94524,34.08664],[-117.94424,34.0866],[-117.94452,34.083],[-117.94558,34.08301],[-117.94597,34.07929],[-117.94821,34.07934],[-117.95424,34.07358],[-117.95659,34.07533],[-117.95799,34.07401],[-117.95561,34.07224],[-117.95746,34.07035],[-117.95819,34.07025],[-117.95782,34.06997],[-117.95992,34.06812],[-117.96052,34.06843],[-117.96043,34.06853],[-117.96121,34.06913],[-117.96106,34.06937],[-117.9612,34.06956],[-117.96137,34.0694],[-117.96203,34.0694],[-117.96322,34.06836],[-117.9637,34.06855],[-117.96392,34.06834],[-117.96203,34.06696],[-117.9613,34.06669],[-117.96221,34.06537],[-117.96471,34.06577],[-117.96714,34.06346],[-117.96622,34.06278],[-117.96712,34.06182],[-117.96918,34.06334],[-117.96938,34.06316],[-117.97042,34.06381],[-117.96907,34.06487],[-117.96974,34.06535],[-117.97011,34.06498],[-117.96997,34.06552],[-117.97066,34.06603],[-117.97074,34.06543],[-117.97292,34.06338],[-117.97562,34.06378],[-117.976,34.06376],[-117.9762,34.0636],[-117.9767,34.06388],[-117.97787,34.06284],[-117.97851,34.06327],[-117.97954,34.06287],[-117.98118,34.06287],[-117.98183,34.06268],[-117.98533,34.06243],[-117.98539,34.06289],[-117.98589,34.06323],[-117.98645,34.06271],[-117.99082,34.06264],[-118.00076,34.06152],[-118.00152,34.05917],[-118.00354,34.05515],[-118.00684,34.0575],[-118.00616,34.05702],[-118.00513,34.05872],[-118.00394,34.05961],[-118.00456,34.06042],[-118.00516,34.06001],[-118.00528,34.06006],[-118.00473,34.06206],[-118.00121,34.07212],[-118.00012,34.07557],[-117.99981,34.07729],[-117.98238,34.08127]],[[-117.98602,34.06509],[-117.98602,34.0651],[-117.98602,34.06511],[-117.98603,34.06513],[-117.98616,34.06512],[-117.98616,34.0651],[-117.98615,34.06509],[-117.98615,34.06508],[-117.98614,34.06506],[-117.98612,34.06506],[-117.98611,34.06505],[-117.98609,34.06505],[-117.98607,34.06505],[-117.98605,34.06506],[-117.98604,34.06506],[-117.98603,34.06507],[-117.98602,34.06509]],[[-117.9863,34.065],[-117.98648,34.06533],[-117.98613,34.06536],[-117.98605,34.06548],[-117.98632,34.0656],[-117.98658,34.06544],[-117.9867,34.06502],[-117.9865,34.06489],[-117.9863,34.065]]]],"type":"MultiPolygon"},"properties":{"type":"boundary"},"type":"Feature"}],"type":"FeatureCollection"}