{"features":[{"geometry":{"coordinates":[[[[-118.03652,33.91525],[-118.03652,33.91708],[-118.01488,33.91719],[-118.01485,33.91814],[-118.01452,33.91866],[-118.02323,33.92421],[-118.00526,33.92835],[-118.00351,33.92308],[-117.99748,33.92445],[-117.99448,33.92448],[-117.9944,33.91853],[-117.9924,33.91856],[-117.99241,33.9176],[-117.9917,33.9176],[-117.99169,33.91734],[-117.97656,33.91737],[-117.97661,33.90281],[-117.98542,33.90277],[-117.98533,33.89552],[-117.99412,33.89546],[-117.99404,33.88821],[-118.00285,33.88816],[-118.00277,33.8809],[-118.01147,33.88085],[-118.01138,33.87343],[-118.02878,33.87332],[-118.02911,33.90253],[-118.03431,33.90249],[-118.0343,33.90399],[-118.03566,33.90356],[-118.0368,33.90421],[-118.03785,33.90417],[-118.03797,33.91524],[-118.03652,33.91525]],[[-118.00299,33.90462],[-118.00322,33.90482],[-118.0035,33.90468],[-118.00338,33.90423],[-118.00278,33.904],[-118.00235,33.90413],[-118.00188,33.90402],[-118.00186,33.90425],[-118.00227,33.90417],[-118.00264,33.9044],[-118.003,33.90438],[-118.00299,33.90462]],[[-118.00509,33.90428],[-118.00568,33.90446],[-118.00643,33.904],[-118.00673,33.90414],[-118.00711,33.90416],[-118.00718,33.90379],[-118.00763,33.90324],[-118.0075,33.90305],[-118.0072,33.90305],[-118.00621,33.90385],[-118.00509,33.90428]]],[[[-118.00695,33.90361],[-118.00713,33.90367],[-118.00697,33.90377],[-118.00695,33.90361]]]],"type":"MultiPolygon"},"properties":{"type":"boundary"},"type":"Feature"}],"type":"FeatureCollection"}