{"features":[{"geometry":{"coordinates":[[[-121.98779,37.70932],[-121.96949,37.70942],[-121.96949,37.70971],[-121.96617,37.7093],[-121.96575,37.709],[-121.96354,37.70841],[-121.96099,37.70844],[-121.96028,37.7089],[-121.96023,37.7108],[-121.9593,37.70988],[-121.95624,37.70837],[-121.95577,37.70856],[-121.95402,37.70821],[-121.9528,37.70758],[-121.95249,37.70936],[-121.95426,37.71079],[-121.95095,37.71258],[-121.95085,37.71288],[-121.95308,37.71339],[-121.95355,37.71421],[-121.95288,37.71602],[-121.95096,37.71557],[-121.95074,37.71704],[-121.95182,37.71749],[-121.9522,37.71794],[-121.95412,37.71898],[-121.95509,37.7197],[-121.85074,37.7451],[-121.85062,37.731],[-121.8416,37.73106],[-121.8416,37.72377],[-121.83255,37.72374],[-121.83244,37.70923],[-121.83347,37.70923],[-121.8334,37.70153],[-121.83601,37.70158],[-121.83601,37.70142],[-121.84948,37.7017],[-121.86385,37.70165],[-121.872,37.70189],[-121.87424,37.70175],[-121.89923,37.70203],[-121.90514,37.70197],[-121.90661,37.70233],[-121.9069,37.70214],[-121.91792,37.7022],[-121.92063,37.70199],[-121.92277,37.70304],[-121.92416,37.70255],[-121.92487,37.70124],[-121.92525,37.70093],[-121.92999,37.69968],[-121.93253,37.69923],[-121.93516,37.69833],[-121.94054,37.69871],[-121.95759,37.69878],[-121.95764,37.69891],[-121.95816,37.69882],[-121.95907,37.69932],[-121.95952,37.69872],[-121.95996,37.69922],[-121.96043,37.69912],[-121.96044,37.69887],[-121.96215,37.69883],[-121.9624,37.69843],[-121.96287,37.69824],[-121.96373,37.69859],[-121.9643,37.69852],[-121.96452,37.69812],[-121.96516,37.69796],[-121.96586,37.69803],[-121.96658,37.69843],[-121.96694,37.69839],[-121.96714,37.69795],[-121.96754,37.69795],[-121.96777,37.69833],[-121.96851,37.69831],[-121.96872,37.69784],[-121.96982,37.69776],[-121.97003,37.69811],[-121.97104,37.69804],[-121.97131,37.69785],[-121.97205,37.6981],[-121.97263,37.69858],[-121.97425,37.69891],[-121.97554,37.69873],[-121.97654,37.69964],[-121.97733,37.69994],[-121.97861,37.69971],[-121.97939,37.69927],[-121.97948,37.69902],[-121.98167,37.69964],[-121.98321,37.69992],[-121.98462,37.69994],[-121.9864,37.70021],[-121.98719,37.70063],[-121.98759,37.70051],[-121.98779,37.70932]],[[-121.85015,37.71101],[-121.85017,37.71117],[-121.85038,37.71106],[-121.85033,37.71091],[-121.85015,37.71101]],[[-121.8507,37.71006],[-121.85121,37.71012],[-121.85121,37.70955],[-121.85062,37.70961],[-121.8507,37.71006]],[[-121.85235,37.71062],[-121.85223,37.71081],[-121.85247,37.71065],[-121.85235,37.71062]],[[-121.85667,37.70953],[-121.85713,37.70951],[-121.85697,37.70929],[-121.85667,37.70953]],[[-121.8675,37.73654],[-121.86758,37.73679],[-121.86784,37.73666],[-121.86769,37.73641],[-121.8675,37.73654]],[[-121.86915,37.72228],[-121.86843,37.72216],[-121.86822,37.72283],[-121.86894,37.72297],[-121.86915,37.72228]],[[-121.86815,37.734],[-121.8684,37.73397],[-121.86845,37.73362],[-121.86812,37.73378],[-121.86815,37.734]],[[-121.8918,37.70784],[-121.8923,37.70792],[-121.89227,37.70754],[-121.89163,37.7075],[-121.89155,37.70789],[-121.8918,37.70784]],[[-121.89299,37.70663],[-121.89216,37.70662],[-121.89298,37.70691],[-121.89299,37.70663]],[[-121.89285,37.7152],[-121.89296,37.71568],[-121.89299,37.71422],[-121.89258,37.71419],[-121.89227,37.71434],[-121.89219,37.71487],[-121.89285,37.7152]],[[-121.89596,37.73273],[-121.89624,37.73277],[-121.89647,37.73262],[-121.89662,37.73199],[-121.89613,37.73168],[-121.89549,37.73158],[-121.89596,37.73273]],[[-121.89805,37.72505],[-121.89796,37.72491],[-121.89818,37.72453],[-121.89772,37.72431],[-121.89754,37.72486],[-121.89759,37.72548],[-121.8972,37.72582],[-121.89743,37.7258],[-121.89805,37.72505]],[[-121.91258,37.72016],[-121.91319,37.72014],[-121.9132,37.72003],[-121.91228,37.72007],[-121.91196,37.71991],[-121.91121,37.72006],[-121.91258,37.72016]],[[-121.92123,37.72449],[-121.92158,37.72474],[-121.92165,37.72452],[-121.92076,37.72346],[-121.92062,37.72349],[-121.92115,37.72407],[-121.92105,37.72441],[-121.92123,37.72449]],[[-121.92287,37.7262],[-121.92319,37.72646],[-121.92321,37.72623],[-121.92289,37.72585],[-121.92304,37.72558],[-121.9224,37.72557],[-121.92174,37.72478],[-121.92184,37.72512],[-121.92227,37.7255],[-121.92228,37.72581],[-121.92265,37.72592],[-121.92287,37.7262]],[[-121.92315,37.72548],[-121.92352,37.7252],[-121.9231,37.72538],[-121.92315,37.72548]],[[-121.96872,37.70716],[-121.96883,37.70727],[-121.96906,37.70715],[-121.96887,37.70705],[-121.96872,37.70716]],[[-121.96989,37.70755],[-121.96994,37.70757],[-121.96998,37.70757],[-121.97001,37.70756],[-121.97003,37.70753],[-121.97004,37.7075],[-121.96997,37.70743],[-121.96993,37.70743],[-121.96988,37.70749],[-121.96988,37.70754],[-121.96989,37.70755]],[[-121.97695,37.7064],[-121.97657,37.70609],[-121.9767,37.70645],[-121.97692,37.70651],[-121.97695,37.7064]],[[-121.97715,37.70699],[-121.97735,37.70684],[-121.97709,37.70674],[-121.97715,37.70699]]],"type":"Polygon"},"properties":{"type":"boundary"},"type":"Feature"}],"type":"FeatureCollection"}