{"features":[{"geometry":{"coordinates":[[[-117.99017,34.12307],[-117.98683,34.13177],[-117.98667,34.1321],[-117.98634,34.13209],[-117.98628,34.13952],[-117.98059,34.13962],[-117.9806,34.14044],[-117.97976,34.14045],[-117.97978,34.14329],[-117.97756,34.14333],[-117.97755,34.14362],[-117.96901,34.14367],[-117.96903,34.14608],[-117.96833,34.14636],[-117.96807,34.14717],[-117.96728,34.14782],[-117.96684,34.14742],[-117.96704,34.14617],[-117.96671,34.14561],[-117.9666,34.14369],[-117.95131,34.14369],[-117.95128,34.15075],[-117.95963,34.15206],[-117.95957,34.16517],[-117.94365,34.16524],[-117.94363,34.16689],[-117.94229,34.1669],[-117.94249,34.17949],[-117.95983,34.17961],[-117.95997,34.19419],[-117.9247,34.19432],[-117.92478,34.16534],[-117.94232,34.16525],[-117.94251,34.15424],[-117.93808,34.15422],[-117.93811,34.1523],[-117.93458,34.15369],[-117.93457,34.15411],[-117.93359,34.15323],[-117.93367,34.15305],[-117.93014,34.15102],[-117.92977,34.15099],[-117.93169,34.14895],[-117.9321,34.14828],[-117.93782,34.14265],[-117.93968,34.14058],[-117.9435,34.13849],[-117.94396,34.13845],[-117.94398,34.13819],[-117.94427,34.13796],[-117.94467,34.13823],[-117.94537,34.13758],[-117.94635,34.13796],[-117.94884,34.13592],[-117.9516,34.13592],[-117.95175,34.13612],[-117.96007,34.13606],[-117.96005,34.13227],[-117.96973,34.13218],[-117.96972,34.12908],[-117.97008,34.12877],[-117.97067,34.12874],[-117.972,34.1273],[-117.97476,34.12502],[-117.97875,34.12499],[-117.97868,34.12641],[-117.98202,34.12639],[-117.98202,34.1268],[-117.98437,34.12602],[-117.98534,34.12618],[-117.9858,34.12496],[-117.98632,34.12452],[-117.98632,34.12362],[-117.98693,34.12378],[-117.98787,34.12135],[-117.99052,34.12207],[-117.99017,34.12307]],[[-117.94506,34.15451],[-117.94537,34.15418],[-117.94584,34.15399],[-117.94518,34.15387],[-117.94497,34.15411],[-117.94493,34.15449],[-117.94506,34.15451]],[[-117.94755,34.15386],[-117.94761,34.15368],[-117.9474,34.15374],[-117.94755,34.15386]],[[-117.9488,34.15397],[-117.94893,34.15426],[-117.94938,34.15418],[-117.94918,34.15371],[-117.94878,34.15375],[-117.9488,34.15397]],[[-117.95199,34.15502],[-117.95252,34.15484],[-117.9523,34.15423],[-117.95125,34.15452],[-117.95162,34.15511],[-117.95199,34.15502]],[[-117.96719,34.14645],[-117.9675,34.14648],[-117.96753,34.14622],[-117.96723,34.14619],[-117.96719,34.14645]],[[-117.97186,34.13066],[-117.97195,34.13075],[-117.97199,34.13055],[-117.97186,34.13066]]],"type":"Polygon"},"properties":{"type":"boundary"},"type":"Feature"}],"type":"FeatureCollection"}