{"features":[{"geometry":{"coordinates":[[[-117.9902,34.12263],[-117.99055,34.12211],[-117.99055,34.12211],[-117.99029,34.12277],[-117.9902,34.12263]]],"type":"Polygon"},"properties":{"bbox":{"roads":{"area":240.24,"pct":45.57}},"city_same":1,"id":"hex:2179:17441"},"type":"Feature"},{"geometry":{"coordinates":[[[-117.9902,34.12263],[-117.98884,34.12264],[-117.98815,34.12167],[-117.98829,34.12146],[-117.99052,34.12207],[-117.99055,34.12211],[-117.9902,34.12263]]],"type":"Polygon"},"properties":{"bbox":{"roads":{"area":2010.43,"pct":11.72}},"city_same":1,"id":"hex:2180:17441"},"type":"Feature"},{"geometry":{"coordinates":[[[-117.98886,34.12459],[-117.98817,34.12362],[-117.98884,34.12264],[-117.9902,34.12263],[-117.99029,34.12277],[-117.99017,34.12307],[-117.98989,34.12384],[-117.98963,34.12451],[-117.9896,34.12459],[-117.98886,34.12459]]],"type":"Polygon"},"properties":{"bbox":{"roads":{"area":2370.18,"pct":8.16}},"city_same":1,"id":"hex:2180:17442"},"type":"Feature"},{"geometry":{"coordinates":[[[-117.9882,34.12557],[-117.98886,34.12459],[-117.9896,34.12459],[-117.98915,34.12571],[-117.98896,34.12618],[-117.98885,34.12649],[-117.9882,34.12557]]],"type":"Polygon"},"properties":{"bbox":{"roads":{"area":1354.91,"pct":10.09}},"city_same":1,"id":"hex:2180:17443"},"type":"Feature"},{"geometry":{"coordinates":[[[-117.98822,34.12753],[-117.98874,34.12676],[-117.98836,34.12773],[-117.98822,34.12753]]],"type":"Polygon"},"properties":{"bbox":{"roads":{"area":204.28,"pct":18.44}},"city_same":1,"id":"hex:2180:17444"},"type":"Feature"},{"geometry":{"coordinates":[[[-117.98815,34.12167],[-117.98774,34.12167],[-117.98787,34.12135],[-117.98829,34.12146],[-117.98815,34.12167]]],"type":"Polygon"},"properties":{"bbox":{"roads":{"area":225.41,"pct":18.91}},"city_same":1,"id":"hex:2181:17440"},"type":"Feature"},{"geometry":{"coordinates":[[[-117.98815,34.12167],[-117.98884,34.12264],[-117.98817,34.12362],[-117.98699,34.12363],[-117.98774,34.12167],[-117.98815,34.12167]]],"type":"Polygon"},"properties":{"bbox":{"roads":{"area":1173.56,"pct":5.17}},"city_same":1,"id":"hex:2181:17441"},"type":"Feature"},{"geometry":{"coordinates":[[[-117.98817,34.12362],[-117.98886,34.12459],[-117.9882,34.12557],[-117.98684,34.12558],[-117.98617,34.12464],[-117.98619,34.12463],[-117.98632,34.12452],[-117.98632,34.12436],[-117.98675,34.12373],[-117.98693,34.12378],[-117.98699,34.12363],[-117.98817,34.12362]]],"type":"Polygon"},"properties":{"bbox":{"roads":{"area":3425.8,"pct":8.53}},"city_same":1,"id":"hex:2181:17442"},"type":"Feature"},{"geometry":{"coordinates":[[[-117.98822,34.12753],[-117.98686,34.12754],[-117.98617,34.12657],[-117.98684,34.12558],[-117.9882,34.12557],[-117.98885,34.12649],[-117.98876,34.12671],[-117.98874,34.12676],[-117.98822,34.12753]]],"type":"Polygon"},"properties":{"bbox":{"roads":{"area":3278.31,"pct":8.09}},"city_same":1,"id":"hex:2181:17443"},"type":"Feature"},{"geometry":{"coordinates":[[[-117.98689,34.12949],[-117.9862,34.12852],[-117.98686,34.12754],[-117.98822,34.12753],[-117.98836,34.12773],[-117.98831,34.12787],[-117.98816,34.12828],[-117.98768,34.12948],[-117.98689,34.12949]]],"type":"Polygon"},"properties":{"bbox":{"roads":{"area":3010.61,"pct":9.95}},"city_same":1,"id":"hex:2181:17444"},"type":"Feature"},{"geometry":{"coordinates":[[[-117.98691,34.13144],[-117.98622,34.13047],[-117.98689,34.12949],[-117.98768,34.12948],[-117.98768,34.12948],[-117.98761,34.12967],[-117.98694,34.13144],[-117.98691,34.13144]]],"type":"Polygon"},"properties":{"bbox":{"roads":{"area":977.89,"pct":6.53},"sidewalks":{"area":172.28,"pct":1.15}},"city_same":1,"id":"hex:2181:17445"},"type":"Feature"},{"geometry":{"coordinates":[[[[-117.98624,34.13242],[-117.98634,34.13228],[-117.98633,34.13254],[-117.98624,34.13242]]],[[[-117.98691,34.13144],[-117.98694,34.13144],[-117.98686,34.13164],[-117.98683,34.13177],[-117.98675,34.13196],[-117.98667,34.1321],[-117.98647,34.13209],[-117.98691,34.13144]]]],"type":"MultiPolygon"},"properties":{"bbox":{"roads":{"area":427.84,"pct":42.99},"sidewalks":{"area":91.44,"pct":9.19}},"city_same":1,"id":"hex:2181:17446"},"type":"Feature"},{"geometry":{"coordinates":[[[-117.98684,34.12558],[-117.98617,34.12657],[-117.98482,34.12658],[-117.98443,34.12602],[-117.98471,34.126],[-117.98497,34.12604],[-117.98534,34.12618],[-117.9858,34.12496],[-117.98617,34.12464],[-117.98684,34.12558]]],"type":"Polygon"},"properties":{"bbox":{"roads":{"area":1911.04,"pct":8.77}},"city_same":1,"id":"hex:2182:17443"},"type":"Feature"},{"geometry":{"coordinates":[[[-117.98415,34.12756],[-117.98484,34.12853],[-117.9862,34.12852],[-117.98686,34.12754],[-117.98617,34.12657],[-117.98482,34.12658],[-117.98415,34.12756]]],"type":"Polygon"},"properties":{"bbox":{"roads":{"area":3072.96,"pct":7.57}},"city_same":1,"id":"hex:2182:17444"},"type":"Feature"},{"geometry":{"coordinates":[[[-117.98418,34.12951],[-117.98486,34.13048],[-117.98622,34.13047],[-117.98689,34.12949],[-117.9862,34.12852],[-117.98484,34.12853],[-117.98418,34.12951]]],"type":"Polygon"},"properties":{"bbox":{"roads":{"area":3015.37,"pct":7.43}},"city_same":1,"id":"hex:2182:17445"},"type":"Feature"},{"geometry":{"coordinates":[[[-117.98624,34.13242],[-117.98489,34.13243],[-117.9842,34.13146],[-117.98486,34.13048],[-117.98622,34.13047],[-117.98691,34.13144],[-117.98647,34.13209],[-117.98634,34.13209],[-117.98634,34.13228],[-117.98624,34.13242]]],"type":"Polygon"},"properties":{"bbox":{"roads":{"area":4531.21,"pct":11.19},"sidewalks":{"area":40.22,"pct":0.1}},"city_same":1,"id":"hex:2182:17446"},"type":"Feature"},{"geometry":{"coordinates":[[[-117.98627,34.13437],[-117.98491,34.13439],[-117.98422,34.13341],[-117.98489,34.13243],[-117.98624,34.13242],[-117.98633,34.13254],[-117.98631,34.13295],[-117.98631,34.13431],[-117.98627,34.13437]]],"type":"Polygon"},"properties":{"bbox":{"parking":{"area":15922.22,"pct":45.57},"roads":{"area":6763.07,"pct":19.36},"sidewalks":{"area":246.25,"pct":0.7}},"city_same":1,"id":"hex:2182:17447"},"type":"Feature"},{"geometry":{"coordinates":[[[-117.98629,34.13633],[-117.98493,34.13634],[-117.98424,34.13537],[-117.98491,34.13439],[-117.98627,34.13437],[-117.98631,34.13443],[-117.9863,34.13632],[-117.98629,34.13633]]],"type":"Polygon"},"properties":{"bbox":{"parking":{"area":6528.1,"pct":19.04},"roads":{"area":13220.49,"pct":38.56}},"city":{"parking":{"area":6528.1,"pct":19.04},"roads":{"area":5935.53,"pct":17.31}},"id":"hex:2182:17448"},"type":"Feature"},{"geometry":{"coordinates":[[[-117.98496,34.13829],[-117.98427,34.13732],[-117.98493,34.13634],[-117.98629,34.13633],[-117.9863,34.13634],[-117.98628,34.13828],[-117.98496,34.13829]]],"type":"Polygon"},"properties":{"bbox":{"roads":{"area":5423.25,"pct":16.13}},"city_same":1,"id":"hex:2182:17449"},"type":"Feature"},{"geometry":{"coordinates":[[[-117.98429,34.13927],[-117.98496,34.13829],[-117.98628,34.13828],[-117.98628,34.13952],[-117.98449,34.13955],[-117.98429,34.13927]]],"type":"Polygon"},"properties":{"bbox":{"roads":{"area":3234.1,"pct":14.82}},"city":{"roads":{"area":2034.15,"pct":9.32}},"id":"hex:2182:17450"},"type":"Feature"},{"geometry":{"coordinates":[[[-117.98482,34.12658],[-117.98415,34.12756],[-117.9828,34.12757],[-117.98224,34.12678],[-117.98233,34.12676],[-117.98437,34.12602],[-117.98443,34.12602],[-117.98482,34.12658]]],"type":"Polygon"},"properties":{"bbox":{"roads":{"area":2459.3,"pct":9.63}},"city_same":1,"id":"hex:2183:17443"},"type":"Feature"},{"geometry":{"coordinates":[[[-117.98213,34.12855],[-117.98282,34.12952],[-117.98418,34.12951],[-117.98484,34.12853],[-117.98415,34.12756],[-117.9828,34.12757],[-117.98213,34.12855]]],"type":"Polygon"},"properties":{"bbox":{"roads":{"area":3831.71,"pct":9.44}},"city_same":1,"id":"hex:2183:17444"},"type":"Feature"},{"geometry":{"coordinates":[[[-117.98215,34.1305],[-117.98284,34.13147],[-117.9842,34.13146],[-117.98486,34.13048],[-117.98418,34.12951],[-117.98282,34.12952],[-117.98215,34.1305]]],"type":"Polygon"},"properties":{"bbox":{"roads":{"area":2649.56,"pct":6.53}},"city_same":1,"id":"hex:2183:17445"},"type":"Feature"},{"geometry":{"coordinates":[[[-117.98218,34.13245],[-117.98287,34.13343],[-117.98422,34.13341],[-117.98489,34.13243],[-117.9842,34.13146],[-117.98284,34.13147],[-117.98218,34.13245]]],"type":"Polygon"},"properties":{"bbox":{"roads":{"area":6383.11,"pct":15.72}},"city_same":1,"id":"hex:2183:17446"},"type":"Feature"},{"geometry":{"coordinates":[[[-117.9822,34.13441],[-117.98289,34.13538],[-117.98424,34.13537],[-117.98491,34.13439],[-117.98422,34.13341],[-117.98287,34.13343],[-117.9822,34.13441]]],"type":"Polygon"},"properties":{"bbox":{"parking":{"area":1870.35,"pct":4.61},"roads":{"area":5688.77,"pct":14.01}},"city":{"parking":{"area":1870.35,"pct":4.61},"roads":{"area":3255.82,"pct":8.02}},"id":"hex:2183:17447"},"type":"Feature"},{"geometry":{"coordinates":[[[-117.98222,34.13636],[-117.98291,34.13733],[-117.98427,34.13732],[-117.98493,34.13634],[-117.98424,34.13537],[-117.98289,34.13538],[-117.98222,34.13636]]],"type":"Polygon"},"properties":{"bbox":{"roads":{"area":8750.42,"pct":21.56}},"city":{"roads":{"area":4677.4,"pct":11.52}},"id":"hex:2183:17448"},"type":"Feature"},{"geometry":{"coordinates":[[[-117.98224,34.13831],[-117.98293,34.13928],[-117.98429,34.13927],[-117.98496,34.13829],[-117.98427,34.13732],[-117.98291,34.13733],[-117.98224,34.13831]]],"type":"Polygon"},"properties":{"bbox":{"roads":{"area":6059.67,"pct":14.93}},"city_same":1,"id":"hex:2183:17449"},"type":"Feature"},{"geometry":{"coordinates":[[[-117.98293,34.13928],[-117.98429,34.13927],[-117.98449,34.13955],[-117.98273,34.13958],[-117.98293,34.13928]]],"type":"Polygon"},"properties":{"bbox":{"roads":{"area":1926.38,"pct":41.82}},"city":{"roads":{"area":618.4,"pct":13.43}},"id":"hex:2183:17450"},"type":"Feature"},{"geometry":{"coordinates":[[[-117.9828,34.12757],[-117.98213,34.12855],[-117.98078,34.12856],[-117.98009,34.12759],[-117.98075,34.12661],[-117.98202,34.1266],[-117.98202,34.1268],[-117.98219,34.12679],[-117.98224,34.12678],[-117.9828,34.12757]]],"type":"Polygon"},"properties":{"bbox":{"roads":{"area":4272.99,"pct":10.61}},"city_same":1,"id":"hex:2184:17444"},"type":"Feature"},{"geometry":{"coordinates":[[[-117.98011,34.12954],[-117.9808,34.13051],[-117.98215,34.1305],[-117.98282,34.12952],[-117.98213,34.12855],[-117.98078,34.12856],[-117.98011,34.12954]]],"type":"Polygon"},"properties":{"bbox":{"roads":{"area":4378.58,"pct":10.79}},"city_same":1,"id":"hex:2184:17445"},"type":"Feature"},{"geometry":{"coordinates":[[[-117.98013,34.1315],[-117.98082,34.13247],[-117.98218,34.13245],[-117.98284,34.13147],[-117.98215,34.1305],[-117.9808,34.13051],[-117.98013,34.1315]]],"type":"Polygon"},"properties":{"bbox":{"roads":{"area":5029.98,"pct":12.39}},"city_same":1,"id":"hex:2184:17446"},"type":"Feature"},{"geometry":{"coordinates":[[[-117.98015,34.13345],[-117.98084,34.13442],[-117.9822,34.13441],[-117.98287,34.13343],[-117.98218,34.13245],[-117.98082,34.13247],[-117.98015,34.13345]]],"type":"Polygon"},"properties":{"bbox":{"roads":{"area":3183.01,"pct":7.84}},"city_same":1,"id":"hex:2184:17447"},"type":"Feature"},{"geometry":{"coordinates":[[[-117.98018,34.1354],[-117.98087,34.13637],[-117.98222,34.13636],[-117.98289,34.13538],[-117.9822,34.13441],[-117.98084,34.13442],[-117.98018,34.1354]]],"type":"Polygon"},"properties":{"bbox":{"parking":{"area":1081.01,"pct":2.66},"roads":{"area":15492.49,"pct":38.16}},"city":{"parking":{"area":1081.01,"pct":2.66},"roads":{"area":3907.17,"pct":9.62}},"id":"hex:2184:17448"},"type":"Feature"},{"geometry":{"coordinates":[[[-117.9802,34.13735],[-117.98089,34.13832],[-117.98224,34.13831],[-117.98291,34.13733],[-117.98222,34.13636],[-117.98087,34.13637],[-117.9802,34.13735]]],"type":"Polygon"},"properties":{"bbox":{"parking":{"area":11614.84,"pct":28.61},"roads":{"area":6801.61,"pct":16.75}},"city_same":1,"id":"hex:2184:17449"},"type":"Feature"},{"geometry":{"coordinates":[[[-117.98022,34.1393],[-117.98089,34.13832],[-117.98224,34.13831],[-117.98293,34.13928],[-117.98273,34.13958],[-117.98059,34.13962],[-117.98059,34.13982],[-117.98022,34.1393]]],"type":"Polygon"},"properties":{"bbox":{"roads":{"area":6504.11,"pct":22.95}},"city":{"roads":{"area":4834.46,"pct":17.06}},"id":"hex:2184:17450"},"type":"Feature"},{"geometry":{"coordinates":[[[-117.98075,34.12661],[-117.98009,34.12759],[-117.97873,34.1276],[-117.97804,34.12663],[-117.97871,34.12565],[-117.97872,34.12565],[-117.97868,34.12641],[-117.98061,34.1264],[-117.98075,34.12661]]],"type":"Polygon"},"properties":{"bbox":{"roads":{"area":1809.99,"pct":6.52},"sidewalks":{"area":307.19,"pct":1.11}},"city_same":1,"id":"hex:2185:17443"},"type":"Feature"},{"geometry":{"coordinates":[[[-117.97807,34.12858],[-117.97875,34.12955],[-117.98011,34.12954],[-117.98078,34.12856],[-117.98009,34.12759],[-117.97873,34.1276],[-117.97807,34.12858]]],"type":"Polygon"},"properties":{"bbox":{"parking":{"area":11.42,"pct":0.03},"roads":{"area":4400.93,"pct":10.84},"sidewalks":{"area":389.28,"pct":0.96}},"city_same":1,"id":"hex:2185:17444"},"type":"Feature"},{"geometry":{"coordinates":[[[-117.97809,34.13054],[-117.97878,34.13151],[-117.98013,34.1315],[-117.9808,34.13051],[-117.98011,34.12954],[-117.97875,34.12955],[-117.97809,34.13054]]],"type":"Polygon"},"properties":{"bbox":{"parking":{"area":35.76,"pct":0.09},"roads":{"area":3538.77,"pct":8.72}},"city_same":1,"id":"hex:2185:17445"},"type":"Feature"},{"geometry":{"coordinates":[[[-117.97811,34.13249],[-117.9788,34.13346],[-117.98015,34.13345],[-117.98082,34.13247],[-117.98013,34.1315],[-117.97878,34.13151],[-117.97811,34.13249]]],"type":"Polygon"},"properties":{"bbox":{"roads":{"area":5856.92,"pct":14.43}},"city_same":1,"id":"hex:2185:17446"},"type":"Feature"},{"geometry":{"coordinates":[[[-117.97813,34.13444],[-117.97882,34.13541],[-117.98018,34.1354],[-117.98084,34.13442],[-117.98015,34.13345],[-117.9788,34.13346],[-117.97813,34.13444]]],"type":"Polygon"},"properties":{"bbox":{"roads":{"area":6512.75,"pct":16.04}},"city":{"roads":{"area":1558.58,"pct":3.84}},"id":"hex:2185:17447"},"type":"Feature"},{"geometry":{"coordinates":[[[-117.97815,34.13639],[-117.97884,34.13736],[-117.9802,34.13735],[-117.98087,34.13637],[-117.98018,34.1354],[-117.97882,34.13541],[-117.97815,34.13639]]],"type":"Polygon"},"properties":{"bbox":{"parking":{"area":20603.37,"pct":50.75},"roads":{"area":9478.75,"pct":23.35}},"city":{"parking":{"area":20603.37,"pct":50.75},"roads":{"area":6693.7,"pct":16.49}},"id":"hex:2185:17448"},"type":"Feature"},{"geometry":{"coordinates":[[[-117.97818,34.13834],[-117.97887,34.13932],[-117.98022,34.1393],[-117.98089,34.13832],[-117.9802,34.13735],[-117.97884,34.13736],[-117.97818,34.13834]]],"type":"Polygon"},"properties":{"bbox":{"parking":{"area":7875.41,"pct":19.4},"roads":{"area":4830.2,"pct":11.9}},"city_same":1,"id":"hex:2185:17449"},"type":"Feature"},{"geometry":{"coordinates":[[[-117.97889,34.14127],[-117.9782,34.1403],[-117.97887,34.13932],[-117.98022,34.1393],[-117.98059,34.13982],[-117.9806,34.14044],[-117.97976,34.14045],[-117.97977,34.14126],[-117.97889,34.14127]]],"type":"Polygon"},"properties":{"bbox":{"parking":{"area":10580.18,"pct":31.92},"roads":{"area":7354.32,"pct":22.19}},"city":{"parking":{"area":10580.18,"pct":31.92},"roads":{"area":4809.3,"pct":14.51}},"id":"hex:2185:17450"},"type":"Feature"},{"geometry":{"coordinates":[[[-117.97891,34.14322],[-117.97822,34.14225],[-117.97889,34.14127],[-117.97977,34.14126],[-117.97978,34.14321],[-117.97891,34.14322]]],"type":"Polygon"},"properties":{"bbox":{"roads":{"area":1746,"pct":7.22}},"city_same":1,"id":"hex:2185:17451"},"type":"Feature"},{"geometry":{"coordinates":[[[-117.97891,34.14322],[-117.97978,34.14321],[-117.97978,34.14329],[-117.97885,34.14331],[-117.97891,34.14322]]],"type":"Polygon"},"properties":{"bbox":{"roads":{"area":395.85,"pct":52.04}},"city_same":1,"id":"hex:2185:17452"},"type":"Feature"},{"geometry":{"coordinates":[[[-117.97871,34.12565],[-117.97804,34.12663],[-117.97669,34.12664],[-117.976,34.12567],[-117.97645,34.12501],[-117.97825,34.125],[-117.97871,34.12565]]],"type":"Polygon"},"properties":{"bbox":{"roads":{"area":6129.58,"pct":17.29},"sidewalks":{"area":376.76,"pct":1.06}},"city_same":1,"id":"hex:2186:17443"},"type":"Feature"},{"geometry":{"coordinates":[[[-117.97602,34.12762],[-117.97671,34.12859],[-117.97807,34.12858],[-117.97873,34.1276],[-117.97804,34.12663],[-117.97669,34.12664],[-117.97602,34.12762]]],"type":"Polygon"},"properties":{"bbox":{"roads":{"area":6450,"pct":15.89},"sidewalks":{"area":434.93,"pct":1.07}},"city_same":1,"id":"hex:2186:17444"},"type":"Feature"},{"geometry":{"coordinates":[[[-117.97604,34.12958],[-117.97673,34.13055],[-117.97809,34.13054],[-117.97875,34.12955],[-117.97807,34.12858],[-117.97671,34.12859],[-117.97604,34.12958]]],"type":"Polygon"},"properties":{"bbox":{"parking":{"area":1002.49,"pct":2.47},"roads":{"area":6244.58,"pct":15.38},"sidewalks":{"area":68.26,"pct":0.17}},"city_same":1,"id":"hex:2186:17445"},"type":"Feature"},{"geometry":{"coordinates":[[[-117.97607,34.13153],[-117.97675,34.1325],[-117.97811,34.13249],[-117.97878,34.13151],[-117.97809,34.13054],[-117.97673,34.13055],[-117.97607,34.13153]]],"type":"Polygon"},"properties":{"bbox":{"parking":{"area":702.34,"pct":1.73},"roads":{"area":8388.19,"pct":20.66}},"city_same":1,"id":"hex:2186:17446"},"type":"Feature"},{"geometry":{"coordinates":[[[-117.97609,34.13348],[-117.97678,34.13445],[-117.97813,34.13444],[-117.9788,34.13346],[-117.97811,34.13249],[-117.97675,34.1325],[-117.97609,34.13348]]],"type":"Polygon"},"properties":{"bbox":{"roads":{"area":3988.9,"pct":9.83}},"city_same":1,"id":"hex:2186:17447"},"type":"Feature"},{"geometry":{"coordinates":[[[-117.97611,34.13543],[-117.9768,34.1364],[-117.97815,34.13639],[-117.97882,34.13541],[-117.97813,34.13444],[-117.97678,34.13445],[-117.97611,34.13543]]],"type":"Polygon"},"properties":{"bbox":{"roads":{"area":18003.01,"pct":44.35}},"city":{"roads":{"area":3890.72,"pct":9.58}},"id":"hex:2186:17448"},"type":"Feature"},{"geometry":{"coordinates":[[[-117.97613,34.13738],[-117.97682,34.13836],[-117.97818,34.13834],[-117.97884,34.13736],[-117.97815,34.13639],[-117.9768,34.1364],[-117.97613,34.13738]]],"type":"Polygon"},"properties":{"bbox":{"parking":{"area":8882.13,"pct":21.88},"roads":{"area":6085.3,"pct":14.99}},"city":{"parking":{"area":8882.13,"pct":21.88},"roads":{"area":3771.57,"pct":9.29}},"id":"hex:2186:17449"},"type":"Feature"},{"geometry":{"coordinates":[[[-117.97616,34.13934],[-117.97684,34.14031],[-117.9782,34.1403],[-117.97887,34.13932],[-117.97818,34.13834],[-117.97682,34.13836],[-117.97616,34.13934]]],"type":"Polygon"},"properties":{"bbox":{"parking":{"area":617.58,"pct":1.52},"roads":{"area":10404.12,"pct":25.63}},"city":{"parking":{"area":617.58,"pct":1.52},"roads":{"area":5313.37,"pct":13.09}},"id":"hex:2186:17450"},"type":"Feature"},{"geometry":{"coordinates":[[[-117.97618,34.14129],[-117.97687,34.14226],[-117.97822,34.14225],[-117.97889,34.14127],[-117.9782,34.1403],[-117.97684,34.14031],[-117.97618,34.14129]]],"type":"Polygon"},"properties":{"bbox":{"parking":{"area":1254.36,"pct":3.09},"roads":{"area":6832.33,"pct":16.83}},"city_same":1,"id":"hex:2186:17451"},"type":"Feature"},{"geometry":{"coordinates":[[[-117.9762,34.14324],[-117.97687,34.14226],[-117.97822,34.14225],[-117.97891,34.14322],[-117.97885,34.14331],[-117.97756,34.14333],[-117.97755,34.14362],[-117.97647,34.14362],[-117.9762,34.14324]]],"type":"Polygon"},"properties":{"bbox":{"roads":{"area":2808.15,"pct":10.67}},"city_same":1,"id":"hex:2186:17452"},"type":"Feature"},{"geometry":{"coordinates":[[[-117.976,34.12567],[-117.97464,34.12568],[-117.97439,34.12533],[-117.97476,34.12502],[-117.97645,34.12501],[-117.976,34.12567]]],"type":"Polygon"},"properties":{"bbox":{"roads":{"area":862.55,"pct":7.63},"sidewalks":{"area":244.13,"pct":2.16}},"city_same":1,"id":"hex:2187:17442"},"type":"Feature"},{"geometry":{"coordinates":[[[-117.97398,34.12666],[-117.97467,34.12763],[-117.97602,34.12762],[-117.97669,34.12664],[-117.976,34.12567],[-117.97464,34.12568],[-117.97398,34.12666]]],"type":"Polygon"},"properties":{"bbox":{"parking":{"area":196.72,"pct":0.48},"roads":{"area":5105.22,"pct":12.58},"sidewalks":{"area":175.8,"pct":0.43}},"city_same":1,"id":"hex:2187:17443"},"type":"Feature"},{"geometry":{"coordinates":[[[-117.974,34.12862],[-117.97469,34.12959],[-117.97604,34.12958],[-117.97671,34.12859],[-117.97602,34.12762],[-117.97467,34.12763],[-117.974,34.12862]]],"type":"Polygon"},"properties":{"bbox":{"roads":{"area":4448.86,"pct":10.96},"sidewalks":{"area":344.71,"pct":0.85}},"city_same":1,"id":"hex:2187:17444"},"type":"Feature"},{"geometry":{"coordinates":[[[-117.97402,34.13057],[-117.97471,34.13154],[-117.97607,34.13153],[-117.97673,34.13055],[-117.97604,34.12958],[-117.97469,34.12959],[-117.97402,34.13057]]],"type":"Polygon"},"properties":{"bbox":{"parking":{"area":5343.31,"pct":13.16},"roads":{"area":5272.48,"pct":12.99},"sidewalks":{"area":158.26,"pct":0.39}},"city_same":1,"id":"hex:2187:17445"},"type":"Feature"},{"geometry":{"coordinates":[[[-117.97404,34.13252],[-117.97473,34.13349],[-117.97609,34.13348],[-117.97675,34.1325],[-117.97607,34.13153],[-117.97471,34.13154],[-117.97404,34.13252]]],"type":"Polygon"},"properties":{"bbox":{"roads":{"area":5742.74,"pct":14.15},"sidewalks":{"area":6.46,"pct":0.02}},"city_same":1,"id":"hex:2187:17446"},"type":"Feature"},{"geometry":{"coordinates":[[[-117.97407,34.13447],[-117.97475,34.13544],[-117.97611,34.13543],[-117.97678,34.13445],[-117.97609,34.13348],[-117.97473,34.13349],[-117.97407,34.13447]]],"type":"Polygon"},"properties":{"bbox":{"roads":{"area":7208.09,"pct":17.76}},"city":{"roads":{"area":3069.72,"pct":7.56}},"id":"hex:2187:17447"},"type":"Feature"},{"geometry":{"coordinates":[[[-117.97409,34.13642],[-117.97478,34.1374],[-117.97613,34.13738],[-117.9768,34.1364],[-117.97611,34.13543],[-117.97475,34.13544],[-117.97409,34.13642]]],"type":"Polygon"},"properties":{"bbox":{"parking":{"area":953.04,"pct":2.35},"roads":{"area":6958.41,"pct":17.14}},"city":{"parking":{"area":953.04,"pct":2.35},"roads":{"area":3495.48,"pct":8.61}},"id":"hex:2187:17448"},"type":"Feature"},{"geometry":{"coordinates":[[[-117.97411,34.13838],[-117.9748,34.13935],[-117.97616,34.13934],[-117.97682,34.13836],[-117.97613,34.13738],[-117.97478,34.1374],[-117.97411,34.13838]]],"type":"Polygon"},"properties":{"bbox":{"roads":{"area":3933.91,"pct":9.69}},"city_same":1,"id":"hex:2187:17449"},"type":"Feature"},{"geometry":{"coordinates":[[[-117.97413,34.14033],[-117.97482,34.1413],[-117.97618,34.14129],[-117.97684,34.14031],[-117.97616,34.13934],[-117.9748,34.13935],[-117.97413,34.14033]]],"type":"Polygon"},"properties":{"bbox":{"roads":{"area":7232.54,"pct":17.82}},"city":{"roads":{"area":4922.85,"pct":12.13}},"id":"hex:2187:17450"},"type":"Feature"},{"geometry":{"coordinates":[[[-117.97416,34.14228],[-117.97484,34.14325],[-117.9762,34.14324],[-117.97687,34.14226],[-117.97618,34.14129],[-117.97482,34.1413],[-117.97416,34.14228]]],"type":"Polygon"},"properties":{"bbox":{"roads":{"area":4853.52,"pct":11.96}},"city_same":1,"id":"hex:2187:17451"},"type":"Feature"},{"geometry":{"coordinates":[[[-117.97484,34.14325],[-117.9762,34.14324],[-117.97647,34.14362],[-117.97537,34.14362],[-117.97459,34.14363],[-117.97484,34.14325]]],"type":"Polygon"},"properties":{"bbox":{"roads":{"area":687.55,"pct":11.16}},"city_same":1,"id":"hex:2187:17452"},"type":"Feature"},{"geometry":{"coordinates":[[[-117.97464,34.12568],[-117.97398,34.12666],[-117.97276,34.12667],[-117.97439,34.12533],[-117.97464,34.12568]]],"type":"Polygon"},"properties":{"bbox":{"roads":{"area":1271.1,"pct":11.83},"sidewalks":{"area":139.23,"pct":1.3}},"city_same":1,"id":"hex:2188:17443"},"type":"Feature"},{"geometry":{"coordinates":[[[-117.97398,34.12666],[-117.97467,34.12763],[-117.974,34.12862],[-117.97264,34.12863],[-117.97195,34.12766],[-117.97244,34.12694],[-117.97276,34.12667],[-117.97398,34.12666]]],"type":"Polygon"},"properties":{"bbox":{"parking":{"area":10308.14,"pct":25.51},"roads":{"area":6545.66,"pct":16.2},"sidewalks":{"area":1042.59,"pct":2.58}},"city_same":1,"id":"hex:2188:17444"},"type":"Feature"},{"geometry":{"coordinates":[[[-117.97198,34.12961],[-117.97267,34.13058],[-117.97402,34.13057],[-117.97469,34.12959],[-117.974,34.12862],[-117.97264,34.12863],[-117.97198,34.12961]]],"type":"Polygon"},"properties":{"bbox":{"roads":{"area":3412.21,"pct":8.41},"sidewalks":{"area":478.41,"pct":1.18}},"city_same":1,"id":"hex:2188:17445"},"type":"Feature"},{"geometry":{"coordinates":[[[-117.972,34.13156],[-117.97269,34.13253],[-117.97404,34.13252],[-117.97471,34.13154],[-117.97402,34.13057],[-117.97267,34.13058],[-117.972,34.13156]]],"type":"Polygon"},"properties":{"bbox":{"roads":{"area":4097.73,"pct":10.09},"sidewalks":{"area":721.62,"pct":1.78}},"city_same":1,"id":"hex:2188:17446"},"type":"Feature"},{"geometry":{"coordinates":[[[-117.97202,34.13351],[-117.97271,34.13448],[-117.97407,34.13447],[-117.97473,34.13349],[-117.97404,34.13252],[-117.97269,34.13253],[-117.97202,34.13351]]],"type":"Polygon"},"properties":{"bbox":{"roads":{"area":2771.7,"pct":6.83}},"city_same":1,"id":"hex:2188:17447"},"type":"Feature"},{"geometry":{"coordinates":[[[-117.97204,34.13546],[-117.97273,34.13644],[-117.97409,34.13642],[-117.97475,34.13544],[-117.97407,34.13447],[-117.97271,34.13448],[-117.97204,34.13546]]],"type":"Polygon"},"properties":{"bbox":{"parking":{"area":878.63,"pct":2.16},"roads":{"area":14312.61,"pct":35.26}},"city":{"parking":{"area":878.63,"pct":2.16},"roads":{"area":4362.84,"pct":10.75}},"id":"hex:2188:17448"},"type":"Feature"},{"geometry":{"coordinates":[[[-117.97207,34.13742],[-117.97276,34.13839],[-117.97411,34.13838],[-117.97478,34.1374],[-117.97409,34.13642],[-117.97273,34.13644],[-117.97207,34.13742]]],"type":"Polygon"},"properties":{"bbox":{"roads":{"area":1576.2,"pct":3.88}},"city_same":1,"id":"hex:2188:17449"},"type":"Feature"},{"geometry":{"coordinates":[[[-117.97209,34.13937],[-117.97278,34.14034],[-117.97413,34.14033],[-117.9748,34.13935],[-117.97411,34.13838],[-117.97276,34.13839],[-117.97209,34.13937]]],"type":"Polygon"},"properties":{"bbox":{"roads":{"area":7969.06,"pct":19.63}},"city":{"roads":{"area":4539.89,"pct":11.18}},"id":"hex:2188:17450"},"type":"Feature"},{"geometry":{"coordinates":[[[-117.97211,34.14132],[-117.9728,34.14229],[-117.97416,34.14228],[-117.97482,34.1413],[-117.97413,34.14033],[-117.97278,34.14034],[-117.97211,34.14132]]],"type":"Polygon"},"properties":{"bbox":{"roads":{"area":5133.13,"pct":12.64}},"city_same":1,"id":"hex:2188:17451"},"type":"Feature"},{"geometry":{"coordinates":[[[-117.97213,34.14327],[-117.9728,34.14229],[-117.97416,34.14228],[-117.97484,34.14325],[-117.97459,34.14363],[-117.97239,34.14364],[-117.97213,34.14327]]],"type":"Polygon"},"properties":{"bbox":{"roads":{"area":3423.62,"pct":11.57}},"city_same":1,"id":"hex:2188:17452"},"type":"Feature"},{"geometry":{"coordinates":[[[-117.97195,34.12766],[-117.97167,34.12766],[-117.972,34.1273],[-117.97244,34.12694],[-117.97195,34.12766]]],"type":"Polygon"},"properties":{"bbox":{"roads":{"area":289.02,"pct":23.67}},"city_same":1,"id":"hex:2189:17443"},"type":"Feature"},{"geometry":{"coordinates":[[[-117.97195,34.12766],[-117.97264,34.12863],[-117.97198,34.12961],[-117.97062,34.12962],[-117.97004,34.1288],[-117.97008,34.12877],[-117.97067,34.12874],[-117.97167,34.12766],[-117.97195,34.12766]]],"type":"Polygon"},"properties":{"bbox":{"roads":{"area":2513.71,"pct":8.32},"sidewalks":{"area":404.98,"pct":1.34}},"city_same":1,"id":"hex:2189:17444"},"type":"Feature"},{"geometry":{"coordinates":[[[-117.97062,34.12962],[-117.97198,34.12961],[-117.97267,34.13058],[-117.972,34.13156],[-117.97064,34.13157],[-117.96995,34.1306],[-117.97062,34.12962]],[[-117.9719,34.13068],[-117.9719,34.1307],[-117.97192,34.13071],[-117.97193,34.13074],[-117.97195,34.13075],[-117.97197,34.13073],[-117.97195,34.13071],[-117.97195,34.13063],[-117.97198,34.1306],[-117.97199,34.13055],[-117.97197,34.13055],[-117.97193,34.13058],[-117.97191,34.13058],[-117.97186,34.13062],[-117.97186,34.13066],[-117.9719,34.13068]]],"type":"Polygon"},"properties":{"bbox":{"roads":{"area":3855.15,"pct":9.53},"sidewalks":{"area":761.92,"pct":1.88}},"city_same":1,"id":"hex:2189:17445"},"type":"Feature"},{"geometry":{"coordinates":[[[-117.96998,34.13255],[-117.97067,34.13352],[-117.97202,34.13351],[-117.97269,34.13253],[-117.972,34.13156],[-117.97064,34.13157],[-117.96998,34.13255]]],"type":"Polygon"},"properties":{"bbox":{"roads":{"area":5779.03,"pct":14.24},"sidewalks":{"area":390.65,"pct":0.96}},"city_same":1,"id":"hex:2189:17446"},"type":"Feature"},{"geometry":{"coordinates":[[[-117.97,34.1345],[-117.97069,34.13548],[-117.97204,34.13546],[-117.97271,34.13448],[-117.97202,34.13351],[-117.97067,34.13352],[-117.97,34.1345]]],"type":"Polygon"},"properties":{"bbox":{"roads":{"area":5557.25,"pct":13.69}},"city":{"roads":{"area":3755.71,"pct":9.25}},"id":"hex:2189:17447"},"type":"Feature"},{"geometry":{"coordinates":[[[-117.97002,34.13646],[-117.97071,34.13743],[-117.97207,34.13742],[-117.97273,34.13644],[-117.97204,34.13546],[-117.97069,34.13548],[-117.97002,34.13646]]],"type":"Polygon"},"properties":{"bbox":{"roads":{"area":5401.79,"pct":13.31}},"city":{"roads":{"area":2037.42,"pct":5.02}},"id":"hex:2189:17448"},"type":"Feature"},{"geometry":{"coordinates":[[[-117.97004,34.13841],[-117.97073,34.13938],[-117.97209,34.13937],[-117.97276,34.13839],[-117.97207,34.13742],[-117.97071,34.13743],[-117.97004,34.13841]]],"type":"Polygon"},"properties":{"bbox":{"roads":{"area":1560.75,"pct":3.84}},"city_same":1,"id":"hex:2189:17449"},"type":"Feature"},{"geometry":{"coordinates":[[[-117.97007,34.14036],[-117.97076,34.14133],[-117.97211,34.14132],[-117.97278,34.14034],[-117.97209,34.13937],[-117.97073,34.13938],[-117.97007,34.14036]]],"type":"Polygon"},"properties":{"bbox":{"roads":{"area":6189.55,"pct":15.25}},"city":{"roads":{"area":3715.87,"pct":9.15}},"id":"hex:2189:17450"},"type":"Feature"},{"geometry":{"coordinates":[[[-117.97009,34.14231],[-117.97078,34.14328],[-117.97213,34.14327],[-117.9728,34.14229],[-117.97211,34.14132],[-117.97076,34.14133],[-117.97009,34.14231]]],"type":"Polygon"},"properties":{"bbox":{"roads":{"area":3053.92,"pct":7.52}},"city_same":1,"id":"hex:2189:17451"},"type":"Feature"},{"geometry":{"coordinates":[[[-117.97078,34.14328],[-117.97213,34.14327],[-117.97239,34.14364],[-117.97052,34.14366],[-117.97078,34.14328]]],"type":"Polygon"},"properties":{"bbox":{"roads":{"area":713.45,"pct":11.67}},"city_same":1,"id":"hex:2189:17452"},"type":"Feature"},{"geometry":{"coordinates":[[[-117.97062,34.12962],[-117.96995,34.1306],[-117.96972,34.1306],[-117.96972,34.12908],[-117.97004,34.1288],[-117.97062,34.12962]]],"type":"Polygon"},"properties":{"bbox":{"roads":{"area":600.1,"pct":5.78},"sidewalks":{"area":230.67,"pct":2.22}},"city_same":1,"id":"hex:2190:17445"},"type":"Feature"},{"geometry":{"coordinates":[[[-117.96995,34.1306],[-117.97064,34.13157],[-117.96998,34.13255],[-117.96862,34.13256],[-117.96835,34.13218],[-117.96973,34.13218],[-117.96972,34.1306],[-117.96995,34.1306]]],"type":"Polygon"},"properties":{"bbox":{"roads":{"area":3168.14,"pct":19.4},"sidewalks":{"area":317.18,"pct":1.94}},"city_same":1,"id":"hex:2190:17446"},"type":"Feature"},{"geometry":{"coordinates":[[[-117.96795,34.13354],[-117.96864,34.13452],[-117.97,34.1345],[-117.97067,34.13352],[-117.96998,34.13255],[-117.96862,34.13256],[-117.96795,34.13354]]],"type":"Polygon"},"properties":{"bbox":{"roads":{"area":1991.08,"pct":4.9}},"city_same":1,"id":"hex:2190:17447"},"type":"Feature"},{"geometry":{"coordinates":[[[-117.96798,34.1355],[-117.96867,34.13647],[-117.97002,34.13646],[-117.97069,34.13548],[-117.97,34.1345],[-117.96864,34.13452],[-117.96798,34.1355]]],"type":"Polygon"},"properties":{"bbox":{"parking":{"area":1051.65,"pct":2.59},"roads":{"area":12663.81,"pct":31.2}},"city":{"parking":{"area":1051.65,"pct":2.59},"roads":{"area":3884.21,"pct":9.57}},"id":"hex:2190:17448"},"type":"Feature"},{"geometry":{"coordinates":[[[-117.968,34.13745],[-117.96869,34.13842],[-117.97004,34.13841],[-117.97071,34.13743],[-117.97002,34.13646],[-117.96867,34.13647],[-117.968,34.13745]]],"type":"Polygon"},"properties":{"bbox":{"parking":{"area":5501.71,"pct":13.55},"roads":{"area":3723.86,"pct":9.17}},"city_same":1,"id":"hex:2190:17449"},"type":"Feature"},{"geometry":{"coordinates":[[[-117.96802,34.1394],[-117.96871,34.14037],[-117.97007,34.14036],[-117.97073,34.13938],[-117.97004,34.13841],[-117.96869,34.13842],[-117.96802,34.1394]]],"type":"Polygon"},"properties":{"bbox":{"roads":{"area":7346.88,"pct":18.1}},"city":{"roads":{"area":4003.17,"pct":9.86}},"id":"hex:2190:17450"},"type":"Feature"},{"geometry":{"coordinates":[[[-117.96804,34.14135],[-117.96873,34.14232],[-117.97009,34.14231],[-117.97076,34.14133],[-117.97007,34.14036],[-117.96871,34.14037],[-117.96804,34.14135]]],"type":"Polygon"},"properties":{"bbox":{"roads":{"area":2956.89,"pct":7.28}},"city_same":1,"id":"hex:2190:17451"},"type":"Feature"},{"geometry":{"coordinates":[[[-117.96876,34.14428],[-117.96807,34.14331],[-117.96873,34.14232],[-117.97009,34.14231],[-117.97078,34.14328],[-117.97052,34.14366],[-117.96901,34.14367],[-117.969,34.14427],[-117.96876,34.14428]]],"type":"Polygon"},"properties":{"bbox":{"roads":{"area":2684.85,"pct":8.27}},"city_same":1,"id":"hex:2190:17452"},"type":"Feature"},{"geometry":{"coordinates":[[[-117.96809,34.14526],[-117.96876,34.14428],[-117.969,34.14427],[-117.96898,34.14524],[-117.96903,34.14607],[-117.96903,34.14608],[-117.96875,34.14619],[-117.96809,34.14526]]],"type":"Polygon"},"properties":{"bbox":{"parking":{"area":315.54,"pct":2.82},"roads":{"area":681.1,"pct":6.08}},"city_same":1,"id":"hex:2190:17453"},"type":"Feature"},{"geometry":{"coordinates":[[[-117.96862,34.13256],[-117.96795,34.13354],[-117.9666,34.13355],[-117.96591,34.13258],[-117.96618,34.13218],[-117.96835,34.13218],[-117.96862,34.13256]]],"type":"Polygon"},"properties":{"bbox":{"parking":{"area":4533.66,"pct":15.07},"roads":{"area":6077.9,"pct":20.2},"sidewalks":{"area":46.8,"pct":0.16}},"city_same":1,"id":"hex:2191:17446"},"type":"Feature"},{"geometry":{"coordinates":[[[-117.96593,34.13454],[-117.96662,34.13551],[-117.96798,34.1355],[-117.96864,34.13452],[-117.96795,34.13354],[-117.9666,34.13355],[-117.96593,34.13454]]],"type":"Polygon"},"properties":{"bbox":{"parking":{"area":6911.19,"pct":17.02},"roads":{"area":9634.47,"pct":23.73}},"city":{"parking":{"area":6911.19,"pct":17.02},"roads":{"area":7958.88,"pct":19.61}},"id":"hex:2191:17447"},"type":"Feature"},{"geometry":{"coordinates":[[[-117.96595,34.13649],[-117.96664,34.13746],[-117.968,34.13745],[-117.96867,34.13647],[-117.96798,34.1355],[-117.96662,34.13551],[-117.96595,34.13649]]],"type":"Polygon"},"properties":{"bbox":{"parking":{"area":45.72,"pct":0.11},"roads":{"area":7900.69,"pct":19.46}},"city":{"parking":{"area":45.72,"pct":0.11},"roads":{"area":4710.22,"pct":11.6}},"id":"hex:2191:17448"},"type":"Feature"},{"geometry":{"coordinates":[[[-117.96598,34.13844],[-117.96667,34.13941],[-117.96802,34.1394],[-117.96869,34.13842],[-117.968,34.13745],[-117.96664,34.13746],[-117.96598,34.13844]]],"type":"Polygon"},"properties":{"bbox":{"parking":{"area":0.5,"pct":0},"roads":{"area":5288.74,"pct":13.03}},"city_same":1,"id":"hex:2191:17449"},"type":"Feature"},{"geometry":{"coordinates":[[[-117.966,34.14039],[-117.96669,34.14136],[-117.96804,34.14135],[-117.96871,34.14037],[-117.96802,34.1394],[-117.96667,34.13941],[-117.966,34.14039]]],"type":"Polygon"},"properties":{"bbox":{"roads":{"area":7454.56,"pct":18.36}},"city":{"roads":{"area":4730.78,"pct":11.65}},"id":"hex:2191:17450"},"type":"Feature"},{"geometry":{"coordinates":[[[-117.96602,34.14235],[-117.96671,34.14332],[-117.96807,34.14331],[-117.96873,34.14232],[-117.96804,34.14135],[-117.96669,34.14136],[-117.96602,34.14235]]],"type":"Polygon"},"properties":{"bbox":{"roads":{"area":5130.32,"pct":12.64}},"city_same":1,"id":"hex:2191:17451"},"type":"Feature"},{"geometry":{"coordinates":[[[-117.96671,34.14332],[-117.96807,34.14331],[-117.96876,34.14428],[-117.96809,34.14526],[-117.96673,34.14527],[-117.96663,34.14512],[-117.96659,34.14492],[-117.9666,34.14369],[-117.96645,34.1437],[-117.96671,34.14332]]],"type":"Polygon"},"properties":{"bbox":{"parking":{"area":1268.48,"pct":3.5},"roads":{"area":4341.17,"pct":11.99}},"city_same":1,"id":"hex:2191:17452"},"type":"Feature"},{"geometry":{"coordinates":[[[-117.96688,34.14722],[-117.96704,34.14617],[-117.96702,34.14608],[-117.96695,34.14599],[-117.96679,34.14578],[-117.96671,34.14561],[-117.96668,34.14544],[-117.96667,34.14536],[-117.96673,34.14527],[-117.96809,34.14526],[-117.96875,34.14619],[-117.96833,34.14636],[-117.96807,34.14717],[-117.96802,34.14721],[-117.96688,34.14722]],[[-117.9675,34.14648],[-117.96753,34.14622],[-117.96723,34.14619],[-117.96719,34.14645],[-117.9675,34.14648]]],"type":"Polygon"},"properties":{"bbox":{"parking":{"area":172.77,"pct":0.62},"roads":{"area":2528.5,"pct":9.05}},"city_same":1,"id":"hex:2191:17453"},"type":"Feature"},{"geometry":{"coordinates":[[[-117.96802,34.14721],[-117.96728,34.14782],[-117.96729,34.14778],[-117.96729,34.14774],[-117.96728,34.14771],[-117.96725,34.14768],[-117.96684,34.14742],[-117.96688,34.14722],[-117.96802,34.14721]]],"type":"Polygon"},"properties":{"bbox":{"roads":{"area":319.22,"pct":8.5}},"city_same":1,"id":"hex:2191:17454"},"type":"Feature"},{"geometry":{"coordinates":[[[-117.96591,34.13258],[-117.96456,34.13259],[-117.96427,34.13219],[-117.96478,34.13218],[-117.96618,34.13218],[-117.96591,34.13258]]],"type":"Polygon"},"properties":{"bbox":{"roads":{"area":298.29,"pct":4.35}},"city_same":1,"id":"hex:2192:17446"},"type":"Feature"},{"geometry":{"coordinates":[[[-117.96389,34.13358],[-117.96458,34.13455],[-117.96593,34.13454],[-117.9666,34.13355],[-117.96591,34.13258],[-117.96456,34.13259],[-117.96389,34.13358]]],"type":"Polygon"},"properties":{"bbox":{"roads":{"area":4111.74,"pct":10.13}},"city_same":1,"id":"hex:2192:17447"},"type":"Feature"},{"geometry":{"coordinates":[[[-117.96391,34.13553],[-117.9646,34.1365],[-117.96595,34.13649],[-117.96662,34.13551],[-117.96593,34.13454],[-117.96458,34.13455],[-117.96391,34.13553]]],"type":"Polygon"},"properties":{"bbox":{"roads":{"area":13915.45,"pct":34.28}},"city":{"roads":{"area":4098.07,"pct":10.1}},"id":"hex:2192:17448"},"type":"Feature"},{"geometry":{"coordinates":[[[-117.96393,34.13748],[-117.96462,34.13845],[-117.96598,34.13844],[-117.96664,34.13746],[-117.96595,34.13649],[-117.9646,34.1365],[-117.96393,34.13748]]],"type":"Polygon"},"properties":{"bbox":{"roads":{"area":5069.94,"pct":12.49}},"city_same":1,"id":"hex:2192:17449"},"type":"Feature"},{"geometry":{"coordinates":[[[-117.96395,34.13943],[-117.96464,34.1404],[-117.966,34.14039],[-117.96667,34.13941],[-117.96598,34.13844],[-117.96462,34.13845],[-117.96395,34.13943]]],"type":"Polygon"},"properties":{"bbox":{"roads":{"area":7692.25,"pct":18.95}},"city":{"roads":{"area":4321.45,"pct":10.65}},"id":"hex:2192:17450"},"type":"Feature"},{"geometry":{"coordinates":[[[-117.96398,34.14139],[-117.96467,34.14236],[-117.96602,34.14235],[-117.96669,34.14136],[-117.966,34.14039],[-117.96464,34.1404],[-117.96398,34.14139]]],"type":"Polygon"},"properties":{"bbox":{"roads":{"area":3663.89,"pct":9.03}},"city_same":1,"id":"hex:2192:17451"},"type":"Feature"},{"geometry":{"coordinates":[[[-117.964,34.14334],[-117.96467,34.14236],[-117.96602,34.14235],[-117.96671,34.14332],[-117.96645,34.1437],[-117.96441,34.14371],[-117.96441,34.14367],[-117.96423,34.14367],[-117.964,34.14334]]],"type":"Polygon"},"properties":{"bbox":{"roads":{"area":2867.27,"pct":9.67}},"city_same":1,"id":"hex:2192:17452"},"type":"Feature"},{"geometry":{"coordinates":[[[-117.96673,34.14527],[-117.96667,34.14536],[-117.96663,34.14512],[-117.96673,34.14527]]],"type":"Polygon"},"properties":{"bbox":{"roads":{"area":91.85,"pct":91.33}},"city_same":1,"id":"hex:2192:17453"},"type":"Feature"},{"geometry":{"coordinates":[[[-117.96456,34.13259],[-117.96389,34.13358],[-117.96253,34.13359],[-117.96184,34.13262],[-117.96211,34.13223],[-117.96427,34.13219],[-117.96456,34.13259]]],"type":"Polygon"},"properties":{"bbox":{"roads":{"area":1217.66,"pct":4.03}},"city_same":1,"id":"hex:2193:17446"},"type":"Feature"},{"geometry":{"coordinates":[[[-117.96187,34.13457],[-117.96256,34.13554],[-117.96391,34.13553],[-117.96458,34.13455],[-117.96389,34.13358],[-117.96253,34.13359],[-117.96187,34.13457]]],"type":"Polygon"},"properties":{"bbox":{"roads":{"area":8236.07,"pct":20.29}},"city":{"roads":{"area":3972.28,"pct":9.79}},"id":"hex:2193:17447"},"type":"Feature"},{"geometry":{"coordinates":[[[-117.96189,34.13652],[-117.96258,34.13749],[-117.96393,34.13748],[-117.9646,34.1365],[-117.96391,34.13553],[-117.96256,34.13554],[-117.96189,34.13652]]],"type":"Polygon"},"properties":{"bbox":{"roads":{"area":6663.89,"pct":16.42}},"city":{"roads":{"area":3755.51,"pct":9.25}},"id":"hex:2193:17448"},"type":"Feature"},{"geometry":{"coordinates":[[[-117.96191,34.13847],[-117.9626,34.13944],[-117.96395,34.13943],[-117.96462,34.13845],[-117.96393,34.13748],[-117.96258,34.13749],[-117.96191,34.13847]]],"type":"Polygon"},"properties":{"bbox":{"roads":{"area":2354.36,"pct":5.8}},"city_same":1,"id":"hex:2193:17449"},"type":"Feature"},{"geometry":{"coordinates":[[[-117.96193,34.14043],[-117.96262,34.1414],[-117.96398,34.14139],[-117.96464,34.1404],[-117.96395,34.13943],[-117.9626,34.13944],[-117.96193,34.14043]]],"type":"Polygon"},"properties":{"bbox":{"roads":{"area":6035.84,"pct":14.87}},"city":{"roads":{"area":3532.69,"pct":8.7}},"id":"hex:2193:17450"},"type":"Feature"},{"geometry":{"coordinates":[[[-117.96195,34.14238],[-117.96264,34.14335],[-117.964,34.14334],[-117.96467,34.14236],[-117.96398,34.14139],[-117.96262,34.1414],[-117.96195,34.14238]]],"type":"Polygon"},"properties":{"bbox":{"roads":{"area":3868.72,"pct":9.53}},"city_same":1,"id":"hex:2193:17451"},"type":"Feature"},{"geometry":{"coordinates":[[[-117.96049,34.13263],[-117.96184,34.13262],[-117.96253,34.13359],[-117.96187,34.13457],[-117.96051,34.13458],[-117.96006,34.13394],[-117.96006,34.13326],[-117.96049,34.13263]]],"type":"Polygon"},"properties":{"bbox":{"roads":{"area":3911.46,"pct":9.83}},"city":{"roads":{"area":3703.89,"pct":9.31}},"id":"hex:2194:17447"},"type":"Feature"},{"geometry":{"coordinates":[[[-117.96051,34.13458],[-117.96187,34.13457],[-117.96256,34.13554],[-117.96189,34.13652],[-117.96053,34.13653],[-117.96007,34.13588],[-117.96007,34.13523],[-117.96051,34.13458]]],"type":"Polygon"},"properties":{"bbox":{"roads":{"area":12915.67,"pct":32.4}},"city":{"roads":{"area":2302.78,"pct":5.78}},"id":"hex:2194:17448"},"type":"Feature"},{"geometry":{"coordinates":[[[-117.95987,34.13751],[-117.96055,34.13848],[-117.96191,34.13847],[-117.96258,34.13749],[-117.96189,34.13652],[-117.96053,34.13653],[-117.95987,34.13751]]],"type":"Polygon"},"properties":{"bbox":{"roads":{"area":4232.74,"pct":10.43}},"city_same":1,"id":"hex:2194:17449"},"type":"Feature"},{"geometry":{"coordinates":[[[-117.95989,34.13947],[-117.96058,34.14044],[-117.96193,34.14043],[-117.9626,34.13944],[-117.96191,34.13847],[-117.96055,34.13848],[-117.95989,34.13947]]],"type":"Polygon"},"properties":{"bbox":{"roads":{"area":6819.46,"pct":16.8}},"city":{"roads":{"area":3431.13,"pct":8.45}},"id":"hex:2194:17450"},"type":"Feature"},{"geometry":{"coordinates":[[[-117.95991,34.14142],[-117.9606,34.14239],[-117.96195,34.14238],[-117.96262,34.1414],[-117.96193,34.14043],[-117.96058,34.14044],[-117.95991,34.14142]]],"type":"Polygon"},"properties":{"bbox":{"roads":{"area":3027.94,"pct":7.46}},"city_same":1,"id":"hex:2194:17451"},"type":"Feature"},{"geometry":{"coordinates":[[[-117.95993,34.14337],[-117.9606,34.14239],[-117.96195,34.14238],[-117.96264,34.14335],[-117.96242,34.14367],[-117.96015,34.14368],[-117.95993,34.14337]]],"type":"Polygon"},"properties":{"bbox":{"roads":{"area":2055.37,"pct":7.26}},"city_same":1,"id":"hex:2194:17452"},"type":"Feature"},{"geometry":{"coordinates":[[[-117.96051,34.13458],[-117.96007,34.13523],[-117.96006,34.13394],[-117.96051,34.13458]]],"type":"Polygon"},"properties":{"bbox":{"roads":{"area":973.48,"pct":32.89}},"id":"hex:2195:17447"},"type":"Feature"},{"geometry":{"coordinates":[[[-117.96053,34.13653],[-117.95987,34.13751],[-117.95851,34.13752],[-117.95782,34.13655],[-117.95815,34.13608],[-117.96007,34.13606],[-117.96007,34.13588],[-117.96053,34.13653]]],"type":"Polygon"},"properties":{"bbox":{"roads":{"area":3729.77,"pct":11.67}},"city_same":1,"id":"hex:2195:17448"},"type":"Feature"},{"geometry":{"coordinates":[[[-117.95784,34.1385],[-117.95853,34.13948],[-117.95989,34.13947],[-117.96055,34.13848],[-117.95987,34.13751],[-117.95851,34.13752],[-117.95784,34.1385]]],"type":"Polygon"},"properties":{"bbox":{"roads":{"area":4529.35,"pct":11.16}},"city_same":1,"id":"hex:2195:17449"},"type":"Feature"},{"geometry":{"coordinates":[[[-117.95787,34.14046],[-117.95855,34.14143],[-117.95991,34.14142],[-117.96058,34.14044],[-117.95989,34.13947],[-117.95853,34.13948],[-117.95787,34.14046]]],"type":"Polygon"},"properties":{"bbox":{"roads":{"area":6871.49,"pct":16.93}},"city":{"roads":{"area":4466.58,"pct":11}},"id":"hex:2195:17450"},"type":"Feature"},{"geometry":{"coordinates":[[[-117.95789,34.14241],[-117.95858,34.14338],[-117.95993,34.14337],[-117.9606,34.14239],[-117.95991,34.14142],[-117.95855,34.14143],[-117.95789,34.14241]]],"type":"Polygon"},"properties":{"bbox":{"roads":{"area":4195.7,"pct":10.34}},"city_same":1,"id":"hex:2195:17451"},"type":"Feature"},{"geometry":{"coordinates":[[[-117.95869,34.15314],[-117.958,34.15217],[-117.95822,34.15184],[-117.95963,34.15206],[-117.95963,34.15313],[-117.95869,34.15314]]],"type":"Polygon"},"properties":{"bbox":{"roads":{"area":287.74,"pct":1.76}},"city_same":1,"id":"hex:2195:17456"},"type":"Feature"},{"geometry":{"coordinates":[[[-117.95782,34.13655],[-117.95647,34.13656],[-117.95613,34.13609],[-117.95815,34.13608],[-117.95782,34.13655]]],"type":"Polygon"},"properties":{"bbox":{"roads":{"area":1997.72,"pct":24.48}},"city":{"roads":{"area":1408.95,"pct":17.26}},"id":"hex:2196:17448"},"type":"Feature"},{"geometry":{"coordinates":[[[-117.9558,34.13754],[-117.95649,34.13852],[-117.95784,34.1385],[-117.95851,34.13752],[-117.95782,34.13655],[-117.95647,34.13656],[-117.9558,34.13754]]],"type":"Polygon"},"properties":{"bbox":{"roads":{"area":3484.7,"pct":8.58}},"city":{"roads":{"area":1895.25,"pct":4.67}},"id":"hex:2196:17449"},"type":"Feature"},{"geometry":{"coordinates":[[[-117.95582,34.1395],[-117.95651,34.14047],[-117.95787,34.14046],[-117.95853,34.13948],[-117.95784,34.1385],[-117.95649,34.13852],[-117.95582,34.1395]]],"type":"Polygon"},"properties":{"bbox":{"roads":{"area":7384.85,"pct":18.19}},"city":{"roads":{"area":3822.41,"pct":9.42}},"id":"hex:2196:17450"},"type":"Feature"},{"geometry":{"coordinates":[[[-117.95584,34.14145],[-117.95653,34.14242],[-117.95789,34.14241],[-117.95855,34.14143],[-117.95787,34.14046],[-117.95651,34.14047],[-117.95584,34.14145]]],"type":"Polygon"},"properties":{"bbox":{"roads":{"area":2770.52,"pct":6.82}},"city_same":1,"id":"hex:2196:17451"},"type":"Feature"},{"geometry":{"coordinates":[[[-117.95587,34.1434],[-117.95653,34.14242],[-117.95789,34.14241],[-117.95858,34.14338],[-117.95837,34.14368],[-117.95606,34.14368],[-117.95587,34.1434]]],"type":"Polygon"},"properties":{"bbox":{"roads":{"area":3279.89,"pct":11.84}},"city_same":1,"id":"hex:2196:17452"},"type":"Feature"},{"geometry":{"coordinates":[[[-117.958,34.15217],[-117.95664,34.15218],[-117.95617,34.15152],[-117.95822,34.15184],[-117.958,34.15217]]],"type":"Polygon"},"properties":{"bbox":{"roads":{"area":490.93,"pct":5.8}},"city_same":1,"id":"hex:2196:17456"},"type":"Feature"},{"geometry":{"coordinates":[[[-117.95598,34.15316],[-117.95666,34.15413],[-117.95802,34.15412],[-117.95869,34.15314],[-117.958,34.15217],[-117.95664,34.15218],[-117.95598,34.15316]]],"type":"Polygon"},"properties":{"bbox":{"roads":{"area":2826.03,"pct":6.96}},"city_same":1,"id":"hex:2196:17457"},"type":"Feature"},{"geometry":{"coordinates":[[[-117.956,34.15512],[-117.95669,34.15609],[-117.95804,34.15608],[-117.95871,34.15509],[-117.95802,34.15412],[-117.95666,34.15413],[-117.956,34.15512]]],"type":"Polygon"},"properties":{"bbox":{"roads":{"area":326.47,"pct":0.8}},"city_same":1,"id":"hex:2196:17458"},"type":"Feature"},{"geometry":{"coordinates":[[[-117.95647,34.13656],[-117.9558,34.13754],[-117.95444,34.13755],[-117.95375,34.13658],[-117.95408,34.13611],[-117.95613,34.13609],[-117.95647,34.13656]]],"type":"Polygon"},"properties":{"bbox":{"roads":{"area":2964.85,"pct":9.31}},"city":{"roads":{"area":2472.94,"pct":7.76}},"id":"hex:2197:17448"},"type":"Feature"},{"geometry":{"coordinates":[[[-117.95378,34.13854],[-117.95447,34.13951],[-117.95582,34.1395],[-117.95649,34.13852],[-117.9558,34.13754],[-117.95444,34.13755],[-117.95378,34.13854]]],"type":"Polygon"},"properties":{"bbox":{"roads":{"area":7315.85,"pct":18.02}},"city":{"roads":{"area":4027.13,"pct":9.92}},"id":"hex:2197:17449"},"type":"Feature"},{"geometry":{"coordinates":[[[-117.9538,34.14049],[-117.95449,34.14146],[-117.95584,34.14145],[-117.95651,34.14047],[-117.95582,34.1395],[-117.95447,34.13951],[-117.9538,34.14049]]],"type":"Polygon"},"properties":{"bbox":{"roads":{"area":8979.28,"pct":22.12},"sidewalks":{"area":359.96,"pct":0.89}},"city":{"roads":{"area":5890.4,"pct":14.51},"sidewalks":{"area":359.96,"pct":0.89}},"id":"hex:2197:17450"},"type":"Feature"},{"geometry":{"coordinates":[[[-117.95382,34.14244],[-117.95451,34.14341],[-117.95587,34.1434],[-117.95653,34.14242],[-117.95584,34.14145],[-117.95449,34.14146],[-117.95382,34.14244]]],"type":"Polygon"},"properties":{"bbox":{"roads":{"area":4392.53,"pct":10.82}},"city_same":1,"id":"hex:2197:17451"},"type":"Feature"},{"geometry":{"coordinates":[[[-117.95451,34.14341],[-117.95587,34.1434],[-117.95606,34.14368],[-117.95433,34.14368],[-117.95451,34.14341]]],"type":"Polygon"},"properties":{"bbox":{"roads":{"area":458.26,"pct":10.52}},"city_same":1,"id":"hex:2197:17452"},"type":"Feature"},{"geometry":{"coordinates":[[[-117.95664,34.15218],[-117.95598,34.15316],[-117.95462,34.15317],[-117.95393,34.1522],[-117.95457,34.15127],[-117.95617,34.15152],[-117.95664,34.15218]]],"type":"Polygon"},"properties":{"bbox":{"roads":{"area":1862.53,"pct":4.9}},"city_same":1,"id":"hex:2197:17456"},"type":"Feature"},{"geometry":{"coordinates":[[[-117.95395,34.15416],[-117.95464,34.15513],[-117.956,34.15512],[-117.95666,34.15413],[-117.95598,34.15316],[-117.95462,34.15317],[-117.95395,34.15416]]],"type":"Polygon"},"properties":{"bbox":{"roads":{"area":2752.25,"pct":6.78}},"city_same":1,"id":"hex:2197:17457"},"type":"Feature"},{"geometry":{"coordinates":[[[-117.95397,34.15611],[-117.95466,34.15708],[-117.95602,34.15707],[-117.95669,34.15609],[-117.956,34.15512],[-117.95464,34.15513],[-117.95397,34.15611]]],"type":"Polygon"},"properties":{"bbox":{"roads":{"area":1182.38,"pct":2.91}},"city_same":1,"id":"hex:2197:17458"},"type":"Feature"},{"geometry":{"coordinates":[[[-117.95375,34.13658],[-117.9524,34.13659],[-117.95206,34.13612],[-117.95408,34.13611],[-117.95375,34.13658]]],"type":"Polygon"},"properties":{"bbox":{"roads":{"area":1578.25,"pct":19.28}},"city_same":1,"id":"hex:2198:17448"},"type":"Feature"},{"geometry":{"coordinates":[[[-117.95173,34.13758],[-117.95242,34.13855],[-117.95378,34.13854],[-117.95444,34.13755],[-117.95375,34.13658],[-117.9524,34.13659],[-117.95173,34.13758]]],"type":"Polygon"},"properties":{"bbox":{"roads":{"area":1276.76,"pct":3.15}},"city_same":1,"id":"hex:2198:17449"},"type":"Feature"},{"geometry":{"coordinates":[[[-117.95175,34.13953],[-117.95244,34.1405],[-117.9538,34.14049],[-117.95447,34.13951],[-117.95378,34.13854],[-117.95242,34.13855],[-117.95175,34.13953]]],"type":"Polygon"},"properties":{"bbox":{"roads":{"area":7866.62,"pct":19.38},"sidewalks":{"area":580.66,"pct":1.43}},"city":{"roads":{"area":4430.91,"pct":10.91},"sidewalks":{"area":580.66,"pct":1.43}},"id":"hex:2198:17450"},"type":"Feature"},{"geometry":{"coordinates":[[[-117.95178,34.14148],[-117.95247,34.14245],[-117.95382,34.14244],[-117.95449,34.14146],[-117.9538,34.14049],[-117.95244,34.1405],[-117.95178,34.14148]]],"type":"Polygon"},"properties":{"bbox":{"roads":{"area":3770.84,"pct":9.29}},"city_same":1,"id":"hex:2198:17451"},"type":"Feature"},{"geometry":{"coordinates":[[[-117.9518,34.14343],[-117.95247,34.14245],[-117.95382,34.14244],[-117.95451,34.14341],[-117.95433,34.14368],[-117.95198,34.14369],[-117.9518,34.14343]]],"type":"Polygon"},"properties":{"bbox":{"roads":{"area":2961.69,"pct":10.94}},"city_same":1,"id":"hex:2198:17452"},"type":"Feature"},{"geometry":{"coordinates":[[[-117.95393,34.1522],[-117.95257,34.15221],[-117.95189,34.15124],[-117.95213,34.15089],[-117.95457,34.15127],[-117.95393,34.1522]]],"type":"Polygon"},"properties":{"bbox":{"roads":{"area":182.12,"pct":0.74}},"city_same":1,"id":"hex:2198:17456"},"type":"Feature"},{"geometry":{"coordinates":[[[-117.95191,34.15319],[-117.9526,34.15417],[-117.95395,34.15416],[-117.95462,34.15317],[-117.95393,34.1522],[-117.95257,34.15221],[-117.95191,34.15319]]],"type":"Polygon"},"properties":{"bbox":{"roads":{"area":2440,"pct":6.01}},"city_same":1,"id":"hex:2198:17457"},"type":"Feature"},{"geometry":{"coordinates":[[[-117.9526,34.15417],[-117.95395,34.15416],[-117.95464,34.15513],[-117.95397,34.15611],[-117.95262,34.15612],[-117.95193,34.15515],[-117.95203,34.155],[-117.95237,34.1549],[-117.95252,34.15484],[-117.95246,34.1546],[-117.9524,34.15445],[-117.9526,34.15417]]],"type":"Polygon"},"properties":{"bbox":{"roads":{"area":646.52,"pct":1.64}},"city_same":1,"id":"hex:2198:17458"},"type":"Feature"},{"geometry":{"coordinates":[[[-117.95195,34.1571],[-117.95264,34.15807],[-117.954,34.15806],[-117.95466,34.15708],[-117.95397,34.15611],[-117.95262,34.15612],[-117.95195,34.1571]]],"type":"Polygon"},"properties":{"bbox":{"roads":{"area":579.83,"pct":1.43}},"city_same":1,"id":"hex:2198:17459"},"type":"Feature"},{"geometry":{"coordinates":[[[-117.9524,34.13659],[-117.95173,34.13758],[-117.95038,34.13759],[-117.94969,34.13662],[-117.95016,34.13592],[-117.9516,34.13592],[-117.95159,34.13607],[-117.95175,34.13612],[-117.95206,34.13612],[-117.9524,34.13659]]],"type":"Polygon"},"properties":{"bbox":{"roads":{"area":3956.85,"pct":11.24}},"city_same":1,"id":"hex:2199:17448"},"type":"Feature"},{"geometry":{"coordinates":[[[-117.94971,34.13857],[-117.9504,34.13954],[-117.95175,34.13953],[-117.95242,34.13855],[-117.95173,34.13758],[-117.95038,34.13759],[-117.94971,34.13857]]],"type":"Polygon"},"properties":{"bbox":{"roads":{"area":4554.6,"pct":11.22}},"city_same":1,"id":"hex:2199:17449"},"type":"Feature"},{"geometry":{"coordinates":[[[-117.94973,34.14052],[-117.95042,34.14149],[-117.95178,34.14148],[-117.95244,34.1405],[-117.95175,34.13953],[-117.9504,34.13954],[-117.94973,34.14052]]],"type":"Polygon"},"properties":{"bbox":{"roads":{"area":7960.93,"pct":19.61},"sidewalks":{"area":416.13,"pct":1.03}},"city":{"roads":{"area":5546.57,"pct":13.66},"sidewalks":{"area":416.13,"pct":1.03}},"id":"hex:2199:17450"},"type":"Feature"},{"geometry":{"coordinates":[[[-117.94975,34.14247],[-117.95044,34.14344],[-117.9518,34.14343],[-117.95247,34.14245],[-117.95178,34.14148],[-117.95042,34.14149],[-117.94975,34.14247]]],"type":"Polygon"},"properties":{"bbox":{"roads":{"area":4549.12,"pct":11.21}},"city_same":1,"id":"hex:2199:17451"},"type":"Feature"},{"geometry":{"coordinates":[[[-117.95046,34.1454],[-117.94978,34.14442],[-117.95044,34.14344],[-117.9518,34.14343],[-117.95198,34.14369],[-117.95131,34.14369],[-117.9513,34.14539],[-117.95046,34.1454]]],"type":"Polygon"},"properties":{"bbox":{"roads":{"area":1309.45,"pct":5.19}},"city_same":1,"id":"hex:2199:17452"},"type":"Feature"},{"geometry":{"coordinates":[[[-117.95049,34.14735],[-117.9498,34.14638],[-117.95046,34.1454],[-117.9513,34.14539],[-117.95129,34.14734],[-117.95049,34.14735]]],"type":"Polygon"},"properties":{"bbox":{"roads":{"area":1013.92,"pct":4.38}},"city_same":1,"id":"hex:2199:17453"},"type":"Feature"},{"geometry":{"coordinates":[[[-117.95051,34.1493],[-117.94982,34.14833],[-117.95049,34.14735],[-117.95129,34.14734],[-117.95128,34.14929],[-117.95051,34.1493]]],"type":"Polygon"},"properties":{"bbox":{"roads":{"area":997.46,"pct":4.43}},"city_same":1,"id":"hex:2199:17454"},"type":"Feature"},{"geometry":{"coordinates":[[[-117.95189,34.15124],[-117.95053,34.15125],[-117.94984,34.15028],[-117.95051,34.1493],[-117.95128,34.14929],[-117.95128,34.15075],[-117.95213,34.15089],[-117.95189,34.15124]]],"type":"Polygon"},"properties":{"bbox":{"roads":{"area":1827.43,"pct":7.26}},"city_same":1,"id":"hex:2199:17455"},"type":"Feature"},{"geometry":{"coordinates":[[[-117.94986,34.15223],[-117.95055,34.15321],[-117.95191,34.15319],[-117.95257,34.15221],[-117.95189,34.15124],[-117.95053,34.15125],[-117.94986,34.15223]]],"type":"Polygon"},"properties":{"bbox":{"roads":{"area":1779.76,"pct":4.38}},"city_same":1,"id":"hex:2199:17456"},"type":"Feature"},{"geometry":{"coordinates":[[[[-117.95057,34.15516],[-117.94988,34.15419],[-117.95055,34.15321],[-117.95191,34.15319],[-117.9526,34.15417],[-117.9524,34.15445],[-117.95238,34.1544],[-117.9523,34.15423],[-117.95186,34.15441],[-117.95179,34.15443],[-117.95172,34.15445],[-117.95125,34.15452],[-117.95128,34.15469],[-117.9515,34.15495],[-117.95162,34.15511],[-117.9517,34.15515],[-117.95057,34.15516]]],[[[-117.95193,34.15515],[-117.95174,34.15515],[-117.95199,34.15502],[-117.95203,34.155],[-117.95193,34.15515]]]],"type":"MultiPolygon"},"properties":{"bbox":{"roads":{"area":1605.49,"pct":4.62}},"city_same":1,"id":"hex:2199:17457"},"type":"Feature"},{"geometry":{"coordinates":[[[-117.94969,34.13662],[-117.94833,34.13663],[-117.9482,34.13644],[-117.94884,34.13592],[-117.95016,34.13592],[-117.94969,34.13662]]],"type":"Polygon"},"properties":{"bbox":{"roads":{"area":954.34,"pct":9.07}},"city_same":1,"id":"hex:2200:17448"},"type":"Feature"},{"geometry":{"coordinates":[[[-117.94767,34.13761],[-117.94835,34.13858],[-117.94971,34.13857],[-117.95038,34.13759],[-117.94969,34.13662],[-117.94833,34.13663],[-117.94767,34.13761]]],"type":"Polygon"},"properties":{"bbox":{"roads":{"area":3677.87,"pct":9.06}},"city_same":1,"id":"hex:2200:17449"},"type":"Feature"},{"geometry":{"coordinates":[[[-117.94769,34.13956],[-117.94838,34.14053],[-117.94973,34.14052],[-117.9504,34.13954],[-117.94971,34.13857],[-117.94835,34.13858],[-117.94769,34.13956]]],"type":"Polygon"},"properties":{"bbox":{"roads":{"area":6556.93,"pct":16.15},"sidewalks":{"area":677.39,"pct":1.67}},"city":{"roads":{"area":3145.1,"pct":7.75},"sidewalks":{"area":677.39,"pct":1.67}},"id":"hex:2200:17450"},"type":"Feature"},{"geometry":{"coordinates":[[[-117.94771,34.14151],[-117.9484,34.14248],[-117.94975,34.14247],[-117.95042,34.14149],[-117.94973,34.14052],[-117.94838,34.14053],[-117.94771,34.14151]]],"type":"Polygon"},"properties":{"bbox":{"roads":{"area":4612.47,"pct":11.36}},"city_same":1,"id":"hex:2200:17451"},"type":"Feature"},{"geometry":{"coordinates":[[[-117.94773,34.14346],[-117.94842,34.14444],[-117.94978,34.14442],[-117.95044,34.14344],[-117.94975,34.14247],[-117.9484,34.14248],[-117.94773,34.14346]]],"type":"Polygon"},"properties":{"bbox":{"roads":{"area":4684,"pct":11.54}},"city_same":1,"id":"hex:2200:17452"},"type":"Feature"},{"geometry":{"coordinates":[[[-117.94775,34.14542],[-117.94844,34.14639],[-117.9498,34.14638],[-117.95046,34.1454],[-117.94978,34.14442],[-117.94842,34.14444],[-117.94775,34.14542]]],"type":"Polygon"},"properties":{"bbox":{"roads":{"area":4121.76,"pct":10.15}},"city_same":1,"id":"hex:2200:17453"},"type":"Feature"},{"geometry":{"coordinates":[[[-117.94777,34.14737],[-117.94846,34.14834],[-117.94982,34.14833],[-117.95049,34.14735],[-117.9498,34.14638],[-117.94844,34.14639],[-117.94777,34.14737]]],"type":"Polygon"},"properties":{"bbox":{"roads":{"area":4248.47,"pct":10.47}},"city_same":1,"id":"hex:2200:17454"},"type":"Feature"},{"geometry":{"coordinates":[[[-117.9478,34.14932],[-117.94849,34.15029],[-117.94984,34.15028],[-117.95051,34.1493],[-117.94982,34.14833],[-117.94846,34.14834],[-117.9478,34.14932]]],"type":"Polygon"},"properties":{"bbox":{"roads":{"area":3389.81,"pct":8.35}},"city_same":1,"id":"hex:2200:17455"},"type":"Feature"},{"geometry":{"coordinates":[[[-117.94782,34.15127],[-117.94851,34.15224],[-117.94986,34.15223],[-117.95053,34.15125],[-117.94984,34.15028],[-117.94849,34.15029],[-117.94782,34.15127]]],"type":"Polygon"},"properties":{"bbox":{"roads":{"area":3497.03,"pct":8.61}},"city_same":1,"id":"hex:2200:17456"},"type":"Feature"},{"geometry":{"coordinates":[[[-117.94853,34.1542],[-117.94784,34.15323],[-117.94851,34.15224],[-117.94986,34.15223],[-117.95055,34.15321],[-117.94988,34.15419],[-117.94936,34.15419],[-117.94938,34.15418],[-117.94918,34.15371],[-117.9489,34.15374],[-117.94878,34.15375],[-117.9488,34.15397],[-117.94885,34.15408],[-117.9489,34.15419],[-117.94853,34.1542]]],"type":"Polygon"},"properties":{"bbox":{"roads":{"area":1530.39,"pct":3.99}},"city_same":1,"id":"hex:2200:17457"},"type":"Feature"},{"geometry":{"coordinates":[[[-117.94988,34.15419],[-117.95057,34.15516],[-117.94991,34.15614],[-117.94855,34.15615],[-117.94786,34.15518],[-117.94853,34.1542],[-117.9489,34.15419],[-117.94893,34.15426],[-117.94913,34.15428],[-117.94928,34.15425],[-117.94936,34.15419],[-117.94988,34.15419]]],"type":"Polygon"},"properties":{"bbox":{"roads":{"area":4.01,"pct":0.01}},"city_same":1,"id":"hex:2200:17458"},"type":"Feature"},{"geometry":{"coordinates":[[[-117.94833,34.13663],[-117.94767,34.13761],[-117.94663,34.13762],[-117.94691,34.13739],[-117.94706,34.13743],[-117.94711,34.13734],[-117.94726,34.13721],[-117.9482,34.13644],[-117.94833,34.13663]]],"type":"Polygon"},"properties":{"bbox":{"roads":{"area":602.97,"pct":8.81}},"city_same":1,"id":"hex:2201:17448"},"type":"Feature"},{"geometry":{"coordinates":[[[-117.94767,34.13761],[-117.94835,34.13858],[-117.94769,34.13956],[-117.94633,34.13957],[-117.94564,34.1386],[-117.94614,34.13787],[-117.94635,34.13796],[-117.94646,34.13775],[-117.94663,34.13762],[-117.94767,34.13761]]],"type":"Polygon"},"properties":{"bbox":{"roads":{"area":8170.38,"pct":20.53},"sidewalks":{"area":262.43,"pct":0.66}},"city":{"roads":{"area":4910.3,"pct":12.34},"sidewalks":{"area":262.43,"pct":0.66}},"id":"hex:2201:17449"},"type":"Feature"},{"geometry":{"coordinates":[[[-117.94567,34.14055],[-117.94635,34.14152],[-117.94771,34.14151],[-117.94838,34.14053],[-117.94769,34.13956],[-117.94633,34.13957],[-117.94567,34.14055]]],"type":"Polygon"},"properties":{"bbox":{"roads":{"area":6183.86,"pct":15.23}},"city_same":1,"id":"hex:2201:17450"},"type":"Feature"},{"geometry":{"coordinates":[[[-117.94569,34.1425],[-117.94638,34.14347],[-117.94773,34.14346],[-117.9484,34.14248],[-117.94771,34.14151],[-117.94635,34.14152],[-117.94569,34.1425]]],"type":"Polygon"},"properties":{"bbox":{"roads":{"area":6489.8,"pct":15.99}},"city_same":1,"id":"hex:2201:17451"},"type":"Feature"},{"geometry":{"coordinates":[[[-117.94571,34.14446],[-117.9464,34.14543],[-117.94775,34.14542],[-117.94842,34.14444],[-117.94773,34.14346],[-117.94638,34.14347],[-117.94571,34.14446]]],"type":"Polygon"},"properties":{"bbox":{"roads":{"area":3735.43,"pct":9.2}},"city_same":1,"id":"hex:2201:17452"},"type":"Feature"},{"geometry":{"coordinates":[[[-117.94573,34.14641],[-117.94642,34.14738],[-117.94777,34.14737],[-117.94844,34.14639],[-117.94775,34.14542],[-117.9464,34.14543],[-117.94573,34.14641]]],"type":"Polygon"},"properties":{"bbox":{"roads":{"area":3605.18,"pct":8.88}},"city_same":1,"id":"hex:2201:17453"},"type":"Feature"},{"geometry":{"coordinates":[[[-117.94575,34.14836],[-117.94644,34.14933],[-117.9478,34.14932],[-117.94846,34.14834],[-117.94777,34.14737],[-117.94642,34.14738],[-117.94575,34.14836]]],"type":"Polygon"},"properties":{"bbox":{"roads":{"area":4257.36,"pct":10.49}},"city_same":1,"id":"hex:2201:17454"},"type":"Feature"},{"geometry":{"coordinates":[[[-117.94577,34.15031],[-117.94646,34.15128],[-117.94782,34.15127],[-117.94849,34.15029],[-117.9478,34.14932],[-117.94644,34.14933],[-117.94577,34.15031]]],"type":"Polygon"},"properties":{"bbox":{"roads":{"area":3162.69,"pct":7.79}},"city_same":1,"id":"hex:2201:17455"},"type":"Feature"},{"geometry":{"coordinates":[[[-117.9458,34.15227],[-117.94648,34.15324],[-117.94784,34.15323],[-117.94851,34.15224],[-117.94782,34.15127],[-117.94646,34.15128],[-117.9458,34.15227]]],"type":"Polygon"},"properties":{"bbox":{"roads":{"area":3612.17,"pct":8.9}},"city_same":1,"id":"hex:2201:17456"},"type":"Feature"},{"geometry":{"coordinates":[[[-117.94648,34.15324],[-117.94784,34.15323],[-117.94853,34.1542],[-117.94786,34.15518],[-117.94651,34.15519],[-117.94582,34.15422],[-117.94648,34.15324]],[[-117.94762,34.15381],[-117.94766,34.15374],[-117.94767,34.15371],[-117.94761,34.15368],[-117.94756,34.15369],[-117.9474,34.15374],[-117.94743,34.15382],[-117.94749,34.15388],[-117.94755,34.15386],[-117.94762,34.15381]]],"type":"Polygon"},"properties":{"bbox":{"roads":{"area":533.6,"pct":1.33}},"city_same":1,"id":"hex:2201:17457"},"type":"Feature"},{"geometry":{"coordinates":[[[-117.94564,34.1386],[-117.94429,34.13861],[-117.94399,34.13819],[-117.94427,34.13796],[-117.94467,34.13823],[-117.94537,34.13758],[-117.94552,34.13765],[-117.94554,34.13762],[-117.94614,34.13787],[-117.94564,34.1386]]],"type":"Polygon"},"properties":{"bbox":{"roads":{"area":2606.56,"pct":19.95}},"city":{"roads":{"area":1168.28,"pct":8.94}},"id":"hex:2202:17449"},"type":"Feature"},{"geometry":{"coordinates":[[[-117.94362,34.13959],[-117.94431,34.14056],[-117.94567,34.14055],[-117.94633,34.13957],[-117.94564,34.1386],[-117.94429,34.13861],[-117.94362,34.13959]]],"type":"Polygon"},"properties":{"bbox":{"roads":{"area":1441.96,"pct":3.55}},"city":{"roads":{"area":1435.19,"pct":3.54}},"id":"hex:2202:17450"},"type":"Feature"},{"geometry":{"coordinates":[[[-117.94364,34.14154],[-117.94433,34.14251],[-117.94569,34.1425],[-117.94635,34.14152],[-117.94567,34.14055],[-117.94431,34.14056],[-117.94364,34.14154]]],"type":"Polygon"},"properties":{"bbox":{"roads":{"area":1205.67,"pct":2.97}},"city_same":1,"id":"hex:2202:17451"},"type":"Feature"},{"geometry":{"coordinates":[[[-117.94366,34.1435],[-117.94435,34.14447],[-117.94571,34.14446],[-117.94638,34.14347],[-117.94569,34.1425],[-117.94433,34.14251],[-117.94366,34.1435]]],"type":"Polygon"},"properties":{"bbox":{"roads":{"area":3985.47,"pct":9.82}},"city_same":1,"id":"hex:2202:17452"},"type":"Feature"},{"geometry":{"coordinates":[[[-117.94369,34.14545],[-117.94437,34.14642],[-117.94573,34.14641],[-117.9464,34.14543],[-117.94571,34.14446],[-117.94435,34.14447],[-117.94369,34.14545]]],"type":"Polygon"},"properties":{"bbox":{"roads":{"area":2372.28,"pct":5.84}},"city_same":1,"id":"hex:2202:17453"},"type":"Feature"},{"geometry":{"coordinates":[[[-117.94371,34.1474],[-117.9444,34.14837],[-117.94575,34.14836],[-117.94642,34.14738],[-117.94573,34.14641],[-117.94437,34.14642],[-117.94371,34.1474]]],"type":"Polygon"},"properties":{"bbox":{"roads":{"area":2381.68,"pct":5.87}},"city_same":1,"id":"hex:2202:17454"},"type":"Feature"},{"geometry":{"coordinates":[[[-117.94373,34.14935],[-117.94442,34.15032],[-117.94577,34.15031],[-117.94644,34.14933],[-117.94575,34.14836],[-117.9444,34.14837],[-117.94373,34.14935]]],"type":"Polygon"},"properties":{"bbox":{"roads":{"area":2396.14,"pct":5.9}},"city_same":1,"id":"hex:2202:17455"},"type":"Feature"},{"geometry":{"coordinates":[[[-117.94375,34.15131],[-117.94444,34.15228],[-117.9458,34.15227],[-117.94646,34.15128],[-117.94577,34.15031],[-117.94442,34.15032],[-117.94375,34.15131]]],"type":"Polygon"},"properties":{"bbox":{"roads":{"area":1252.26,"pct":3.08}},"city_same":1,"id":"hex:2202:17456"},"type":"Feature"},{"geometry":{"coordinates":[[[-117.94446,34.15423],[-117.94377,34.15326],[-117.94444,34.15228],[-117.9458,34.15227],[-117.94648,34.15324],[-117.94582,34.15422],[-117.94534,34.15422],[-117.94537,34.15418],[-117.94553,34.1541],[-117.94568,34.15406],[-117.94584,34.15399],[-117.94518,34.15387],[-117.94497,34.15411],[-117.94499,34.15422],[-117.94446,34.15423]]],"type":"Polygon"},"properties":{"bbox":{"roads":{"area":1174.41,"pct":3.03}},"city_same":1,"id":"hex:2202:17457"},"type":"Feature"},{"geometry":{"coordinates":[[[-117.94429,34.13861],[-117.94362,34.13959],[-117.94227,34.1396],[-117.94204,34.13929],[-117.9435,34.13849],[-117.9437,34.13844],[-117.94396,34.13845],[-117.94398,34.13819],[-117.94399,34.13819],[-117.94429,34.13861]]],"type":"Polygon"},"properties":{"bbox":{"roads":{"area":689.91,"pct":4.26}},"city_same":1,"id":"hex:2203:17449"},"type":"Feature"},{"geometry":{"coordinates":[[[-117.9416,34.14058],[-117.94229,34.14155],[-117.94364,34.14154],[-117.94431,34.14056],[-117.94362,34.13959],[-117.94227,34.1396],[-117.9416,34.14058]]],"type":"Polygon"},"properties":{"bbox":{"roads":{"area":832.46,"pct":2.05}},"city_same":1,"id":"hex:2203:17450"},"type":"Feature"},{"geometry":{"coordinates":[[[-117.94162,34.14254],[-117.94231,34.14351],[-117.94366,34.1435],[-117.94433,34.14251],[-117.94364,34.14154],[-117.94229,34.14155],[-117.94162,34.14254]]],"type":"Polygon"},"properties":{"bbox":{"roads":{"area":1942.25,"pct":4.78}},"city_same":1,"id":"hex:2203:17451"},"type":"Feature"},{"geometry":{"coordinates":[[[-117.94164,34.14449],[-117.94233,34.14546],[-117.94369,34.14545],[-117.94435,34.14447],[-117.94366,34.1435],[-117.94231,34.14351],[-117.94164,34.14449]]],"type":"Polygon"},"properties":{"bbox":{"roads":{"area":3344.81,"pct":8.24}},"city_same":1,"id":"hex:2203:17452"},"type":"Feature"},{"geometry":{"coordinates":[[[-117.94166,34.14644],[-117.94235,34.14741],[-117.94371,34.1474],[-117.94437,34.14642],[-117.94369,34.14545],[-117.94233,34.14546],[-117.94166,34.14644]]],"type":"Polygon"},"properties":{"bbox":{"roads":{"area":2165.16,"pct":5.33}},"city_same":1,"id":"hex:2203:17453"},"type":"Feature"},{"geometry":{"coordinates":[[[-117.94168,34.14839],[-117.94237,34.14936],[-117.94373,34.14935],[-117.9444,34.14837],[-117.94371,34.1474],[-117.94235,34.14741],[-117.94168,34.14839]]],"type":"Polygon"},"properties":{"bbox":{"roads":{"area":1861.95,"pct":4.59}},"city_same":1,"id":"hex:2203:17454"},"type":"Feature"},{"geometry":{"coordinates":[[[-117.94171,34.15034],[-117.9424,34.15132],[-117.94375,34.15131],[-117.94442,34.15032],[-117.94373,34.14935],[-117.94237,34.14936],[-117.94171,34.15034]]],"type":"Polygon"},"properties":{"bbox":{"roads":{"area":1160.35,"pct":2.86}},"city_same":1,"id":"hex:2203:17455"},"type":"Feature"},{"geometry":{"coordinates":[[[-117.94227,34.1396],[-117.9416,34.14058],[-117.94024,34.14059],[-117.94008,34.14036],[-117.94204,34.13929],[-117.94227,34.1396]]],"type":"Polygon"},"properties":{"bbox":{"roads":{"area":855.67,"pct":5.96}},"city_same":1,"id":"hex:2204:17450"},"type":"Feature"},{"geometry":{"coordinates":[[[-117.93958,34.14157],[-117.94026,34.14255],[-117.94162,34.14254],[-117.94229,34.14155],[-117.9416,34.14058],[-117.94024,34.14059],[-117.93958,34.14157]]],"type":"Polygon"},"properties":{"bbox":{"roads":{"area":2458.67,"pct":6.06}},"city_same":1,"id":"hex:2204:17451"},"type":"Feature"},{"geometry":{"coordinates":[[[-117.9396,34.14353],[-117.94029,34.1445],[-117.94164,34.14449],[-117.94231,34.14351],[-117.94162,34.14254],[-117.94026,34.14255],[-117.9396,34.14353]]],"type":"Polygon"},"properties":{"bbox":{"roads":{"area":2888.82,"pct":7.12}},"city_same":1,"id":"hex:2204:17452"},"type":"Feature"},{"geometry":{"coordinates":[[[-117.93962,34.14548],[-117.94031,34.14645],[-117.94166,34.14644],[-117.94233,34.14546],[-117.94164,34.14449],[-117.94029,34.1445],[-117.93962,34.14548]]],"type":"Polygon"},"properties":{"bbox":{"roads":{"area":3963.18,"pct":9.76}},"city_same":1,"id":"hex:2204:17453"},"type":"Feature"},{"geometry":{"coordinates":[[[-117.93964,34.14743],[-117.94033,34.1484],[-117.94168,34.14839],[-117.94235,34.14741],[-117.94166,34.14644],[-117.94031,34.14645],[-117.93964,34.14743]]],"type":"Polygon"},"properties":{"bbox":{"roads":{"area":3087.39,"pct":7.61}},"city_same":1,"id":"hex:2204:17454"},"type":"Feature"},{"geometry":{"coordinates":[[[-117.93966,34.14938],[-117.94035,34.15036],[-117.94171,34.15034],[-117.94237,34.14936],[-117.94168,34.14839],[-117.94033,34.1484],[-117.93966,34.14938]]],"type":"Polygon"},"properties":{"bbox":{"roads":{"area":2531.77,"pct":6.24}},"city_same":1,"id":"hex:2204:17455"},"type":"Feature"},{"geometry":{"coordinates":[[[-117.94024,34.14059],[-117.93958,34.14157],[-117.93871,34.14158],[-117.93906,34.14116],[-117.93968,34.14058],[-117.94008,34.14036],[-117.94024,34.14059]]],"type":"Polygon"},"properties":{"bbox":{"roads":{"area":1196.91,"pct":14.54}},"city_same":1,"id":"hex:2205:17450"},"type":"Feature"},{"geometry":{"coordinates":[[[-117.93958,34.14157],[-117.94026,34.14255],[-117.9396,34.14353],[-117.93824,34.14354],[-117.9377,34.14277],[-117.93782,34.14265],[-117.93871,34.14158],[-117.93958,34.14157]]],"type":"Polygon"},"properties":{"bbox":{"roads":{"area":1972.63,"pct":5.47}},"city_same":1,"id":"hex:2205:17451"},"type":"Feature"},{"geometry":{"coordinates":[[[-117.93757,34.14452],[-117.93826,34.14549],[-117.93962,34.14548],[-117.94029,34.1445],[-117.9396,34.14353],[-117.93824,34.14354],[-117.93757,34.14452]]],"type":"Polygon"},"properties":{"bbox":{"roads":{"area":2744.05,"pct":6.76}},"city_same":1,"id":"hex:2205:17452"},"type":"Feature"},{"geometry":{"coordinates":[[[-117.9376,34.14647],[-117.93828,34.14744],[-117.93964,34.14743],[-117.94031,34.14645],[-117.93962,34.14548],[-117.93826,34.14549],[-117.9376,34.14647]]],"type":"Polygon"},"properties":{"bbox":{"roads":{"area":3220.63,"pct":7.93}},"city_same":1,"id":"hex:2205:17453"},"type":"Feature"},{"geometry":{"coordinates":[[[-117.93762,34.14842],[-117.93831,34.14939],[-117.93966,34.14938],[-117.94033,34.1484],[-117.93964,34.14743],[-117.93828,34.14744],[-117.93762,34.14842]]],"type":"Polygon"},"properties":{"bbox":{"roads":{"area":3024.79,"pct":7.45}},"city_same":1,"id":"hex:2205:17454"},"type":"Feature"},{"geometry":{"coordinates":[[[-117.93764,34.15038],[-117.93833,34.15135],[-117.93968,34.15134],[-117.94035,34.15036],[-117.93966,34.14938],[-117.93831,34.14939],[-117.93764,34.15038]]],"type":"Polygon"},"properties":{"bbox":{"roads":{"area":2565.31,"pct":6.32}},"city_same":1,"id":"hex:2205:17455"},"type":"Feature"},{"geometry":{"coordinates":[[[-117.93766,34.15233],[-117.93833,34.15135],[-117.93968,34.15134],[-117.94037,34.15231],[-117.93971,34.15329],[-117.93835,34.1533],[-117.9381,34.15294],[-117.93811,34.1523],[-117.93774,34.15245],[-117.93766,34.15233]]],"type":"Polygon"},"properties":{"bbox":{"roads":{"area":1436.85,"pct":3.65}},"city_same":1,"id":"hex:2205:17456"},"type":"Feature"},{"geometry":{"coordinates":[[[-117.93835,34.1533],[-117.93971,34.15329],[-117.94037,34.15423],[-117.93808,34.15422],[-117.93809,34.15369],[-117.93835,34.1533]]],"type":"Polygon"},"properties":{"bbox":{"roads":{"area":148,"pct":0.82}},"city_same":1,"id":"hex:2205:17457"},"type":"Feature"},{"geometry":{"coordinates":[[[-117.93824,34.14354],[-117.93757,34.14452],[-117.93622,34.14453],[-117.93609,34.14435],[-117.9377,34.14277],[-117.93824,34.14354]]],"type":"Polygon"},"properties":{"bbox":{"parking":{"area":3428.51,"pct":17.2},"roads":{"area":2348.19,"pct":11.78}},"city_same":1,"id":"hex:2206:17452"},"type":"Feature"},{"geometry":{"coordinates":[[[-117.93555,34.14551],[-117.93624,34.14648],[-117.9376,34.14647],[-117.93826,34.14549],[-117.93757,34.14452],[-117.93622,34.14453],[-117.93555,34.14551]]],"type":"Polygon"},"properties":{"bbox":{"roads":{"area":3337.89,"pct":8.22}},"city_same":1,"id":"hex:2206:17453"},"type":"Feature"},{"geometry":{"coordinates":[[[-117.93557,34.14746],[-117.93626,34.14843],[-117.93762,34.14842],[-117.93828,34.14744],[-117.9376,34.14647],[-117.93624,34.14648],[-117.93557,34.14746]]],"type":"Polygon"},"properties":{"bbox":{"roads":{"area":3122.1,"pct":7.69}},"city_same":1,"id":"hex:2206:17454"},"type":"Feature"},{"geometry":{"coordinates":[[[-117.93559,34.14942],[-117.93628,34.15039],[-117.93764,34.15038],[-117.93831,34.14939],[-117.93762,34.14842],[-117.93626,34.14843],[-117.93559,34.14942]]],"type":"Polygon"},"properties":{"bbox":{"roads":{"area":3782.94,"pct":9.32}},"city_same":1,"id":"hex:2206:17455"},"type":"Feature"},{"geometry":{"coordinates":[[[-117.93562,34.15137],[-117.9363,34.15234],[-117.93766,34.15233],[-117.93833,34.15135],[-117.93764,34.15038],[-117.93628,34.15039],[-117.93562,34.15137]]],"type":"Polygon"},"properties":{"bbox":{"roads":{"area":3232.05,"pct":7.96}},"city_same":1,"id":"hex:2206:17456"},"type":"Feature"},{"geometry":{"coordinates":[[[-117.93622,34.14453],[-117.93555,34.14551],[-117.93491,34.14552],[-117.93609,34.14435],[-117.93622,34.14453]]],"type":"Polygon"},"properties":{"bbox":{"roads":{"area":949.82,"pct":18.86},"sidewalks":{"area":28.44,"pct":0.56}},"city_same":1,"id":"hex:2207:17452"},"type":"Feature"},{"geometry":{"coordinates":[[[-117.93555,34.14551],[-117.93624,34.14648],[-117.93557,34.14746],[-117.93422,34.14747],[-117.93368,34.14672],[-117.93491,34.14552],[-117.93555,34.14551]]],"type":"Polygon"},"properties":{"bbox":{"roads":{"area":2744.63,"pct":7.91}},"city_same":1,"id":"hex:2207:17453"},"type":"Feature"},{"geometry":{"coordinates":[[[-117.93355,34.14845],[-117.93424,34.14943],[-117.93559,34.14942],[-117.93626,34.14843],[-117.93557,34.14746],[-117.93422,34.14747],[-117.93355,34.14845]]],"type":"Polygon"},"properties":{"bbox":{"roads":{"area":2648.87,"pct":6.53}},"city_same":1,"id":"hex:2207:17454"},"type":"Feature"},{"geometry":{"coordinates":[[[-117.93357,34.15041],[-117.93426,34.15138],[-117.93562,34.15137],[-117.93628,34.15039],[-117.93559,34.14942],[-117.93424,34.14943],[-117.93357,34.15041]]],"type":"Polygon"},"properties":{"bbox":{"roads":{"area":2052.41,"pct":5.06}},"city_same":1,"id":"hex:2207:17455"},"type":"Feature"},{"geometry":{"coordinates":[[[-117.93428,34.15333],[-117.93359,34.15236],[-117.93426,34.15138],[-117.93562,34.15137],[-117.9363,34.15234],[-117.93568,34.15326],[-117.93553,34.15332],[-117.93428,34.15333]]],"type":"Polygon"},"properties":{"bbox":{"roads":{"area":1918.75,"pct":4.73}},"city_same":1,"id":"hex:2207:17456"},"type":"Feature"},{"geometry":{"coordinates":[[[-117.93428,34.15333],[-117.93553,34.15332],[-117.93458,34.15369],[-117.93457,34.15411],[-117.93406,34.15366],[-117.93428,34.15333]]],"type":"Polygon"},"properties":{"bbox":{"roads":{"area":199.5,"pct":4.59}},"city_same":1,"id":"hex:2207:17457"},"type":"Feature"},{"geometry":{"coordinates":[[[-117.93422,34.14747],[-117.93355,34.14845],[-117.93219,34.14846],[-117.93208,34.14831],[-117.9321,34.14828],[-117.93368,34.14672],[-117.93422,34.14747]]],"type":"Polygon"},"properties":{"bbox":{"roads":{"area":2700.12,"pct":13.82}},"city_same":1,"id":"hex:2208:17454"},"type":"Feature"},{"geometry":{"coordinates":[[[-117.93153,34.14945],[-117.93222,34.15042],[-117.93357,34.15041],[-117.93424,34.14943],[-117.93355,34.14845],[-117.93219,34.14846],[-117.93153,34.14945]]],"type":"Polygon"},"properties":{"bbox":{"roads":{"area":3197.04,"pct":7.88}},"city_same":1,"id":"hex:2208:17455"},"type":"Feature"},{"geometry":{"coordinates":[[[-117.93155,34.1514],[-117.93222,34.15042],[-117.93357,34.15041],[-117.93426,34.15138],[-117.93359,34.15236],[-117.9326,34.15237],[-117.93239,34.15225],[-117.93201,34.15205],[-117.93155,34.1514]]],"type":"Polygon"},"properties":{"bbox":{"roads":{"area":3371,"pct":8.43}},"city_same":1,"id":"hex:2208:17456"},"type":"Feature"},{"geometry":{"coordinates":[[[-117.93359,34.15236],[-117.93428,34.15333],[-117.93406,34.15366],[-117.93359,34.15323],[-117.93367,34.15305],[-117.933,34.1526],[-117.9326,34.15237],[-117.93359,34.15236]]],"type":"Polygon"},"properties":{"bbox":{"roads":{"area":410.12,"pct":5.55}},"city_same":1,"id":"hex:2208:17457"},"type":"Feature"},{"geometry":{"coordinates":[[[-117.93219,34.14846],[-117.93153,34.14945],[-117.93122,34.14945],[-117.93169,34.14895],[-117.93208,34.14831],[-117.93219,34.14846]]],"type":"Polygon"},"properties":{"bbox":{"roads":{"area":874.42,"pct":37.46}},"city_same":1,"id":"hex:2209:17454"},"type":"Feature"},{"geometry":{"coordinates":[[[-117.92984,34.15091],[-117.93122,34.14945],[-117.93153,34.14945],[-117.93222,34.15042],[-117.93155,34.1514],[-117.93076,34.1514],[-117.93037,34.1512],[-117.93014,34.15102],[-117.9299,34.151],[-117.92984,34.15091]]],"type":"Polygon"},"properties":{"bbox":{"roads":{"area":1868.23,"pct":6.65}},"city_same":1,"id":"hex:2209:17455"},"type":"Feature"}],"type":"FeatureCollection","v":2}