{"features":[{"geometry":{"coordinates":[[[[-118.10816,33.88693],[-118.10435,33.88696],[-118.10437,33.88737],[-118.10059,33.8874],[-118.10058,33.88698],[-118.09989,33.88699],[-118.0999,33.88741],[-118.09556,33.88742],[-118.09571,33.88031],[-118.09555,33.87853],[-118.09272,33.87851],[-118.09273,33.87913],[-118.09107,33.8791],[-118.09106,33.88029],[-118.08786,33.88031],[-118.0878,33.87673],[-118.09119,33.87668],[-118.09089,33.86125],[-118.09002,33.86126],[-118.09002,33.86023],[-118.08653,33.86026],[-118.08647,33.85601],[-118.082,33.85604],[-118.08202,33.85855],[-118.08274,33.85856],[-118.08274,33.85926],[-118.08203,33.85926],[-118.08203,33.86041],[-118.07518,33.85625],[-118.07518,33.85696],[-118.07234,33.85698],[-118.07231,33.85449],[-118.07057,33.85342],[-118.06891,33.85345],[-118.06898,33.85857],[-118.07124,33.85857],[-118.07128,33.86035],[-118.07019,33.86036],[-118.07034,33.86946],[-118.07242,33.86945],[-118.07243,33.8699],[-118.07035,33.86992],[-118.07043,33.87311],[-118.0801,33.87307],[-118.08011,33.8753],[-118.07966,33.8753],[-118.07969,33.87674],[-118.07486,33.87682],[-118.07493,33.88041],[-118.07268,33.88042],[-118.07279,33.88586],[-118.06847,33.88588],[-118.0685,33.88759],[-118.06435,33.88762],[-118.06423,33.88718],[-118.05533,33.88722],[-118.05534,33.88769],[-118.03884,33.88791],[-118.03326,33.88492],[-118.02889,33.8828],[-118.02873,33.86605],[-118.03761,33.86601],[-118.03753,33.86238],[-118.04189,33.86234],[-118.04188,33.85873],[-118.04621,33.85869],[-118.04614,33.85361],[-118.05044,33.85357],[-118.0504,33.84988],[-118.05475,33.84984],[-118.0547,33.84623],[-118.08198,33.84601],[-118.08203,33.85013],[-118.08653,33.85013],[-118.0868,33.84597],[-118.09902,33.84586],[-118.09997,33.84796],[-118.10279,33.85832],[-118.10832,33.85828],[-118.10852,33.87287],[-118.1067,33.87288],[-118.10845,33.87956],[-118.10861,33.88693],[-118.10816,33.88693]],[[-118.05688,33.86983],[-118.05625,33.87001],[-118.05682,33.87039],[-118.05674,33.87006],[-118.05689,33.87004],[-118.05688,33.86983]],[[-118.06014,33.85204],[-118.06059,33.85183],[-118.06068,33.85224],[-118.06098,33.85227],[-118.06119,33.85199],[-118.06109,33.85102],[-118.06085,33.85099],[-118.06031,33.85122],[-118.05968,33.85078],[-118.05934,33.85084],[-118.0593,33.85117],[-118.06,33.85133],[-118.06022,33.85175],[-118.05958,33.85227],[-118.05969,33.85248],[-118.06019,33.85247],[-118.06014,33.85204]],[[-118.06246,33.86325],[-118.06237,33.86308],[-118.06164,33.86293],[-118.06139,33.86315],[-118.06135,33.86362],[-118.06181,33.86381],[-118.06236,33.8637],[-118.06246,33.86325]],[[-118.10504,33.88108],[-118.10507,33.88106],[-118.10507,33.88105],[-118.10506,33.88102],[-118.10503,33.881],[-118.10502,33.88101],[-118.10499,33.88103],[-118.10496,33.88103],[-118.10494,33.88105],[-118.10495,33.88107],[-118.10498,33.88108],[-118.10499,33.8811],[-118.10502,33.88109],[-118.10504,33.88108]],[[-118.10602,33.88104],[-118.10637,33.88093],[-118.10633,33.88081],[-118.10581,33.88096],[-118.10521,33.88085],[-118.10508,33.88099],[-118.10564,33.88118],[-118.10597,33.88118],[-118.10602,33.88104]],[[-118.10545,33.88156],[-118.1056,33.88173],[-118.10586,33.88169],[-118.10631,33.88122],[-118.10684,33.8811],[-118.1069,33.88079],[-118.10667,33.88069],[-118.10636,33.88078],[-118.10639,33.88092],[-118.10669,33.88089],[-118.10664,33.8811],[-118.10607,33.88115],[-118.10597,33.88135],[-118.10545,33.88156]]],[[[-118.0567,33.87007],[-118.0567,33.8701],[-118.0567,33.87012],[-118.05667,33.87013],[-118.05664,33.87014],[-118.05661,33.87013],[-118.05658,33.87011],[-118.05654,33.87008],[-118.05653,33.87001],[-118.05656,33.87001],[-118.05657,33.87001],[-118.05658,33.87],[-118.0566,33.86999],[-118.05662,33.87001],[-118.05667,33.87003],[-118.0567,33.87005],[-118.0567,33.87007]]],[[[-118.06164,33.86306],[-118.06166,33.86307],[-118.06165,33.86309],[-118.06167,33.86311],[-118.0616,33.86316],[-118.06162,33.86318],[-118.06161,33.8632],[-118.0616,33.86321],[-118.06157,33.86321],[-118.06157,33.86323],[-118.06157,33.86324],[-118.06154,33.86326],[-118.0615,33.86326],[-118.06146,33.86326],[-118.06144,33.86327],[-118.06143,33.86326],[-118.06141,33.86325],[-118.06142,33.86322],[-118.06145,33.86319],[-118.06145,33.86316],[-118.06147,33.86313],[-118.06149,33.86311],[-118.06149,33.86309],[-118.06149,33.86308],[-118.06154,33.86305],[-118.06156,33.86305],[-118.06159,33.86304],[-118.06162,33.86305],[-118.06164,33.86306]]],[[[-118.06236,33.86322],[-118.06238,33.86336],[-118.06215,33.86345],[-118.06227,33.86363],[-118.06177,33.86374],[-118.06148,33.86355],[-118.06145,33.86332],[-118.06174,33.86314],[-118.06236,33.86322]]]],"type":"MultiPolygon"},"properties":{"type":"boundary"},"type":"Feature"}],"type":"FeatureCollection"}