{"features":[{"geometry":{"coordinates":[[[-118.16943,34.04481],[-118.16912,34.04487],[-118.16891,34.04591],[-118.16825,34.04664],[-118.16824,34.0479],[-118.16808,34.04836],[-118.1693,34.04837],[-118.16927,34.0623],[-118.1527,34.06228],[-118.15128,34.06177],[-118.14848,34.06152],[-118.14723,34.061],[-118.14592,34.06014],[-118.14495,34.05994],[-118.14374,34.06018],[-118.14302,34.06059],[-118.14309,34.06096],[-118.14167,34.0615],[-118.14076,34.06204],[-118.13978,34.06232],[-118.13552,34.06246],[-118.13551,34.06327],[-118.13498,34.06327],[-118.13516,34.06793],[-118.13568,34.06792],[-118.13571,34.06978],[-118.10923,34.0699],[-118.10928,34.07169],[-118.10747,34.07168],[-118.10749,34.07039],[-118.10798,34.07005],[-118.10793,34.06995],[-118.10747,34.06995],[-118.10713,34.06442],[-118.10733,34.06442],[-118.10732,34.06252],[-118.10805,34.06253],[-118.10803,34.04699],[-118.10707,34.04653],[-118.10659,34.04667],[-118.10648,34.04635],[-118.1051,34.04695],[-118.10351,34.04722],[-118.10315,34.04714],[-118.10326,34.04704],[-118.10016,34.04497],[-118.10101,34.04351],[-118.10237,34.04237],[-118.10647,34.04043],[-118.10339,34.03959],[-118.10338,34.03822],[-118.09295,34.03561],[-118.09501,34.03516],[-118.09705,34.03567],[-118.09821,34.03525],[-118.09901,34.03225],[-118.10176,34.0319],[-118.10363,34.03197],[-118.10457,34.03009],[-118.10542,34.02968],[-118.10776,34.02712],[-118.11483,34.03351],[-118.14732,34.03342],[-118.15021,34.03469],[-118.1508,34.03455],[-118.15167,34.03398],[-118.1529,34.03526],[-118.15353,34.03572],[-118.15469,34.03613],[-118.15729,34.03627],[-118.15736,34.04063],[-118.15717,34.04063],[-118.15719,34.04426],[-118.16955,34.0442],[-118.16943,34.04481]],[[-118.11388,34.0499],[-118.11785,34.05126],[-118.11832,34.05126],[-118.119,34.05084],[-118.1192,34.05044],[-118.11915,34.04985],[-118.11785,34.04824],[-118.1172,34.04796],[-118.11398,34.04802],[-118.11342,34.04845],[-118.11327,34.04871],[-118.11342,34.04956],[-118.11388,34.0499]],[[-118.126,34.06081],[-118.12602,34.06083],[-118.12616,34.06083],[-118.12618,34.06081],[-118.12618,34.06078],[-118.12615,34.06076],[-118.12602,34.06076],[-118.126,34.06077],[-118.126,34.06081]],[[-118.13787,34.05484],[-118.13785,34.05484],[-118.13785,34.05484],[-118.13784,34.05484],[-118.13754,34.05471],[-118.13754,34.0547],[-118.13754,34.05469],[-118.13753,34.05469],[-118.13752,34.05469],[-118.13751,34.0547],[-118.13727,34.0546],[-118.13729,34.05458],[-118.13728,34.05457],[-118.13727,34.05457],[-118.13726,34.05457],[-118.13725,34.05458],[-118.13724,34.05458],[-118.13722,34.05462],[-118.13722,34.05463],[-118.13721,34.05464],[-118.13722,34.05465],[-118.13723,34.05465],[-118.13724,34.05466],[-118.13726,34.05463],[-118.13749,34.05473],[-118.13749,34.05474],[-118.13749,34.05475],[-118.1375,34.05475],[-118.13751,34.05475],[-118.13752,34.05474],[-118.13783,34.05487],[-118.13783,34.05487],[-118.13783,34.05488],[-118.13784,34.05489],[-118.13784,34.05489],[-118.13785,34.0549],[-118.13789,34.05484],[-118.13787,34.05483],[-118.13787,34.05484]]],"type":"Polygon"},"properties":{"type":"boundary"},"type":"Feature"}],"type":"FeatureCollection"}