{"features":[{"geometry":{"coordinates":[[[[-118.178,34.11029],[-118.17722,34.11043],[-118.17736,34.11089],[-118.17702,34.11099],[-118.17689,34.11206],[-118.17699,34.1122],[-118.17563,34.11263],[-118.17546,34.11317],[-118.17342,34.11327],[-118.17239,34.11375],[-118.17068,34.11574],[-118.16762,34.11811],[-118.16722,34.11863],[-118.1671,34.11944],[-118.16776,34.12069],[-118.16755,34.12114],[-118.16804,34.12311],[-118.16796,34.12392],[-118.1503,34.12406],[-118.14895,34.12564],[-118.14782,34.12506],[-118.14659,34.12399],[-118.14574,34.12213],[-118.14569,34.12375],[-118.14434,34.12262],[-118.14435,34.12181],[-118.1437,34.12158],[-118.14384,34.12131],[-118.14345,34.1215],[-118.14371,34.121],[-118.14331,34.12023],[-118.14216,34.11948],[-118.14077,34.11642],[-118.13991,34.11396],[-118.1383,34.11257],[-118.13954,34.11252],[-118.13645,34.10783],[-118.13473,34.10572],[-118.13477,34.10413],[-118.14179,34.10403],[-118.14178,34.09874],[-118.1553,34.09863],[-118.17802,34.09871],[-118.178,34.11029]]],[[[-118.16887,34.11784],[-118.169,34.11934],[-118.16889,34.12006],[-118.16794,34.1203],[-118.16783,34.12054],[-118.16727,34.1196],[-118.16724,34.11885],[-118.16775,34.11819],[-118.16998,34.11655],[-118.16887,34.11784]]]],"type":"MultiPolygon"},"properties":{"type":"boundary"},"type":"Feature"}],"type":"FeatureCollection"}