{"features":[{"geometry":{"coordinates":[[[-118.17764,34.10243],[-118.17695,34.10146],[-118.17762,34.10047],[-118.17801,34.10047],[-118.17801,34.10242],[-118.17764,34.10243]]],"type":"Polygon"},"properties":{"bbox":{"roads":{"area":283.4,"pct":1.97}},"city_same":1,"id":"hex:2087:17431"},"type":"Feature"},{"geometry":{"coordinates":[[[-118.17767,34.10438],[-118.17698,34.10341],[-118.17764,34.10243],[-118.17801,34.10242],[-118.17801,34.10437],[-118.17767,34.10438]]],"type":"Polygon"},"properties":{"bbox":{"roads":{"area":1385.04,"pct":10.03}},"city_same":1,"id":"hex:2087:17432"},"type":"Feature"},{"geometry":{"coordinates":[[[-118.1777,34.10633],[-118.17701,34.10536],[-118.17767,34.10438],[-118.17801,34.10437],[-118.17801,34.10633],[-118.1777,34.10633]]],"type":"Polygon"},"properties":{"bbox":{"roads":{"area":858.1,"pct":6.49}},"city_same":1,"id":"hex:2087:17433"},"type":"Feature"},{"geometry":{"coordinates":[[[-118.17772,34.10828],[-118.17703,34.10731],[-118.1777,34.10633],[-118.17801,34.10633],[-118.178,34.10828],[-118.17772,34.10828]]],"type":"Polygon"},"properties":{"bbox":{"roads":{"area":1200.18,"pct":9.5}},"city_same":1,"id":"hex:2087:17434"},"type":"Feature"},{"geometry":{"coordinates":[[[-118.17775,34.11023],[-118.17706,34.10926],[-118.17772,34.10828],[-118.178,34.10828],[-118.178,34.11023],[-118.17775,34.11023]]],"type":"Polygon"},"properties":{"bbox":{"roads":{"area":866.6,"pct":7.2}},"city_same":1,"id":"hex:2087:17435"},"type":"Feature"},{"geometry":{"coordinates":[[[[-118.17775,34.11023],[-118.178,34.11023],[-118.178,34.11029],[-118.17767,34.11035],[-118.17775,34.11023]]],[[[-118.17734,34.11084],[-118.17736,34.11089],[-118.1773,34.11091],[-118.17734,34.11084]]]],"type":"MultiPolygon"},"properties":{"bbox":{"roads":{"area":10.71,"pct":4.04}},"id":"hex:2087:17436"},"type":"Feature"},{"geometry":{"coordinates":[[[-118.17491,34.1005],[-118.1756,34.10147],[-118.17695,34.10146],[-118.17762,34.10047],[-118.17693,34.0995],[-118.17557,34.09952],[-118.17491,34.1005]]],"type":"Polygon"},"properties":{"bbox":{"roads":{"area":870.72,"pct":2.14}},"city_same":1,"id":"hex:2088:17431"},"type":"Feature"},{"geometry":{"coordinates":[[[-118.17493,34.10245],[-118.17562,34.10342],[-118.17698,34.10341],[-118.17764,34.10243],[-118.17695,34.10146],[-118.1756,34.10147],[-118.17493,34.10245]]],"type":"Polygon"},"properties":{"bbox":{"roads":{"area":2342.67,"pct":5.77}},"city_same":1,"id":"hex:2088:17432"},"type":"Feature"},{"geometry":{"coordinates":[[[-118.17496,34.1044],[-118.17565,34.10537],[-118.17701,34.10536],[-118.17767,34.10438],[-118.17698,34.10341],[-118.17562,34.10342],[-118.17496,34.1044]]],"type":"Polygon"},"properties":{"bbox":{"roads":{"area":2828.6,"pct":6.97}},"city_same":1,"id":"hex:2088:17433"},"type":"Feature"},{"geometry":{"coordinates":[[[-118.17499,34.10636],[-118.17568,34.10733],[-118.17703,34.10731],[-118.1777,34.10633],[-118.17701,34.10536],[-118.17565,34.10537],[-118.17499,34.10636]]],"type":"Polygon"},"properties":{"bbox":{"roads":{"area":2455.74,"pct":6.05}},"city_same":1,"id":"hex:2088:17434"},"type":"Feature"},{"geometry":{"coordinates":[[[-118.17501,34.10831],[-118.17571,34.10928],[-118.17706,34.10926],[-118.17772,34.10828],[-118.17703,34.10731],[-118.17568,34.10733],[-118.17501,34.10831]]],"type":"Polygon"},"properties":{"bbox":{"roads":{"area":3182.95,"pct":7.84}},"city_same":1,"id":"hex:2088:17435"},"type":"Feature"},{"geometry":{"coordinates":[[[-118.17573,34.11123],[-118.17504,34.11026],[-118.17571,34.10928],[-118.17706,34.10926],[-118.17775,34.11023],[-118.17767,34.11035],[-118.17722,34.11043],[-118.17734,34.11084],[-118.1773,34.11091],[-118.17702,34.11099],[-118.17699,34.11122],[-118.17573,34.11123]]],"type":"Polygon"},"properties":{"bbox":{"parking":{"area":972.95,"pct":2.49},"roads":{"area":4502.04,"pct":11.5},"sidewalks":{"area":141.43,"pct":0.36}},"city":{"parking":{"area":972.95,"pct":2.49},"roads":{"area":3738.42,"pct":9.55},"sidewalks":{"area":141.43,"pct":0.36}},"id":"hex:2088:17436"},"type":"Feature"},{"geometry":{"coordinates":[[[-118.17507,34.11221],[-118.17573,34.11123],[-118.17699,34.11122],[-118.17689,34.11206],[-118.17699,34.1122],[-118.17606,34.11249],[-118.17563,34.11263],[-118.17555,34.11289],[-118.17507,34.11221]]],"type":"Polygon"},"properties":{"bbox":{"roads":{"area":2619.87,"pct":12.82},"sidewalks":{"area":196.64,"pct":0.96}},"city":{"roads":{"area":483.49,"pct":2.37},"sidewalks":{"area":196.64,"pct":0.96}},"id":"hex:2088:17437"},"type":"Feature"},{"geometry":{"coordinates":[[[-118.17557,34.09952],[-118.17491,34.1005],[-118.17355,34.10051],[-118.17286,34.09954],[-118.17343,34.0987],[-118.17499,34.0987],[-118.17557,34.09952]]],"type":"Polygon"},"properties":{"bbox":{"roads":{"area":2196.34,"pct":5.72}},"city_same":1,"id":"hex:2089:17430"},"type":"Feature"},{"geometry":{"coordinates":[[[-118.17289,34.10149],[-118.17358,34.10246],[-118.17493,34.10245],[-118.1756,34.10147],[-118.17491,34.1005],[-118.17355,34.10051],[-118.17289,34.10149]]],"type":"Polygon"},"properties":{"bbox":{"roads":{"area":3934.49,"pct":9.69}},"city_same":1,"id":"hex:2089:17431"},"type":"Feature"},{"geometry":{"coordinates":[[[-118.17291,34.10345],[-118.17361,34.10442],[-118.17496,34.1044],[-118.17562,34.10342],[-118.17493,34.10245],[-118.17358,34.10246],[-118.17291,34.10345]]],"type":"Polygon"},"properties":{"bbox":{"roads":{"area":3635.12,"pct":8.95}},"city_same":1,"id":"hex:2089:17432"},"type":"Feature"},{"geometry":{"coordinates":[[[-118.17294,34.1054],[-118.17363,34.10637],[-118.17499,34.10636],[-118.17565,34.10537],[-118.17496,34.1044],[-118.17361,34.10442],[-118.17294,34.1054]]],"type":"Polygon"},"properties":{"bbox":{"roads":{"area":3403.13,"pct":8.38}},"city_same":1,"id":"hex:2089:17433"},"type":"Feature"},{"geometry":{"coordinates":[[[-118.17297,34.10735],[-118.17366,34.10832],[-118.17501,34.10831],[-118.17568,34.10733],[-118.17499,34.10636],[-118.17363,34.10637],[-118.17297,34.10735]]],"type":"Polygon"},"properties":{"bbox":{"roads":{"area":3571.38,"pct":8.8}},"city_same":1,"id":"hex:2089:17434"},"type":"Feature"},{"geometry":{"coordinates":[[[-118.173,34.1093],[-118.17369,34.11027],[-118.17504,34.11026],[-118.17571,34.10928],[-118.17501,34.10831],[-118.17366,34.10832],[-118.173,34.1093]]],"type":"Polygon"},"properties":{"bbox":{"roads":{"area":2498.64,"pct":6.16},"sidewalks":{"area":263.83,"pct":0.65}},"city_same":1,"id":"hex:2089:17435"},"type":"Feature"},{"geometry":{"coordinates":[[[-118.17302,34.11126],[-118.17371,34.11223],[-118.17507,34.11221],[-118.17573,34.11123],[-118.17504,34.11026],[-118.17369,34.11027],[-118.17302,34.11126]]],"type":"Polygon"},"properties":{"bbox":{"roads":{"area":5447.54,"pct":13.42},"sidewalks":{"area":441.87,"pct":1.09}},"city":{"roads":{"area":3179.95,"pct":7.83},"sidewalks":{"area":441.87,"pct":1.09}},"id":"hex:2089:17436"},"type":"Feature"},{"geometry":{"coordinates":[[[-118.17305,34.11321],[-118.17371,34.11223],[-118.17507,34.11221],[-118.17555,34.11289],[-118.17546,34.11317],[-118.17342,34.11327],[-118.17317,34.11338],[-118.17305,34.11321]]],"type":"Polygon"},"properties":{"bbox":{"sidewalks":{"area":13.54,"pct":0.07}},"city_same":1,"id":"hex:2089:17437"},"type":"Feature"},{"geometry":{"coordinates":[[[-118.17286,34.09954],[-118.17151,34.09956],[-118.17089,34.09869],[-118.17343,34.0987],[-118.17286,34.09954]]],"type":"Polygon"},"properties":{"bbox":{"roads":{"area":455.14,"pct":2.68}},"city_same":1,"id":"hex:2090:17430"},"type":"Feature"},{"geometry":{"coordinates":[[[-118.17084,34.10054],[-118.17153,34.10151],[-118.17289,34.10149],[-118.17355,34.10051],[-118.17286,34.09954],[-118.17151,34.09956],[-118.17084,34.10054]]],"type":"Polygon"},"properties":{"bbox":{"roads":{"area":560.67,"pct":1.38}},"city_same":1,"id":"hex:2090:17431"},"type":"Feature"},{"geometry":{"coordinates":[[[-118.17087,34.10249],[-118.17156,34.10346],[-118.17291,34.10345],[-118.17358,34.10246],[-118.17289,34.10149],[-118.17153,34.10151],[-118.17087,34.10249]]],"type":"Polygon"},"properties":{"bbox":{"roads":{"area":1517.81,"pct":3.74}},"city_same":1,"id":"hex:2090:17432"},"type":"Feature"},{"geometry":{"coordinates":[[[-118.1709,34.10444],[-118.17159,34.10541],[-118.17294,34.1054],[-118.17361,34.10442],[-118.17291,34.10345],[-118.17156,34.10346],[-118.1709,34.10444]]],"type":"Polygon"},"properties":{"bbox":{"roads":{"area":1035.65,"pct":2.55}},"city_same":1,"id":"hex:2090:17433"},"type":"Feature"},{"geometry":{"coordinates":[[[-118.17092,34.10639],[-118.17161,34.10736],[-118.17297,34.10735],[-118.17363,34.10637],[-118.17294,34.1054],[-118.17159,34.10541],[-118.17092,34.10639]]],"type":"Polygon"},"properties":{"bbox":{"roads":{"area":2039.79,"pct":5.02}},"city_same":1,"id":"hex:2090:17434"},"type":"Feature"},{"geometry":{"coordinates":[[[-118.17095,34.10835],[-118.17164,34.10932],[-118.173,34.1093],[-118.17366,34.10832],[-118.17297,34.10735],[-118.17161,34.10736],[-118.17095,34.10835]]],"type":"Polygon"},"properties":{"bbox":{"roads":{"area":2998.39,"pct":7.39}},"city_same":1,"id":"hex:2090:17435"},"type":"Feature"},{"geometry":{"coordinates":[[[-118.17098,34.1103],[-118.17167,34.11127],[-118.17302,34.11126],[-118.17369,34.11027],[-118.173,34.1093],[-118.17164,34.10932],[-118.17098,34.1103]]],"type":"Polygon"},"properties":{"bbox":{"roads":{"area":1853.46,"pct":4.57},"sidewalks":{"area":616.54,"pct":1.52}},"city_same":1,"id":"hex:2090:17436"},"type":"Feature"},{"geometry":{"coordinates":[[[-118.171,34.11225],[-118.17169,34.11322],[-118.17305,34.11321],[-118.17371,34.11223],[-118.17302,34.11126],[-118.17167,34.11127],[-118.171,34.11225]]],"type":"Polygon"},"properties":{"bbox":{"roads":{"area":4877.43,"pct":12.01},"sidewalks":{"area":345.61,"pct":0.85}},"city":{"roads":{"area":1328.47,"pct":3.27},"sidewalks":{"area":345.61,"pct":0.85}},"id":"hex:2090:17437"},"type":"Feature"},{"geometry":{"coordinates":[[[-118.17103,34.1142],[-118.17169,34.11322],[-118.17305,34.11321],[-118.17317,34.11338],[-118.17317,34.11339],[-118.17267,34.1136],[-118.17262,34.11364],[-118.17239,34.11375],[-118.17147,34.11482],[-118.17103,34.1142]]],"type":"Polygon"},"properties":{"bbox":{"parking":{"area":1909.72,"pct":12.56},"roads":{"area":832.71,"pct":5.48}},"city_same":1,"id":"hex:2090:17438"},"type":"Feature"},{"geometry":{"coordinates":[[[-118.17151,34.09956],[-118.17084,34.10054],[-118.16949,34.10055],[-118.1688,34.09958],[-118.1694,34.09869],[-118.17089,34.09869],[-118.17151,34.09956]]],"type":"Polygon"},"properties":{"bbox":{"roads":{"area":2022.28,"pct":5.17}},"city_same":1,"id":"hex:2091:17430"},"type":"Feature"},{"geometry":{"coordinates":[[[-118.16882,34.10153],[-118.16951,34.1025],[-118.17087,34.10249],[-118.17153,34.10151],[-118.17084,34.10054],[-118.16949,34.10055],[-118.16882,34.10153]]],"type":"Polygon"},"properties":{"bbox":{"roads":{"area":1628.45,"pct":4.01}},"city_same":1,"id":"hex:2091:17431"},"type":"Feature"},{"geometry":{"coordinates":[[[-118.16885,34.10349],[-118.16954,34.10445],[-118.1709,34.10444],[-118.17156,34.10346],[-118.17087,34.10249],[-118.16951,34.1025],[-118.16885,34.10349]]],"type":"Polygon"},"properties":{"bbox":{"roads":{"area":2622.52,"pct":6.46}},"city_same":1,"id":"hex:2091:17432"},"type":"Feature"},{"geometry":{"coordinates":[[[-118.16888,34.10544],[-118.16957,34.10641],[-118.17092,34.10639],[-118.17159,34.10541],[-118.1709,34.10444],[-118.16954,34.10445],[-118.16888,34.10544]]],"type":"Polygon"},"properties":{"bbox":{"roads":{"area":1607.81,"pct":3.96}},"city_same":1,"id":"hex:2091:17433"},"type":"Feature"},{"geometry":{"coordinates":[[[-118.1689,34.10739],[-118.16959,34.10836],[-118.17095,34.10835],[-118.17161,34.10736],[-118.17092,34.10639],[-118.16957,34.10641],[-118.1689,34.10739]]],"type":"Polygon"},"properties":{"bbox":{"roads":{"area":2932.83,"pct":7.22}},"city_same":1,"id":"hex:2091:17434"},"type":"Feature"},{"geometry":{"coordinates":[[[-118.16893,34.10934],[-118.16962,34.11031],[-118.17098,34.1103],[-118.17164,34.10932],[-118.17095,34.10835],[-118.16959,34.10836],[-118.16893,34.10934]]],"type":"Polygon"},"properties":{"bbox":{"roads":{"area":1958.02,"pct":4.82}},"city_same":1,"id":"hex:2091:17435"},"type":"Feature"},{"geometry":{"coordinates":[[[-118.16896,34.11129],[-118.16965,34.11226],[-118.171,34.11225],[-118.17167,34.11127],[-118.17098,34.1103],[-118.16962,34.11031],[-118.16896,34.11129]]],"type":"Polygon"},"properties":{"bbox":{"parking":{"area":759.13,"pct":1.87},"roads":{"area":6286.64,"pct":15.49},"sidewalks":{"area":841.45,"pct":2.07}},"city":{"parking":{"area":759.13,"pct":1.87},"roads":{"area":3780.91,"pct":9.31},"sidewalks":{"area":841.45,"pct":2.07}},"id":"hex:2091:17436"},"type":"Feature"},{"geometry":{"coordinates":[[[-118.16898,34.11325],[-118.16968,34.11422],[-118.17103,34.1142],[-118.17169,34.11322],[-118.171,34.11225],[-118.16965,34.11226],[-118.16898,34.11325]]],"type":"Polygon"},"properties":{"bbox":{"roads":{"area":3482.2,"pct":8.58},"sidewalks":{"area":559.1,"pct":1.38}},"city":{"roads":{"area":3195.09,"pct":7.87},"sidewalks":{"area":559.1,"pct":1.38}},"id":"hex:2091:17437"},"type":"Feature"},{"geometry":{"coordinates":[[[-118.1697,34.11617],[-118.16901,34.1152],[-118.16968,34.11422],[-118.17103,34.1142],[-118.17147,34.11482],[-118.17068,34.11574],[-118.17056,34.11583],[-118.17012,34.11616],[-118.1697,34.11617]]],"type":"Polygon"},"properties":{"bbox":{"parking":{"area":1455.31,"pct":4.46},"roads":{"area":1487.78,"pct":4.56}},"city_same":1,"id":"hex:2091:17438"},"type":"Feature"},{"geometry":{"coordinates":[[[[-118.16907,34.1172],[-118.16976,34.11671],[-118.16998,34.11655],[-118.16923,34.11742],[-118.16907,34.1172]]],[[[-118.1697,34.11617],[-118.17012,34.11616],[-118.16962,34.11655],[-118.16925,34.11684],[-118.1697,34.11617]]]],"type":"MultiPolygon"},"properties":{"bbox":{"roads":{"area":281,"pct":9.61}},"id":"hex:2091:17439"},"type":"Feature"},{"geometry":{"coordinates":[[[-118.1688,34.09958],[-118.16744,34.09959],[-118.1668,34.09869],[-118.1694,34.09869],[-118.1688,34.09958]]],"type":"Polygon"},"properties":{"bbox":{"roads":{"area":984.2,"pct":5.43}},"city_same":1,"id":"hex:2092:17430"},"type":"Feature"},{"geometry":{"coordinates":[[[-118.16678,34.10058],[-118.16747,34.10155],[-118.16882,34.10153],[-118.16949,34.10055],[-118.1688,34.09958],[-118.16744,34.09959],[-118.16678,34.10058]]],"type":"Polygon"},"properties":{"bbox":{"roads":{"area":1045.8,"pct":2.58}},"city_same":1,"id":"hex:2092:17431"},"type":"Feature"},{"geometry":{"coordinates":[[[-118.1668,34.10253],[-118.1675,34.1035],[-118.16885,34.10349],[-118.16951,34.1025],[-118.16882,34.10153],[-118.16747,34.10155],[-118.1668,34.10253]]],"type":"Polygon"},"properties":{"bbox":{"roads":{"area":223.44,"pct":0.55}},"city_same":1,"id":"hex:2092:17432"},"type":"Feature"},{"geometry":{"coordinates":[[[-118.16683,34.10448],[-118.16752,34.10545],[-118.16888,34.10544],[-118.16954,34.10445],[-118.16885,34.10349],[-118.1675,34.1035],[-118.16683,34.10448]]],"type":"Polygon"},"properties":{"bbox":{"roads":{"area":1426.7,"pct":3.51}},"city_same":1,"id":"hex:2092:17433"},"type":"Feature"},{"geometry":{"coordinates":[[[-118.16686,34.10643],[-118.16755,34.1074],[-118.1689,34.10739],[-118.16957,34.10641],[-118.16888,34.10544],[-118.16752,34.10545],[-118.16686,34.10643]]],"type":"Polygon"},"properties":{"bbox":{"roads":{"area":1964.7,"pct":4.84}},"city_same":1,"id":"hex:2092:17434"},"type":"Feature"},{"geometry":{"coordinates":[[[-118.16688,34.10839],[-118.16758,34.10935],[-118.16893,34.10934],[-118.16959,34.10836],[-118.1689,34.10739],[-118.16755,34.1074],[-118.16688,34.10839]]],"type":"Polygon"},"properties":{"bbox":{"roads":{"area":2453.11,"pct":6.04}},"city_same":1,"id":"hex:2092:17435"},"type":"Feature"},{"geometry":{"coordinates":[[[-118.16691,34.11034],[-118.1676,34.11131],[-118.16896,34.11129],[-118.16962,34.11031],[-118.16893,34.10934],[-118.16758,34.10935],[-118.16691,34.11034]]],"type":"Polygon"},"properties":{"bbox":{"roads":{"area":2216.86,"pct":5.46},"sidewalks":{"area":175.22,"pct":0.43}},"city":{"roads":{"area":1953.62,"pct":4.81},"sidewalks":{"area":175.22,"pct":0.43}},"id":"hex:2092:17436"},"type":"Feature"},{"geometry":{"coordinates":[[[-118.16694,34.11229],[-118.16763,34.11326],[-118.16898,34.11325],[-118.16965,34.11226],[-118.16896,34.11129],[-118.1676,34.11131],[-118.16694,34.11229]]],"type":"Polygon"},"properties":{"bbox":{"roads":{"area":6130.65,"pct":15.1},"sidewalks":{"area":1044.89,"pct":2.57}},"city":{"roads":{"area":4755.89,"pct":11.72},"sidewalks":{"area":1044.89,"pct":2.57}},"id":"hex:2092:17437"},"type":"Feature"},{"geometry":{"coordinates":[[[-118.16697,34.11424],[-118.16766,34.11521],[-118.16901,34.1152],[-118.16968,34.11422],[-118.16898,34.11325],[-118.16763,34.11326],[-118.16697,34.11424]]],"type":"Polygon"},"properties":{"bbox":{"roads":{"area":4940.87,"pct":12.17},"sidewalks":{"area":687.52,"pct":1.69}},"city_same":1,"id":"hex:2092:17438"},"type":"Feature"},{"geometry":{"coordinates":[[[-118.16768,34.11716],[-118.16699,34.11619],[-118.16766,34.11521],[-118.16901,34.1152],[-118.1697,34.11617],[-118.16925,34.11684],[-118.16885,34.11715],[-118.16768,34.11716]]],"type":"Polygon"},"properties":{"bbox":{"parking":{"area":1264.45,"pct":3.14},"roads":{"area":1714.29,"pct":4.25}},"city_same":1,"id":"hex:2092:17439"},"type":"Feature"},{"geometry":{"coordinates":[[[[-118.16702,34.11815],[-118.16768,34.11716],[-118.16885,34.11715],[-118.16867,34.1173],[-118.16816,34.11766],[-118.16762,34.11811],[-118.16736,34.11838],[-118.16728,34.11852],[-118.16702,34.11815]]],[[[-118.16771,34.11912],[-118.16736,34.11863],[-118.16744,34.11849],[-118.16775,34.11819],[-118.16796,34.11803],[-118.16861,34.11753],[-118.16907,34.1172],[-118.16923,34.11742],[-118.16887,34.11784],[-118.16883,34.11867],[-118.16894,34.1191],[-118.16771,34.11912]]]],"type":"MultiPolygon"},"properties":{"bbox":{"parking":{"area":638.64,"pct":2.27},"roads":{"area":5953.26,"pct":21.13}},"city":{"parking":{"area":638.64,"pct":2.27},"roads":{"area":1214.09,"pct":4.31}},"id":"hex:2092:17440"},"type":"Feature"},{"geometry":{"coordinates":[[[[-118.16705,34.1201],[-118.16725,34.1198],[-118.16735,34.12],[-118.16768,34.12052],[-118.16776,34.12069],[-118.16764,34.12094],[-118.16705,34.1201]]],[[[-118.16771,34.11912],[-118.16894,34.1191],[-118.169,34.11934],[-118.16889,34.12006],[-118.16794,34.1203],[-118.16783,34.12054],[-118.16752,34.12002],[-118.16733,34.11969],[-118.16771,34.11912]]]],"type":"MultiPolygon"},"properties":{"bbox":{"parking":{"area":7.02,"pct":0.04}},"city_same":1,"id":"hex:2092:17441"},"type":"Feature"},{"geometry":{"coordinates":[[[-118.16776,34.12302],[-118.16707,34.12205],[-118.16758,34.1213],[-118.16767,34.1218],[-118.16795,34.12282],[-118.16801,34.12302],[-118.16776,34.12302]]],"type":"Polygon"},"properties":{"bbox":{"parking":{"area":620.64,"pct":8.87},"roads":{"area":569.24,"pct":8.14}},"city_same":1,"id":"hex:2092:17442"},"type":"Feature"},{"geometry":{"coordinates":[[[-118.16744,34.09959],[-118.16678,34.10058],[-118.16542,34.10059],[-118.16473,34.09962],[-118.16536,34.09869],[-118.1668,34.09869],[-118.16744,34.09959]]],"type":"Polygon"},"properties":{"bbox":{"roads":{"area":1479.1,"pct":3.72}},"city_same":1,"id":"hex:2093:17430"},"type":"Feature"},{"geometry":{"coordinates":[[[-118.16476,34.10157],[-118.16545,34.10254],[-118.1668,34.10253],[-118.16747,34.10155],[-118.16678,34.10058],[-118.16542,34.10059],[-118.16476,34.10157]]],"type":"Polygon"},"properties":{"bbox":{"roads":{"area":1442.19,"pct":3.55}},"city_same":1,"id":"hex:2093:17431"},"type":"Feature"},{"geometry":{"coordinates":[[[-118.16479,34.10352],[-118.16548,34.10449],[-118.16683,34.10448],[-118.1675,34.1035],[-118.1668,34.10253],[-118.16545,34.10254],[-118.16479,34.10352]]],"type":"Polygon"},"properties":{"bbox":{"roads":{"area":1110.54,"pct":2.74}},"city_same":1,"id":"hex:2093:17432"},"type":"Feature"},{"geometry":{"coordinates":[[[-118.16481,34.10548],[-118.1655,34.10645],[-118.16686,34.10643],[-118.16752,34.10545],[-118.16683,34.10448],[-118.16548,34.10449],[-118.16481,34.10548]]],"type":"Polygon"},"properties":{"bbox":{"roads":{"area":1801.8,"pct":4.44}},"city_same":1,"id":"hex:2093:17433"},"type":"Feature"},{"geometry":{"coordinates":[[[-118.16484,34.10743],[-118.16553,34.1084],[-118.16688,34.10839],[-118.16755,34.1074],[-118.16686,34.10643],[-118.1655,34.10645],[-118.16484,34.10743]]],"type":"Polygon"},"properties":{"bbox":{"roads":{"area":3323.12,"pct":8.19}},"city_same":1,"id":"hex:2093:17434"},"type":"Feature"},{"geometry":{"coordinates":[[[-118.16487,34.10938],[-118.16556,34.11035],[-118.16691,34.11034],[-118.16758,34.10935],[-118.16688,34.10839],[-118.16553,34.1084],[-118.16487,34.10938]]],"type":"Polygon"},"properties":{"bbox":{"roads":{"area":2522.51,"pct":6.21}},"city_same":1,"id":"hex:2093:17435"},"type":"Feature"},{"geometry":{"coordinates":[[[-118.16489,34.11133],[-118.16558,34.1123],[-118.16694,34.11229],[-118.1676,34.11131],[-118.16691,34.11034],[-118.16556,34.11035],[-118.16489,34.11133]]],"type":"Polygon"},"properties":{"bbox":{"roads":{"area":3973.79,"pct":9.79},"sidewalks":{"area":681.39,"pct":1.68}},"city":{"roads":{"area":2130.44,"pct":5.25},"sidewalks":{"area":681.39,"pct":1.68}},"id":"hex:2093:17436"},"type":"Feature"},{"geometry":{"coordinates":[[[-118.16492,34.11328],[-118.16561,34.11425],[-118.16697,34.11424],[-118.16763,34.11326],[-118.16694,34.11229],[-118.16558,34.1123],[-118.16492,34.11328]]],"type":"Polygon"},"properties":{"bbox":{"roads":{"area":3499.62,"pct":8.62},"sidewalks":{"area":309.27,"pct":0.76}},"city_same":1,"id":"hex:2093:17437"},"type":"Feature"},{"geometry":{"coordinates":[[[-118.16495,34.11524],[-118.16564,34.11621],[-118.16699,34.11619],[-118.16766,34.11521],[-118.16697,34.11424],[-118.16561,34.11425],[-118.16495,34.11524]]],"type":"Polygon"},"properties":{"bbox":{"roads":{"area":4668.13,"pct":11.5},"sidewalks":{"area":838.75,"pct":2.07}},"city_same":1,"id":"hex:2093:17438"},"type":"Feature"},{"geometry":{"coordinates":[[[-118.16497,34.11719],[-118.16566,34.11816],[-118.16702,34.11815],[-118.16768,34.11716],[-118.16699,34.11619],[-118.16564,34.11621],[-118.16497,34.11719]]],"type":"Polygon"},"properties":{"bbox":{"parking":{"area":844.04,"pct":2.08},"roads":{"area":4456.4,"pct":10.98}},"city":{"parking":{"area":844.04,"pct":2.08},"roads":{"area":3800.87,"pct":9.36}},"id":"hex:2093:17439"},"type":"Feature"},{"geometry":{"coordinates":[[[[-118.16705,34.1201],[-118.16569,34.12011],[-118.165,34.11914],[-118.16566,34.11816],[-118.16702,34.11815],[-118.16728,34.11852],[-118.16722,34.11863],[-118.1671,34.11891],[-118.16708,34.11927],[-118.1671,34.11944],[-118.16716,34.11963],[-118.16725,34.1198],[-118.16705,34.1201]]],[[[-118.16771,34.11912],[-118.16733,34.11969],[-118.16727,34.1196],[-118.16721,34.11922],[-118.16724,34.11885],[-118.16736,34.11863],[-118.16771,34.11912]]]],"type":"MultiPolygon"},"properties":{"bbox":{"parking":{"area":1042.79,"pct":2.67},"roads":{"area":4727.69,"pct":12.11}},"city":{"parking":{"area":1042.79,"pct":2.67},"roads":{"area":2098.01,"pct":5.37}},"id":"hex:2093:17440"},"type":"Feature"},{"geometry":{"coordinates":[[[-118.16707,34.12205],[-118.16572,34.12206],[-118.16503,34.12109],[-118.16569,34.12011],[-118.16705,34.1201],[-118.16764,34.12094],[-118.16755,34.12114],[-118.16758,34.1213],[-118.16707,34.12205]]],"type":"Polygon"},"properties":{"bbox":{"parking":{"area":2581.5,"pct":6.41},"roads":{"area":2038.2,"pct":5.06}},"city_same":1,"id":"hex:2093:17441"},"type":"Feature"},{"geometry":{"coordinates":[[[-118.16505,34.12305],[-118.16572,34.12206],[-118.16707,34.12205],[-118.16776,34.12302],[-118.16715,34.12393],[-118.16569,34.12394],[-118.16505,34.12305]]],"type":"Polygon"},"properties":{"bbox":{"parking":{"area":2129.17,"pct":5.38},"roads":{"area":3100.8,"pct":7.84}},"city_same":1,"id":"hex:2093:17442"},"type":"Feature"},{"geometry":{"coordinates":[[[-118.16473,34.09962],[-118.16338,34.09963],[-118.1627,34.09868],[-118.16536,34.09869],[-118.16473,34.09962]]],"type":"Polygon"},"properties":{"bbox":{"roads":{"area":564.32,"pct":2.92}},"city_same":1,"id":"hex:2094:17430"},"type":"Feature"},{"geometry":{"coordinates":[[[-118.16271,34.10061],[-118.1634,34.10158],[-118.16476,34.10157],[-118.16542,34.10059],[-118.16473,34.09962],[-118.16338,34.09963],[-118.16271,34.10061]]],"type":"Polygon"},"properties":{"bbox":{"roads":{"area":1355.41,"pct":3.34}},"city_same":1,"id":"hex:2094:17431"},"type":"Feature"},{"geometry":{"coordinates":[[[-118.16274,34.10257],[-118.16343,34.10354],[-118.16479,34.10352],[-118.16545,34.10254],[-118.16476,34.10157],[-118.1634,34.10158],[-118.16274,34.10257]]],"type":"Polygon"},"properties":{"bbox":{"roads":{"area":2289.65,"pct":5.64}},"city_same":1,"id":"hex:2094:17432"},"type":"Feature"},{"geometry":{"coordinates":[[[-118.16277,34.10452],[-118.16346,34.10549],[-118.16481,34.10548],[-118.16548,34.10449],[-118.16479,34.10352],[-118.16343,34.10354],[-118.16277,34.10452]]],"type":"Polygon"},"properties":{"bbox":{"parking":{"area":234.96,"pct":0.58},"roads":{"area":2149.3,"pct":5.29}},"city_same":1,"id":"hex:2094:17433"},"type":"Feature"},{"geometry":{"coordinates":[[[-118.16279,34.10647],[-118.16348,34.10744],[-118.16484,34.10743],[-118.1655,34.10645],[-118.16481,34.10548],[-118.16346,34.10549],[-118.16279,34.10647]]],"type":"Polygon"},"properties":{"bbox":{"roads":{"area":1959.14,"pct":4.83}},"city_same":1,"id":"hex:2094:17434"},"type":"Feature"},{"geometry":{"coordinates":[[[-118.16282,34.10842],[-118.16351,34.10939],[-118.16487,34.10938],[-118.16553,34.1084],[-118.16484,34.10743],[-118.16348,34.10744],[-118.16282,34.10842]]],"type":"Polygon"},"properties":{"bbox":{"roads":{"area":2167.06,"pct":5.34}},"city_same":1,"id":"hex:2094:17435"},"type":"Feature"},{"geometry":{"coordinates":[[[-118.16285,34.11038],[-118.16354,34.11135],[-118.16489,34.11133],[-118.16556,34.11035],[-118.16487,34.10938],[-118.16351,34.10939],[-118.16285,34.11038]]],"type":"Polygon"},"properties":{"bbox":{"roads":{"area":2808.12,"pct":6.92}},"city_same":1,"id":"hex:2094:17436"},"type":"Feature"},{"geometry":{"coordinates":[[[-118.16287,34.11233],[-118.16356,34.1133],[-118.16492,34.11328],[-118.16558,34.1123],[-118.16489,34.11133],[-118.16354,34.11135],[-118.16287,34.11233]]],"type":"Polygon"},"properties":{"bbox":{"roads":{"area":5561.66,"pct":13.7},"sidewalks":{"area":320.42,"pct":0.79}},"city":{"roads":{"area":4223.68,"pct":10.4},"sidewalks":{"area":320.42,"pct":0.79}},"id":"hex:2094:17437"},"type":"Feature"},{"geometry":{"coordinates":[[[-118.1629,34.11428],[-118.16359,34.11525],[-118.16495,34.11524],[-118.16561,34.11425],[-118.16492,34.11328],[-118.16356,34.1133],[-118.1629,34.11428]]],"type":"Polygon"},"properties":{"bbox":{"roads":{"area":4827.41,"pct":11.89}},"city_same":1,"id":"hex:2094:17438"},"type":"Feature"},{"geometry":{"coordinates":[[[-118.16293,34.11623],[-118.16362,34.1172],[-118.16497,34.11719],[-118.16564,34.11621],[-118.16495,34.11524],[-118.16359,34.11525],[-118.16293,34.11623]]],"type":"Polygon"},"properties":{"bbox":{"parking":{"area":600.06,"pct":1.48},"roads":{"area":4271.6,"pct":10.52},"sidewalks":{"area":512.8,"pct":1.26}},"city_same":1,"id":"hex:2094:17439"},"type":"Feature"},{"geometry":{"coordinates":[[[-118.16295,34.11818],[-118.16364,34.11915],[-118.165,34.11914],[-118.16566,34.11816],[-118.16497,34.11719],[-118.16362,34.1172],[-118.16295,34.11818]]],"type":"Polygon"},"properties":{"bbox":{"roads":{"area":7110.52,"pct":17.52}},"city":{"roads":{"area":2900,"pct":7.14}},"id":"hex:2094:17440"},"type":"Feature"},{"geometry":{"coordinates":[[[-118.16298,34.12014],[-118.16367,34.12111],[-118.16503,34.12109],[-118.16569,34.12011],[-118.165,34.11914],[-118.16364,34.11915],[-118.16298,34.12014]]],"type":"Polygon"},"properties":{"bbox":{"roads":{"area":2406.68,"pct":5.93}},"city_same":1,"id":"hex:2094:17441"},"type":"Feature"},{"geometry":{"coordinates":[[[-118.16301,34.12209],[-118.1637,34.12306],[-118.16505,34.12305],[-118.16572,34.12206],[-118.16503,34.12109],[-118.16367,34.12111],[-118.16301,34.12209]]],"type":"Polygon"},"properties":{"bbox":{"roads":{"area":3026.62,"pct":7.46}},"city_same":1,"id":"hex:2094:17442"},"type":"Feature"},{"geometry":{"coordinates":[[[-118.1637,34.12306],[-118.16505,34.12305],[-118.16569,34.12394],[-118.16309,34.12396],[-118.1637,34.12306]]],"type":"Polygon"},"properties":{"bbox":{"roads":{"area":849.98,"pct":4.66}},"city_same":1,"id":"hex:2094:17443"},"type":"Feature"},{"geometry":{"coordinates":[[[-118.16338,34.09963],[-118.16271,34.10061],[-118.16136,34.10063],[-118.16067,34.09966],[-118.16133,34.09868],[-118.1627,34.09868],[-118.16338,34.09963]]],"type":"Polygon"},"properties":{"bbox":{"roads":{"area":2536.47,"pct":6.27}},"city_same":1,"id":"hex:2095:17430"},"type":"Feature"},{"geometry":{"coordinates":[[[-118.16069,34.10161],[-118.16138,34.10258],[-118.16274,34.10257],[-118.1634,34.10158],[-118.16271,34.10061],[-118.16136,34.10063],[-118.16069,34.10161]]],"type":"Polygon"},"properties":{"bbox":{"roads":{"area":1842.83,"pct":4.54}},"city_same":1,"id":"hex:2095:17431"},"type":"Feature"},{"geometry":{"coordinates":[[[-118.16072,34.10356],[-118.16141,34.10453],[-118.16277,34.10452],[-118.16343,34.10354],[-118.16274,34.10257],[-118.16138,34.10258],[-118.16072,34.10356]]],"type":"Polygon"},"properties":{"bbox":{"roads":{"area":2582.06,"pct":6.36}},"city_same":1,"id":"hex:2095:17432"},"type":"Feature"},{"geometry":{"coordinates":[[[-118.16075,34.10551],[-118.16144,34.10648],[-118.16279,34.10647],[-118.16346,34.10549],[-118.16277,34.10452],[-118.16141,34.10453],[-118.16075,34.10551]]],"type":"Polygon"},"properties":{"bbox":{"roads":{"area":3476.49,"pct":8.56}},"city_same":1,"id":"hex:2095:17433"},"type":"Feature"},{"geometry":{"coordinates":[[[-118.16077,34.10747],[-118.16146,34.10844],[-118.16282,34.10842],[-118.16348,34.10744],[-118.16279,34.10647],[-118.16144,34.10648],[-118.16077,34.10747]]],"type":"Polygon"},"properties":{"bbox":{"roads":{"area":2935.31,"pct":7.23}},"city_same":1,"id":"hex:2095:17434"},"type":"Feature"},{"geometry":{"coordinates":[[[-118.1608,34.10942],[-118.16149,34.11039],[-118.16285,34.11038],[-118.16351,34.10939],[-118.16282,34.10842],[-118.16146,34.10844],[-118.1608,34.10942]]],"type":"Polygon"},"properties":{"bbox":{"parking":{"area":214.41,"pct":0.53},"roads":{"area":3183.56,"pct":7.84}},"city_same":1,"id":"hex:2095:17435"},"type":"Feature"},{"geometry":{"coordinates":[[[-118.16083,34.11137],[-118.16152,34.11234],[-118.16287,34.11233],[-118.16354,34.11135],[-118.16285,34.11038],[-118.16149,34.11039],[-118.16083,34.11137]]],"type":"Polygon"},"properties":{"bbox":{"parking":{"area":2959.38,"pct":7.29},"roads":{"area":3493.57,"pct":8.61}},"city":{"parking":{"area":2959.38,"pct":7.29},"roads":{"area":2109.58,"pct":5.2}},"id":"hex:2095:17436"},"type":"Feature"},{"geometry":{"coordinates":[[[-118.16085,34.11332],[-118.16154,34.11429],[-118.1629,34.11428],[-118.16356,34.1133],[-118.16287,34.11233],[-118.16152,34.11234],[-118.16085,34.11332]]],"type":"Polygon"},"properties":{"bbox":{"roads":{"area":4723.83,"pct":11.64},"sidewalks":{"area":442.08,"pct":1.09}},"city_same":1,"id":"hex:2095:17437"},"type":"Feature"},{"geometry":{"coordinates":[[[-118.16088,34.11528],[-118.16157,34.11625],[-118.16293,34.11623],[-118.16359,34.11525],[-118.1629,34.11428],[-118.16154,34.11429],[-118.16088,34.11528]]],"type":"Polygon"},"properties":{"bbox":{"parking":{"area":4421.93,"pct":10.89},"roads":{"area":5962.09,"pct":14.69},"sidewalks":{"area":534.93,"pct":1.32}},"city_same":1,"id":"hex:2095:17438"},"type":"Feature"},{"geometry":{"coordinates":[[[-118.16091,34.11723],[-118.1616,34.1182],[-118.16295,34.11818],[-118.16362,34.1172],[-118.16293,34.11623],[-118.16157,34.11625],[-118.16091,34.11723]]],"type":"Polygon"},"properties":{"bbox":{"roads":{"area":2993.54,"pct":7.37}},"city_same":1,"id":"hex:2095:17439"},"type":"Feature"},{"geometry":{"coordinates":[[[-118.16093,34.11918],[-118.16162,34.12015],[-118.16298,34.12014],[-118.16364,34.11915],[-118.16295,34.11818],[-118.1616,34.1182],[-118.16093,34.11918]]],"type":"Polygon"},"properties":{"bbox":{"roads":{"area":9331.77,"pct":22.99}},"city":{"roads":{"area":3475.68,"pct":8.56}},"id":"hex:2095:17440"},"type":"Feature"},{"geometry":{"coordinates":[[[-118.16096,34.12113],[-118.16165,34.1221],[-118.16301,34.12209],[-118.16367,34.12111],[-118.16298,34.12014],[-118.16162,34.12015],[-118.16096,34.12113]]],"type":"Polygon"},"properties":{"bbox":{"roads":{"area":3068.16,"pct":7.56}},"city_same":1,"id":"hex:2095:17441"},"type":"Feature"},{"geometry":{"coordinates":[[[-118.16099,34.12308],[-118.16165,34.1221],[-118.16301,34.12209],[-118.1637,34.12306],[-118.16309,34.12396],[-118.16162,34.12397],[-118.16099,34.12308]]],"type":"Polygon"},"properties":{"bbox":{"roads":{"area":2163.68,"pct":5.48}},"city_same":1,"id":"hex:2095:17442"},"type":"Feature"},{"geometry":{"coordinates":[[[-118.16067,34.09966],[-118.15931,34.09967],[-118.15862,34.0987],[-118.15865,34.09866],[-118.16026,34.09868],[-118.16133,34.09868],[-118.16067,34.09966]]],"type":"Polygon"},"properties":{"bbox":{"roads":{"area":1933.9,"pct":9.35}},"city_same":1,"id":"hex:2096:17430"},"type":"Feature"},{"geometry":{"coordinates":[[[-118.15865,34.10065],[-118.15934,34.10162],[-118.16069,34.10161],[-118.16136,34.10063],[-118.16067,34.09966],[-118.15931,34.09967],[-118.15865,34.10065]]],"type":"Polygon"},"properties":{"bbox":{"roads":{"area":2535.66,"pct":6.25}},"city_same":1,"id":"hex:2096:17431"},"type":"Feature"},{"geometry":{"coordinates":[[[-118.15867,34.10261],[-118.15937,34.10358],[-118.16072,34.10356],[-118.16138,34.10258],[-118.16069,34.10161],[-118.15934,34.10162],[-118.15867,34.10261]]],"type":"Polygon"},"properties":{"bbox":{"roads":{"area":3280.54,"pct":8.08}},"city_same":1,"id":"hex:2096:17432"},"type":"Feature"},{"geometry":{"coordinates":[[[-118.1587,34.10456],[-118.15939,34.10553],[-118.16075,34.10551],[-118.16141,34.10453],[-118.16072,34.10356],[-118.15937,34.10358],[-118.1587,34.10456]]],"type":"Polygon"},"properties":{"bbox":{"roads":{"area":1575.61,"pct":3.88}},"city_same":1,"id":"hex:2096:17433"},"type":"Feature"},{"geometry":{"coordinates":[[[-118.15873,34.10651],[-118.15942,34.10748],[-118.16077,34.10747],[-118.16144,34.10648],[-118.16075,34.10551],[-118.15939,34.10553],[-118.15873,34.10651]]],"type":"Polygon"},"properties":{"bbox":{"roads":{"area":2653.6,"pct":6.54}},"city_same":1,"id":"hex:2096:17434"},"type":"Feature"},{"geometry":{"coordinates":[[[-118.15875,34.10846],[-118.15945,34.10943],[-118.1608,34.10942],[-118.16146,34.10844],[-118.16077,34.10747],[-118.15942,34.10748],[-118.15875,34.10846]]],"type":"Polygon"},"properties":{"bbox":{"roads":{"area":1383.71,"pct":3.41}},"city_same":1,"id":"hex:2096:17435"},"type":"Feature"},{"geometry":{"coordinates":[[[-118.15878,34.11041],[-118.15947,34.11138],[-118.16083,34.11137],[-118.16149,34.11039],[-118.1608,34.10942],[-118.15945,34.10943],[-118.15878,34.11041]]],"type":"Polygon"},"properties":{"bbox":{"roads":{"area":2438.41,"pct":6.01}},"city_same":1,"id":"hex:2096:17436"},"type":"Feature"},{"geometry":{"coordinates":[[[-118.15881,34.11237],[-118.1595,34.11334],[-118.16085,34.11332],[-118.16152,34.11234],[-118.16083,34.11137],[-118.15947,34.11138],[-118.15881,34.11237]]],"type":"Polygon"},"properties":{"bbox":{"roads":{"area":5989.85,"pct":14.76}},"city":{"roads":{"area":3112.32,"pct":7.67}},"id":"hex:2096:17437"},"type":"Feature"},{"geometry":{"coordinates":[[[-118.15883,34.11432],[-118.15953,34.11529],[-118.16088,34.11528],[-118.16154,34.11429],[-118.16085,34.11332],[-118.1595,34.11334],[-118.15883,34.11432]]],"type":"Polygon"},"properties":{"bbox":{"parking":{"area":3011.39,"pct":7.42},"roads":{"area":4264.21,"pct":10.5},"sidewalks":{"area":519.82,"pct":1.28}},"city_same":1,"id":"hex:2096:17438"},"type":"Feature"},{"geometry":{"coordinates":[[[-118.15886,34.11627],[-118.15955,34.11724],[-118.16091,34.11723],[-118.16157,34.11625],[-118.16088,34.11528],[-118.15953,34.11529],[-118.15886,34.11627]]],"type":"Polygon"},"properties":{"bbox":{"roads":{"area":4660.02,"pct":11.48},"sidewalks":{"area":532.07,"pct":1.31}},"city_same":1,"id":"hex:2096:17439"},"type":"Feature"},{"geometry":{"coordinates":[[[-118.15889,34.11822],[-118.15958,34.11919],[-118.16093,34.11918],[-118.1616,34.1182],[-118.16091,34.11723],[-118.15955,34.11724],[-118.15889,34.11822]]],"type":"Polygon"},"properties":{"bbox":{"roads":{"area":6549.17,"pct":16.13}},"city":{"roads":{"area":4211.41,"pct":10.37}},"id":"hex:2096:17440"},"type":"Feature"},{"geometry":{"coordinates":[[[-118.15891,34.12018],[-118.15961,34.12115],[-118.16096,34.12113],[-118.16162,34.12015],[-118.16093,34.11918],[-118.15958,34.11919],[-118.15891,34.12018]]],"type":"Polygon"},"properties":{"bbox":{"roads":{"area":5948.86,"pct":14.65}},"city":{"roads":{"area":3861.02,"pct":9.51}},"id":"hex:2096:17441"},"type":"Feature"},{"geometry":{"coordinates":[[[-118.15894,34.12213],[-118.15963,34.1231],[-118.16099,34.12308],[-118.16165,34.1221],[-118.16096,34.12113],[-118.15961,34.12115],[-118.15894,34.12213]]],"type":"Polygon"},"properties":{"bbox":{"roads":{"area":4831.72,"pct":11.9}},"city_same":1,"id":"hex:2096:17442"},"type":"Feature"},{"geometry":{"coordinates":[[[-118.15963,34.1231],[-118.16099,34.12308],[-118.16162,34.12397],[-118.15903,34.12399],[-118.15963,34.1231]]],"type":"Polygon"},"properties":{"bbox":{"roads":{"area":1784.02,"pct":9.88}},"city_same":1,"id":"hex:2096:17443"},"type":"Feature"},{"geometry":{"coordinates":[[[-118.15862,34.0987],[-118.15727,34.09871],[-118.15722,34.09865],[-118.15865,34.09866],[-118.15862,34.0987]]],"type":"Polygon"},"properties":{"bbox":{"roads":{"area":29.78,"pct":4.21}},"city_same":1,"id":"hex:2097:17429"},"type":"Feature"},{"geometry":{"coordinates":[[[-118.1566,34.0997],[-118.15729,34.10067],[-118.15865,34.10065],[-118.15931,34.09967],[-118.15862,34.0987],[-118.15727,34.09871],[-118.1566,34.0997]]],"type":"Polygon"},"properties":{"bbox":{"roads":{"area":2725.67,"pct":6.71}},"city_same":1,"id":"hex:2097:17430"},"type":"Feature"},{"geometry":{"coordinates":[[[-118.15663,34.10165],[-118.15732,34.10262],[-118.15867,34.10261],[-118.15934,34.10162],[-118.15865,34.10065],[-118.15729,34.10067],[-118.15663,34.10165]]],"type":"Polygon"},"properties":{"bbox":{"roads":{"area":4546.16,"pct":11.2}},"city_same":1,"id":"hex:2097:17431"},"type":"Feature"},{"geometry":{"coordinates":[[[-118.15666,34.1036],[-118.15735,34.10457],[-118.1587,34.10456],[-118.15937,34.10358],[-118.15867,34.10261],[-118.15732,34.10262],[-118.15666,34.1036]]],"type":"Polygon"},"properties":{"bbox":{"roads":{"area":4874.98,"pct":12.01}},"city_same":1,"id":"hex:2097:17432"},"type":"Feature"},{"geometry":{"coordinates":[[[-118.15668,34.10555],[-118.15737,34.10652],[-118.15873,34.10651],[-118.15939,34.10553],[-118.1587,34.10456],[-118.15735,34.10457],[-118.15668,34.10555]]],"type":"Polygon"},"properties":{"bbox":{"roads":{"area":2601.25,"pct":6.41}},"city_same":1,"id":"hex:2097:17433"},"type":"Feature"},{"geometry":{"coordinates":[[[-118.15671,34.10751],[-118.1574,34.10847],[-118.15875,34.10846],[-118.15942,34.10748],[-118.15873,34.10651],[-118.15737,34.10652],[-118.15671,34.10751]]],"type":"Polygon"},"properties":{"bbox":{"roads":{"area":3400.84,"pct":8.38}},"city_same":1,"id":"hex:2097:17434"},"type":"Feature"},{"geometry":{"coordinates":[[[-118.15674,34.10946],[-118.15743,34.11043],[-118.15878,34.11041],[-118.15945,34.10943],[-118.15875,34.10846],[-118.1574,34.10847],[-118.15674,34.10946]]],"type":"Polygon"},"properties":{"bbox":{"parking":{"area":79.26,"pct":0.2},"roads":{"area":3306.54,"pct":8.15}},"city_same":1,"id":"hex:2097:17435"},"type":"Feature"},{"geometry":{"coordinates":[[[-118.15676,34.11141],[-118.15745,34.11238],[-118.15881,34.11237],[-118.15947,34.11138],[-118.15878,34.11041],[-118.15743,34.11043],[-118.15676,34.11141]]],"type":"Polygon"},"properties":{"bbox":{"roads":{"area":6722.95,"pct":16.56}},"city":{"roads":{"area":4039.65,"pct":9.95}},"id":"hex:2097:17436"},"type":"Feature"},{"geometry":{"coordinates":[[[-118.15679,34.11336],[-118.15748,34.11433],[-118.15883,34.11432],[-118.1595,34.11334],[-118.15881,34.11237],[-118.15745,34.11238],[-118.15679,34.11336]]],"type":"Polygon"},"properties":{"bbox":{"roads":{"area":3868.34,"pct":9.53}},"city_same":1,"id":"hex:2097:17437"},"type":"Feature"},{"geometry":{"coordinates":[[[-118.15682,34.11531],[-118.15751,34.11628],[-118.15886,34.11627],[-118.15953,34.11529],[-118.15883,34.11432],[-118.15748,34.11433],[-118.15682,34.11531]]],"type":"Polygon"},"properties":{"bbox":{"parking":{"area":706.42,"pct":1.74},"roads":{"area":5103.23,"pct":12.57},"sidewalks":{"area":1107.5,"pct":2.73}},"city_same":1,"id":"hex:2097:17438"},"type":"Feature"},{"geometry":{"coordinates":[[[-118.15684,34.11727],[-118.15753,34.11824],[-118.15889,34.11822],[-118.15955,34.11724],[-118.15886,34.11627],[-118.15751,34.11628],[-118.15684,34.11727]]],"type":"Polygon"},"properties":{"bbox":{"roads":{"area":3739.73,"pct":9.21}},"city_same":1,"id":"hex:2097:17439"},"type":"Feature"},{"geometry":{"coordinates":[[[-118.15687,34.11922],[-118.15756,34.12019],[-118.15891,34.12018],[-118.15958,34.11919],[-118.15889,34.11822],[-118.15753,34.11824],[-118.15687,34.11922]]],"type":"Polygon"},"properties":{"bbox":{"roads":{"area":8247.4,"pct":20.32}},"city":{"roads":{"area":3074.18,"pct":7.57}},"id":"hex:2097:17440"},"type":"Feature"},{"geometry":{"coordinates":[[[-118.15689,34.12117],[-118.15759,34.12214],[-118.15894,34.12213],[-118.15961,34.12115],[-118.15891,34.12018],[-118.15756,34.12019],[-118.15689,34.12117]]],"type":"Polygon"},"properties":{"bbox":{"roads":{"area":3539.81,"pct":8.72}},"city_same":1,"id":"hex:2097:17441"},"type":"Feature"},{"geometry":{"coordinates":[[[-118.15692,34.12312],[-118.15759,34.12214],[-118.15894,34.12213],[-118.15963,34.1231],[-118.15903,34.12399],[-118.15755,34.12401],[-118.15692,34.12312]]],"type":"Polygon"},"properties":{"bbox":{"roads":{"area":4764.73,"pct":12.11}},"city":{"roads":{"area":4710.75,"pct":11.97}},"id":"hex:2097:17442"},"type":"Feature"},{"geometry":{"coordinates":[[[-118.15727,34.09871],[-118.1566,34.0997],[-118.15525,34.09971],[-118.15456,34.09874],[-118.15462,34.09864],[-118.1553,34.09863],[-118.15722,34.09865],[-118.15727,34.09871]]],"type":"Polygon"},"properties":{"bbox":{"roads":{"area":3977.77,"pct":17.59}},"city_same":1,"id":"hex:2098:17430"},"type":"Feature"},{"geometry":{"coordinates":[[[-118.15458,34.10069],[-118.15527,34.10166],[-118.15663,34.10165],[-118.15729,34.10067],[-118.1566,34.0997],[-118.15525,34.09971],[-118.15458,34.10069]]],"type":"Polygon"},"properties":{"bbox":{"roads":{"area":7066.99,"pct":17.41}},"city_same":1,"id":"hex:2098:17431"},"type":"Feature"},{"geometry":{"coordinates":[[[-118.15461,34.10264],[-118.1553,34.10361],[-118.15666,34.1036],[-118.15732,34.10262],[-118.15663,34.10165],[-118.15527,34.10166],[-118.15461,34.10264]]],"type":"Polygon"},"properties":{"bbox":{"roads":{"area":4411.88,"pct":10.87}},"city_same":1,"id":"hex:2098:17432"},"type":"Feature"},{"geometry":{"coordinates":[[[-118.15464,34.1046],[-118.15533,34.10557],[-118.15668,34.10555],[-118.15735,34.10457],[-118.15666,34.1036],[-118.1553,34.10361],[-118.15464,34.1046]]],"type":"Polygon"},"properties":{"bbox":{"roads":{"area":2002.21,"pct":4.93}},"city_same":1,"id":"hex:2098:17433"},"type":"Feature"},{"geometry":{"coordinates":[[[-118.15466,34.10655],[-118.15535,34.10752],[-118.15671,34.10751],[-118.15737,34.10652],[-118.15668,34.10555],[-118.15533,34.10557],[-118.15466,34.10655]]],"type":"Polygon"},"properties":{"bbox":{"parking":{"area":166.36,"pct":0.41},"roads":{"area":4111.5,"pct":10.13}},"city_same":1,"id":"hex:2098:17434"},"type":"Feature"},{"geometry":{"coordinates":[[[-118.15469,34.1085],[-118.15538,34.10947],[-118.15674,34.10946],[-118.1574,34.10847],[-118.15671,34.10751],[-118.15535,34.10752],[-118.15469,34.1085]]],"type":"Polygon"},"properties":{"bbox":{"parking":{"area":1096.48,"pct":2.7},"roads":{"area":1810.17,"pct":4.46}},"city_same":1,"id":"hex:2098:17435"},"type":"Feature"},{"geometry":{"coordinates":[[[-118.15472,34.11045],[-118.15541,34.11142],[-118.15676,34.11141],[-118.15743,34.11043],[-118.15674,34.10946],[-118.15538,34.10947],[-118.15472,34.11045]]],"type":"Polygon"},"properties":{"bbox":{"roads":{"area":3624.33,"pct":8.93}},"city_same":1,"id":"hex:2098:17436"},"type":"Feature"},{"geometry":{"coordinates":[[[-118.15474,34.1124],[-118.15543,34.11337],[-118.15679,34.11336],[-118.15745,34.11238],[-118.15676,34.11141],[-118.15541,34.11142],[-118.15474,34.1124]]],"type":"Polygon"},"properties":{"bbox":{"roads":{"area":5347.21,"pct":13.17},"sidewalks":{"area":187.99,"pct":0.46}},"city":{"roads":{"area":2644.25,"pct":6.51},"sidewalks":{"area":187.99,"pct":0.46}},"id":"hex:2098:17437"},"type":"Feature"},{"geometry":{"coordinates":[[[-118.15477,34.11436],[-118.15546,34.11533],[-118.15682,34.11531],[-118.15748,34.11433],[-118.15679,34.11336],[-118.15543,34.11337],[-118.15477,34.11436]]],"type":"Polygon"},"properties":{"bbox":{"parking":{"area":2113.11,"pct":5.21},"roads":{"area":5421.96,"pct":13.36},"sidewalks":{"area":687.76,"pct":1.69}},"city_same":1,"id":"hex:2098:17438"},"type":"Feature"},{"geometry":{"coordinates":[[[-118.1548,34.11631],[-118.15549,34.11728],[-118.15684,34.11727],[-118.15751,34.11628],[-118.15682,34.11531],[-118.15546,34.11533],[-118.1548,34.11631]]],"type":"Polygon"},"properties":{"bbox":{"parking":{"area":1961.28,"pct":4.83},"roads":{"area":6180,"pct":15.22},"sidewalks":{"area":1145.39,"pct":2.82}},"city_same":1,"id":"hex:2098:17439"},"type":"Feature"},{"geometry":{"coordinates":[[[-118.15482,34.11826],[-118.15551,34.11923],[-118.15687,34.11922],[-118.15753,34.11824],[-118.15684,34.11727],[-118.15549,34.11728],[-118.15482,34.11826]]],"type":"Polygon"},"properties":{"bbox":{"roads":{"area":7056.02,"pct":17.38}},"city":{"roads":{"area":4006.64,"pct":9.87}},"id":"hex:2098:17440"},"type":"Feature"},{"geometry":{"coordinates":[[[-118.15485,34.12021],[-118.15554,34.12118],[-118.15689,34.12117],[-118.15756,34.12019],[-118.15687,34.11922],[-118.15551,34.11923],[-118.15485,34.12021]]],"type":"Polygon"},"properties":{"bbox":{"roads":{"area":2907.84,"pct":7.16}},"city_same":1,"id":"hex:2098:17441"},"type":"Feature"},{"geometry":{"coordinates":[[[-118.15488,34.12217],[-118.15557,34.12314],[-118.15692,34.12312],[-118.15759,34.12214],[-118.15689,34.12117],[-118.15554,34.12118],[-118.15488,34.12217]]],"type":"Polygon"},"properties":{"bbox":{"roads":{"area":3636.66,"pct":8.96}},"city_same":1,"id":"hex:2098:17442"},"type":"Feature"},{"geometry":{"coordinates":[[[-118.15557,34.12314],[-118.15692,34.12312],[-118.15755,34.12401],[-118.15496,34.12403],[-118.15557,34.12314]]],"type":"Polygon"},"properties":{"bbox":{"roads":{"area":1275.6,"pct":7.14}},"city":{"roads":{"area":809.34,"pct":4.53}},"id":"hex:2098:17443"},"type":"Feature"},{"geometry":{"coordinates":[[[-118.15456,34.09874],[-118.1532,34.09875],[-118.15313,34.09865],[-118.15462,34.09864],[-118.15456,34.09874]]],"type":"Polygon"},"properties":{"bbox":{"roads":{"area":99.81,"pct":6.83}},"city_same":1,"id":"hex:2099:17429"},"type":"Feature"},{"geometry":{"coordinates":[[[-118.15254,34.09973],[-118.15323,34.1007],[-118.15458,34.10069],[-118.15525,34.09971],[-118.15456,34.09874],[-118.1532,34.09875],[-118.15254,34.09973]]],"type":"Polygon"},"properties":{"bbox":{"roads":{"area":3335.98,"pct":8.22}},"city_same":1,"id":"hex:2099:17430"},"type":"Feature"},{"geometry":{"coordinates":[[[-118.15256,34.10169],[-118.15325,34.10266],[-118.15461,34.10264],[-118.15527,34.10166],[-118.15458,34.10069],[-118.15323,34.1007],[-118.15256,34.10169]]],"type":"Polygon"},"properties":{"bbox":{"roads":{"area":4660.21,"pct":11.48}},"city_same":1,"id":"hex:2099:17431"},"type":"Feature"},{"geometry":{"coordinates":[[[-118.15259,34.10364],[-118.15328,34.10461],[-118.15464,34.1046],[-118.1553,34.10361],[-118.15461,34.10264],[-118.15325,34.10266],[-118.15259,34.10364]]],"type":"Polygon"},"properties":{"bbox":{"roads":{"area":7889.35,"pct":19.43}},"city_same":1,"id":"hex:2099:17432"},"type":"Feature"},{"geometry":{"coordinates":[[[-118.15262,34.10559],[-118.15331,34.10656],[-118.15466,34.10655],[-118.15533,34.10557],[-118.15464,34.1046],[-118.15328,34.10461],[-118.15262,34.10559]]],"type":"Polygon"},"properties":{"bbox":{"roads":{"area":3258.44,"pct":8.03}},"city_same":1,"id":"hex:2099:17433"},"type":"Feature"},{"geometry":{"coordinates":[[[-118.15264,34.10754],[-118.15333,34.10851],[-118.15469,34.1085],[-118.15535,34.10752],[-118.15466,34.10655],[-118.15331,34.10656],[-118.15264,34.10754]]],"type":"Polygon"},"properties":{"bbox":{"roads":{"area":3548.02,"pct":8.74},"sidewalks":{"area":75.37,"pct":0.19}},"city_same":1,"id":"hex:2099:17434"},"type":"Feature"},{"geometry":{"coordinates":[[[-118.15267,34.1095],[-118.15336,34.11047],[-118.15472,34.11045],[-118.15538,34.10947],[-118.15469,34.1085],[-118.15333,34.10851],[-118.15267,34.1095]]],"type":"Polygon"},"properties":{"bbox":{"parking":{"area":2657.21,"pct":6.55},"roads":{"area":3366.95,"pct":8.29},"sidewalks":{"area":174.2,"pct":0.43}},"city_same":1,"id":"hex:2099:17435"},"type":"Feature"},{"geometry":{"coordinates":[[[-118.1527,34.11145],[-118.15339,34.11242],[-118.15474,34.1124],[-118.15541,34.11142],[-118.15472,34.11045],[-118.15336,34.11047],[-118.1527,34.11145]]],"type":"Polygon"},"properties":{"bbox":{"parking":{"area":968.39,"pct":2.39},"roads":{"area":6454.82,"pct":15.9},"sidewalks":{"area":477.55,"pct":1.18}},"city":{"parking":{"area":968.39,"pct":2.39},"roads":{"area":3943.64,"pct":9.71},"sidewalks":{"area":477.55,"pct":1.18}},"id":"hex:2099:17436"},"type":"Feature"},{"geometry":{"coordinates":[[[-118.15272,34.1134],[-118.15341,34.11437],[-118.15477,34.11436],[-118.15543,34.11337],[-118.15474,34.1124],[-118.15339,34.11242],[-118.15272,34.1134]]],"type":"Polygon"},"properties":{"bbox":{"parking":{"area":1520.59,"pct":3.75},"roads":{"area":4210.14,"pct":10.37},"sidewalks":{"area":1409.76,"pct":3.47}},"city_same":1,"id":"hex:2099:17437"},"type":"Feature"},{"geometry":{"coordinates":[[[-118.15275,34.11535],[-118.15344,34.11632],[-118.1548,34.11631],[-118.15546,34.11533],[-118.15477,34.11436],[-118.15341,34.11437],[-118.15275,34.11535]]],"type":"Polygon"},"properties":{"bbox":{"parking":{"area":4264.55,"pct":10.51},"roads":{"area":5549.64,"pct":13.67},"sidewalks":{"area":1594.77,"pct":3.93}},"city_same":1,"id":"hex:2099:17438"},"type":"Feature"},{"geometry":{"coordinates":[[[-118.15278,34.1173],[-118.15347,34.11827],[-118.15482,34.11826],[-118.15549,34.11728],[-118.1548,34.11631],[-118.15344,34.11632],[-118.15278,34.1173]]],"type":"Polygon"},"properties":{"bbox":{"parking":{"area":752.16,"pct":1.85},"roads":{"area":4747.4,"pct":11.69},"sidewalks":{"area":259.36,"pct":0.64}},"city_same":1,"id":"hex:2099:17439"},"type":"Feature"},{"geometry":{"coordinates":[[[-118.1528,34.11926],[-118.15349,34.12023],[-118.15485,34.12021],[-118.15551,34.11923],[-118.15482,34.11826],[-118.15347,34.11827],[-118.1528,34.11926]]],"type":"Polygon"},"properties":{"bbox":{"roads":{"area":8254.34,"pct":20.33},"sidewalks":{"area":88.5,"pct":0.22}},"city":{"roads":{"area":3529.68,"pct":8.69},"sidewalks":{"area":88.5,"pct":0.22}},"id":"hex:2099:17440"},"type":"Feature"},{"geometry":{"coordinates":[[[-118.15283,34.12121],[-118.15352,34.12218],[-118.15488,34.12217],[-118.15554,34.12118],[-118.15485,34.12021],[-118.15349,34.12023],[-118.15283,34.12121]]],"type":"Polygon"},"properties":{"bbox":{"roads":{"area":3407.66,"pct":8.39},"sidewalks":{"area":312.72,"pct":0.77}},"city_same":1,"id":"hex:2099:17441"},"type":"Feature"},{"geometry":{"coordinates":[[[-118.15286,34.12316],[-118.15352,34.12218],[-118.15488,34.12217],[-118.15557,34.12314],[-118.15496,34.12403],[-118.15431,34.12403],[-118.15348,34.12404],[-118.15286,34.12316]]],"type":"Polygon"},"properties":{"bbox":{"roads":{"area":2608.43,"pct":6.65},"sidewalks":{"area":326.58,"pct":0.83}},"city":{"roads":{"area":2086.84,"pct":5.32},"sidewalks":{"area":326.58,"pct":0.83}},"id":"hex:2099:17442"},"type":"Feature"},{"geometry":{"coordinates":[[[-118.1532,34.09875],[-118.15254,34.09973],[-118.15118,34.09975],[-118.15049,34.09878],[-118.15056,34.09867],[-118.15313,34.09865],[-118.1532,34.09875]]],"type":"Polygon"},"properties":{"bbox":{"roads":{"area":1363.26,"pct":5.91}},"city_same":1,"id":"hex:2100:17430"},"type":"Feature"},{"geometry":{"coordinates":[[[-118.15052,34.10073],[-118.15121,34.1017],[-118.15256,34.10169],[-118.15323,34.1007],[-118.15254,34.09973],[-118.15118,34.09975],[-118.15052,34.10073]]],"type":"Polygon"},"properties":{"bbox":{"roads":{"area":3447.25,"pct":8.49}},"city_same":1,"id":"hex:2100:17431"},"type":"Feature"},{"geometry":{"coordinates":[[[-118.15055,34.10268],[-118.15124,34.10365],[-118.15259,34.10364],[-118.15325,34.10266],[-118.15256,34.10169],[-118.15121,34.1017],[-118.15055,34.10268]]],"type":"Polygon"},"properties":{"bbox":{"roads":{"area":4201.42,"pct":10.35}},"city_same":1,"id":"hex:2100:17432"},"type":"Feature"},{"geometry":{"coordinates":[[[-118.15057,34.10463],[-118.15126,34.1056],[-118.15262,34.10559],[-118.15328,34.10461],[-118.15259,34.10364],[-118.15124,34.10365],[-118.15057,34.10463]]],"type":"Polygon"},"properties":{"bbox":{"roads":{"area":9927.36,"pct":24.45}},"city_same":1,"id":"hex:2100:17433"},"type":"Feature"},{"geometry":{"coordinates":[[[-118.1506,34.10659],[-118.15129,34.10756],[-118.15264,34.10754],[-118.15331,34.10656],[-118.15262,34.10559],[-118.15126,34.1056],[-118.1506,34.10659]]],"type":"Polygon"},"properties":{"bbox":{"roads":{"area":3121.15,"pct":7.69}},"city_same":1,"id":"hex:2100:17434"},"type":"Feature"},{"geometry":{"coordinates":[[[-118.15062,34.10854],[-118.15132,34.10951],[-118.15267,34.1095],[-118.15333,34.10851],[-118.15264,34.10754],[-118.15129,34.10756],[-118.15062,34.10854]]],"type":"Polygon"},"properties":{"bbox":{"roads":{"area":4739.13,"pct":11.67},"sidewalks":{"area":976.88,"pct":2.41}},"city_same":1,"id":"hex:2100:17435"},"type":"Feature"},{"geometry":{"coordinates":[[[-118.15065,34.11049],[-118.15134,34.11146],[-118.1527,34.11145],[-118.15336,34.11047],[-118.15267,34.1095],[-118.15132,34.10951],[-118.15065,34.11049]]],"type":"Polygon"},"properties":{"bbox":{"parking":{"area":3586.22,"pct":8.83},"roads":{"area":5401.92,"pct":13.31},"sidewalks":{"area":1240.94,"pct":3.06}},"city_same":1,"id":"hex:2100:17436"},"type":"Feature"},{"geometry":{"coordinates":[[[-118.15068,34.11244],[-118.15137,34.11341],[-118.15272,34.1134],[-118.15339,34.11242],[-118.1527,34.11145],[-118.15134,34.11146],[-118.15068,34.11244]]],"type":"Polygon"},"properties":{"bbox":{"parking":{"area":3544.35,"pct":8.73},"roads":{"area":6900.27,"pct":17},"sidewalks":{"area":985.19,"pct":2.43}},"city":{"parking":{"area":3544.35,"pct":8.73},"roads":{"area":3924.61,"pct":9.67},"sidewalks":{"area":985.19,"pct":2.43}},"id":"hex:2100:17437"},"type":"Feature"},{"geometry":{"coordinates":[[[-118.1507,34.1144],[-118.15139,34.11537],[-118.15275,34.11535],[-118.15341,34.11437],[-118.15272,34.1134],[-118.15137,34.11341],[-118.1507,34.1144]]],"type":"Polygon"},"properties":{"bbox":{"parking":{"area":3354.2,"pct":8.26},"roads":{"area":5669.23,"pct":13.97},"sidewalks":{"area":1228.32,"pct":3.03}},"city_same":1,"id":"hex:2100:17438"},"type":"Feature"},{"geometry":{"coordinates":[[[-118.15073,34.11635],[-118.15142,34.11732],[-118.15278,34.1173],[-118.15344,34.11632],[-118.15275,34.11535],[-118.15139,34.11537],[-118.15073,34.11635]]],"type":"Polygon"},"properties":{"bbox":{"parking":{"area":3032.88,"pct":7.47},"roads":{"area":6887.24,"pct":16.97},"sidewalks":{"area":1189.76,"pct":2.93}},"city_same":1,"id":"hex:2100:17439"},"type":"Feature"},{"geometry":{"coordinates":[[[-118.15076,34.1183],[-118.15145,34.11927],[-118.1528,34.11926],[-118.15347,34.11827],[-118.15278,34.1173],[-118.15142,34.11732],[-118.15076,34.1183]]],"type":"Polygon"},"properties":{"bbox":{"parking":{"area":6463.43,"pct":15.92},"roads":{"area":8822.84,"pct":21.73},"sidewalks":{"area":319.38,"pct":0.79}},"city":{"parking":{"area":6463.43,"pct":15.92},"roads":{"area":5733.33,"pct":14.12},"sidewalks":{"area":319.38,"pct":0.79}},"id":"hex:2100:17440"},"type":"Feature"},{"geometry":{"coordinates":[[[-118.15078,34.12025],[-118.15147,34.12122],[-118.15283,34.12121],[-118.15349,34.12023],[-118.1528,34.11926],[-118.15145,34.11927],[-118.15078,34.12025]]],"type":"Polygon"},"properties":{"bbox":{"parking":{"area":829.07,"pct":2.04},"roads":{"area":3479.86,"pct":8.57},"sidewalks":{"area":599.94,"pct":1.48}},"city":{"parking":{"area":829.07,"pct":2.04},"roads":{"area":3391.01,"pct":8.35},"sidewalks":{"area":599.94,"pct":1.48}},"id":"hex:2100:17441"},"type":"Feature"},{"geometry":{"coordinates":[[[-118.15081,34.1222],[-118.1515,34.12317],[-118.15286,34.12316],[-118.15352,34.12218],[-118.15283,34.12121],[-118.15147,34.12122],[-118.15081,34.1222]]],"type":"Polygon"},"properties":{"bbox":{"roads":{"area":2110.32,"pct":5.2},"sidewalks":{"area":799.35,"pct":1.97}},"city_same":1,"id":"hex:2100:17442"},"type":"Feature"},{"geometry":{"coordinates":[[[-118.1515,34.12317],[-118.15286,34.12316],[-118.15348,34.12404],[-118.1509,34.12406],[-118.1515,34.12317]]],"type":"Polygon"},"properties":{"bbox":{"roads":{"area":2083.88,"pct":11.78},"sidewalks":{"area":681.7,"pct":3.85}},"city":{"roads":{"area":1002.69,"pct":5.67},"sidewalks":{"area":681.7,"pct":3.85}},"id":"hex:2100:17443"},"type":"Feature"},{"geometry":{"coordinates":[[[-118.15049,34.09878],[-118.14914,34.09879],[-118.14906,34.09868],[-118.15056,34.09867],[-118.15049,34.09878]]],"type":"Polygon"},"properties":{"bbox":{"roads":{"area":107.44,"pct":6.91}},"city_same":1,"id":"hex:2101:17429"},"type":"Feature"},{"geometry":{"coordinates":[[[-118.14847,34.09977],[-118.14916,34.10074],[-118.15052,34.10073],[-118.15118,34.09975],[-118.15049,34.09878],[-118.14914,34.09879],[-118.14847,34.09977]]],"type":"Polygon"},"properties":{"bbox":{"roads":{"area":3436.58,"pct":8.47}},"city_same":1,"id":"hex:2101:17430"},"type":"Feature"},{"geometry":{"coordinates":[[[-118.1485,34.10172],[-118.14919,34.10269],[-118.15055,34.10268],[-118.15121,34.1017],[-118.15052,34.10073],[-118.14916,34.10074],[-118.1485,34.10172]]],"type":"Polygon"},"properties":{"bbox":{"roads":{"area":3743.98,"pct":9.22},"sidewalks":{"area":186.96,"pct":0.46}},"city_same":1,"id":"hex:2101:17431"},"type":"Feature"},{"geometry":{"coordinates":[[[-118.14853,34.10368],[-118.14922,34.10465],[-118.15057,34.10463],[-118.15124,34.10365],[-118.15055,34.10268],[-118.14919,34.10269],[-118.14853,34.10368]]],"type":"Polygon"},"properties":{"bbox":{"roads":{"area":8214.9,"pct":20.24},"sidewalks":{"area":342.51,"pct":0.84}},"city_same":1,"id":"hex:2101:17432"},"type":"Feature"},{"geometry":{"coordinates":[[[-118.14855,34.10563],[-118.14924,34.1066],[-118.1506,34.10659],[-118.15126,34.1056],[-118.15057,34.10463],[-118.14922,34.10465],[-118.14855,34.10563]]],"type":"Polygon"},"properties":{"bbox":{"roads":{"area":7067.23,"pct":17.41}},"city_same":1,"id":"hex:2101:17433"},"type":"Feature"},{"geometry":{"coordinates":[[[-118.14858,34.10758],[-118.14927,34.10855],[-118.15062,34.10854],[-118.15129,34.10756],[-118.1506,34.10659],[-118.14924,34.1066],[-118.14858,34.10758]]],"type":"Polygon"},"properties":{"bbox":{"roads":{"area":7122.37,"pct":17.54},"sidewalks":{"area":300.47,"pct":0.74}},"city_same":1,"id":"hex:2101:17434"},"type":"Feature"},{"geometry":{"coordinates":[[[-118.14861,34.10953],[-118.1493,34.1105],[-118.15065,34.11049],[-118.15132,34.10951],[-118.15062,34.10854],[-118.14927,34.10855],[-118.14861,34.10953]]],"type":"Polygon"},"properties":{"bbox":{"parking":{"area":1397.53,"pct":3.44},"roads":{"area":8025.69,"pct":19.77},"sidewalks":{"area":1099.9,"pct":2.71}},"city_same":1,"id":"hex:2101:17435"},"type":"Feature"},{"geometry":{"coordinates":[[[-118.14863,34.11149],[-118.14932,34.11246],[-118.15068,34.11244],[-118.15134,34.11146],[-118.15065,34.11049],[-118.1493,34.1105],[-118.14863,34.11149]]],"type":"Polygon"},"properties":{"bbox":{"parking":{"area":4783.04,"pct":11.78},"roads":{"area":11043.72,"pct":27.2},"sidewalks":{"area":1383.58,"pct":3.41}},"city":{"parking":{"area":4783.04,"pct":11.78},"roads":{"area":10474.3,"pct":25.8},"sidewalks":{"area":1383.58,"pct":3.41}},"id":"hex:2101:17436"},"type":"Feature"},{"geometry":{"coordinates":[[[-118.14866,34.11344],[-118.14935,34.11441],[-118.1507,34.1144],[-118.15137,34.11341],[-118.15068,34.11244],[-118.14932,34.11246],[-118.14866,34.11344]]],"type":"Polygon"},"properties":{"bbox":{"parking":{"area":6433.35,"pct":15.85},"roads":{"area":7768.71,"pct":19.14},"sidewalks":{"area":847.7,"pct":2.09}},"city_same":1,"id":"hex:2101:17437"},"type":"Feature"},{"geometry":{"coordinates":[[[-118.14868,34.11539],[-118.14937,34.11636],[-118.15073,34.11635],[-118.15139,34.11537],[-118.1507,34.1144],[-118.14935,34.11441],[-118.14868,34.11539]]],"type":"Polygon"},"properties":{"bbox":{"parking":{"area":6875.58,"pct":16.94},"roads":{"area":8137.6,"pct":20.05},"sidewalks":{"area":1310.86,"pct":3.23}},"city_same":1,"id":"hex:2101:17438"},"type":"Feature"},{"geometry":{"coordinates":[[[-118.14871,34.11734],[-118.1494,34.11831],[-118.15076,34.1183],[-118.15142,34.11732],[-118.15073,34.11635],[-118.14937,34.11636],[-118.14871,34.11734]]],"type":"Polygon"},"properties":{"bbox":{"parking":{"area":3967.97,"pct":9.77},"roads":{"area":8131.99,"pct":20.03},"sidewalks":{"area":1290.69,"pct":3.18}},"city_same":1,"id":"hex:2101:17439"},"type":"Feature"},{"geometry":{"coordinates":[[[-118.14874,34.11929],[-118.14943,34.12026],[-118.15078,34.12025],[-118.15145,34.11927],[-118.15076,34.1183],[-118.1494,34.11831],[-118.14874,34.11929]]],"type":"Polygon"},"properties":{"bbox":{"parking":{"area":4881.53,"pct":12.02},"roads":{"area":13412.78,"pct":33.04},"sidewalks":{"area":892.59,"pct":2.2}},"city":{"parking":{"area":4881.53,"pct":12.02},"roads":{"area":8297,"pct":20.44},"sidewalks":{"area":892.59,"pct":2.2}},"id":"hex:2101:17440"},"type":"Feature"},{"geometry":{"coordinates":[[[-118.14876,34.12125],[-118.14945,34.12222],[-118.15081,34.1222],[-118.15147,34.12122],[-118.15078,34.12025],[-118.14943,34.12026],[-118.14876,34.12125]]],"type":"Polygon"},"properties":{"bbox":{"parking":{"area":2801.63,"pct":6.9},"roads":{"area":7082.11,"pct":17.45},"sidewalks":{"area":652.57,"pct":1.61}},"city_same":1,"id":"hex:2101:17441"},"type":"Feature"},{"geometry":{"coordinates":[[[-118.14948,34.12417],[-118.14879,34.1232],[-118.14945,34.12222],[-118.15081,34.1222],[-118.1515,34.12317],[-118.1509,34.12406],[-118.1503,34.12406],[-118.15021,34.12416],[-118.14948,34.12417]]],"type":"Polygon"},"properties":{"bbox":{"roads":{"area":7439.01,"pct":18.61},"sidewalks":{"area":674.31,"pct":1.69}},"city":{"roads":{"area":7107.21,"pct":17.78},"sidewalks":{"area":674.31,"pct":1.69}},"id":"hex:2101:17442"},"type":"Feature"},{"geometry":{"coordinates":[[[-118.14882,34.12515],[-118.14948,34.12417],[-118.15021,34.12416],[-118.14907,34.1255],[-118.14882,34.12515]]],"type":"Polygon"},"properties":{"bbox":{"roads":{"area":476.66,"pct":6.42}},"city_same":1,"id":"hex:2101:17443"},"type":"Feature"},{"geometry":{"coordinates":[[[-118.14914,34.09879],[-118.14847,34.09977],[-118.14712,34.09979],[-118.14643,34.09882],[-118.1465,34.0987],[-118.14906,34.09868],[-118.14914,34.09879]]],"type":"Polygon"},"properties":{"bbox":{"roads":{"area":1093.94,"pct":4.71},"sidewalks":{"area":13.33,"pct":0.06}},"city_same":1,"id":"hex:2102:17430"},"type":"Feature"},{"geometry":{"coordinates":[[[-118.14645,34.10077],[-118.14714,34.10174],[-118.1485,34.10172],[-118.14916,34.10074],[-118.14847,34.09977],[-118.14712,34.09979],[-118.14645,34.10077]]],"type":"Polygon"},"properties":{"bbox":{"roads":{"area":2691.99,"pct":6.63},"sidewalks":{"area":138.43,"pct":0.34}},"city_same":1,"id":"hex:2102:17431"},"type":"Feature"},{"geometry":{"coordinates":[[[-118.14648,34.10272],[-118.14717,34.10369],[-118.14853,34.10368],[-118.14919,34.10269],[-118.1485,34.10172],[-118.14714,34.10174],[-118.14648,34.10272]]],"type":"Polygon"},"properties":{"bbox":{"roads":{"area":2430.08,"pct":5.99},"sidewalks":{"area":395.18,"pct":0.97}},"city_same":1,"id":"hex:2102:17432"},"type":"Feature"},{"geometry":{"coordinates":[[[-118.14651,34.10467],[-118.1472,34.10564],[-118.14855,34.10563],[-118.14922,34.10465],[-118.14853,34.10368],[-118.14717,34.10369],[-118.14651,34.10467]]],"type":"Polygon"},"properties":{"bbox":{"roads":{"area":6342.31,"pct":15.62}},"city_same":1,"id":"hex:2102:17433"},"type":"Feature"},{"geometry":{"coordinates":[[[-118.14653,34.10662],[-118.14722,34.10759],[-118.14858,34.10758],[-118.14924,34.1066],[-118.14855,34.10563],[-118.1472,34.10564],[-118.14653,34.10662]]],"type":"Polygon"},"properties":{"bbox":{"roads":{"area":2158.73,"pct":5.32}},"city_same":1,"id":"hex:2102:17434"},"type":"Feature"},{"geometry":{"coordinates":[[[-118.14656,34.10858],[-118.14725,34.10955],[-118.14861,34.10953],[-118.14927,34.10855],[-118.14858,34.10758],[-118.14722,34.10759],[-118.14656,34.10858]]],"type":"Polygon"},"properties":{"bbox":{"roads":{"area":2849.19,"pct":7.02},"sidewalks":{"area":260.93,"pct":0.64}},"city_same":1,"id":"hex:2102:17435"},"type":"Feature"},{"geometry":{"coordinates":[[[-118.14659,34.11053],[-118.14728,34.1115],[-118.14863,34.11149],[-118.1493,34.1105],[-118.14861,34.10953],[-118.14725,34.10955],[-118.14659,34.11053]]],"type":"Polygon"},"properties":{"bbox":{"roads":{"area":2732.33,"pct":6.73},"sidewalks":{"area":1197.5,"pct":2.95}},"city_same":1,"id":"hex:2102:17436"},"type":"Feature"},{"geometry":{"coordinates":[[[-118.14661,34.11248],[-118.1473,34.11345],[-118.14866,34.11344],[-118.14932,34.11246],[-118.14863,34.11149],[-118.14728,34.1115],[-118.14661,34.11248]]],"type":"Polygon"},"properties":{"bbox":{"roads":{"area":3584.08,"pct":8.83},"sidewalks":{"area":397.19,"pct":0.98}},"city_same":1,"id":"hex:2102:17437"},"type":"Feature"},{"geometry":{"coordinates":[[[-118.14664,34.11443],[-118.14733,34.1154],[-118.14868,34.11539],[-118.14935,34.11441],[-118.14866,34.11344],[-118.1473,34.11345],[-118.14664,34.11443]]],"type":"Polygon"},"properties":{"bbox":{"parking":{"area":524.6,"pct":1.29},"roads":{"area":4121.4,"pct":10.15}},"city_same":1,"id":"hex:2102:17438"},"type":"Feature"},{"geometry":{"coordinates":[[[-118.14666,34.11639],[-118.14736,34.11736],[-118.14871,34.11734],[-118.14937,34.11636],[-118.14868,34.11539],[-118.14733,34.1154],[-118.14666,34.11639]]],"type":"Polygon"},"properties":{"bbox":{"parking":{"area":492.6,"pct":1.21},"roads":{"area":4568.26,"pct":11.25},"sidewalks":{"area":1276,"pct":3.14}},"city_same":1,"id":"hex:2102:17439"},"type":"Feature"},{"geometry":{"coordinates":[[[-118.14669,34.11834],[-118.14738,34.11931],[-118.14874,34.11929],[-118.1494,34.11831],[-118.14871,34.11734],[-118.14736,34.11736],[-118.14669,34.11834]]],"type":"Polygon"},"properties":{"bbox":{"roads":{"area":4312.62,"pct":10.62},"sidewalks":{"area":1092.58,"pct":2.69}},"city":{"roads":{"area":4136.99,"pct":10.19},"sidewalks":{"area":1092.58,"pct":2.69}},"id":"hex:2102:17440"},"type":"Feature"},{"geometry":{"coordinates":[[[-118.14672,34.12029],[-118.14741,34.12126],[-118.14876,34.12125],[-118.14943,34.12026],[-118.14874,34.11929],[-118.14738,34.11931],[-118.14672,34.12029]]],"type":"Polygon"},"properties":{"bbox":{"parking":{"area":3079.29,"pct":7.59},"roads":{"area":9405.2,"pct":23.17}},"city":{"parking":{"area":3079.29,"pct":7.59},"roads":{"area":5468.21,"pct":13.47}},"id":"hex:2102:17441"},"type":"Feature"},{"geometry":{"coordinates":[[[-118.14674,34.12224],[-118.14743,34.12321],[-118.14879,34.1232],[-118.14945,34.12222],[-118.14876,34.12125],[-118.14741,34.12126],[-118.14674,34.12224]]],"type":"Polygon"},"properties":{"bbox":{"roads":{"area":4481.49,"pct":11.04}},"city_same":1,"id":"hex:2102:17442"},"type":"Feature"},{"geometry":{"coordinates":[[[-118.14677,34.12419],[-118.14743,34.12321],[-118.14879,34.1232],[-118.14948,34.12417],[-118.14882,34.12515],[-118.14802,34.12516],[-118.14782,34.12506],[-118.14683,34.12427],[-118.14677,34.12419]]],"type":"Polygon"},"properties":{"bbox":{"roads":{"area":3578.91,"pct":9.34}},"city_same":1,"id":"hex:2102:17443"},"type":"Feature"},{"geometry":{"coordinates":[[[-118.14882,34.12515],[-118.14907,34.1255],[-118.14895,34.12564],[-118.14802,34.12516],[-118.14882,34.12515]]],"type":"Polygon"},"properties":{"bbox":{"roads":{"area":7.5,"pct":0.31}},"city_same":1,"id":"hex:2102:17444"},"type":"Feature"},{"geometry":{"coordinates":[[[-118.14643,34.09882],[-118.14507,34.09883],[-118.14499,34.09872],[-118.1465,34.0987],[-118.14643,34.09882]]],"type":"Polygon"},"properties":{"bbox":{"roads":{"area":68.8,"pct":4.18}},"city_same":1,"id":"hex:2103:17429"},"type":"Feature"},{"geometry":{"coordinates":[[[-118.14441,34.09981],[-118.1451,34.10078],[-118.14645,34.10077],[-118.14712,34.09979],[-118.14643,34.09882],[-118.14507,34.09883],[-118.14441,34.09981]]],"type":"Polygon"},"properties":{"bbox":{"roads":{"area":2402.28,"pct":5.92}},"city_same":1,"id":"hex:2103:17430"},"type":"Feature"},{"geometry":{"coordinates":[[[-118.14443,34.10176],[-118.14513,34.10273],[-118.14648,34.10272],[-118.14714,34.10174],[-118.14645,34.10077],[-118.1451,34.10078],[-118.14443,34.10176]]],"type":"Polygon"},"properties":{"bbox":{"roads":{"area":3556.28,"pct":8.76}},"city_same":1,"id":"hex:2103:17431"},"type":"Feature"},{"geometry":{"coordinates":[[[-118.14446,34.10371],[-118.14515,34.10468],[-118.14651,34.10467],[-118.14717,34.10369],[-118.14648,34.10272],[-118.14513,34.10273],[-118.14446,34.10371]]],"type":"Polygon"},"properties":{"bbox":{"roads":{"area":7711.79,"pct":19}},"city_same":1,"id":"hex:2103:17432"},"type":"Feature"},{"geometry":{"coordinates":[[[-118.14449,34.10567],[-118.14518,34.10664],[-118.14653,34.10662],[-118.1472,34.10564],[-118.14651,34.10467],[-118.14515,34.10468],[-118.14449,34.10567]]],"type":"Polygon"},"properties":{"bbox":{"roads":{"area":3505.11,"pct":8.63}},"city_same":1,"id":"hex:2103:17433"},"type":"Feature"},{"geometry":{"coordinates":[[[-118.14451,34.10762],[-118.1452,34.10859],[-118.14656,34.10858],[-118.14722,34.10759],[-118.14653,34.10662],[-118.14518,34.10664],[-118.14451,34.10762]]],"type":"Polygon"},"properties":{"bbox":{"roads":{"area":3705.83,"pct":9.13}},"city_same":1,"id":"hex:2103:17434"},"type":"Feature"},{"geometry":{"coordinates":[[[-118.14454,34.10957],[-118.14523,34.11054],[-118.14659,34.11053],[-118.14725,34.10955],[-118.14656,34.10858],[-118.1452,34.10859],[-118.14454,34.10957]]],"type":"Polygon"},"properties":{"bbox":{"roads":{"area":2498.37,"pct":6.15},"sidewalks":{"area":198.55,"pct":0.49}},"city_same":1,"id":"hex:2103:17435"},"type":"Feature"},{"geometry":{"coordinates":[[[-118.14457,34.11152],[-118.14526,34.11249],[-118.14661,34.11248],[-118.14728,34.1115],[-118.14659,34.11053],[-118.14523,34.11054],[-118.14457,34.11152]]],"type":"Polygon"},"properties":{"bbox":{"roads":{"area":3654.62,"pct":9},"sidewalks":{"area":219.05,"pct":0.54}},"city_same":1,"id":"hex:2103:17436"},"type":"Feature"},{"geometry":{"coordinates":[[[-118.14459,34.11348],[-118.14528,34.11445],[-118.14664,34.11443],[-118.1473,34.11345],[-118.14661,34.11248],[-118.14526,34.11249],[-118.14459,34.11348]]],"type":"Polygon"},"properties":{"bbox":{"roads":{"area":3585.64,"pct":8.83}},"city_same":1,"id":"hex:2103:17437"},"type":"Feature"},{"geometry":{"coordinates":[[[-118.14462,34.11543],[-118.14531,34.1164],[-118.14666,34.11639],[-118.14733,34.1154],[-118.14664,34.11443],[-118.14528,34.11445],[-118.14462,34.11543]]],"type":"Polygon"},"properties":{"bbox":{"roads":{"area":3950.83,"pct":9.73},"sidewalks":{"area":358.75,"pct":0.88}},"city_same":1,"id":"hex:2103:17438"},"type":"Feature"},{"geometry":{"coordinates":[[[-118.14465,34.11738],[-118.14534,34.11835],[-118.14669,34.11834],[-118.14736,34.11736],[-118.14666,34.11639],[-118.14531,34.1164],[-118.14465,34.11738]]],"type":"Polygon"},"properties":{"bbox":{"roads":{"area":2206.24,"pct":5.43}},"city_same":1,"id":"hex:2103:17439"},"type":"Feature"},{"geometry":{"coordinates":[[[-118.14467,34.11933],[-118.14536,34.1203],[-118.14672,34.12029],[-118.14738,34.11931],[-118.14669,34.11834],[-118.14534,34.11835],[-118.14467,34.11933]]],"type":"Polygon"},"properties":{"bbox":{"roads":{"area":5287.08,"pct":13.02},"sidewalks":{"area":180.86,"pct":0.45}},"city":{"roads":{"area":5275.12,"pct":12.99},"sidewalks":{"area":180.86,"pct":0.45}},"id":"hex:2103:17440"},"type":"Feature"},{"geometry":{"coordinates":[[[-118.14539,34.12225],[-118.1447,34.12129],[-118.14536,34.1203],[-118.14672,34.12029],[-118.14741,34.12126],[-118.14674,34.12224],[-118.1458,34.12225],[-118.14574,34.12213],[-118.14574,34.12225],[-118.14539,34.12225]]],"type":"Polygon"},"properties":{"bbox":{"roads":{"area":7518.3,"pct":18.54}},"city":{"roads":{"area":3322.41,"pct":8.19}},"id":"hex:2103:17441"},"type":"Feature"},{"geometry":{"coordinates":[[[[-118.14674,34.12224],[-118.14743,34.12321],[-118.14677,34.12419],[-118.14676,34.12419],[-118.14659,34.12399],[-118.14611,34.1229],[-118.146,34.12265],[-118.1458,34.12225],[-118.14674,34.12224]]],[[[-118.14539,34.12225],[-118.14574,34.12225],[-118.14569,34.12375],[-118.14486,34.12303],[-118.14539,34.12225]]]],"type":"MultiPolygon"},"properties":{"bbox":{"roads":{"area":2836.49,"pct":11.44}},"city":{"roads":{"area":2163.88,"pct":8.72}},"id":"hex:2103:17442"},"type":"Feature"},{"geometry":{"coordinates":[[[-118.14507,34.09883],[-118.14441,34.09981],[-118.14305,34.09982],[-118.14236,34.09885],[-118.14244,34.09874],[-118.14499,34.09872],[-118.14507,34.09883]]],"type":"Polygon"},"properties":{"bbox":{"roads":{"area":821.12,"pct":3.51}},"city_same":1,"id":"hex:2104:17430"},"type":"Feature"},{"geometry":{"coordinates":[[[-118.14239,34.10081],[-118.14308,34.10178],[-118.14443,34.10176],[-118.1451,34.10078],[-118.14441,34.09981],[-118.14305,34.09982],[-118.14239,34.10081]]],"type":"Polygon"},"properties":{"bbox":{"roads":{"area":2267.88,"pct":5.59}},"city_same":1,"id":"hex:2104:17431"},"type":"Feature"},{"geometry":{"coordinates":[[[-118.14242,34.10276],[-118.14311,34.10373],[-118.14446,34.10371],[-118.14513,34.10273],[-118.14443,34.10176],[-118.14308,34.10178],[-118.14242,34.10276]]],"type":"Polygon"},"properties":{"bbox":{"roads":{"area":2841.57,"pct":7}},"city_same":1,"id":"hex:2104:17432"},"type":"Feature"},{"geometry":{"coordinates":[[[-118.14244,34.10471],[-118.14313,34.10568],[-118.14449,34.10567],[-118.14515,34.10468],[-118.14446,34.10371],[-118.14311,34.10373],[-118.14244,34.10471]]],"type":"Polygon"},"properties":{"bbox":{"roads":{"area":6592.14,"pct":16.24}},"city_same":1,"id":"hex:2104:17433"},"type":"Feature"},{"geometry":{"coordinates":[[[-118.14247,34.10666],[-118.14316,34.10763],[-118.14451,34.10762],[-118.14518,34.10664],[-118.14449,34.10567],[-118.14313,34.10568],[-118.14247,34.10666]]],"type":"Polygon"},"properties":{"bbox":{"roads":{"area":1980.25,"pct":4.88}},"city_same":1,"id":"hex:2104:17434"},"type":"Feature"},{"geometry":{"coordinates":[[[-118.14249,34.10861],[-118.14318,34.10958],[-118.14454,34.10957],[-118.1452,34.10859],[-118.14451,34.10762],[-118.14316,34.10763],[-118.14249,34.10861]]],"type":"Polygon"},"properties":{"bbox":{"roads":{"area":3248.26,"pct":8}},"city_same":1,"id":"hex:2104:17435"},"type":"Feature"},{"geometry":{"coordinates":[[[-118.14252,34.11057],[-118.14321,34.11154],[-118.14457,34.11152],[-118.14523,34.11054],[-118.14454,34.10957],[-118.14318,34.10958],[-118.14252,34.11057]]],"type":"Polygon"},"properties":{"bbox":{"roads":{"area":1477.74,"pct":3.64}},"city_same":1,"id":"hex:2104:17436"},"type":"Feature"},{"geometry":{"coordinates":[[[-118.14255,34.11252],[-118.14324,34.11349],[-118.14459,34.11348],[-118.14526,34.11249],[-118.14457,34.11152],[-118.14321,34.11154],[-118.14255,34.11252]]],"type":"Polygon"},"properties":{"bbox":{"roads":{"area":3707.8,"pct":9.13}},"city_same":1,"id":"hex:2104:17437"},"type":"Feature"},{"geometry":{"coordinates":[[[-118.14257,34.11447],[-118.14326,34.11544],[-118.14462,34.11543],[-118.14528,34.11445],[-118.14459,34.11348],[-118.14324,34.11349],[-118.14257,34.11447]]],"type":"Polygon"},"properties":{"bbox":{"roads":{"area":4074.31,"pct":10.04},"sidewalks":{"area":276.22,"pct":0.68}},"city_same":1,"id":"hex:2104:17438"},"type":"Feature"},{"geometry":{"coordinates":[[[-118.1426,34.11642],[-118.14329,34.11739],[-118.14465,34.11738],[-118.14531,34.1164],[-118.14462,34.11543],[-118.14326,34.11544],[-118.1426,34.11642]]],"type":"Polygon"},"properties":{"bbox":{"roads":{"area":3826.6,"pct":9.43},"sidewalks":{"area":1022.27,"pct":2.52}},"city_same":1,"id":"hex:2104:17439"},"type":"Feature"},{"geometry":{"coordinates":[[[-118.14263,34.11838],[-118.14332,34.11935],[-118.14467,34.11933],[-118.14534,34.11835],[-118.14465,34.11738],[-118.14329,34.11739],[-118.14263,34.11838]]],"type":"Polygon"},"properties":{"bbox":{"roads":{"area":3711.4,"pct":9.14},"sidewalks":{"area":145.55,"pct":0.36}},"city_same":1,"id":"hex:2104:17440"},"type":"Feature"},{"geometry":{"coordinates":[[[-118.14332,34.11935],[-118.14467,34.11933],[-118.14536,34.1203],[-118.1447,34.12129],[-118.14355,34.1213],[-118.14369,34.12112],[-118.14371,34.121],[-118.14331,34.12023],[-118.1429,34.11996],[-118.14332,34.11935]]],"type":"Polygon"},"properties":{"bbox":{"roads":{"area":2859.06,"pct":8.56},"sidewalks":{"area":92.73,"pct":0.28}},"city_same":1,"id":"hex:2104:17441"},"type":"Feature"},{"geometry":{"coordinates":[[[-118.1447,34.12129],[-118.14539,34.12225],[-118.14486,34.12303],[-118.14461,34.12281],[-118.14434,34.12262],[-118.1443,34.12241],[-118.14435,34.12181],[-118.1437,34.12158],[-118.14384,34.12131],[-118.14373,34.12134],[-118.14356,34.12142],[-118.14345,34.1215],[-118.1435,34.12136],[-118.14355,34.1213],[-118.1447,34.12129]]],"type":"Polygon"},"properties":{"bbox":{"roads":{"area":317.72,"pct":2.14}},"city_same":1,"id":"hex:2104:17442"},"type":"Feature"},{"geometry":{"coordinates":[[[-118.14236,34.09885],[-118.14178,34.09886],[-118.14178,34.09874],[-118.14244,34.09874],[-118.14236,34.09885]]],"type":"Polygon"},"properties":{"bbox":{"roads":{"area":21.19,"pct":2.84}},"city_same":1,"id":"hex:2105:17429"},"type":"Feature"},{"geometry":{"coordinates":[[[-118.14236,34.09885],[-118.14305,34.09982],[-118.14239,34.10081],[-118.14179,34.10081],[-118.14178,34.09886],[-118.14236,34.09885]]],"type":"Polygon"},"properties":{"bbox":{"roads":{"area":1460.55,"pct":7.87}},"city_same":1,"id":"hex:2105:17430"},"type":"Feature"},{"geometry":{"coordinates":[[[-118.14239,34.10081],[-118.14308,34.10178],[-118.14242,34.10276],[-118.14179,34.10276],[-118.14179,34.10081],[-118.14239,34.10081]]],"type":"Polygon"},"properties":{"bbox":{"roads":{"area":1486.52,"pct":7.81}},"city_same":1,"id":"hex:2105:17431"},"type":"Feature"},{"geometry":{"coordinates":[[[-118.14242,34.10276],[-118.14311,34.10373],[-118.14244,34.10471],[-118.14109,34.10472],[-118.14061,34.10405],[-118.14179,34.10403],[-118.14179,34.10276],[-118.14242,34.10276]]],"type":"Polygon"},"properties":{"bbox":{"roads":{"area":7228.6,"pct":27.69},"sidewalks":{"area":444.95,"pct":1.7}},"city_same":1,"id":"hex:2105:17432"},"type":"Feature"},{"geometry":{"coordinates":[[[-118.14042,34.10571],[-118.14111,34.10667],[-118.14247,34.10666],[-118.14313,34.10568],[-118.14244,34.10471],[-118.14109,34.10472],[-118.14042,34.10571]]],"type":"Polygon"},"properties":{"bbox":{"roads":{"area":3378.58,"pct":8.32},"sidewalks":{"area":776.26,"pct":1.91}},"city_same":1,"id":"hex:2105:17433"},"type":"Feature"},{"geometry":{"coordinates":[[[-118.14045,34.10766],[-118.14114,34.10863],[-118.14249,34.10861],[-118.14316,34.10763],[-118.14247,34.10666],[-118.14111,34.10667],[-118.14045,34.10766]]],"type":"Polygon"},"properties":{"bbox":{"roads":{"area":4370.68,"pct":10.77},"sidewalks":{"area":851.95,"pct":2.1}},"city_same":1,"id":"hex:2105:17434"},"type":"Feature"},{"geometry":{"coordinates":[[[-118.14047,34.10961],[-118.14117,34.11058],[-118.14252,34.11057],[-118.14318,34.10958],[-118.14249,34.10861],[-118.14114,34.10863],[-118.14047,34.10961]]],"type":"Polygon"},"properties":{"bbox":{"roads":{"area":2950.45,"pct":7.27}},"city_same":1,"id":"hex:2105:17435"},"type":"Feature"},{"geometry":{"coordinates":[[[-118.1405,34.11156],[-118.14119,34.11253],[-118.14255,34.11252],[-118.14321,34.11154],[-118.14252,34.11057],[-118.14117,34.11058],[-118.1405,34.11156]]],"type":"Polygon"},"properties":{"bbox":{"roads":{"area":2931.42,"pct":7.22}},"city_same":1,"id":"hex:2105:17436"},"type":"Feature"},{"geometry":{"coordinates":[[[-118.14053,34.11351],[-118.14122,34.11448],[-118.14257,34.11447],[-118.14324,34.11349],[-118.14255,34.11252],[-118.14119,34.11253],[-118.14053,34.11351]]],"type":"Polygon"},"properties":{"bbox":{"roads":{"area":3449.66,"pct":8.5}},"city_same":1,"id":"hex:2105:17437"},"type":"Feature"},{"geometry":{"coordinates":[[[-118.14055,34.11547],[-118.14124,34.11644],[-118.1426,34.11642],[-118.14326,34.11544],[-118.14257,34.11447],[-118.14122,34.11448],[-118.14055,34.11547]]],"type":"Polygon"},"properties":{"bbox":{"roads":{"area":4198.23,"pct":10.34},"sidewalks":{"area":739.07,"pct":1.82}},"city_same":1,"id":"hex:2105:17438"},"type":"Feature"},{"geometry":{"coordinates":[[[-118.14124,34.11644],[-118.1426,34.11642],[-118.14329,34.11739],[-118.14263,34.11838],[-118.14174,34.11838],[-118.14162,34.11807],[-118.14135,34.11752],[-118.14118,34.11722],[-118.14098,34.11683],[-118.14124,34.11644]]],"type":"Polygon"},"properties":{"bbox":{"roads":{"area":2396.9,"pct":7.38}},"city_same":1,"id":"hex:2105:17439"},"type":"Feature"},{"geometry":{"coordinates":[[[-118.14263,34.11838],[-118.14332,34.11935],[-118.1429,34.11996],[-118.14216,34.11948],[-118.14209,34.11932],[-118.14188,34.11875],[-118.14174,34.11838],[-118.14263,34.11838]]],"type":"Polygon"},"properties":{"bbox":{"roads":{"area":574.65,"pct":3.93}},"city_same":1,"id":"hex:2105:17440"},"type":"Feature"},{"geometry":{"coordinates":[[[-118.14109,34.10472],[-118.14042,34.10571],[-118.13907,34.10572],[-118.13838,34.10475],[-118.13883,34.10407],[-118.14061,34.10405],[-118.14109,34.10472]]],"type":"Polygon"},"properties":{"bbox":{"parking":{"area":146.55,"pct":0.41},"roads":{"area":7145.22,"pct":19.98},"sidewalks":{"area":1148.05,"pct":3.21}},"city_same":1,"id":"hex:2106:17433"},"type":"Feature"},{"geometry":{"coordinates":[[[-118.1384,34.1067],[-118.13909,34.10767],[-118.14045,34.10766],[-118.14111,34.10667],[-118.14042,34.10571],[-118.13907,34.10572],[-118.1384,34.1067]]],"type":"Polygon"},"properties":{"bbox":{"roads":{"area":2531.45,"pct":6.24},"sidewalks":{"area":936.74,"pct":2.31}},"city_same":1,"id":"hex:2106:17434"},"type":"Feature"},{"geometry":{"coordinates":[[[-118.13843,34.10865],[-118.13912,34.10962],[-118.14047,34.10961],[-118.14114,34.10863],[-118.14045,34.10766],[-118.13909,34.10767],[-118.13843,34.10865]]],"type":"Polygon"},"properties":{"bbox":{"roads":{"area":3598.48,"pct":8.86},"sidewalks":{"area":866.28,"pct":2.13}},"city_same":1,"id":"hex:2106:17435"},"type":"Feature"},{"geometry":{"coordinates":[[[-118.13846,34.1106],[-118.13915,34.11157],[-118.1405,34.11156],[-118.14117,34.11058],[-118.14047,34.10961],[-118.13912,34.10962],[-118.13846,34.1106]]],"type":"Polygon"},"properties":{"bbox":{"roads":{"area":1470.57,"pct":3.62}},"city_same":1,"id":"hex:2106:17436"},"type":"Feature"},{"geometry":{"coordinates":[[[-118.13848,34.11256],[-118.13851,34.11256],[-118.13943,34.11253],[-118.13954,34.11252],[-118.13946,34.11244],[-118.13902,34.11177],[-118.13915,34.11157],[-118.1405,34.11156],[-118.14119,34.11253],[-118.14053,34.11351],[-118.13938,34.11352],[-118.13909,34.11328],[-118.13902,34.11323],[-118.13877,34.11297],[-118.13848,34.11256]]],"type":"Polygon"},"properties":{"bbox":{"roads":{"area":2865.3,"pct":7.96},"sidewalks":{"area":174.61,"pct":0.49}},"city_same":1,"id":"hex:2106:17437"},"type":"Feature"},{"geometry":{"coordinates":[[[-118.14053,34.11351],[-118.14122,34.11448],[-118.14055,34.11547],[-118.14047,34.11547],[-118.13991,34.11396],[-118.13938,34.11352],[-118.14053,34.11351]]],"type":"Polygon"},"properties":{"bbox":{"roads":{"area":1014.8,"pct":6.24}},"city_same":1,"id":"hex:2106:17438"},"type":"Feature"},{"geometry":{"coordinates":[[[-118.14055,34.11547],[-118.14124,34.11644],[-118.14098,34.11683],[-118.14077,34.11642],[-118.14071,34.11616],[-118.14068,34.11604],[-118.14047,34.11547],[-118.14055,34.11547]]],"type":"Polygon"},"properties":{"bbox":{"roads":{"area":193.66,"pct":5.52},"sidewalks":{"area":10.91,"pct":0.31}},"city_same":1,"id":"hex:2106:17439"},"type":"Feature"},{"geometry":{"coordinates":[[[-118.13838,34.10475],[-118.13702,34.10476],[-118.13656,34.1041],[-118.13883,34.10407],[-118.13838,34.10475]]],"type":"Polygon"},"properties":{"bbox":{"parking":{"area":115.15,"pct":0.93},"roads":{"area":1463.36,"pct":11.84},"sidewalks":{"area":457.29,"pct":3.7}},"city_same":1,"id":"hex:2107:17432"},"type":"Feature"},{"geometry":{"coordinates":[[[-118.13636,34.10574],[-118.13705,34.10671],[-118.1384,34.1067],[-118.13907,34.10572],[-118.13838,34.10475],[-118.13702,34.10476],[-118.13636,34.10574]]],"type":"Polygon"},"properties":{"bbox":{"roads":{"area":7017.95,"pct":17.29},"sidewalks":{"area":1359.62,"pct":3.35}},"city_same":1,"id":"hex:2107:17433"},"type":"Feature"},{"geometry":{"coordinates":[[[-118.13638,34.10769],[-118.13707,34.10866],[-118.13843,34.10865],[-118.13909,34.10767],[-118.1384,34.1067],[-118.13705,34.10671],[-118.13638,34.10769]]],"type":"Polygon"},"properties":{"bbox":{"parking":{"area":2274.82,"pct":5.6},"roads":{"area":3988.51,"pct":9.83},"sidewalks":{"area":991.09,"pct":2.44}},"city_same":1,"id":"hex:2107:17434"},"type":"Feature"},{"geometry":{"coordinates":[[[-118.13707,34.10866],[-118.13843,34.10865],[-118.13912,34.10962],[-118.13846,34.1106],[-118.13824,34.11061],[-118.13789,34.11009],[-118.1377,34.10981],[-118.13727,34.10919],[-118.13724,34.10915],[-118.13702,34.10875],[-118.13707,34.10866]]],"type":"Polygon"},"properties":{"bbox":{"parking":{"area":3004.3,"pct":12.62},"roads":{"area":2573.74,"pct":10.81},"sidewalks":{"area":367.98,"pct":1.55}},"city_same":1,"id":"hex:2107:17435"},"type":"Feature"},{"geometry":{"coordinates":[[[-118.13846,34.1106],[-118.13915,34.11157],[-118.13902,34.11177],[-118.13853,34.11103],[-118.13846,34.11093],[-118.13824,34.11061],[-118.13846,34.1106]]],"type":"Polygon"},"properties":{"bbox":{"roads":{"area":763.91,"pct":29.67},"sidewalks":{"area":173.84,"pct":6.75}},"city_same":1,"id":"hex:2107:17436"},"type":"Feature"},{"geometry":{"coordinates":[[[-118.13877,34.11297],[-118.1386,34.11278],[-118.1383,34.11257],[-118.13848,34.11256],[-118.13877,34.11297]]],"type":"Polygon"},"properties":{"bbox":{"roads":{"area":61.4,"pct":20.64}},"city_same":1,"id":"hex:2107:17437"},"type":"Feature"},{"geometry":{"coordinates":[[[-118.13702,34.10476],[-118.13636,34.10574],[-118.135,34.10576],[-118.13474,34.10539],[-118.13477,34.10413],[-118.13656,34.1041],[-118.13702,34.10476]]],"type":"Polygon"},"properties":{"bbox":{"parking":{"area":3369.64,"pct":10.37},"roads":{"area":2882.33,"pct":8.87},"sidewalks":{"area":985.8,"pct":3.03}},"city_same":1,"id":"hex:2108:17433"},"type":"Feature"},{"geometry":{"coordinates":[[[-118.135,34.10576],[-118.13636,34.10574],[-118.13705,34.10671],[-118.13638,34.10769],[-118.13634,34.1077],[-118.13532,34.10644],[-118.13489,34.10592],[-118.135,34.10576]]],"type":"Polygon"},"properties":{"bbox":{"parking":{"area":2406.85,"pct":10.51},"roads":{"area":4806.02,"pct":20.99},"sidewalks":{"area":841.15,"pct":3.67}},"city":{"parking":{"area":2406.85,"pct":10.51},"roads":{"area":4520.62,"pct":19.74},"sidewalks":{"area":841.15,"pct":3.67}},"id":"hex:2108:17434"},"type":"Feature"},{"geometry":{"coordinates":[[[-118.13638,34.10769],[-118.13707,34.10866],[-118.13702,34.10875],[-118.13687,34.10848],[-118.13645,34.10783],[-118.13634,34.1077],[-118.13638,34.10769]]],"type":"Polygon"},"properties":{"bbox":{"roads":{"area":314.45,"pct":49.36}},"city_same":1,"id":"hex:2108:17435"},"type":"Feature"},{"geometry":{"coordinates":[[[-118.135,34.10576],[-118.13489,34.10592],[-118.13473,34.10572],[-118.13474,34.10539],[-118.135,34.10576]]],"type":"Polygon"},"properties":{"bbox":{"parking":{"area":271.53,"pct":38.43},"roads":{"area":168.14,"pct":23.8},"sidewalks":{"area":68.78,"pct":9.73}},"city":{"parking":{"area":271.53,"pct":38.43},"roads":{"area":29.37,"pct":4.16},"sidewalks":{"area":68.78,"pct":9.73}},"id":"hex:2109:17433"},"type":"Feature"}],"type":"FeatureCollection","v":2}