{"features":[{"geometry":{"coordinates":[[[[-122.84787,38.39748],[-122.8438,38.39785],[-122.84411,38.39874],[-122.84306,38.39895],[-122.84537,38.40523],[-122.84314,38.40533],[-122.84367,38.40695],[-122.84061,38.40706],[-122.84111,38.40773],[-122.84058,38.40798],[-122.84087,38.40839],[-122.83991,38.4088],[-122.84064,38.40854],[-122.84139,38.40962],[-122.8417,38.4096],[-122.84235,38.41046],[-122.8422,38.41052],[-122.84248,38.4109],[-122.84178,38.41123],[-122.84296,38.41272],[-122.84237,38.41296],[-122.84076,38.41273],[-122.84018,38.41202],[-122.84017,38.41154],[-122.83857,38.41174],[-122.83857,38.4111],[-122.8398,38.41037],[-122.83948,38.41002],[-122.8393,38.4096],[-122.83942,38.40957],[-122.83904,38.4092],[-122.83859,38.40949],[-122.83851,38.40779],[-122.83672,38.40784],[-122.83663,38.40688],[-122.83567,38.40693],[-122.83566,38.40681],[-122.83311,38.40701],[-122.83267,38.40681],[-122.83259,38.40839],[-122.83055,38.40843],[-122.83055,38.40938],[-122.82819,38.4094],[-122.82821,38.40898],[-122.82749,38.40895],[-122.82749,38.40939],[-122.82527,38.40942],[-122.82546,38.40925],[-122.82546,38.40852],[-122.82124,38.40855],[-122.82117,38.41021],[-122.81641,38.41022],[-122.81711,38.40932],[-122.8126,38.40934],[-122.8126,38.40906],[-122.81242,38.40906],[-122.8126,38.40901],[-122.81256,38.40566],[-122.81277,38.40542],[-122.81247,38.40473],[-122.81587,38.4036],[-122.81552,38.40316],[-122.81561,38.40119],[-122.81731,38.40091],[-122.81731,38.4013],[-122.81756,38.40106],[-122.81821,38.40084],[-122.81803,38.39918],[-122.81702,38.39749],[-122.81638,38.39749],[-122.81639,38.39668],[-122.81731,38.39663],[-122.81765,38.39623],[-122.81728,38.39621],[-122.81728,38.39593],[-122.81774,38.39598],[-122.81768,38.39531],[-122.81706,38.39535],[-122.81666,38.39398],[-122.81753,38.39397],[-122.8174,38.39299],[-122.81655,38.39301],[-122.81649,38.39195],[-122.80629,38.39196],[-122.80634,38.39033],[-122.81159,38.3903],[-122.81161,38.38945],[-122.81272,38.38942],[-122.81273,38.3884],[-122.81308,38.3884],[-122.81309,38.38807],[-122.8139,38.38803],[-122.81434,38.38849],[-122.81575,38.38828],[-122.81596,38.38921],[-122.81631,38.38916],[-122.81642,38.38951],[-122.81701,38.38944],[-122.81726,38.39035],[-122.82433,38.39032],[-122.82431,38.38937],[-122.82479,38.38938],[-122.82478,38.38795],[-122.8241,38.38807],[-122.82408,38.38759],[-122.82385,38.38763],[-122.82377,38.38737],[-122.82199,38.38717],[-122.82194,38.3868],[-122.82284,38.38679],[-122.82272,38.38603],[-122.82757,38.385],[-122.82773,38.38841],[-122.82772,38.38861],[-122.82751,38.3886],[-122.82754,38.39025],[-122.83039,38.39026],[-122.83005,38.39154],[-122.83055,38.39162],[-122.83042,38.39227],[-122.83003,38.39222],[-122.82987,38.39296],[-122.83161,38.39286],[-122.83125,38.39423],[-122.8298,38.39423],[-122.82975,38.39587],[-122.83124,38.39586],[-122.83124,38.39503],[-122.83484,38.39511],[-122.83476,38.39466],[-122.83625,38.39375],[-122.8386,38.39705],[-122.84761,38.39622],[-122.84816,38.39745],[-122.84787,38.39748]],[[-122.81824,38.40911],[-122.81821,38.40821],[-122.81802,38.40903],[-122.8166,38.41013],[-122.81759,38.40977],[-122.81824,38.40911]],[[-122.81886,38.4096],[-122.81792,38.41009],[-122.81878,38.41012],[-122.81886,38.4096]],[[-122.81904,38.41011],[-122.81989,38.41008],[-122.81991,38.40904],[-122.81906,38.40949],[-122.81904,38.41011]],[[-122.83013,38.39679],[-122.82995,38.3968],[-122.82985,38.39698],[-122.83007,38.39699],[-122.83013,38.39679]],[[-122.83909,38.40165],[-122.83927,38.4016],[-122.83913,38.40131],[-122.83884,38.40128],[-122.8387,38.40163],[-122.83893,38.40155],[-122.83909,38.40165]]],[[[-122.83307,38.38451],[-122.83225,38.38446],[-122.83192,38.38344],[-122.8329,38.38342],[-122.8331,38.38395],[-122.83393,38.38394],[-122.83406,38.38435],[-122.83307,38.38451]]],[[[-122.839,38.40136],[-122.83902,38.40137],[-122.83906,38.40138],[-122.83907,38.40139],[-122.83908,38.40141],[-122.83908,38.40143],[-122.83908,38.40144],[-122.83908,38.40146],[-122.83909,38.40148],[-122.8391,38.40149],[-122.83911,38.4015],[-122.83912,38.40151],[-122.83913,38.40151],[-122.83913,38.40152],[-122.83913,38.40153],[-122.83912,38.40154],[-122.83911,38.40155],[-122.83909,38.40156],[-122.83907,38.40156],[-122.83905,38.40156],[-122.83904,38.40155],[-122.83903,38.40154],[-122.83903,38.40153],[-122.83904,38.40151],[-122.83904,38.40149],[-122.83903,38.40148],[-122.83902,38.40147],[-122.83899,38.40146],[-122.83897,38.40145],[-122.83896,38.40143],[-122.83895,38.40141],[-122.83895,38.40139],[-122.83895,38.40137],[-122.83897,38.40137],[-122.839,38.40136]]]],"type":"MultiPolygon"},"properties":{"type":"boundary"},"type":"Feature"}],"type":"FeatureCollection"}