{"features":[{"geometry":{"coordinates":[[[-122.84712,38.39674],[-122.84679,38.3963],[-122.84761,38.39622],[-122.84765,38.39634],[-122.84771,38.3965],[-122.84781,38.39671],[-122.84782,38.39674],[-122.84712,38.39674]]],"type":"Polygon"},"properties":{"bbox":{"roads":{"area":300.71,"pct":8.29},"sidewalks":{"area":48.19,"pct":1.33}},"city_same":1,"id":"hex:3422:24536"},"type":"Feature"},{"geometry":{"coordinates":[[[-122.84654,38.39752],[-122.84712,38.39674],[-122.84782,38.39674],[-122.84786,38.39683],[-122.84792,38.39696],[-122.84793,38.39699],[-122.84811,38.39733],[-122.84815,38.3974],[-122.84816,38.39745],[-122.84794,38.39747],[-122.84787,38.39748],[-122.847,38.39756],[-122.84671,38.39759],[-122.8466,38.3976],[-122.84654,38.39752]]],"type":"Polygon"},"properties":{"bbox":{"roads":{"area":1419.74,"pct":15.8},"sidewalks":{"area":239.27,"pct":2.66}},"city":{"roads":{"area":933.63,"pct":10.39},"sidewalks":{"area":239.27,"pct":2.66}},"id":"hex:3422:24537"},"type":"Feature"},{"geometry":{"coordinates":[[[-122.84712,38.39674],[-122.84654,38.39752],[-122.8454,38.39752],[-122.84483,38.39673],[-122.84502,38.39647],[-122.84679,38.3963],[-122.84712,38.39674]]],"type":"Polygon"},"properties":{"bbox":{"roads":{"area":2844.17,"pct":14.23},"sidewalks":{"area":802.98,"pct":4.02}},"city_same":1,"id":"hex:3423:24536"},"type":"Feature"},{"geometry":{"coordinates":[[[-122.8454,38.39752],[-122.84654,38.39752],[-122.8466,38.3976],[-122.84624,38.39763],[-122.84525,38.39772],[-122.8454,38.39752]]],"type":"Polygon"},"properties":{"bbox":{"roads":{"area":484.54,"pct":28.94},"sidewalks":{"area":2.06,"pct":0.12}},"city":{"roads":{"area":3.33,"pct":0.2},"sidewalks":{"area":2.06,"pct":0.12}},"id":"hex:3423:24537"},"type":"Feature"},{"geometry":{"coordinates":[[[-122.84481,38.40454],[-122.84502,38.40426],[-122.84506,38.4044],[-122.84507,38.40443],[-122.84522,38.40483],[-122.84537,38.40523],[-122.84532,38.40524],[-122.84481,38.40454]]],"type":"Polygon"},"properties":{"bbox":{"roads":{"area":291.67,"pct":18.23},"sidewalks":{"area":140.44,"pct":8.78}},"city_same":1,"id":"hex:3423:24541"},"type":"Feature"},{"geometry":{"coordinates":[[[-122.84483,38.39673],[-122.84368,38.39673],[-122.84358,38.39659],[-122.84455,38.39652],[-122.84472,38.3965],[-122.84502,38.39647],[-122.84483,38.39673]]],"type":"Polygon"},"properties":{"bbox":{"roads":{"area":29.63,"pct":1.2},"sidewalks":{"area":13.82,"pct":0.56}},"city_same":1,"id":"hex:3424:24536"},"type":"Feature"},{"geometry":{"coordinates":[[[-122.84368,38.39829],[-122.84311,38.39751],[-122.84368,38.39673],[-122.84483,38.39673],[-122.8454,38.39752],[-122.84525,38.39772],[-122.84483,38.39776],[-122.84436,38.3978],[-122.84427,38.39781],[-122.84401,38.39783],[-122.84392,38.39784],[-122.8438,38.39785],[-122.84396,38.39829],[-122.84368,38.39829]]],"type":"Polygon"},"properties":{"bbox":{"roads":{"area":3265.26,"pct":16.04},"sidewalks":{"area":738.01,"pct":3.63}},"city":{"roads":{"area":2599.08,"pct":12.77},"sidewalks":{"area":738.01,"pct":3.63}},"id":"hex:3424:24537"},"type":"Feature"},{"geometry":{"coordinates":[[[-122.84368,38.39829],[-122.84396,38.39829],[-122.84407,38.39863],[-122.84411,38.39874],[-122.84322,38.39892],[-122.84368,38.39829]]],"type":"Polygon"},"properties":{"bbox":{"roads":{"area":247.66,"pct":8.57},"sidewalks":{"area":34.41,"pct":1.19}},"city_same":1,"id":"hex:3424:24538"},"type":"Feature"},{"geometry":{"coordinates":[[[-122.84367,38.40142],[-122.8431,38.40063],[-122.84349,38.40011],[-122.84351,38.40018],[-122.84366,38.40056],[-122.84376,38.40083],[-122.84385,38.40105],[-122.84389,38.40117],[-122.84398,38.40142],[-122.84367,38.40142]]],"type":"Polygon"},"properties":{"bbox":{"roads":{"area":855.38,"pct":17.58},"sidewalks":{"area":87.98,"pct":1.81}},"city_same":1,"id":"hex:3424:24539"},"type":"Feature"},{"geometry":{"coordinates":[[[-122.84367,38.40298],[-122.8431,38.4022],[-122.84367,38.40142],[-122.84398,38.40142],[-122.84402,38.40152],[-122.84406,38.40164],[-122.84408,38.40168],[-122.84412,38.4018],[-122.84414,38.40184],[-122.8442,38.402],[-122.84439,38.40251],[-122.84445,38.40268],[-122.84456,38.40298],[-122.84367,38.40298]]],"type":"Polygon"},"properties":{"bbox":{"roads":{"area":2348.97,"pct":17.52},"sidewalks":{"area":708.89,"pct":5.29}},"city_same":1,"id":"hex:3424:24540"},"type":"Feature"},{"geometry":{"coordinates":[[[-122.84481,38.40454],[-122.84367,38.40454],[-122.84309,38.40376],[-122.84367,38.40298],[-122.84456,38.40298],[-122.8446,38.40311],[-122.84489,38.40391],[-122.84502,38.40426],[-122.84481,38.40454]]],"type":"Polygon"},"properties":{"bbox":{"roads":{"area":2631.85,"pct":12.17},"sidewalks":{"area":732.65,"pct":3.39}},"city_same":1,"id":"hex:3424:24541"},"type":"Feature"},{"geometry":{"coordinates":[[[-122.84309,38.40532],[-122.84367,38.40454],[-122.84481,38.40454],[-122.84532,38.40524],[-122.84506,38.4053],[-122.8449,38.40532],[-122.84471,38.40534],[-122.84449,38.40533],[-122.84402,38.40533],[-122.84364,38.40533],[-122.84347,38.40533],[-122.84332,38.40533],[-122.84314,38.40533],[-122.84315,38.40539],[-122.84315,38.4054],[-122.84309,38.40532]]],"type":"Polygon"},"properties":{"bbox":{"roads":{"area":1634.13,"pct":12.55},"sidewalks":{"area":727.85,"pct":5.59}},"city_same":1,"id":"hex:3424:24542"},"type":"Feature"},{"geometry":{"coordinates":[[[-122.84368,38.39673],[-122.84311,38.39751],[-122.84196,38.39751],[-122.84142,38.39677],[-122.84152,38.39676],[-122.84278,38.39666],[-122.84352,38.3966],[-122.84358,38.39659],[-122.84368,38.39673]]],"type":"Polygon"},"properties":{"bbox":{"roads":{"area":2275.6,"pct":16.19},"sidewalks":{"area":699.34,"pct":4.97}},"city_same":1,"id":"hex:3425:24536"},"type":"Feature"},{"geometry":{"coordinates":[[[-122.84196,38.39907],[-122.84139,38.39829],[-122.84196,38.39751],[-122.84311,38.39751],[-122.84368,38.39829],[-122.84322,38.39892],[-122.84306,38.39895],[-122.8431,38.39907],[-122.84196,38.39907]]],"type":"Polygon"},"properties":{"bbox":{"parking":{"area":1189.42,"pct":4.6},"roads":{"area":4846.09,"pct":18.73},"sidewalks":{"area":746.69,"pct":2.89}},"city":{"parking":{"area":1189.42,"pct":4.6},"roads":{"area":3176.91,"pct":12.28},"sidewalks":{"area":746.69,"pct":2.89}},"id":"hex:3425:24537"},"type":"Feature"},{"geometry":{"coordinates":[[[-122.8431,38.40063],[-122.84196,38.40063],[-122.84139,38.39985],[-122.84196,38.39907],[-122.8431,38.39907],[-122.84317,38.39926],[-122.84322,38.39941],[-122.84326,38.39952],[-122.84339,38.39985],[-122.84343,38.39996],[-122.84349,38.40011],[-122.8431,38.40063]]],"type":"Polygon"},"properties":{"bbox":{"roads":{"area":2640.33,"pct":10.76}},"city_same":1,"id":"hex:3425:24538"},"type":"Feature"},{"geometry":{"coordinates":[[[-122.84138,38.40141],[-122.84195,38.40219],[-122.8431,38.4022],[-122.84367,38.40142],[-122.8431,38.40063],[-122.84196,38.40063],[-122.84138,38.40141]]],"type":"Polygon"},"properties":{"bbox":{"roads":{"area":1704.7,"pct":6.56},"sidewalks":{"area":630.15,"pct":2.43}},"city_same":1,"id":"hex:3425:24539"},"type":"Feature"},{"geometry":{"coordinates":[[[-122.84138,38.40297],[-122.84195,38.40376],[-122.84309,38.40376],[-122.84367,38.40298],[-122.8431,38.4022],[-122.84195,38.40219],[-122.84138,38.40297]]],"type":"Polygon"},"properties":{"bbox":{"parking":{"area":4963.52,"pct":19.1},"roads":{"area":2580.41,"pct":9.93},"sidewalks":{"area":363.79,"pct":1.4}},"city_same":1,"id":"hex:3425:24540"},"type":"Feature"},{"geometry":{"coordinates":[[[-122.84138,38.40454],[-122.84195,38.40532],[-122.84309,38.40532],[-122.84367,38.40454],[-122.84309,38.40376],[-122.84195,38.40376],[-122.84138,38.40454]]],"type":"Polygon"},"properties":{"bbox":{"roads":{"area":3579.92,"pct":13.78},"sidewalks":{"area":1206.42,"pct":4.64}},"city_same":1,"id":"hex:3425:24541"},"type":"Feature"},{"geometry":{"coordinates":[[[-122.84309,38.40688],[-122.84194,38.40688],[-122.84137,38.4061],[-122.84195,38.40532],[-122.84309,38.40532],[-122.84315,38.4054],[-122.84325,38.4057],[-122.84346,38.40634],[-122.84347,38.40636],[-122.84309,38.40688]]],"type":"Polygon"},"properties":{"bbox":{"roads":{"area":2666.18,"pct":10.81},"sidewalks":{"area":345.18,"pct":1.4}},"city_same":1,"id":"hex:3425:24542"},"type":"Feature"},{"geometry":{"coordinates":[[[-122.84194,38.41],[-122.84166,38.40962],[-122.8417,38.4096],[-122.84201,38.41],[-122.84194,38.41]]],"type":"Polygon"},"properties":{"bbox":{"parking":{"area":210.75,"pct":87.09},"roads":{"area":35.84,"pct":14.81}},"city_same":1,"id":"hex:3425:24544"},"type":"Feature"},{"geometry":{"coordinates":[[[-122.84193,38.41156],[-122.84136,38.41078],[-122.84194,38.41],[-122.84201,38.41],[-122.84221,38.41027],[-122.84235,38.41046],[-122.84229,38.41048],[-122.8422,38.41052],[-122.84248,38.4109],[-122.84235,38.41097],[-122.84217,38.41105],[-122.84208,38.41109],[-122.84203,38.41111],[-122.84187,38.41118],[-122.84182,38.41121],[-122.84179,38.41122],[-122.84178,38.41123],[-122.84201,38.41153],[-122.84203,38.41156],[-122.84193,38.41156]]],"type":"Polygon"},"properties":{"bbox":{"parking":{"area":2080.08,"pct":27.1},"roads":{"area":1975.75,"pct":25.74},"sidewalks":{"area":99.86,"pct":1.3}},"city":{"parking":{"area":2080.08,"pct":27.1},"roads":{"area":1117.68,"pct":14.56},"sidewalks":{"area":99.86,"pct":1.3}},"id":"hex:3425:24545"},"type":"Feature"},{"geometry":{"coordinates":[[[-122.84136,38.41234],[-122.84193,38.41156],[-122.84203,38.41156],[-122.84229,38.41191],[-122.84262,38.41233],[-122.84271,38.41243],[-122.84296,38.41272],[-122.84279,38.41279],[-122.84237,38.41296],[-122.84225,38.41293],[-122.84174,38.41286],[-122.84136,38.41234]]],"type":"Polygon"},"properties":{"bbox":{"parking":{"area":823.69,"pct":6.93},"roads":{"area":1598.82,"pct":13.46},"sidewalks":{"area":333.41,"pct":2.81}},"city":{"parking":{"area":823.69,"pct":6.93},"roads":{"area":827.82,"pct":6.97},"sidewalks":{"area":333.41,"pct":2.81}},"id":"hex:3425:24546"},"type":"Feature"},{"geometry":{"coordinates":[[[-122.84196,38.39751],[-122.84139,38.39829],[-122.84024,38.39829],[-122.83967,38.39751],[-122.84015,38.39686],[-122.84019,38.39686],[-122.84046,38.39684],[-122.84063,38.39683],[-122.84076,38.39682],[-122.84134,38.39678],[-122.84142,38.39677],[-122.84196,38.39751]]],"type":"Polygon"},"properties":{"bbox":{"parking":{"area":1575.75,"pct":6.31},"roads":{"area":3519.44,"pct":14.09},"sidewalks":{"area":528.46,"pct":2.12}},"city":{"parking":{"area":1575.75,"pct":6.31},"roads":{"area":2242.98,"pct":8.98},"sidewalks":{"area":528.46,"pct":2.12}},"id":"hex:3426:24537"},"type":"Feature"},{"geometry":{"coordinates":[[[-122.83967,38.39907],[-122.84024,38.39985],[-122.84139,38.39985],[-122.84196,38.39907],[-122.84139,38.39829],[-122.84024,38.39829],[-122.83967,38.39907]]],"type":"Polygon"},"properties":{"bbox":{"parking":{"area":4649.87,"pct":17.9},"roads":{"area":1791.13,"pct":6.89},"sidewalks":{"area":250.63,"pct":0.96}},"city_same":1,"id":"hex:3426:24538"},"type":"Feature"},{"geometry":{"coordinates":[[[-122.83967,38.40063],[-122.84024,38.40141],[-122.84138,38.40141],[-122.84196,38.40063],[-122.84139,38.39985],[-122.84024,38.39985],[-122.83967,38.40063]]],"type":"Polygon"},"properties":{"bbox":{"roads":{"area":1701.75,"pct":6.55},"sidewalks":{"area":970.08,"pct":3.73}},"city_same":1,"id":"hex:3426:24539"},"type":"Feature"},{"geometry":{"coordinates":[[[-122.83966,38.40219],[-122.84023,38.40297],[-122.84138,38.40297],[-122.84195,38.40219],[-122.84138,38.40141],[-122.84024,38.40141],[-122.83966,38.40219]]],"type":"Polygon"},"properties":{"bbox":{"parking":{"area":391.38,"pct":1.51},"roads":{"area":3790.44,"pct":14.59},"sidewalks":{"area":1120.31,"pct":4.31}},"city_same":1,"id":"hex:3426:24540"},"type":"Feature"},{"geometry":{"coordinates":[[[-122.83966,38.40375],[-122.84023,38.40453],[-122.84138,38.40454],[-122.84195,38.40376],[-122.84138,38.40297],[-122.84023,38.40297],[-122.83966,38.40375]]],"type":"Polygon"},"properties":{"bbox":{"roads":{"area":3576.56,"pct":13.77},"sidewalks":{"area":1083.89,"pct":4.17}},"city_same":1,"id":"hex:3426:24541"},"type":"Feature"},{"geometry":{"coordinates":[[[-122.83966,38.40531],[-122.84023,38.40609],[-122.84137,38.4061],[-122.84195,38.40532],[-122.84138,38.40454],[-122.84023,38.40453],[-122.83966,38.40531]]],"type":"Polygon"},"properties":{"bbox":{"roads":{"area":3693.73,"pct":14.22},"sidewalks":{"area":1267.2,"pct":4.88}},"city_same":1,"id":"hex:3426:24542"},"type":"Feature"},{"geometry":{"coordinates":[[[-122.84022,38.40766],[-122.83965,38.40687],[-122.84023,38.40609],[-122.84137,38.4061],[-122.84194,38.40688],[-122.84185,38.40701],[-122.84079,38.40704],[-122.84061,38.40706],[-122.84065,38.40712],[-122.84072,38.4072],[-122.8408,38.40731],[-122.84083,38.40735],[-122.84091,38.40745],[-122.84094,38.40749],[-122.84095,38.4075],[-122.84098,38.40754],[-122.84099,38.40756],[-122.84105,38.40764],[-122.84106,38.40766],[-122.84022,38.40766]]],"type":"Polygon"},"properties":{"bbox":{"roads":{"area":2007.89,"pct":9.44},"sidewalks":{"area":504.04,"pct":2.37}},"city_same":1,"id":"hex:3426:24543"},"type":"Feature"},{"geometry":{"coordinates":[[[[-122.83965,38.40844],[-122.84022,38.40766],[-122.84106,38.40766],[-122.84111,38.40771],[-122.84111,38.40773],[-122.84103,38.40776],[-122.84065,38.40794],[-122.84058,38.40798],[-122.84082,38.40832],[-122.84087,38.40839],[-122.84059,38.40851],[-122.84006,38.40871],[-122.83997,38.40876],[-122.83992,38.4088],[-122.83965,38.40844]]],[[[-122.84022,38.40922],[-122.83992,38.4088],[-122.8401,38.40873],[-122.84064,38.40854],[-122.84072,38.4087],[-122.84076,38.40881],[-122.84089,38.40901],[-122.84095,38.40911],[-122.84104,38.40922],[-122.84022,38.40922]]]],"type":"MultiPolygon"},"properties":{"bbox":{"parking":{"area":3956.45,"pct":30.98},"roads":{"area":1952.16,"pct":15.29},"sidewalks":{"area":614.91,"pct":4.81}},"city":{"parking":{"area":3956.45,"pct":30.98},"roads":{"area":1746.38,"pct":13.67},"sidewalks":{"area":614.91,"pct":4.81}},"id":"hex:3426:24544"},"type":"Feature"},{"geometry":{"coordinates":[[[-122.84194,38.41],[-122.84136,38.41078],[-122.84022,38.41078],[-122.83965,38.41],[-122.84022,38.40922],[-122.84104,38.40922],[-122.84124,38.40944],[-122.84139,38.40962],[-122.84147,38.4097],[-122.84166,38.40962],[-122.84194,38.41]]],"type":"Polygon"},"properties":{"bbox":{"parking":{"area":4337.93,"pct":17.54},"roads":{"area":3686.32,"pct":14.9},"sidewalks":{"area":664.62,"pct":2.69}},"city":{"parking":{"area":4337.93,"pct":17.54},"roads":{"area":2158.07,"pct":8.72},"sidewalks":{"area":664.62,"pct":2.69}},"id":"hex:3426:24545"},"type":"Feature"},{"geometry":{"coordinates":[[[-122.83964,38.41156],[-122.84022,38.41078],[-122.84136,38.41078],[-122.84193,38.41156],[-122.84136,38.41234],[-122.84044,38.41234],[-122.84018,38.41202],[-122.84017,38.41154],[-122.83976,38.41159],[-122.83967,38.4116],[-122.83964,38.41156]]],"type":"Polygon"},"properties":{"bbox":{"parking":{"area":3651.47,"pct":15.36},"roads":{"area":1097.27,"pct":4.62},"sidewalks":{"area":492.32,"pct":2.07}},"city_same":1,"id":"hex:3426:24546"},"type":"Feature"},{"geometry":{"coordinates":[[[-122.83967,38.39751],[-122.83853,38.39751],[-122.83796,38.39673],[-122.83817,38.39644],[-122.83829,38.39662],[-122.83839,38.39675],[-122.83844,38.39681],[-122.8386,38.39705],[-122.83875,38.39697],[-122.83882,38.39695],[-122.83885,38.39695],[-122.83899,38.39693],[-122.83912,38.39693],[-122.83937,38.39691],[-122.83955,38.39689],[-122.83979,38.39687],[-122.83989,38.39686],[-122.83995,38.39686],[-122.84006,38.39686],[-122.84015,38.39686],[-122.83967,38.39751]]],"type":"Polygon"},"properties":{"bbox":{"parking":{"area":8.04,"pct":0.08},"roads":{"area":1143.06,"pct":10.97},"sidewalks":{"area":102.29,"pct":0.98}},"city_same":1,"id":"hex:3427:24536"},"type":"Feature"},{"geometry":{"coordinates":[[[-122.83795,38.39829],[-122.83852,38.39907],[-122.83967,38.39907],[-122.84024,38.39829],[-122.83967,38.39751],[-122.83853,38.39751],[-122.83795,38.39829]]],"type":"Polygon"},"properties":{"bbox":{"parking":{"area":3906.11,"pct":15.03},"roads":{"area":4853.48,"pct":18.68},"sidewalks":{"area":735.27,"pct":2.83}},"city":{"parking":{"area":3906.11,"pct":15.03},"roads":{"area":3249.24,"pct":12.51},"sidewalks":{"area":735.27,"pct":2.83}},"id":"hex:3427:24537"},"type":"Feature"},{"geometry":{"coordinates":[[[-122.83795,38.39985],[-122.83852,38.40063],[-122.83967,38.40063],[-122.84024,38.39985],[-122.83967,38.39907],[-122.83852,38.39907],[-122.83795,38.39985]]],"type":"Polygon"},"properties":{"bbox":{"parking":{"area":303.24,"pct":1.17},"roads":{"area":1886.81,"pct":7.26},"sidewalks":{"area":481.81,"pct":1.85}},"city_same":1,"id":"hex:3427:24538"},"type":"Feature"},{"geometry":{"coordinates":[[[[-122.83852,38.40063],[-122.83967,38.40063],[-122.84024,38.40141],[-122.83966,38.40219],[-122.83852,38.40219],[-122.83795,38.40141],[-122.83852,38.40063]],[[-122.83918,38.40165],[-122.83922,38.40163],[-122.83925,38.40161],[-122.83927,38.4016],[-122.83928,38.40157],[-122.83928,38.40155],[-122.83928,38.40153],[-122.83928,38.40151],[-122.83927,38.40149],[-122.83925,38.40144],[-122.83922,38.40139],[-122.83919,38.40135],[-122.83916,38.40133],[-122.83913,38.40131],[-122.83911,38.4013],[-122.83908,38.40129],[-122.83899,38.40129],[-122.83895,38.40128],[-122.83894,38.40127],[-122.83893,38.40127],[-122.83884,38.40128],[-122.83884,38.40128],[-122.83881,38.4013],[-122.83881,38.40132],[-122.83886,38.40135],[-122.83887,38.40137],[-122.83886,38.40139],[-122.83885,38.40141],[-122.83883,38.40142],[-122.83878,38.40145],[-122.83875,38.40148],[-122.83872,38.40154],[-122.83872,38.40155],[-122.8387,38.40158],[-122.8387,38.40163],[-122.83873,38.40163],[-122.83876,38.40162],[-122.83878,38.40161],[-122.8388,38.40159],[-122.83882,38.40158],[-122.83883,38.40157],[-122.8389,38.40155],[-122.83893,38.40155],[-122.83895,38.40155],[-122.83898,38.40157],[-122.83902,38.40162],[-122.83906,38.40164],[-122.83909,38.40165],[-122.83912,38.40165],[-122.83915,38.40165],[-122.83918,38.40165]]],[[[-122.83907,38.40139],[-122.83908,38.40141],[-122.83908,38.40143],[-122.83908,38.40144],[-122.83908,38.40146],[-122.83909,38.40148],[-122.8391,38.40149],[-122.83911,38.4015],[-122.83912,38.40151],[-122.83913,38.40151],[-122.83913,38.40152],[-122.83913,38.40153],[-122.83912,38.40154],[-122.83911,38.40155],[-122.83909,38.40156],[-122.83907,38.40156],[-122.83905,38.40156],[-122.83904,38.40155],[-122.83903,38.40154],[-122.83903,38.40153],[-122.83904,38.40151],[-122.83904,38.40149],[-122.83903,38.40148],[-122.83902,38.40147],[-122.83899,38.40146],[-122.83897,38.40145],[-122.83896,38.40143],[-122.83895,38.40141],[-122.83895,38.40139],[-122.83895,38.40137],[-122.83897,38.40137],[-122.839,38.40136],[-122.83902,38.40137],[-122.83906,38.40138],[-122.83907,38.40139]]]],"type":"MultiPolygon"},"properties":{"bbox":{"roads":{"area":786.99,"pct":3.18},"sidewalks":{"area":172.2,"pct":0.7}},"city_same":1,"id":"hex:3427:24539"},"type":"Feature"},{"geometry":{"coordinates":[[[-122.83794,38.40297],[-122.83851,38.40375],[-122.83966,38.40375],[-122.84023,38.40297],[-122.83966,38.40219],[-122.83852,38.40219],[-122.83794,38.40297]]],"type":"Polygon"},"properties":{"bbox":{"parking":{"area":786.79,"pct":3.03},"roads":{"area":1962.75,"pct":7.55},"sidewalks":{"area":342.31,"pct":1.32}},"city_same":1,"id":"hex:3427:24540"},"type":"Feature"},{"geometry":{"coordinates":[[[-122.83794,38.40453],[-122.83851,38.40531],[-122.83966,38.40531],[-122.84023,38.40453],[-122.83966,38.40375],[-122.83851,38.40375],[-122.83794,38.40453]]],"type":"Polygon"},"properties":{"bbox":{"parking":{"area":4789.32,"pct":18.43},"roads":{"area":4199.23,"pct":16.16},"sidewalks":{"area":334.53,"pct":1.29}},"city_same":1,"id":"hex:3427:24541"},"type":"Feature"},{"geometry":{"coordinates":[[[-122.83794,38.40609],[-122.83851,38.40687],[-122.83965,38.40687],[-122.84023,38.40609],[-122.83966,38.40531],[-122.83851,38.40531],[-122.83794,38.40609]]],"type":"Polygon"},"properties":{"bbox":{"parking":{"area":1583.68,"pct":6.1},"roads":{"area":2740.71,"pct":10.55},"sidewalks":{"area":581.9,"pct":2.24}},"city_same":1,"id":"hex:3427:24542"},"type":"Feature"},{"geometry":{"coordinates":[[[-122.83793,38.40765],[-122.83851,38.40687],[-122.83965,38.40687],[-122.84022,38.40766],[-122.83965,38.40844],[-122.83861,38.40843],[-122.83861,38.40843],[-122.83862,38.40836],[-122.8385,38.40831],[-122.83851,38.4079],[-122.83851,38.40779],[-122.83842,38.40778],[-122.83804,38.4078],[-122.83793,38.40765]]],"type":"Polygon"},"properties":{"bbox":{"parking":{"area":10564.84,"pct":43.32},"roads":{"area":5236.01,"pct":21.47},"sidewalks":{"area":1007.84,"pct":4.13}},"city":{"parking":{"area":10564.84,"pct":43.32},"roads":{"area":3651.33,"pct":14.97},"sidewalks":{"area":1007.84,"pct":4.13}},"id":"hex:3427:24543"},"type":"Feature"},{"geometry":{"coordinates":[[[-122.84022,38.40922],[-122.83965,38.41],[-122.83947,38.41],[-122.8393,38.4096],[-122.83942,38.40957],[-122.83923,38.40939],[-122.83904,38.4092],[-122.83859,38.40949],[-122.83859,38.40938],[-122.8386,38.40893],[-122.83861,38.40843],[-122.83965,38.40844],[-122.83992,38.4088],[-122.83991,38.4088],[-122.83992,38.4088],[-122.84022,38.40922]]],"type":"Polygon"},"properties":{"bbox":{"parking":{"area":1517.34,"pct":9.95},"roads":{"area":2597.4,"pct":17.03},"sidewalks":{"area":292.8,"pct":1.92}},"city":{"parking":{"area":1517.34,"pct":9.95},"roads":{"area":2037.43,"pct":13.36},"sidewalks":{"area":292.8,"pct":1.92}},"id":"hex:3427:24544"},"type":"Feature"},{"geometry":{"coordinates":[[[-122.83965,38.41],[-122.84022,38.41078],[-122.83964,38.41156],[-122.83857,38.41156],[-122.83857,38.41147],[-122.83857,38.41137],[-122.83857,38.4111],[-122.83863,38.41106],[-122.83936,38.41067],[-122.83957,38.41055],[-122.8398,38.41037],[-122.83978,38.41034],[-122.83948,38.41002],[-122.83947,38.41],[-122.83965,38.41]]],"type":"Polygon"},"properties":{"bbox":{"parking":{"area":768.81,"pct":6.37},"roads":{"area":450.5,"pct":3.73},"sidewalks":{"area":28.17,"pct":0.23}},"city_same":1,"id":"hex:3427:24545"},"type":"Feature"},{"geometry":{"coordinates":[[[-122.83964,38.41156],[-122.83967,38.4116],[-122.83857,38.41174],[-122.83857,38.41159],[-122.83857,38.41156],[-122.83964,38.41156]]],"type":"Polygon"},"properties":{"bbox":{"roads":{"area":92.03,"pct":7.73}},"city_same":1,"id":"hex:3427:24546"},"type":"Feature"},{"geometry":{"coordinates":[[[-122.83681,38.39516],[-122.83624,38.39438],[-122.83646,38.39409],[-122.83651,38.39416],[-122.83653,38.39419],[-122.83668,38.39438],[-122.83688,38.39464],[-122.83725,38.39516],[-122.83681,38.39516]]],"type":"Polygon"},"properties":{"bbox":{"roads":{"area":525.38,"pct":13.24},"sidewalks":{"area":239.06,"pct":6.02}},"city_same":1,"id":"hex:3428:24535"},"type":"Feature"},{"geometry":{"coordinates":[[[-122.83796,38.39673],[-122.83681,38.39672],[-122.83624,38.39594],[-122.83681,38.39516],[-122.83725,38.39516],[-122.83733,38.39527],[-122.83778,38.39588],[-122.83794,38.39612],[-122.83802,38.39623],[-122.83816,38.39643],[-122.83817,38.39644],[-122.83796,38.39673]]],"type":"Polygon"},"properties":{"bbox":{"roads":{"area":936.29,"pct":4.94},"sidewalks":{"area":92.34,"pct":0.49}},"city_same":1,"id":"hex:3428:24536"},"type":"Feature"},{"geometry":{"coordinates":[[[-122.83624,38.3975],[-122.83681,38.39828],[-122.83795,38.39829],[-122.83853,38.39751],[-122.83796,38.39673],[-122.83681,38.39672],[-122.83624,38.3975]]],"type":"Polygon"},"properties":{"bbox":{"roads":{"area":2271.52,"pct":8.74},"sidewalks":{"area":122.62,"pct":0.47}},"city":{"roads":{"area":1469.61,"pct":5.66},"sidewalks":{"area":122.62,"pct":0.47}},"id":"hex:3428:24537"},"type":"Feature"},{"geometry":{"coordinates":[[[-122.83623,38.39906],[-122.8368,38.39985],[-122.83795,38.39985],[-122.83852,38.39907],[-122.83795,38.39829],[-122.83681,38.39828],[-122.83623,38.39906]]],"type":"Polygon"},"properties":{"bbox":{"parking":{"area":1300.55,"pct":5.01},"roads":{"area":3156.85,"pct":12.15},"sidewalks":{"area":743.08,"pct":2.86}},"city_same":1,"id":"hex:3428:24538"},"type":"Feature"},{"geometry":{"coordinates":[[[-122.83623,38.40063],[-122.8368,38.40141],[-122.83795,38.40141],[-122.83852,38.40063],[-122.83795,38.39985],[-122.8368,38.39985],[-122.83623,38.40063]]],"type":"Polygon"},"properties":{"bbox":{"roads":{"area":1373.66,"pct":5.29},"sidewalks":{"area":53.21,"pct":0.2}},"city_same":1,"id":"hex:3428:24539"},"type":"Feature"},{"geometry":{"coordinates":[[[-122.83623,38.40219],[-122.8368,38.40297],[-122.83794,38.40297],[-122.83852,38.40219],[-122.83795,38.40141],[-122.8368,38.40141],[-122.83623,38.40219]]],"type":"Polygon"},"properties":{"bbox":{"parking":{"area":1824.37,"pct":7.02},"roads":{"area":3440.62,"pct":13.24},"sidewalks":{"area":771.91,"pct":2.97}},"city_same":1,"id":"hex:3428:24540"},"type":"Feature"},{"geometry":{"coordinates":[[[-122.83622,38.40375],[-122.83679,38.40453],[-122.83794,38.40453],[-122.83851,38.40375],[-122.83794,38.40297],[-122.8368,38.40297],[-122.83622,38.40375]]],"type":"Polygon"},"properties":{"bbox":{"roads":{"area":4257.55,"pct":16.39},"sidewalks":{"area":1245.55,"pct":4.79}},"city_same":1,"id":"hex:3428:24541"},"type":"Feature"},{"geometry":{"coordinates":[[[-122.83622,38.40531],[-122.83679,38.40609],[-122.83794,38.40609],[-122.83851,38.40531],[-122.83794,38.40453],[-122.83679,38.40453],[-122.83622,38.40531]]],"type":"Polygon"},"properties":{"bbox":{"parking":{"area":3674.45,"pct":14.14},"roads":{"area":6254.78,"pct":24.07},"sidewalks":{"area":919.77,"pct":3.54}},"city":{"parking":{"area":3674.45,"pct":14.14},"roads":{"area":4918.01,"pct":18.93},"sidewalks":{"area":919.77,"pct":3.54}},"id":"hex:3428:24542"},"type":"Feature"},{"geometry":{"coordinates":[[[-122.83622,38.40687],[-122.83679,38.40609],[-122.83794,38.40609],[-122.83851,38.40687],[-122.83793,38.40765],[-122.83679,38.40765],[-122.8367,38.40753],[-122.83668,38.40734],[-122.83666,38.40691],[-122.83663,38.4069],[-122.83663,38.40688],[-122.83636,38.4069],[-122.83624,38.40691],[-122.83622,38.40687]]],"type":"Polygon"},"properties":{"bbox":{"parking":{"area":1646.83,"pct":6.67},"roads":{"area":4084.6,"pct":16.54},"sidewalks":{"area":659.83,"pct":2.67}},"city":{"parking":{"area":1646.83,"pct":6.67},"roads":{"area":2623.91,"pct":10.63},"sidewalks":{"area":659.83,"pct":2.67}},"id":"hex:3428:24543"},"type":"Feature"},{"geometry":{"coordinates":[[[-122.83679,38.40765],[-122.83793,38.40765],[-122.83804,38.4078],[-122.83693,38.40785],[-122.83672,38.40784],[-122.83672,38.40775],[-122.83679,38.40765]]],"type":"Polygon"},"properties":{"bbox":{"roads":{"area":49.91,"pct":2.35}},"city_same":1,"id":"hex:3428:24544"},"type":"Feature"},{"geometry":{"coordinates":[[[-122.83624,38.39438],[-122.83522,38.39438],[-122.83625,38.39375],[-122.83634,38.3939],[-122.83646,38.39409],[-122.83624,38.39438]]],"type":"Polygon"},"properties":{"bbox":{"roads":{"area":168.33,"pct":4.44},"sidewalks":{"area":97.79,"pct":2.58}},"city_same":1,"id":"hex:3429:24534"},"type":"Feature"},{"geometry":{"coordinates":[[[-122.83624,38.39438],[-122.83681,38.39516],[-122.83624,38.39594],[-122.8351,38.39594],[-122.83452,38.39516],[-122.83456,38.39511],[-122.83484,38.39511],[-122.83478,38.39481],[-122.835,38.39452],[-122.83522,38.39438],[-122.83624,38.39438]]],"type":"Polygon"},"properties":{"bbox":{"roads":{"area":2138.07,"pct":8.39},"sidewalks":{"area":556.94,"pct":2.18}},"city_same":1,"id":"hex:3429:24535"},"type":"Feature"},{"geometry":{"coordinates":[[[-122.83452,38.39672],[-122.83509,38.3975],[-122.83624,38.3975],[-122.83681,38.39672],[-122.83624,38.39594],[-122.8351,38.39594],[-122.83452,38.39672]]],"type":"Polygon"},"properties":{"bbox":{"roads":{"area":1305.86,"pct":5.03}},"city_same":1,"id":"hex:3429:24536"},"type":"Feature"},{"geometry":{"coordinates":[[[-122.83452,38.39828],[-122.83509,38.39906],[-122.83623,38.39906],[-122.83681,38.39828],[-122.83624,38.3975],[-122.83509,38.3975],[-122.83452,38.39828]]],"type":"Polygon"},"properties":{"bbox":{"parking":{"area":805.74,"pct":3.1},"roads":{"area":4186.99,"pct":16.12},"sidewalks":{"area":788.02,"pct":3.03}},"city":{"parking":{"area":805.74,"pct":3.1},"roads":{"area":2885.19,"pct":11.11},"sidewalks":{"area":788.02,"pct":3.03}},"id":"hex:3429:24537"},"type":"Feature"},{"geometry":{"coordinates":[[[-122.83451,38.39984],[-122.83508,38.40062],[-122.83623,38.40063],[-122.8368,38.39985],[-122.83623,38.39906],[-122.83509,38.39906],[-122.83451,38.39984]]],"type":"Polygon"},"properties":{"bbox":{"roads":{"area":2833.2,"pct":10.9},"sidewalks":{"area":400.81,"pct":1.54}},"city_same":1,"id":"hex:3429:24538"},"type":"Feature"},{"geometry":{"coordinates":[[[-122.83451,38.4014],[-122.83508,38.40218],[-122.83623,38.40219],[-122.8368,38.40141],[-122.83623,38.40063],[-122.83508,38.40062],[-122.83451,38.4014]]],"type":"Polygon"},"properties":{"bbox":{"parking":{"area":384.81,"pct":1.48},"roads":{"area":1738.34,"pct":6.69},"sidewalks":{"area":6.27,"pct":0.02}},"city_same":1,"id":"hex:3429:24539"},"type":"Feature"},{"geometry":{"coordinates":[[[-122.83451,38.40296],[-122.83508,38.40375],[-122.83622,38.40375],[-122.8368,38.40297],[-122.83623,38.40219],[-122.83508,38.40218],[-122.83451,38.40296]]],"type":"Polygon"},"properties":{"bbox":{"roads":{"area":2226.72,"pct":8.57},"sidewalks":{"area":760.86,"pct":2.93}},"city_same":1,"id":"hex:3429:24540"},"type":"Feature"},{"geometry":{"coordinates":[[[-122.8345,38.40453],[-122.83507,38.40531],[-122.83622,38.40531],[-122.83679,38.40453],[-122.83622,38.40375],[-122.83508,38.40375],[-122.8345,38.40453]]],"type":"Polygon"},"properties":{"bbox":{"parking":{"area":2932.82,"pct":11.29},"roads":{"area":3976.41,"pct":15.31},"sidewalks":{"area":174.12,"pct":0.67}},"city":{"parking":{"area":2932.82,"pct":11.29},"roads":{"area":3381.95,"pct":13.02},"sidewalks":{"area":174.12,"pct":0.67}},"id":"hex:3429:24541"},"type":"Feature"},{"geometry":{"coordinates":[[[-122.8345,38.40609],[-122.83507,38.40531],[-122.83622,38.40531],[-122.83679,38.40609],[-122.83622,38.40687],[-122.83567,38.40687],[-122.83566,38.40681],[-122.83553,38.40681],[-122.83553,38.40683],[-122.83505,38.40684],[-122.8345,38.40609]]],"type":"Polygon"},"properties":{"bbox":{"roads":{"area":1836.77,"pct":7.13}},"city":{"roads":{"area":1380.81,"pct":5.36}},"id":"hex:3429:24542"},"type":"Feature"},{"geometry":{"coordinates":[[[[-122.83679,38.40765],[-122.83672,38.40775],[-122.8367,38.40753],[-122.83679,38.40765]]],[[[-122.83622,38.40687],[-122.83624,38.40691],[-122.83574,38.40693],[-122.83567,38.40693],[-122.83567,38.40687],[-122.83622,38.40687]]]],"type":"MultiPolygon"},"properties":{"bbox":{"roads":{"area":24.46,"pct":6.88}},"city_same":1,"id":"hex:3429:24543"},"type":"Feature"},{"geometry":{"coordinates":[[[[-122.83283,38.38345],[-122.83286,38.38342],[-122.8329,38.38342],[-122.833,38.38367],[-122.83283,38.38345]]],[[[-122.8334,38.38423],[-122.8332,38.38395],[-122.83393,38.38394],[-122.83398,38.38409],[-122.83399,38.38412],[-122.83402,38.38421],[-122.83403,38.38423],[-122.8334,38.38423]]]],"type":"MultiPolygon"},"properties":{"bbox":{"roads":{"area":293.44,"pct":14.69}},"city_same":1,"id":"hex:3430:24528"},"type":"Feature"},{"geometry":{"coordinates":[[[-122.8334,38.38423],[-122.83403,38.38423],[-122.83403,38.38424],[-122.83406,38.38433],[-122.83406,38.38435],[-122.83399,38.38437],[-122.83322,38.38448],[-122.8334,38.38423]]],"type":"Polygon"},"properties":{"bbox":{"roads":{"area":27.62,"pct":2.13}},"city_same":1,"id":"hex:3430:24529"},"type":"Feature"},{"geometry":{"coordinates":[[[-122.83281,38.39594],[-122.83338,38.39672],[-122.83452,38.39672],[-122.8351,38.39594],[-122.83452,38.39516],[-122.83338,38.39516],[-122.83281,38.39594]]],"type":"Polygon"},"properties":{"bbox":{"parking":{"area":650.47,"pct":2.5},"roads":{"area":1355.78,"pct":5.22}},"city_same":1,"id":"hex:3430:24536"},"type":"Feature"},{"geometry":{"coordinates":[[[-122.8328,38.3975],[-122.83337,38.39828],[-122.83452,38.39828],[-122.83509,38.3975],[-122.83452,38.39672],[-122.83338,38.39672],[-122.8328,38.3975]]],"type":"Polygon"},"properties":{"bbox":{"parking":{"area":1828.98,"pct":7.04},"roads":{"area":2396.8,"pct":9.23},"sidewalks":{"area":562.66,"pct":2.17}},"city":{"parking":{"area":1828.98,"pct":7.04},"roads":{"area":1453.97,"pct":5.6},"sidewalks":{"area":562.66,"pct":2.17}},"id":"hex:3430:24537"},"type":"Feature"},{"geometry":{"coordinates":[[[-122.8328,38.39906],[-122.83337,38.39984],[-122.83451,38.39984],[-122.83509,38.39906],[-122.83452,38.39828],[-122.83337,38.39828],[-122.8328,38.39906]]],"type":"Polygon"},"properties":{"bbox":{"parking":{"area":327.91,"pct":1.26},"roads":{"area":2883.4,"pct":11.1},"sidewalks":{"area":418.56,"pct":1.61}},"city_same":1,"id":"hex:3430:24538"},"type":"Feature"},{"geometry":{"coordinates":[[[-122.83279,38.40062],[-122.83337,38.4014],[-122.83451,38.4014],[-122.83508,38.40062],[-122.83451,38.39984],[-122.83337,38.39984],[-122.83279,38.40062]]],"type":"Polygon"},"properties":{"bbox":{"roads":{"area":2126.82,"pct":8.19},"sidewalks":{"area":413.24,"pct":1.59}},"city_same":1,"id":"hex:3430:24539"},"type":"Feature"},{"geometry":{"coordinates":[[[-122.83279,38.40218],[-122.83336,38.40296],[-122.83451,38.40296],[-122.83508,38.40218],[-122.83451,38.4014],[-122.83337,38.4014],[-122.83279,38.40218]]],"type":"Polygon"},"properties":{"bbox":{"roads":{"area":3028.61,"pct":11.66},"sidewalks":{"area":582.58,"pct":2.24}},"city_same":1,"id":"hex:3430:24540"},"type":"Feature"},{"geometry":{"coordinates":[[[-122.83279,38.40374],[-122.83336,38.40452],[-122.8345,38.40453],[-122.83508,38.40375],[-122.83451,38.40296],[-122.83336,38.40296],[-122.83279,38.40374]]],"type":"Polygon"},"properties":{"bbox":{"parking":{"area":171.2,"pct":0.66},"roads":{"area":2179.23,"pct":8.39},"sidewalks":{"area":712.41,"pct":2.74}},"city_same":1,"id":"hex:3430:24541"},"type":"Feature"},{"geometry":{"coordinates":[[[-122.83278,38.4053],[-122.83335,38.40608],[-122.8345,38.40609],[-122.83507,38.40531],[-122.8345,38.40453],[-122.83336,38.40452],[-122.83278,38.4053]]],"type":"Polygon"},"properties":{"bbox":{"parking":{"area":2781.82,"pct":10.71},"roads":{"area":4779.76,"pct":18.4},"sidewalks":{"area":528.66,"pct":2.03}},"city":{"parking":{"area":2781.82,"pct":10.71},"roads":{"area":2794.41,"pct":10.76},"sidewalks":{"area":528.66,"pct":2.03}},"id":"hex:3430:24542"},"type":"Feature"},{"geometry":{"coordinates":[[[-122.83335,38.40608],[-122.8345,38.40609],[-122.83505,38.40684],[-122.83473,38.40685],[-122.83447,38.40686],[-122.83448,38.40697],[-122.83385,38.40698],[-122.83311,38.40701],[-122.83306,38.40698],[-122.83287,38.4069],[-122.83278,38.40686],[-122.83335,38.40608]]],"type":"Polygon"},"properties":{"bbox":{"roads":{"area":792.89,"pct":5.39}},"city_same":1,"id":"hex:3430:24543"},"type":"Feature"},{"geometry":{"coordinates":[[[-122.8334,38.38423],[-122.83322,38.38448],[-122.83307,38.38451],[-122.83237,38.38446],[-122.83231,38.38446],[-122.83225,38.38446],[-122.83192,38.38345],[-122.83283,38.38345],[-122.833,38.38367],[-122.8331,38.38395],[-122.8332,38.38395],[-122.8334,38.38423]]],"type":"Polygon"},"properties":{"bbox":{"roads":{"area":114.52,"pct":1.08}},"city_same":1,"id":"hex:3431:24528"},"type":"Feature"},{"geometry":{"coordinates":[[[-122.83109,38.39359],[-122.83156,38.39296],[-122.83155,38.39299],[-122.83153,38.39305],[-122.83148,38.39323],[-122.83139,38.39363],[-122.83134,38.39382],[-122.83132,38.3939],[-122.83109,38.39359]]],"type":"Polygon"},"properties":{"bbox":{"roads":{"area":50.35,"pct":3.74}},"city_same":1,"id":"hex:3431:24534"},"type":"Feature"},{"geometry":{"coordinates":[[[-122.83338,38.39516],[-122.83281,38.39594],[-122.83166,38.39594],[-122.83124,38.39537],[-122.83124,38.39535],[-122.83124,38.39514],[-122.83124,38.39503],[-122.8329,38.39504],[-122.83292,38.39503],[-122.83297,38.39504],[-122.83327,38.39505],[-122.8333,38.39505],[-122.83338,38.39516]]],"type":"Polygon"},"properties":{"bbox":{"roads":{"area":923.89,"pct":6.06},"sidewalks":{"area":75.48,"pct":0.49}},"city_same":1,"id":"hex:3431:24535"},"type":"Feature"},{"geometry":{"coordinates":[[[-122.83109,38.39672],[-122.83166,38.3975],[-122.8328,38.3975],[-122.83338,38.39672],[-122.83281,38.39594],[-122.83166,38.39594],[-122.83109,38.39672]]],"type":"Polygon"},"properties":{"bbox":{"parking":{"area":3060.02,"pct":11.78},"roads":{"area":1849.34,"pct":7.12},"sidewalks":{"area":460.18,"pct":1.77}},"city_same":1,"id":"hex:3431:24536"},"type":"Feature"},{"geometry":{"coordinates":[[[-122.83108,38.39828],[-122.83165,38.39906],[-122.8328,38.39906],[-122.83337,38.39828],[-122.8328,38.3975],[-122.83166,38.3975],[-122.83108,38.39828]]],"type":"Polygon"},"properties":{"bbox":{"parking":{"area":339.41,"pct":1.31},"roads":{"area":3324.74,"pct":12.8},"sidewalks":{"area":632.36,"pct":2.43}},"city":{"parking":{"area":339.41,"pct":1.31},"roads":{"area":1804.03,"pct":6.94},"sidewalks":{"area":632.36,"pct":2.43}},"id":"hex:3431:24537"},"type":"Feature"},{"geometry":{"coordinates":[[[-122.83108,38.39984],[-122.83165,38.40062],[-122.83279,38.40062],[-122.83337,38.39984],[-122.8328,38.39906],[-122.83165,38.39906],[-122.83108,38.39984]]],"type":"Polygon"},"properties":{"bbox":{"roads":{"area":2687.3,"pct":10.34},"sidewalks":{"area":550.9,"pct":2.12}},"city_same":1,"id":"hex:3431:24538"},"type":"Feature"},{"geometry":{"coordinates":[[[-122.83107,38.4014],[-122.83165,38.40218],[-122.83279,38.40218],[-122.83337,38.4014],[-122.83279,38.40062],[-122.83165,38.40062],[-122.83107,38.4014]]],"type":"Polygon"},"properties":{"bbox":{"roads":{"area":2397.04,"pct":9.23},"sidewalks":{"area":235.64,"pct":0.91}},"city_same":1,"id":"hex:3431:24539"},"type":"Feature"},{"geometry":{"coordinates":[[[-122.83107,38.40296],[-122.83164,38.40374],[-122.83279,38.40374],[-122.83336,38.40296],[-122.83279,38.40218],[-122.83165,38.40218],[-122.83107,38.40296]]],"type":"Polygon"},"properties":{"bbox":{"roads":{"area":1251.71,"pct":4.82},"sidewalks":{"area":57.45,"pct":0.22}},"city_same":1,"id":"hex:3431:24540"},"type":"Feature"},{"geometry":{"coordinates":[[[-122.83107,38.40452],[-122.83164,38.4053],[-122.83278,38.4053],[-122.83336,38.40452],[-122.83279,38.40374],[-122.83164,38.40374],[-122.83107,38.40452]]],"type":"Polygon"},"properties":{"bbox":{"parking":{"area":276.1,"pct":1.06},"roads":{"area":2576.77,"pct":9.92},"sidewalks":{"area":759.82,"pct":2.92}},"city":{"parking":{"area":276.1,"pct":1.06},"roads":{"area":2025.34,"pct":7.8},"sidewalks":{"area":759.82,"pct":2.92}},"id":"hex:3431:24541"},"type":"Feature"},{"geometry":{"coordinates":[[[-122.83163,38.40686],[-122.83106,38.40608],[-122.83164,38.4053],[-122.83278,38.4053],[-122.83335,38.40608],[-122.83278,38.40686],[-122.83267,38.40681],[-122.83266,38.40686],[-122.83163,38.40686]]],"type":"Polygon"},"properties":{"bbox":{"parking":{"area":198.72,"pct":0.77},"roads":{"area":1608.53,"pct":6.2}},"city":{"parking":{"area":198.72,"pct":0.77},"roads":{"area":1075.17,"pct":4.14}},"id":"hex:3431:24542"},"type":"Feature"},{"geometry":{"coordinates":[[[-122.83106,38.40764],[-122.83163,38.40686],[-122.83266,38.40686],[-122.83266,38.40688],[-122.83266,38.40692],[-122.83265,38.40702],[-122.83264,38.40715],[-122.83264,38.40717],[-122.83263,38.4078],[-122.83263,38.40785],[-122.83261,38.40808],[-122.83261,38.40812],[-122.8326,38.40821],[-122.8326,38.40825],[-122.83259,38.40839],[-122.83162,38.40841],[-122.83106,38.40764]]],"type":"Polygon"},"properties":{"bbox":{"roads":{"area":952.56,"pct":4.98}},"city_same":1,"id":"hex:3431:24543"},"type":"Feature"},{"geometry":{"coordinates":[[[-122.82995,38.39203],[-122.82938,38.39125],[-122.82995,38.39047],[-122.83035,38.39047],[-122.83033,38.39061],[-122.83013,38.39128],[-122.83005,38.39154],[-122.83055,38.39162],[-122.8305,38.39186],[-122.83047,38.39203],[-122.82995,38.39203]]],"type":"Polygon"},"properties":{"bbox":{"roads":{"area":309.5,"pct":3.27}},"city_same":1,"id":"hex:3432:24533"},"type":"Feature"},{"geometry":{"coordinates":[[[-122.83109,38.39359],[-122.82995,38.39359],[-122.82938,38.39281],[-122.82995,38.39203],[-122.83047,38.39203],[-122.83042,38.39227],[-122.83003,38.39222],[-122.82987,38.39296],[-122.83161,38.39286],[-122.83157,38.39292],[-122.83157,38.39294],[-122.83156,38.39296],[-122.83109,38.39359]]],"type":"Polygon"},"properties":{"bbox":{"roads":{"area":22.65,"pct":0.16}},"city_same":1,"id":"hex:3432:24534"},"type":"Feature"},{"geometry":{"coordinates":[[[-122.82937,38.39437],[-122.82995,38.39359],[-122.83109,38.39359],[-122.83132,38.3939],[-122.83131,38.39392],[-122.83126,38.39414],[-122.83125,38.39423],[-122.83038,38.39423],[-122.8298,38.39423],[-122.82977,38.39437],[-122.82976,38.39463],[-122.82976,38.3949],[-122.82937,38.39437]]],"type":"Polygon"},"properties":{"bbox":{"roads":{"area":149.16,"pct":1.36}},"city_same":1,"id":"hex:3432:24535"},"type":"Feature"},{"geometry":{"coordinates":[[[-122.83166,38.39594],[-122.83109,38.39672],[-122.82994,38.39671],[-122.82937,38.39593],[-122.82976,38.39541],[-122.82976,38.39551],[-122.82975,38.39575],[-122.82975,38.39587],[-122.83124,38.39586],[-122.83124,38.39575],[-122.83124,38.39537],[-122.83166,38.39594]]],"type":"Polygon"},"properties":{"bbox":{"roads":{"area":803.88,"pct":4.99},"sidewalks":{"area":149.67,"pct":0.93}},"city_same":1,"id":"hex:3432:24536"},"type":"Feature"},{"geometry":{"coordinates":[[[-122.82994,38.39671],[-122.83109,38.39672],[-122.83166,38.3975],[-122.83108,38.39828],[-122.82994,38.39828],[-122.82937,38.39749],[-122.82994,38.39671]],[[-122.83008,38.39678],[-122.83008,38.39676],[-122.83005,38.39675],[-122.83003,38.39674],[-122.83001,38.39676],[-122.82995,38.3968],[-122.82995,38.39681],[-122.82995,38.39682],[-122.82993,38.39683],[-122.8299,38.39687],[-122.82989,38.39688],[-122.82988,38.3969],[-122.82985,38.39689],[-122.82985,38.3969],[-122.82986,38.39691],[-122.82985,38.39693],[-122.82986,38.39695],[-122.82986,38.39696],[-122.82985,38.39698],[-122.82985,38.39699],[-122.82987,38.39701],[-122.82991,38.39702],[-122.82997,38.39702],[-122.83002,38.39701],[-122.83006,38.39699],[-122.83007,38.39699],[-122.83005,38.39697],[-122.83006,38.39695],[-122.83007,38.39694],[-122.83009,38.39693],[-122.8301,38.39691],[-122.83011,38.39689],[-122.8301,38.39688],[-122.8301,38.39686],[-122.8301,38.39683],[-122.83013,38.39682],[-122.83015,38.39681],[-122.83015,38.3968],[-122.83013,38.39679],[-122.83012,38.3968],[-122.8301,38.39679],[-122.83008,38.39678]]],"type":"Polygon"},"properties":{"bbox":{"parking":{"area":343.6,"pct":1.35},"roads":{"area":3593.58,"pct":14.1},"sidewalks":{"area":392.8,"pct":1.54}},"city":{"parking":{"area":343.6,"pct":1.35},"roads":{"area":2430.38,"pct":9.53},"sidewalks":{"area":392.8,"pct":1.54}},"id":"hex:3432:24537"},"type":"Feature"},{"geometry":{"coordinates":[[[-122.82936,38.39905],[-122.82993,38.39984],[-122.83108,38.39984],[-122.83165,38.39906],[-122.83108,38.39828],[-122.82994,38.39828],[-122.82936,38.39905]]],"type":"Polygon"},"properties":{"bbox":{"roads":{"area":2092.41,"pct":8.05},"sidewalks":{"area":158.13,"pct":0.61}},"city":{"roads":{"area":2071.02,"pct":7.97},"sidewalks":{"area":158.13,"pct":0.61}},"id":"hex:3432:24538"},"type":"Feature"},{"geometry":{"coordinates":[[[-122.82936,38.40062],[-122.82993,38.4014],[-122.83107,38.4014],[-122.83165,38.40062],[-122.83108,38.39984],[-122.82993,38.39984],[-122.82936,38.40062]]],"type":"Polygon"},"properties":{"bbox":{"parking":{"area":1280.12,"pct":4.93},"roads":{"area":3360.68,"pct":12.94},"sidewalks":{"area":826.2,"pct":3.18}},"city_same":1,"id":"hex:3432:24539"},"type":"Feature"},{"geometry":{"coordinates":[[[-122.82935,38.40218],[-122.82993,38.40296],[-122.83107,38.40296],[-122.83165,38.40218],[-122.83107,38.4014],[-122.82993,38.4014],[-122.82935,38.40218]]],"type":"Polygon"},"properties":{"bbox":{"roads":{"area":2741.38,"pct":10.55},"sidewalks":{"area":134.01,"pct":0.52}},"city_same":1,"id":"hex:3432:24540"},"type":"Feature"},{"geometry":{"coordinates":[[[-122.82935,38.40374],[-122.82992,38.40452],[-122.83107,38.40452],[-122.83164,38.40374],[-122.83107,38.40296],[-122.82993,38.40296],[-122.82935,38.40374]]],"type":"Polygon"},"properties":{"bbox":{"parking":{"area":0.41,"pct":0},"roads":{"area":1912.2,"pct":7.36},"sidewalks":{"area":551.56,"pct":2.12}},"city_same":1,"id":"hex:3432:24541"},"type":"Feature"},{"geometry":{"coordinates":[[[-122.82935,38.4053],[-122.82992,38.40608],[-122.83106,38.40608],[-122.83164,38.4053],[-122.83107,38.40452],[-122.82992,38.40452],[-122.82935,38.4053]]],"type":"Polygon"},"properties":{"bbox":{"parking":{"area":1107.92,"pct":4.26},"roads":{"area":4144.12,"pct":15.95},"sidewalks":{"area":484.23,"pct":1.86}},"city":{"parking":{"area":1107.92,"pct":4.26},"roads":{"area":2097.4,"pct":8.07},"sidewalks":{"area":484.23,"pct":1.86}},"id":"hex:3432:24542"},"type":"Feature"},{"geometry":{"coordinates":[[[-122.82934,38.40686],[-122.82991,38.40764],[-122.83106,38.40764],[-122.83163,38.40686],[-122.83106,38.40608],[-122.82992,38.40608],[-122.82934,38.40686]]],"type":"Polygon"},"properties":{"bbox":{"roads":{"area":1585.37,"pct":6.1}},"city_same":1,"id":"hex:3432:24543"},"type":"Feature"},{"geometry":{"coordinates":[[[-122.82991,38.4092],[-122.82934,38.40842],[-122.82991,38.40764],[-122.83106,38.40764],[-122.83162,38.40841],[-122.83076,38.40843],[-122.83055,38.40843],[-122.83055,38.40858],[-122.83055,38.4092],[-122.82991,38.4092]]],"type":"Polygon"},"properties":{"bbox":{"roads":{"area":533.01,"pct":2.67}},"city_same":1,"id":"hex:3432:24544"},"type":"Feature"},{"geometry":{"coordinates":[[[-122.82995,38.39047],[-122.82938,38.39125],[-122.82824,38.39125],[-122.82766,38.39047],[-122.82783,38.39025],[-122.82784,38.39025],[-122.8298,38.39026],[-122.82995,38.39047]]],"type":"Polygon"},"properties":{"bbox":{"roads":{"area":1190.17,"pct":6.82},"sidewalks":{"area":248.93,"pct":1.43}},"city_same":1,"id":"hex:3433:24532"},"type":"Feature"},{"geometry":{"coordinates":[[[-122.82766,38.39203],[-122.82823,38.39281],[-122.82938,38.39281],[-122.82995,38.39203],[-122.82938,38.39125],[-122.82824,38.39125],[-122.82766,38.39203]]],"type":"Polygon"},"properties":{"bbox":{"roads":{"area":2549.87,"pct":9.81},"sidewalks":{"area":387.17,"pct":1.49}},"city_same":1,"id":"hex:3433:24533"},"type":"Feature"},{"geometry":{"coordinates":[[[-122.82766,38.39359],[-122.82823,38.39437],[-122.82937,38.39437],[-122.82995,38.39359],[-122.82938,38.39281],[-122.82823,38.39281],[-122.82766,38.39359]]],"type":"Polygon"},"properties":{"bbox":{"roads":{"area":2711.3,"pct":10.44}},"city_same":1,"id":"hex:3433:24534"},"type":"Feature"},{"geometry":{"coordinates":[[[-122.82937,38.39593],[-122.82822,38.39593],[-122.82765,38.39515],[-122.82823,38.39437],[-122.82937,38.39437],[-122.82976,38.3949],[-122.82976,38.39541],[-122.82937,38.39593]]],"type":"Polygon"},"properties":{"bbox":{"roads":{"area":2072.89,"pct":8.12}},"city_same":1,"id":"hex:3433:24535"},"type":"Feature"},{"geometry":{"coordinates":[[[-122.82765,38.39671],[-122.82822,38.39749],[-122.82937,38.39749],[-122.82994,38.39671],[-122.82937,38.39593],[-122.82822,38.39593],[-122.82765,38.39671]]],"type":"Polygon"},"properties":{"bbox":{"roads":{"area":2846.16,"pct":10.95}},"city_same":1,"id":"hex:3433:24536"},"type":"Feature"},{"geometry":{"coordinates":[[[-122.82765,38.39827],[-122.82822,38.39905],[-122.82936,38.39905],[-122.82994,38.39828],[-122.82937,38.39749],[-122.82822,38.39749],[-122.82765,38.39827]]],"type":"Polygon"},"properties":{"bbox":{"roads":{"area":2269.9,"pct":8.74},"sidewalks":{"area":390.46,"pct":1.5}},"city":{"roads":{"area":896.16,"pct":3.45},"sidewalks":{"area":390.46,"pct":1.5}},"id":"hex:3433:24537"},"type":"Feature"},{"geometry":{"coordinates":[[[-122.82764,38.39983],[-122.82821,38.40061],[-122.82936,38.40062],[-122.82993,38.39984],[-122.82936,38.39905],[-122.82822,38.39905],[-122.82764,38.39983]]],"type":"Polygon"},"properties":{"bbox":{"parking":{"area":5.45,"pct":0.02},"roads":{"area":4383.67,"pct":16.87},"sidewalks":{"area":904.18,"pct":3.48}},"city":{"parking":{"area":5.45,"pct":0.02},"roads":{"area":2974.02,"pct":11.45},"sidewalks":{"area":904.18,"pct":3.48}},"id":"hex:3433:24538"},"type":"Feature"},{"geometry":{"coordinates":[[[-122.82764,38.40139],[-122.82821,38.40218],[-122.82935,38.40218],[-122.82993,38.4014],[-122.82936,38.40062],[-122.82821,38.40061],[-122.82764,38.40139]]],"type":"Polygon"},"properties":{"bbox":{"parking":{"area":629.25,"pct":2.42},"roads":{"area":2069.94,"pct":7.97},"sidewalks":{"area":782.82,"pct":3.01}},"city_same":1,"id":"hex:3433:24539"},"type":"Feature"},{"geometry":{"coordinates":[[[-122.82764,38.40295],[-122.82821,38.40374],[-122.82935,38.40374],[-122.82993,38.40296],[-122.82935,38.40218],[-122.82821,38.40218],[-122.82764,38.40295]]],"type":"Polygon"},"properties":{"bbox":{"roads":{"area":2012.25,"pct":7.75},"sidewalks":{"area":767.42,"pct":2.95}},"city_same":1,"id":"hex:3433:24540"},"type":"Feature"},{"geometry":{"coordinates":[[[-122.82763,38.40452],[-122.8282,38.4053],[-122.82935,38.4053],[-122.82992,38.40452],[-122.82935,38.40374],[-122.82821,38.40374],[-122.82763,38.40452]]],"type":"Polygon"},"properties":{"bbox":{"parking":{"area":944.61,"pct":3.64},"roads":{"area":3485.42,"pct":13.42},"sidewalks":{"area":262.55,"pct":1.01}},"city":{"parking":{"area":944.61,"pct":3.64},"roads":{"area":2549.98,"pct":9.81},"sidewalks":{"area":262.55,"pct":1.01}},"id":"hex:3433:24541"},"type":"Feature"},{"geometry":{"coordinates":[[[-122.82763,38.40608],[-122.8282,38.40686],[-122.82934,38.40686],[-122.82992,38.40608],[-122.82935,38.4053],[-122.8282,38.4053],[-122.82763,38.40608]]],"type":"Polygon"},"properties":{"bbox":{"roads":{"area":2553.27,"pct":9.83},"sidewalks":{"area":544.67,"pct":2.1}},"city":{"roads":{"area":2466.76,"pct":9.49},"sidewalks":{"area":544.67,"pct":2.1}},"id":"hex:3433:24542"},"type":"Feature"},{"geometry":{"coordinates":[[[-122.82762,38.40764],[-122.82819,38.40842],[-122.82934,38.40842],[-122.82991,38.40764],[-122.82934,38.40686],[-122.8282,38.40686],[-122.82762,38.40764]]],"type":"Polygon"},"properties":{"bbox":{"roads":{"area":356.9,"pct":1.37},"sidewalks":{"area":50.46,"pct":0.19}},"city_same":1,"id":"hex:3433:24543"},"type":"Feature"},{"geometry":{"coordinates":[[[-122.82819,38.40842],[-122.82934,38.40842],[-122.82991,38.4092],[-122.82977,38.40939],[-122.82819,38.4094],[-122.82819,38.40931],[-122.82821,38.40913],[-122.82821,38.40898],[-122.82794,38.40898],[-122.82779,38.40897],[-122.82819,38.40842]]],"type":"Polygon"},"properties":{"bbox":{"parking":{"area":5723.9,"pct":38.19},"roads":{"area":1260.78,"pct":8.41}},"city_same":1,"id":"hex:3433:24544"},"type":"Feature"},{"geometry":{"coordinates":[[[-122.82653,38.38578],[-122.82618,38.38531],[-122.82641,38.38527],[-122.82646,38.38526],[-122.82651,38.38524],[-122.82714,38.3851],[-122.82757,38.385],[-122.82757,38.38578],[-122.82653,38.38578]]],"type":"Polygon"},"properties":{"bbox":{"roads":{"area":591.55,"pct":7.76}},"city_same":1,"id":"hex:3434:24529"},"type":"Feature"},{"geometry":{"coordinates":[[[-122.82653,38.38734],[-122.82596,38.38656],[-122.82653,38.38578],[-122.82757,38.38578],[-122.82758,38.3859],[-122.82758,38.38609],[-122.82758,38.38628],[-122.82757,38.38632],[-122.82756,38.38647],[-122.82757,38.38689],[-122.82759,38.38709],[-122.82759,38.38716],[-122.82759,38.38734],[-122.82653,38.38734]]],"type":"Polygon"},"properties":{"bbox":{"roads":{"area":1291.34,"pct":6.39}},"city_same":1,"id":"hex:3434:24530"},"type":"Feature"},{"geometry":{"coordinates":[[[-122.82652,38.3889],[-122.82595,38.38812],[-122.82653,38.38734],[-122.82759,38.38734],[-122.82759,38.38736],[-122.8276,38.3874],[-122.82767,38.38741],[-122.82769,38.38742],[-122.8277,38.38744],[-122.82773,38.38758],[-122.82773,38.388],[-122.82773,38.38841],[-122.82772,38.38861],[-122.82761,38.3886],[-122.82751,38.3886],[-122.82752,38.38862],[-122.82756,38.38869],[-122.82758,38.38872],[-122.82756,38.38891],[-122.82652,38.3889]]],"type":"Polygon"},"properties":{"bbox":{"roads":{"area":3124.19,"pct":14.23},"sidewalks":{"area":949.85,"pct":4.33}},"city_same":1,"id":"hex:3434:24531"},"type":"Feature"},{"geometry":{"coordinates":[[[-122.82766,38.39047],[-122.82652,38.39047],[-122.82595,38.38968],[-122.82652,38.3889],[-122.82756,38.38891],[-122.82756,38.38894],[-122.82754,38.38913],[-122.82754,38.3892],[-122.82754,38.38972],[-122.82754,38.38992],[-122.82754,38.39014],[-122.82754,38.39025],[-122.82779,38.39025],[-122.82783,38.39025],[-122.82766,38.39047]]],"type":"Polygon"},"properties":{"bbox":{"roads":{"area":1977.7,"pct":9.79},"sidewalks":{"area":674.14,"pct":3.34}},"city_same":1,"id":"hex:3434:24532"},"type":"Feature"},{"geometry":{"coordinates":[[[-122.82595,38.39124],[-122.82652,38.39203],[-122.82766,38.39203],[-122.82824,38.39125],[-122.82766,38.39047],[-122.82652,38.39047],[-122.82595,38.39124]]],"type":"Polygon"},"properties":{"bbox":{"roads":{"area":2789.94,"pct":10.74},"sidewalks":{"area":452.68,"pct":1.74}},"city_same":1,"id":"hex:3434:24533"},"type":"Feature"},{"geometry":{"coordinates":[[[-122.82594,38.39281],[-122.82651,38.39359],[-122.82766,38.39359],[-122.82823,38.39281],[-122.82766,38.39203],[-122.82652,38.39203],[-122.82594,38.39281]]],"type":"Polygon"},"properties":{"bbox":{"roads":{"area":2069.34,"pct":7.96},"sidewalks":{"area":260.35,"pct":1}},"city_same":1,"id":"hex:3434:24534"},"type":"Feature"},{"geometry":{"coordinates":[[[-122.82594,38.39437],[-122.82651,38.39515],[-122.82765,38.39515],[-122.82823,38.39437],[-122.82766,38.39359],[-122.82651,38.39359],[-122.82594,38.39437]]],"type":"Polygon"},"properties":{"bbox":{"roads":{"area":2721.97,"pct":10.48},"sidewalks":{"area":409.44,"pct":1.58}},"city_same":1,"id":"hex:3434:24535"},"type":"Feature"},{"geometry":{"coordinates":[[[-122.82593,38.39593],[-122.8265,38.39671],[-122.82765,38.39671],[-122.82822,38.39593],[-122.82765,38.39515],[-122.82651,38.39515],[-122.82593,38.39593]]],"type":"Polygon"},"properties":{"bbox":{"roads":{"area":3077.6,"pct":11.85},"sidewalks":{"area":109.81,"pct":0.42}},"city_same":1,"id":"hex:3434:24536"},"type":"Feature"},{"geometry":{"coordinates":[[[-122.82593,38.39749],[-122.8265,38.39827],[-122.82765,38.39827],[-122.82822,38.39749],[-122.82765,38.39671],[-122.8265,38.39671],[-122.82593,38.39749]]],"type":"Polygon"},"properties":{"bbox":{"roads":{"area":3543.63,"pct":13.64},"sidewalks":{"area":230.68,"pct":0.89}},"city_same":1,"id":"hex:3434:24537"},"type":"Feature"},{"geometry":{"coordinates":[[[-122.82593,38.39905],[-122.8265,38.39983],[-122.82764,38.39983],[-122.82822,38.39905],[-122.82765,38.39827],[-122.8265,38.39827],[-122.82593,38.39905]]],"type":"Polygon"},"properties":{"bbox":{"parking":{"area":173.61,"pct":0.67},"roads":{"area":3222.59,"pct":12.4},"sidewalks":{"area":501.5,"pct":1.93}},"city_same":1,"id":"hex:3434:24538"},"type":"Feature"},{"geometry":{"coordinates":[[[-122.82592,38.40061],[-122.82649,38.40139],[-122.82764,38.40139],[-122.82821,38.40061],[-122.82764,38.39983],[-122.8265,38.39983],[-122.82592,38.40061]]],"type":"Polygon"},"properties":{"bbox":{"parking":{"area":2174.54,"pct":8.37},"roads":{"area":3287.07,"pct":12.65},"sidewalks":{"area":764.7,"pct":2.94}},"city":{"parking":{"area":2174.54,"pct":8.37},"roads":{"area":1888.29,"pct":7.27},"sidewalks":{"area":764.7,"pct":2.94}},"id":"hex:3434:24539"},"type":"Feature"},{"geometry":{"coordinates":[[[-122.82592,38.40217],[-122.82649,38.40295],[-122.82764,38.40295],[-122.82821,38.40218],[-122.82764,38.40139],[-122.82649,38.40139],[-122.82592,38.40217]]],"type":"Polygon"},"properties":{"bbox":{"parking":{"area":96.96,"pct":0.37},"roads":{"area":2451.71,"pct":9.44},"sidewalks":{"area":793.71,"pct":3.05}},"city_same":1,"id":"hex:3434:24540"},"type":"Feature"},{"geometry":{"coordinates":[[[-122.82592,38.40373],[-122.82649,38.40451],[-122.82763,38.40452],[-122.82821,38.40374],[-122.82764,38.40295],[-122.82649,38.40295],[-122.82592,38.40373]]],"type":"Polygon"},"properties":{"bbox":{"parking":{"area":2837.27,"pct":10.92},"roads":{"area":3667.93,"pct":14.12},"sidewalks":{"area":862.67,"pct":3.32}},"city_same":1,"id":"hex:3434:24541"},"type":"Feature"},{"geometry":{"coordinates":[[[-122.82591,38.40529],[-122.82648,38.40607],[-122.82763,38.40608],[-122.8282,38.4053],[-122.82763,38.40452],[-122.82649,38.40451],[-122.82591,38.40529]]],"type":"Polygon"},"properties":{"bbox":{"parking":{"area":3886.17,"pct":14.96},"roads":{"area":5111.84,"pct":19.68},"sidewalks":{"area":1105.76,"pct":4.26}},"city":{"parking":{"area":3886.17,"pct":14.96},"roads":{"area":3131.22,"pct":12.05},"sidewalks":{"area":1105.76,"pct":4.26}},"id":"hex:3434:24542"},"type":"Feature"},{"geometry":{"coordinates":[[[-122.82591,38.40685],[-122.82648,38.40764],[-122.82762,38.40764],[-122.8282,38.40686],[-122.82763,38.40608],[-122.82648,38.40607],[-122.82591,38.40685]]],"type":"Polygon"},"properties":{"bbox":{"roads":{"area":2950.47,"pct":11.36},"sidewalks":{"area":424.84,"pct":1.64}},"city_same":1,"id":"hex:3434:24543"},"type":"Feature"},{"geometry":{"coordinates":[[[-122.82647,38.4092],[-122.8259,38.40842],[-122.82648,38.40764],[-122.82762,38.40764],[-122.82819,38.40842],[-122.82779,38.40897],[-122.82764,38.40896],[-122.82749,38.40895],[-122.82749,38.40906],[-122.82749,38.4092],[-122.82647,38.4092]]],"type":"Polygon"},"properties":{"bbox":{"parking":{"area":768.06,"pct":3.01},"roads":{"area":2832.43,"pct":11.11},"sidewalks":{"area":214.97,"pct":0.84}},"city_same":1,"id":"hex:3434:24544"},"type":"Feature"},{"geometry":{"coordinates":[[[-122.82647,38.4092],[-122.82749,38.4092],[-122.82749,38.40933],[-122.82749,38.40939],[-122.82737,38.40939],[-122.82632,38.40941],[-122.82647,38.4092]]],"type":"Polygon"},"properties":{"bbox":{"roads":{"area":78.53,"pct":3.69}},"city_same":1,"id":"hex:3434:24545"},"type":"Feature"},{"geometry":{"coordinates":[[[-122.82653,38.38578],[-122.82596,38.38656],[-122.82481,38.38656],[-122.82424,38.38578],[-122.82431,38.38569],[-122.82474,38.38559],[-122.82476,38.38552],[-122.82481,38.3855],[-122.82515,38.38545],[-122.82532,38.38543],[-122.82577,38.38537],[-122.82618,38.38531],[-122.82653,38.38578]]],"type":"Polygon"},"properties":{"bbox":{"roads":{"area":869.98,"pct":4.44}},"city_same":1,"id":"hex:3435:24529"},"type":"Feature"},{"geometry":{"coordinates":[[[-122.82424,38.38734],[-122.82481,38.38656],[-122.82596,38.38656],[-122.82653,38.38734],[-122.82595,38.38812],[-122.82481,38.38812],[-122.82478,38.38808],[-122.82478,38.38801],[-122.82478,38.38795],[-122.82469,38.38796],[-122.82424,38.38734]]],"type":"Polygon"},"properties":{"bbox":{"roads":{"area":3276.16,"pct":12.64},"sidewalks":{"area":422.8,"pct":1.63}},"city_same":1,"id":"hex:3435:24530"},"type":"Feature"},{"geometry":{"coordinates":[[[-122.82481,38.38812],[-122.82595,38.38812],[-122.82652,38.3889],[-122.82595,38.38968],[-122.8248,38.38968],[-122.82458,38.38938],[-122.82479,38.38938],[-122.82478,38.38937],[-122.82478,38.38932],[-122.82478,38.38931],[-122.82478,38.38915],[-122.82478,38.38866],[-122.82478,38.38857],[-122.82478,38.3885],[-122.82478,38.38846],[-122.82478,38.38835],[-122.82478,38.38831],[-122.82478,38.38816],[-122.82481,38.38812]]],"type":"Polygon"},"properties":{"bbox":{"roads":{"area":3190.11,"pct":14.33},"sidewalks":{"area":990.03,"pct":4.45}},"city_same":1,"id":"hex:3435:24531"},"type":"Feature"},{"geometry":{"coordinates":[[[-122.82423,38.39046],[-122.8248,38.39124],[-122.82595,38.39124],[-122.82652,38.39047],[-122.82595,38.38968],[-122.8248,38.38968],[-122.82423,38.39046]]],"type":"Polygon"},"properties":{"bbox":{"roads":{"area":2550.56,"pct":9.82},"sidewalks":{"area":198.95,"pct":0.77}},"city_same":1,"id":"hex:3435:24532"},"type":"Feature"},{"geometry":{"coordinates":[[[-122.82423,38.39202],[-122.8248,38.3928],[-122.82594,38.39281],[-122.82652,38.39203],[-122.82595,38.39124],[-122.8248,38.39124],[-122.82423,38.39202]]],"type":"Polygon"},"properties":{"bbox":{"roads":{"area":1254.89,"pct":4.83}},"city_same":1,"id":"hex:3435:24533"},"type":"Feature"},{"geometry":{"coordinates":[[[-122.82422,38.39358],[-122.82479,38.39437],[-122.82594,38.39437],[-122.82651,38.39359],[-122.82594,38.39281],[-122.8248,38.3928],[-122.82422,38.39358]]],"type":"Polygon"},"properties":{"bbox":{"roads":{"area":2648.53,"pct":10.19},"sidewalks":{"area":234.31,"pct":0.9}},"city_same":1,"id":"hex:3435:24534"},"type":"Feature"},{"geometry":{"coordinates":[[[-122.82422,38.39514],[-122.82479,38.39593],[-122.82593,38.39593],[-122.82651,38.39515],[-122.82594,38.39437],[-122.82479,38.39437],[-122.82422,38.39514]]],"type":"Polygon"},"properties":{"bbox":{"roads":{"area":2084.18,"pct":8.02}},"city_same":1,"id":"hex:3435:24535"},"type":"Feature"},{"geometry":{"coordinates":[[[-122.82421,38.39671],[-122.82479,38.39749],[-122.82593,38.39749],[-122.8265,38.39671],[-122.82593,38.39593],[-122.82479,38.39593],[-122.82421,38.39671]]],"type":"Polygon"},"properties":{"bbox":{"roads":{"area":1512.28,"pct":5.82}},"city_same":1,"id":"hex:3435:24536"},"type":"Feature"},{"geometry":{"coordinates":[[[-122.82421,38.39827],[-122.82478,38.39905],[-122.82593,38.39905],[-122.8265,38.39827],[-122.82593,38.39749],[-122.82479,38.39749],[-122.82421,38.39827]]],"type":"Polygon"},"properties":{"bbox":{"roads":{"area":2331.46,"pct":8.97}},"city_same":1,"id":"hex:3435:24537"},"type":"Feature"},{"geometry":{"coordinates":[[[-122.82421,38.39983],[-122.82478,38.40061],[-122.82592,38.40061],[-122.8265,38.39983],[-122.82593,38.39905],[-122.82478,38.39905],[-122.82421,38.39983]]],"type":"Polygon"},"properties":{"bbox":{"parking":{"area":3630.67,"pct":13.97},"roads":{"area":3043.14,"pct":11.71},"sidewalks":{"area":572.11,"pct":2.2}},"city_same":1,"id":"hex:3435:24538"},"type":"Feature"},{"geometry":{"coordinates":[[[-122.8242,38.40139],[-122.82477,38.40217],[-122.82592,38.40217],[-122.82649,38.40139],[-122.82592,38.40061],[-122.82478,38.40061],[-122.8242,38.40139]]],"type":"Polygon"},"properties":{"bbox":{"parking":{"area":2902.85,"pct":11.17},"roads":{"area":5230.87,"pct":20.13},"sidewalks":{"area":1222.84,"pct":4.71}},"city":{"parking":{"area":2902.85,"pct":11.17},"roads":{"area":3830.32,"pct":14.74},"sidewalks":{"area":1222.84,"pct":4.71}},"id":"hex:3435:24539"},"type":"Feature"},{"geometry":{"coordinates":[[[-122.8242,38.40295],[-122.82477,38.40373],[-122.82592,38.40373],[-122.82649,38.40295],[-122.82592,38.40217],[-122.82477,38.40217],[-122.8242,38.40295]]],"type":"Polygon"},"properties":{"bbox":{"parking":{"area":6801.46,"pct":26.18},"roads":{"area":5231.49,"pct":20.14},"sidewalks":{"area":818.82,"pct":3.15}},"city":{"parking":{"area":6801.46,"pct":26.18},"roads":{"area":3295.45,"pct":12.68},"sidewalks":{"area":818.82,"pct":3.15}},"id":"hex:3435:24540"},"type":"Feature"},{"geometry":{"coordinates":[[[-122.8242,38.40451],[-122.82477,38.40529],[-122.82591,38.40529],[-122.82649,38.40451],[-122.82592,38.40373],[-122.82477,38.40373],[-122.8242,38.40451]]],"type":"Polygon"},"properties":{"bbox":{"parking":{"area":3925.41,"pct":15.11},"roads":{"area":5211.03,"pct":20.06},"sidewalks":{"area":865.38,"pct":3.33}},"city":{"parking":{"area":3925.41,"pct":15.11},"roads":{"area":3586.24,"pct":13.8},"sidewalks":{"area":865.38,"pct":3.33}},"id":"hex:3435:24541"},"type":"Feature"},{"geometry":{"coordinates":[[[-122.82419,38.40607],[-122.82476,38.40685],[-122.82591,38.40685],[-122.82648,38.40607],[-122.82591,38.40529],[-122.82477,38.40529],[-122.82419,38.40607]]],"type":"Polygon"},"properties":{"bbox":{"roads":{"area":1942.26,"pct":7.48},"sidewalks":{"area":33.68,"pct":0.13}},"city_same":1,"id":"hex:3435:24542"},"type":"Feature"},{"geometry":{"coordinates":[[[-122.82419,38.40763],[-122.82476,38.40841],[-122.8259,38.40842],[-122.82648,38.40764],[-122.82591,38.40685],[-122.82476,38.40685],[-122.82419,38.40763]]],"type":"Polygon"},"properties":{"bbox":{"roads":{"area":133.02,"pct":0.51}},"city_same":1,"id":"hex:3435:24543"},"type":"Feature"},{"geometry":{"coordinates":[[[-122.82476,38.40841],[-122.8259,38.40842],[-122.82647,38.4092],[-122.82632,38.40941],[-122.8255,38.40942],[-122.82527,38.40942],[-122.82527,38.40941],[-122.8253,38.40939],[-122.82534,38.40935],[-122.82546,38.40925],[-122.82546,38.40915],[-122.82546,38.40865],[-122.82546,38.40852],[-122.82509,38.40852],[-122.82492,38.40852],[-122.82468,38.40852],[-122.82476,38.40841]]],"type":"Polygon"},"properties":{"bbox":{"roads":{"area":573.81,"pct":6.85}},"city_same":1,"id":"hex:3435:24544"},"type":"Feature"},{"geometry":{"coordinates":[[[-122.82269,38.38679],[-122.82284,38.38679],[-122.82276,38.38624],[-122.82294,38.38599],[-122.82299,38.38599],[-122.8239,38.38578],[-122.82424,38.38578],[-122.82481,38.38656],[-122.82424,38.38734],[-122.82325,38.38734],[-122.82308,38.38732],[-122.82269,38.38679]]],"type":"Polygon"},"properties":{"bbox":{"roads":{"area":2524.49,"pct":10.44},"sidewalks":{"area":293.53,"pct":1.21}},"city_same":1,"id":"hex:3436:24530"},"type":"Feature"},{"geometry":{"coordinates":[[[[-122.82481,38.38812],[-122.82478,38.38816],[-122.82478,38.38815],[-122.82478,38.38808],[-122.82481,38.38812]]],[[[-122.82424,38.38734],[-122.82469,38.38796],[-122.8241,38.38807],[-122.82409,38.38791],[-122.82409,38.38787],[-122.82408,38.38762],[-122.82408,38.38759],[-122.82403,38.3876],[-122.82385,38.38763],[-122.82382,38.38751],[-122.8238,38.38747],[-122.82377,38.38737],[-122.82367,38.38736],[-122.82367,38.38739],[-122.82325,38.38734],[-122.82424,38.38734]]]],"type":"MultiPolygon"},"properties":{"bbox":{"roads":{"area":547.45,"pct":15.83},"sidewalks":{"area":45.64,"pct":1.32}},"city_same":1,"id":"hex:3436:24531"},"type":"Feature"},{"geometry":{"coordinates":[[[-122.8248,38.38968],[-122.82423,38.39046],[-122.82308,38.39046],[-122.82299,38.39033],[-122.8238,38.39032],[-122.82412,38.39032],[-122.82414,38.39032],[-122.82427,38.39032],[-122.82433,38.39032],[-122.82431,38.38968],[-122.82431,38.38937],[-122.82458,38.38938],[-122.8248,38.38968]]],"type":"Polygon"},"properties":{"bbox":{"roads":{"area":485.59,"pct":11.32}},"city_same":1,"id":"hex:3436:24532"},"type":"Feature"},{"geometry":{"coordinates":[[[-122.82251,38.39124],[-122.82308,38.39202],[-122.82423,38.39202],[-122.8248,38.39124],[-122.82423,38.39046],[-122.82308,38.39046],[-122.82251,38.39124]]],"type":"Polygon"},"properties":{"bbox":{"roads":{"area":865.25,"pct":3.33}},"city_same":1,"id":"hex:3436:24533"},"type":"Feature"},{"geometry":{"coordinates":[[[-122.82251,38.3928],[-122.82308,38.39358],[-122.82422,38.39358],[-122.8248,38.3928],[-122.82423,38.39202],[-122.82308,38.39202],[-122.82251,38.3928]]],"type":"Polygon"},"properties":{"bbox":{"roads":{"area":590.37,"pct":2.27}},"city_same":1,"id":"hex:3436:24534"},"type":"Feature"},{"geometry":{"coordinates":[[[-122.8225,38.39436],[-122.82307,38.39514],[-122.82422,38.39514],[-122.82479,38.39437],[-122.82422,38.39358],[-122.82308,38.39358],[-122.8225,38.39436]]],"type":"Polygon"},"properties":{"bbox":{"roads":{"area":2618.78,"pct":10.08},"sidewalks":{"area":446.91,"pct":1.72}},"city_same":1,"id":"hex:3436:24535"},"type":"Feature"},{"geometry":{"coordinates":[[[-122.8225,38.39592],[-122.82307,38.3967],[-122.82421,38.39671],[-122.82479,38.39593],[-122.82422,38.39514],[-122.82307,38.39514],[-122.8225,38.39592]]],"type":"Polygon"},"properties":{"bbox":{"roads":{"area":2825.9,"pct":10.88},"sidewalks":{"area":523.31,"pct":2.01}},"city_same":1,"id":"hex:3436:24536"},"type":"Feature"},{"geometry":{"coordinates":[[[-122.82249,38.39748],[-122.82307,38.39827],[-122.82421,38.39827],[-122.82479,38.39749],[-122.82421,38.39671],[-122.82307,38.3967],[-122.82249,38.39748]]],"type":"Polygon"},"properties":{"bbox":{"roads":{"area":2334.97,"pct":8.99},"sidewalks":{"area":196.98,"pct":0.76}},"city_same":1,"id":"hex:3436:24537"},"type":"Feature"},{"geometry":{"coordinates":[[[-122.82249,38.39904],[-122.82306,38.39983],[-122.82421,38.39983],[-122.82478,38.39905],[-122.82421,38.39827],[-122.82307,38.39827],[-122.82249,38.39904]]],"type":"Polygon"},"properties":{"bbox":{"parking":{"area":511.96,"pct":1.97},"roads":{"area":2758.76,"pct":10.62},"sidewalks":{"area":690.22,"pct":2.66}},"city":{"parking":{"area":511.96,"pct":1.97},"roads":{"area":2528.87,"pct":9.73},"sidewalks":{"area":690.22,"pct":2.66}},"id":"hex:3436:24538"},"type":"Feature"},{"geometry":{"coordinates":[[[-122.82249,38.40061],[-122.82306,38.40139],[-122.8242,38.40139],[-122.82478,38.40061],[-122.82421,38.39983],[-122.82306,38.39983],[-122.82249,38.40061]]],"type":"Polygon"},"properties":{"bbox":{"parking":{"area":8446.99,"pct":32.51},"roads":{"area":5395.52,"pct":20.77},"sidewalks":{"area":861.11,"pct":3.31}},"city":{"parking":{"area":8446.99,"pct":32.51},"roads":{"area":4235.14,"pct":16.3},"sidewalks":{"area":861.11,"pct":3.31}},"id":"hex:3436:24539"},"type":"Feature"},{"geometry":{"coordinates":[[[-122.82248,38.40217],[-122.82305,38.40295],[-122.8242,38.40295],[-122.82477,38.40217],[-122.8242,38.40139],[-122.82306,38.40139],[-122.82248,38.40217]]],"type":"Polygon"},"properties":{"bbox":{"parking":{"area":2228,"pct":8.58},"roads":{"area":5856.27,"pct":22.54},"sidewalks":{"area":1381.97,"pct":5.32}},"city":{"parking":{"area":2228,"pct":8.58},"roads":{"area":2115.4,"pct":8.14},"sidewalks":{"area":1381.97,"pct":5.32}},"id":"hex:3436:24540"},"type":"Feature"},{"geometry":{"coordinates":[[[-122.82248,38.40373],[-122.82305,38.40451],[-122.8242,38.40451],[-122.82477,38.40373],[-122.8242,38.40295],[-122.82305,38.40295],[-122.82248,38.40373]]],"type":"Polygon"},"properties":{"bbox":{"parking":{"area":6690.96,"pct":25.75},"roads":{"area":4614.62,"pct":17.76},"sidewalks":{"area":1000.58,"pct":3.85}},"city":{"parking":{"area":6690.96,"pct":25.75},"roads":{"area":3419.04,"pct":13.16},"sidewalks":{"area":1000.58,"pct":3.85}},"id":"hex:3436:24541"},"type":"Feature"},{"geometry":{"coordinates":[[[-122.82248,38.40529],[-122.82305,38.40607],[-122.82419,38.40607],[-122.82477,38.40529],[-122.8242,38.40451],[-122.82305,38.40451],[-122.82248,38.40529]]],"type":"Polygon"},"properties":{"bbox":{"parking":{"area":44.26,"pct":0.17},"roads":{"area":2581.99,"pct":9.94},"sidewalks":{"area":549.16,"pct":2.11}},"city_same":1,"id":"hex:3436:24542"},"type":"Feature"},{"geometry":{"coordinates":[[[-122.82247,38.40685],[-122.82304,38.40763],[-122.82419,38.40763],[-122.82476,38.40685],[-122.82419,38.40607],[-122.82305,38.40607],[-122.82247,38.40685]]],"type":"Polygon"},"properties":{"bbox":{"roads":{"area":1344,"pct":5.17},"sidewalks":{"area":739.8,"pct":2.85}},"city_same":1,"id":"hex:3436:24543"},"type":"Feature"},{"geometry":{"coordinates":[[[-122.82247,38.40841],[-122.82304,38.40763],[-122.82419,38.40763],[-122.82476,38.40841],[-122.82468,38.40852],[-122.82468,38.40852],[-122.82431,38.40855],[-122.82419,38.40855],[-122.82326,38.40856],[-122.82313,38.40855],[-122.82257,38.40855],[-122.82247,38.40841]]],"type":"Polygon"},"properties":{"bbox":{"roads":{"area":472.66,"pct":2.97}},"city_same":1,"id":"hex:3436:24544"},"type":"Feature"},{"geometry":{"coordinates":[[[-122.82308,38.38732],[-122.82199,38.38717],[-122.82194,38.3868],[-122.822,38.38678],[-122.82213,38.38678],[-122.8224,38.38678],[-122.82248,38.38678],[-122.82258,38.38678],[-122.82269,38.38679],[-122.82308,38.38732]]],"type":"Polygon"},"properties":{"bbox":{"roads":{"area":385.7,"pct":9.73}},"city_same":1,"id":"hex:3437:24530"},"type":"Feature"},{"geometry":{"coordinates":[[[-122.82308,38.39046],[-122.82251,38.39124],[-122.82136,38.39124],[-122.82079,38.39046],[-122.82088,38.39035],[-122.82091,38.39035],[-122.82101,38.39035],[-122.82109,38.39035],[-122.82164,38.39033],[-122.82165,38.39033],[-122.8217,38.39033],[-122.82184,38.39033],[-122.8219,38.39033],[-122.82195,38.39033],[-122.82228,38.39033],[-122.8223,38.39033],[-122.82241,38.39033],[-122.82276,38.39033],[-122.82299,38.39033],[-122.82308,38.39046]]],"type":"Polygon"},"properties":{"bbox":{"roads":{"area":1386.56,"pct":8.85},"sidewalks":{"area":103.64,"pct":0.66}},"city_same":1,"id":"hex:3437:24532"},"type":"Feature"},{"geometry":{"coordinates":[[[-122.82079,38.39202],[-122.82136,38.3928],[-122.82251,38.3928],[-122.82308,38.39202],[-122.82251,38.39124],[-122.82136,38.39124],[-122.82079,38.39202]]],"type":"Polygon"},"properties":{"bbox":{"roads":{"area":1750.24,"pct":6.74},"sidewalks":{"area":105.58,"pct":0.41}},"city_same":1,"id":"hex:3437:24533"},"type":"Feature"},{"geometry":{"coordinates":[[[-122.82079,38.39358],[-122.82136,38.39436],[-122.8225,38.39436],[-122.82308,38.39358],[-122.82251,38.3928],[-122.82136,38.3928],[-122.82079,38.39358]]],"type":"Polygon"},"properties":{"bbox":{"parking":{"area":1170,"pct":4.5},"roads":{"area":1804.44,"pct":6.95},"sidewalks":{"area":708.15,"pct":2.73}},"city_same":1,"id":"hex:3437:24534"},"type":"Feature"},{"geometry":{"coordinates":[[[-122.82078,38.39514],[-122.82135,38.39592],[-122.8225,38.39592],[-122.82307,38.39514],[-122.8225,38.39436],[-122.82136,38.39436],[-122.82078,38.39514]]],"type":"Polygon"},"properties":{"bbox":{"parking":{"area":27.29,"pct":0.11},"roads":{"area":1717.54,"pct":6.61},"sidewalks":{"area":755.48,"pct":2.91}},"city_same":1,"id":"hex:3437:24535"},"type":"Feature"},{"geometry":{"coordinates":[[[-122.82078,38.3967],[-122.82135,38.39748],[-122.82249,38.39748],[-122.82307,38.3967],[-122.8225,38.39592],[-122.82135,38.39592],[-122.82078,38.3967]]],"type":"Polygon"},"properties":{"bbox":{"parking":{"area":144.78,"pct":0.56},"roads":{"area":3003.16,"pct":11.56},"sidewalks":{"area":996.95,"pct":3.84}},"city":{"parking":{"area":144.78,"pct":0.56},"roads":{"area":2030.84,"pct":7.82},"sidewalks":{"area":996.95,"pct":3.84}},"id":"hex:3437:24536"},"type":"Feature"},{"geometry":{"coordinates":[[[-122.82078,38.39826],[-122.82135,38.39904],[-122.82249,38.39904],[-122.82307,38.39827],[-122.82249,38.39748],[-122.82135,38.39748],[-122.82078,38.39826]]],"type":"Polygon"},"properties":{"bbox":{"parking":{"area":705.79,"pct":2.72},"roads":{"area":2794.7,"pct":10.76},"sidewalks":{"area":1138.58,"pct":4.38}},"city":{"parking":{"area":705.79,"pct":2.72},"roads":{"area":1007.45,"pct":3.88},"sidewalks":{"area":1138.58,"pct":4.38}},"id":"hex:3437:24537"},"type":"Feature"},{"geometry":{"coordinates":[[[-122.82077,38.39982],[-122.82134,38.4006],[-122.82249,38.40061],[-122.82306,38.39983],[-122.82249,38.39904],[-122.82135,38.39904],[-122.82077,38.39982]]],"type":"Polygon"},"properties":{"bbox":{"parking":{"area":3219.46,"pct":12.39},"roads":{"area":3815.7,"pct":14.69},"sidewalks":{"area":1122.37,"pct":4.32}},"city":{"parking":{"area":3219.46,"pct":12.39},"roads":{"area":2670.64,"pct":10.28},"sidewalks":{"area":1122.37,"pct":4.32}},"id":"hex:3437:24538"},"type":"Feature"},{"geometry":{"coordinates":[[[-122.82077,38.40138],[-122.82134,38.40216],[-122.82248,38.40217],[-122.82306,38.40139],[-122.82249,38.40061],[-122.82134,38.4006],[-122.82077,38.40138]]],"type":"Polygon"},"properties":{"bbox":{"parking":{"area":8525.7,"pct":32.82},"roads":{"area":4199.24,"pct":16.16},"sidewalks":{"area":423.68,"pct":1.63}},"city":{"parking":{"area":8525.7,"pct":32.82},"roads":{"area":2919.9,"pct":11.24},"sidewalks":{"area":423.68,"pct":1.63}},"id":"hex:3437:24539"},"type":"Feature"},{"geometry":{"coordinates":[[[-122.82076,38.40294],[-122.82133,38.40373],[-122.82248,38.40373],[-122.82305,38.40295],[-122.82248,38.40217],[-122.82134,38.40216],[-122.82076,38.40294]]],"type":"Polygon"},"properties":{"bbox":{"parking":{"area":4284.56,"pct":16.49},"roads":{"area":4384.15,"pct":16.87},"sidewalks":{"area":1000.81,"pct":3.85}},"city":{"parking":{"area":4284.56,"pct":16.49},"roads":{"area":3386.12,"pct":13.03},"sidewalks":{"area":1000.81,"pct":3.85}},"id":"hex:3437:24540"},"type":"Feature"},{"geometry":{"coordinates":[[[-122.82076,38.40451],[-122.82133,38.40529],[-122.82248,38.40529],[-122.82305,38.40451],[-122.82248,38.40373],[-122.82133,38.40373],[-122.82076,38.40451]]],"type":"Polygon"},"properties":{"bbox":{"parking":{"area":6763.4,"pct":26.03},"roads":{"area":4617.3,"pct":17.77},"sidewalks":{"area":779.68,"pct":3}},"city_same":1,"id":"hex:3437:24541"},"type":"Feature"},{"geometry":{"coordinates":[[[-122.82076,38.40607],[-122.82133,38.40685],[-122.82247,38.40685],[-122.82305,38.40607],[-122.82248,38.40529],[-122.82133,38.40529],[-122.82076,38.40607]]],"type":"Polygon"},"properties":{"bbox":{"parking":{"area":229.56,"pct":0.88},"roads":{"area":2253.44,"pct":8.67},"sidewalks":{"area":30.66,"pct":0.12}},"city_same":1,"id":"hex:3437:24542"},"type":"Feature"},{"geometry":{"coordinates":[[[-122.82075,38.40763],[-122.82132,38.40841],[-122.82247,38.40841],[-122.82304,38.40763],[-122.82247,38.40685],[-122.82133,38.40685],[-122.82075,38.40763]]],"type":"Polygon"},"properties":{"bbox":{"parking":{"area":26.84,"pct":0.1},"roads":{"area":2067.83,"pct":7.96},"sidewalks":{"area":237.49,"pct":0.91}},"city_same":1,"id":"hex:3437:24543"},"type":"Feature"},{"geometry":{"coordinates":[[[-122.82075,38.40919],[-122.82132,38.40841],[-122.82247,38.40841],[-122.82257,38.40855],[-122.82222,38.40856],[-122.82214,38.40856],[-122.82167,38.40856],[-122.8215,38.40855],[-122.82124,38.40855],[-122.82122,38.40929],[-122.82122,38.40935],[-122.82119,38.4098],[-122.82075,38.40919]]],"type":"Polygon"},"properties":{"bbox":{"parking":{"area":1.01,"pct":0.02},"roads":{"area":296.95,"pct":6.32}},"city_same":1,"id":"hex:3437:24544"},"type":"Feature"},{"geometry":{"coordinates":[[[-122.82079,38.39046],[-122.81965,38.39045],[-122.81957,38.39035],[-122.81982,38.39035],[-122.82004,38.39035],[-122.82069,38.39035],[-122.82088,38.39035],[-122.82079,38.39046]]],"type":"Polygon"},"properties":{"bbox":{"roads":{"area":614.75,"pct":47.11},"sidewalks":{"area":64.3,"pct":4.93}},"city_same":1,"id":"hex:3438:24532"},"type":"Feature"},{"geometry":{"coordinates":[[[-122.81907,38.39123],[-122.81965,38.39202],[-122.82079,38.39202],[-122.82136,38.39124],[-122.82079,38.39046],[-122.81965,38.39045],[-122.81907,38.39123]]],"type":"Polygon"},"properties":{"bbox":{"roads":{"area":1937.28,"pct":7.46},"sidewalks":{"area":171.88,"pct":0.66}},"city_same":1,"id":"hex:3438:24533"},"type":"Feature"},{"geometry":{"coordinates":[[[-122.81907,38.3928],[-122.81964,38.39358],[-122.82079,38.39358],[-122.82136,38.3928],[-122.82079,38.39202],[-122.81965,38.39202],[-122.81907,38.3928]]],"type":"Polygon"},"properties":{"bbox":{"roads":{"area":2079.38,"pct":8},"sidewalks":{"area":626.26,"pct":2.41}},"city_same":1,"id":"hex:3438:24534"},"type":"Feature"},{"geometry":{"coordinates":[[[-122.81907,38.39436],[-122.81964,38.39514],[-122.82078,38.39514],[-122.82136,38.39436],[-122.82079,38.39358],[-122.81964,38.39358],[-122.81907,38.39436]]],"type":"Polygon"},"properties":{"bbox":{"parking":{"area":2451.1,"pct":9.43},"roads":{"area":2303.63,"pct":8.87},"sidewalks":{"area":703.25,"pct":2.71}},"city_same":1,"id":"hex:3438:24535"},"type":"Feature"},{"geometry":{"coordinates":[[[-122.81906,38.39592],[-122.81963,38.3967],[-122.82078,38.3967],[-122.82135,38.39592],[-122.82078,38.39514],[-122.81964,38.39514],[-122.81906,38.39592]]],"type":"Polygon"},"properties":{"bbox":{"parking":{"area":6749.69,"pct":25.98},"roads":{"area":5486,"pct":21.12},"sidewalks":{"area":1260.38,"pct":4.85}},"city":{"parking":{"area":6749.69,"pct":25.98},"roads":{"area":3673.81,"pct":14.14},"sidewalks":{"area":1260.38,"pct":4.85}},"id":"hex:3438:24536"},"type":"Feature"},{"geometry":{"coordinates":[[[-122.81906,38.39748],[-122.81963,38.39826],[-122.82078,38.39826],[-122.82135,38.39748],[-122.82078,38.3967],[-122.81963,38.3967],[-122.81906,38.39748]]],"type":"Polygon"},"properties":{"bbox":{"parking":{"area":8094.82,"pct":31.16},"roads":{"area":2694.78,"pct":10.37},"sidewalks":{"area":595.95,"pct":2.29}},"city":{"parking":{"area":8094.82,"pct":31.16},"roads":{"area":2122.77,"pct":8.17},"sidewalks":{"area":595.95,"pct":2.29}},"id":"hex:3438:24537"},"type":"Feature"},{"geometry":{"coordinates":[[[-122.81906,38.39904],[-122.81963,38.39982],[-122.82077,38.39982],[-122.82135,38.39904],[-122.82078,38.39826],[-122.81963,38.39826],[-122.81906,38.39904]]],"type":"Polygon"},"properties":{"bbox":{"parking":{"area":226.42,"pct":0.87},"roads":{"area":3258.37,"pct":12.54},"sidewalks":{"area":610.26,"pct":2.35}},"city_same":1,"id":"hex:3438:24538"},"type":"Feature"},{"geometry":{"coordinates":[[[-122.81905,38.4006],[-122.81962,38.40138],[-122.82077,38.40138],[-122.82134,38.4006],[-122.82077,38.39982],[-122.81963,38.39982],[-122.81905,38.4006]]],"type":"Polygon"},"properties":{"bbox":{"parking":{"area":3196.48,"pct":12.3},"roads":{"area":641.25,"pct":2.47},"sidewalks":{"area":45.29,"pct":0.17}},"city_same":1,"id":"hex:3438:24539"},"type":"Feature"},{"geometry":{"coordinates":[[[-122.81905,38.40216],[-122.81962,38.40294],[-122.82076,38.40294],[-122.82134,38.40216],[-122.82077,38.40138],[-122.81962,38.40138],[-122.81905,38.40216]]],"type":"Polygon"},"properties":{"bbox":{"parking":{"area":11200.25,"pct":43.11},"roads":{"area":3291.2,"pct":12.67},"sidewalks":{"area":492.4,"pct":1.9}},"city":{"parking":{"area":11200.25,"pct":43.11},"roads":{"area":2286.07,"pct":8.8},"sidewalks":{"area":492.4,"pct":1.9}},"id":"hex:3438:24540"},"type":"Feature"},{"geometry":{"coordinates":[[[-122.81904,38.40372],[-122.81961,38.4045],[-122.82076,38.40451],[-122.82133,38.40373],[-122.82076,38.40294],[-122.81962,38.40294],[-122.81904,38.40372]]],"type":"Polygon"},"properties":{"bbox":{"parking":{"area":6785.93,"pct":26.12},"roads":{"area":3888.85,"pct":14.97},"sidewalks":{"area":1224.04,"pct":4.71}},"city_same":1,"id":"hex:3438:24541"},"type":"Feature"},{"geometry":{"coordinates":[[[-122.81904,38.40528],[-122.81961,38.40606],[-122.82076,38.40607],[-122.82133,38.40529],[-122.82076,38.40451],[-122.81961,38.4045],[-122.81904,38.40528]]],"type":"Polygon"},"properties":{"bbox":{"parking":{"area":1566.11,"pct":6.03},"roads":{"area":3856.04,"pct":14.84},"sidewalks":{"area":820.94,"pct":3.16}},"city_same":1,"id":"hex:3438:24542"},"type":"Feature"},{"geometry":{"coordinates":[[[-122.81904,38.40684],[-122.81961,38.40763],[-122.82075,38.40763],[-122.82133,38.40685],[-122.82076,38.40607],[-122.81961,38.40606],[-122.81904,38.40684]]],"type":"Polygon"},"properties":{"bbox":{"parking":{"area":872.79,"pct":3.36},"roads":{"area":2509.95,"pct":9.66},"sidewalks":{"area":264.46,"pct":1.02}},"city_same":1,"id":"hex:3438:24543"},"type":"Feature"},{"geometry":{"coordinates":[[[-122.81903,38.40841],[-122.81961,38.40763],[-122.82075,38.40763],[-122.82132,38.40841],[-122.82075,38.40919],[-122.81999,38.40919],[-122.82,38.40912],[-122.81998,38.40908],[-122.81996,38.40905],[-122.81991,38.40904],[-122.81984,38.40905],[-122.8196,38.40918],[-122.81903,38.40841]]],"type":"Polygon"},"properties":{"bbox":{"parking":{"area":5370.12,"pct":20.98},"roads":{"area":3333.8,"pct":13.02},"sidewalks":{"area":326.81,"pct":1.28}},"city_same":1,"id":"hex:3438:24544"},"type":"Feature"},{"geometry":{"coordinates":[[[[-122.81903,38.40997],[-122.81903,38.40996],[-122.81903,38.40997],[-122.81903,38.40997]]],[[[-122.81916,38.41015],[-122.8198,38.41015],[-122.81985,38.41012],[-122.81989,38.41008],[-122.81991,38.41003],[-122.81991,38.40993],[-122.81991,38.40979],[-122.81994,38.40966],[-122.81994,38.40952],[-122.81997,38.40929],[-122.81999,38.40919],[-122.82075,38.40919],[-122.82119,38.4098],[-122.82118,38.41016],[-122.82114,38.41021],[-122.81921,38.41021],[-122.81916,38.41015]]]],"type":"MultiPolygon"},"properties":{"bbox":{"parking":{"area":1287.95,"pct":11.17},"roads":{"area":217.45,"pct":1.89}},"city_same":1,"id":"hex:3438:24545"},"type":"Feature"},{"geometry":{"coordinates":[[[-122.81965,38.39045],[-122.81907,38.39123],[-122.81793,38.39123],[-122.81736,38.39045],[-122.81744,38.39035],[-122.81753,38.39035],[-122.81787,38.39035],[-122.81826,38.39035],[-122.81849,38.39035],[-122.81943,38.39035],[-122.81957,38.39035],[-122.81965,38.39045]]],"type":"Polygon"},"properties":{"bbox":{"parking":{"area":768.14,"pct":5.05},"roads":{"area":1344.39,"pct":8.83},"sidewalks":{"area":72.13,"pct":0.47}},"city_same":1,"id":"hex:3439:24532"},"type":"Feature"},{"geometry":{"coordinates":[[[-122.81736,38.39201],[-122.81793,38.39279],[-122.81907,38.3928],[-122.81965,38.39202],[-122.81907,38.39123],[-122.81793,38.39123],[-122.81736,38.39201]]],"type":"Polygon"},"properties":{"bbox":{"parking":{"area":4685.01,"pct":18.03},"roads":{"area":3506.35,"pct":13.5},"sidewalks":{"area":647.6,"pct":2.49}},"city":{"parking":{"area":4685.01,"pct":18.03},"roads":{"area":2385.47,"pct":9.18},"sidewalks":{"area":647.6,"pct":2.49}},"id":"hex:3439:24533"},"type":"Feature"},{"geometry":{"coordinates":[[[-122.81793,38.39279],[-122.81907,38.3928],[-122.81964,38.39358],[-122.81907,38.39436],[-122.81792,38.39435],[-122.8175,38.39378],[-122.81746,38.39343],[-122.81793,38.39279]]],"type":"Polygon"},"properties":{"bbox":{"parking":{"area":3672.27,"pct":14.25},"roads":{"area":5262.14,"pct":20.43},"sidewalks":{"area":465.16,"pct":1.81}},"city":{"parking":{"area":3672.27,"pct":14.25},"roads":{"area":3480.93,"pct":13.51},"sidewalks":{"area":465.16,"pct":1.81}},"id":"hex:3439:24534"},"type":"Feature"},{"geometry":{"coordinates":[[[-122.81735,38.39513],[-122.81792,38.39435],[-122.81907,38.39436],[-122.81964,38.39514],[-122.81906,38.39592],[-122.81792,38.39592],[-122.8177,38.39562],[-122.81768,38.39531],[-122.81748,38.39532],[-122.81735,38.39513]]],"type":"Polygon"},"properties":{"bbox":{"parking":{"area":3940.23,"pct":15.34},"roads":{"area":4717.45,"pct":18.37},"sidewalks":{"area":528.53,"pct":2.06}},"city":{"parking":{"area":3940.23,"pct":15.34},"roads":{"area":3727.96,"pct":14.51},"sidewalks":{"area":528.53,"pct":2.06}},"id":"hex:3439:24535"},"type":"Feature"},{"geometry":{"coordinates":[[[-122.81734,38.3967],[-122.81791,38.39748],[-122.81906,38.39748],[-122.81963,38.3967],[-122.81906,38.39592],[-122.81792,38.39592],[-122.81734,38.3967]]],"type":"Polygon"},"properties":{"bbox":{"parking":{"area":3478.51,"pct":13.39},"roads":{"area":2351.89,"pct":9.05},"sidewalks":{"area":695.33,"pct":2.68}},"city_same":1,"id":"hex:3439:24536"},"type":"Feature"},{"geometry":{"coordinates":[[[-122.81791,38.39748],[-122.81906,38.39748],[-122.81963,38.39826],[-122.81906,38.39904],[-122.81795,38.39904],[-122.81791,38.39898],[-122.81742,38.39815],[-122.81791,38.39748]]],"type":"Polygon"},"properties":{"bbox":{"parking":{"area":1162.95,"pct":4.61},"roads":{"area":1273.4,"pct":5.05}},"city_same":1,"id":"hex:3439:24537"},"type":"Feature"},{"geometry":{"coordinates":[[[-122.81906,38.39904],[-122.81963,38.39982],[-122.81905,38.4006],[-122.81821,38.4006],[-122.8182,38.40051],[-122.81818,38.40045],[-122.81814,38.40032],[-122.81812,38.40027],[-122.8181,38.40021],[-122.81803,38.39918],[-122.81795,38.39904],[-122.81906,38.39904]]],"type":"Polygon"},"properties":{"bbox":{"roads":{"area":371.56,"pct":1.96}},"city_same":1,"id":"hex:3439:24538"},"type":"Feature"},{"geometry":{"coordinates":[[[-122.81905,38.4006],[-122.81962,38.40138],[-122.81905,38.40216],[-122.8179,38.40216],[-122.81733,38.40138],[-122.81757,38.40105],[-122.81821,38.40084],[-122.81821,38.4006],[-122.81905,38.4006]]],"type":"Polygon"},"properties":{"bbox":{"parking":{"area":367.08,"pct":1.49},"roads":{"area":624.98,"pct":2.55}},"city_same":1,"id":"hex:3439:24539"},"type":"Feature"},{"geometry":{"coordinates":[[[-122.81733,38.40294],[-122.8179,38.40372],[-122.81904,38.40372],[-122.81962,38.40294],[-122.81905,38.40216],[-122.8179,38.40216],[-122.81733,38.40294]]],"type":"Polygon"},"properties":{"bbox":{"parking":{"area":4282.35,"pct":16.48},"roads":{"area":4627.34,"pct":17.81},"sidewalks":{"area":748.15,"pct":2.88}},"city":{"parking":{"area":4282.35,"pct":16.48},"roads":{"area":2667.65,"pct":10.27},"sidewalks":{"area":748.15,"pct":2.88}},"id":"hex:3439:24540"},"type":"Feature"},{"geometry":{"coordinates":[[[-122.81732,38.4045],[-122.81789,38.40528],[-122.81904,38.40528],[-122.81961,38.4045],[-122.81904,38.40372],[-122.8179,38.40372],[-122.81732,38.4045]]],"type":"Polygon"},"properties":{"bbox":{"parking":{"area":3044.13,"pct":11.72},"roads":{"area":2208.09,"pct":8.5},"sidewalks":{"area":165.4,"pct":0.64}},"city_same":1,"id":"hex:3439:24541"},"type":"Feature"},{"geometry":{"coordinates":[[[-122.81736,38.39045],[-122.81621,38.39045],[-122.81564,38.38967],[-122.81598,38.38921],[-122.81631,38.38916],[-122.81632,38.3892],[-122.81642,38.38951],[-122.81701,38.38944],[-122.81726,38.39035],[-122.81744,38.39035],[-122.81736,38.39045]]],"type":"Polygon"},"properties":{"bbox":{"parking":{"area":1584.72,"pct":11.84},"roads":{"area":2247.9,"pct":16.8},"sidewalks":{"area":133.71,"pct":1}},"city":{"parking":{"area":1584.72,"pct":11.84},"roads":{"area":1794.18,"pct":13.41},"sidewalks":{"area":133.71,"pct":1}},"id":"hex:3440:24532"},"type":"Feature"},{"geometry":{"coordinates":[[[-122.81564,38.39123],[-122.81621,38.39045],[-122.81736,38.39045],[-122.81793,38.39123],[-122.81736,38.39201],[-122.8165,38.39201],[-122.81649,38.39195],[-122.81617,38.39195],[-122.81564,38.39123]]],"type":"Polygon"},"properties":{"bbox":{"parking":{"area":8636.58,"pct":33.46},"roads":{"area":5280.28,"pct":20.46},"sidewalks":{"area":960.1,"pct":3.72}},"city":{"parking":{"area":8636.58,"pct":33.46},"roads":{"area":3282,"pct":12.72},"sidewalks":{"area":960.1,"pct":3.72}},"id":"hex:3440:24533"},"type":"Feature"},{"geometry":{"coordinates":[[[-122.81736,38.39201],[-122.81793,38.39279],[-122.81746,38.39343],[-122.8174,38.39299],[-122.81719,38.39299],[-122.8166,38.39301],[-122.81655,38.39301],[-122.81654,38.39289],[-122.8165,38.39201],[-122.81736,38.39201]]],"type":"Polygon"},"properties":{"bbox":{"parking":{"area":1715.23,"pct":14.44},"roads":{"area":1228.56,"pct":10.34},"sidewalks":{"area":100.12,"pct":0.84}},"city_same":1,"id":"hex:3440:24534"},"type":"Feature"},{"geometry":{"coordinates":[[[-122.81792,38.39435],[-122.81735,38.39513],[-122.817,38.39513],[-122.81666,38.39398],[-122.81753,38.39397],[-122.8175,38.39378],[-122.81792,38.39435]]],"type":"Polygon"},"properties":{"bbox":{"roads":{"area":2012.13,"pct":20.72}},"city_same":1,"id":"hex:3440:24535"},"type":"Feature"},{"geometry":{"coordinates":[[[[-122.81792,38.39592],[-122.81734,38.3967],[-122.81639,38.39669],[-122.81639,38.39668],[-122.81649,38.39667],[-122.81731,38.39663],[-122.81735,38.39649],[-122.81765,38.39623],[-122.81756,38.39623],[-122.81728,38.39621],[-122.81726,38.39615],[-122.81722,38.39602],[-122.81728,38.39593],[-122.81754,38.39592],[-122.81766,38.39598],[-122.81774,38.39598],[-122.81771,38.39575],[-122.8177,38.39562],[-122.81792,38.39592]]],[[[-122.81735,38.39513],[-122.81748,38.39532],[-122.81706,38.39535],[-122.817,38.39513],[-122.81735,38.39513]]]],"type":"MultiPolygon"},"properties":{"bbox":{"parking":{"area":129.38,"pct":3.85},"roads":{"area":316.06,"pct":9.41}},"city_same":1,"id":"hex:3440:24536"},"type":"Feature"},{"geometry":{"coordinates":[[[-122.81561,38.40216],[-122.81618,38.40294],[-122.81733,38.40294],[-122.8179,38.40216],[-122.81733,38.40138],[-122.81619,38.40138],[-122.81561,38.40216]]],"type":"Polygon"},"properties":{"bbox":{"roads":{"area":499.73,"pct":1.92}},"city_same":1,"id":"hex:3440:24540"},"type":"Feature"},{"geometry":{"coordinates":[[[-122.81618,38.40294],[-122.81733,38.40294],[-122.8179,38.40372],[-122.81732,38.4045],[-122.81618,38.4045],[-122.81561,38.40372],[-122.81565,38.40366],[-122.81569,38.40365],[-122.81587,38.4036],[-122.81578,38.40348],[-122.81618,38.40294]]],"type":"Polygon"},"properties":{"bbox":{"parking":{"area":71.2,"pct":0.28},"roads":{"area":1185.19,"pct":4.59},"sidewalks":{"area":397.14,"pct":1.54}},"city":{"parking":{"area":71.2,"pct":0.28},"roads":{"area":9.69,"pct":0.04},"sidewalks":{"area":397.14,"pct":1.54}},"id":"hex:3440:24541"},"type":"Feature"},{"geometry":{"coordinates":[[[-122.81564,38.38967],[-122.8145,38.38967],[-122.81393,38.38889],[-122.81427,38.38842],[-122.81434,38.38849],[-122.81455,38.38848],[-122.81466,38.38848],[-122.8148,38.3884],[-122.81575,38.38828],[-122.81593,38.38913],[-122.81594,38.38918],[-122.81596,38.38921],[-122.81598,38.38921],[-122.81564,38.38967]]],"type":"Polygon"},"properties":{"bbox":{"parking":{"area":1724.44,"pct":8.32},"roads":{"area":2903.83,"pct":14},"sidewalks":{"area":527.13,"pct":2.54}},"city":{"parking":{"area":1724.44,"pct":8.32},"roads":{"area":1807.55,"pct":8.72},"sidewalks":{"area":527.13,"pct":2.54}},"id":"hex:3441:24531"},"type":"Feature"},{"geometry":{"coordinates":[[[-122.81392,38.39045],[-122.81449,38.39123],[-122.81564,38.39123],[-122.81621,38.39045],[-122.81564,38.38967],[-122.8145,38.38967],[-122.81392,38.39045]]],"type":"Polygon"},"properties":{"bbox":{"parking":{"area":5275.19,"pct":20.3},"roads":{"area":4369.82,"pct":16.82},"sidewalks":{"area":810.17,"pct":3.12}},"city":{"parking":{"area":5275.19,"pct":20.3},"roads":{"area":3809.92,"pct":14.66},"sidewalks":{"area":810.17,"pct":3.12}},"id":"hex:3441:24532"},"type":"Feature"},{"geometry":{"coordinates":[[[-122.81449,38.39123],[-122.81564,38.39123],[-122.81617,38.39195],[-122.81396,38.39195],[-122.81449,38.39123]]],"type":"Polygon"},"properties":{"bbox":{"roads":{"area":2123.07,"pct":17.99},"sidewalks":{"area":80.67,"pct":0.68}},"city_same":1,"id":"hex:3441:24533"},"type":"Feature"},{"geometry":{"coordinates":[[[[-122.81561,38.40372],[-122.81546,38.40372],[-122.81559,38.40368],[-122.81565,38.40366],[-122.81561,38.40372]]],[[[-122.81561,38.40216],[-122.81618,38.40294],[-122.81578,38.40348],[-122.81578,38.40347],[-122.81552,38.40316],[-122.81554,38.40216],[-122.81561,38.40216]]]],"type":"MultiPolygon"},"properties":{"bbox":{"roads":{"area":40.91,"pct":0.85}},"id":"hex:3441:24540"},"type":"Feature"},{"geometry":{"coordinates":[[[-122.81561,38.40372],[-122.81618,38.4045],[-122.8156,38.40528],[-122.81446,38.40528],[-122.81389,38.40449],[-122.81413,38.40416],[-122.81449,38.40404],[-122.81526,38.40378],[-122.81546,38.40372],[-122.81561,38.40372]]],"type":"Polygon"},"properties":{"bbox":{"roads":{"area":625.24,"pct":2.62}},"id":"hex:3441:24541"},"type":"Feature"},{"geometry":{"coordinates":[[[-122.81393,38.38889],[-122.81278,38.38888],[-122.81272,38.3888],[-122.81273,38.3884],[-122.81308,38.3884],[-122.81309,38.38807],[-122.81335,38.38807],[-122.81341,38.38806],[-122.81359,38.38806],[-122.81366,38.38806],[-122.81374,38.38805],[-122.81377,38.38805],[-122.8139,38.38803],[-122.81402,38.38816],[-122.814,38.38816],[-122.81414,38.38828],[-122.81427,38.38842],[-122.81393,38.38889]]],"type":"Polygon"},"properties":{"bbox":{"parking":{"area":1325.05,"pct":13.56},"roads":{"area":1432.22,"pct":14.66},"sidewalks":{"area":356.94,"pct":3.65}},"city_same":1,"id":"hex:3442:24531"},"type":"Feature"},{"geometry":{"coordinates":[[[-122.81278,38.38888],[-122.81393,38.38889],[-122.8145,38.38967],[-122.81392,38.39045],[-122.81278,38.39044],[-122.81221,38.38966],[-122.81238,38.38943],[-122.81272,38.38942],[-122.81272,38.38897],[-122.81278,38.38888]]],"type":"Polygon"},"properties":{"bbox":{"parking":{"area":2286.46,"pct":9.05},"roads":{"area":2560.89,"pct":10.14},"sidewalks":{"area":331.8,"pct":1.31}},"city_same":1,"id":"hex:3442:24532"},"type":"Feature"},{"geometry":{"coordinates":[[[-122.8122,38.39122],[-122.81278,38.39044],[-122.81392,38.39045],[-122.81449,38.39123],[-122.81396,38.39195],[-122.81274,38.39195],[-122.8122,38.39122]]],"type":"Polygon"},"properties":{"bbox":{"parking":{"area":221.77,"pct":0.87},"roads":{"area":3137.28,"pct":12.36}},"city_same":1,"id":"hex:3442:24533"},"type":"Feature"},{"geometry":{"coordinates":[[[-122.81389,38.40449],[-122.8132,38.40449],[-122.81324,38.40448],[-122.81326,38.40447],[-122.81406,38.40418],[-122.81413,38.40416],[-122.81389,38.40449]]],"type":"Polygon"},"properties":{"bbox":{"roads":{"area":419.05,"pct":37.13}},"id":"hex:3442:24541"},"type":"Feature"},{"geometry":{"coordinates":[[[-122.81389,38.40449],[-122.81446,38.40528],[-122.81388,38.40606],[-122.81274,38.40605],[-122.81256,38.40582],[-122.81256,38.40577],[-122.81256,38.40566],[-122.81277,38.40542],[-122.81248,38.40492],[-122.81248,38.40485],[-122.8126,38.40469],[-122.81271,38.40465],[-122.8132,38.40449],[-122.81389,38.40449]]],"type":"Polygon"},"properties":{"bbox":{"parking":{"area":607.9,"pct":2.64},"roads":{"area":1140,"pct":4.94}},"city":{"parking":{"area":607.9,"pct":2.64},"roads":{"area":788.36,"pct":3.42}},"id":"hex:3442:24542"},"type":"Feature"},{"geometry":{"coordinates":[[[-122.81221,38.38966],[-122.81278,38.39044],[-122.8122,38.39122],[-122.81106,38.39122],[-122.81049,38.39044],[-122.81059,38.3903],[-122.81159,38.3903],[-122.81161,38.38966],[-122.81221,38.38966]]],"type":"Polygon"},"properties":{"bbox":{"roads":{"area":57.41,"pct":0.27}},"city_same":1,"id":"hex:3443:24532"},"type":"Feature"},{"geometry":{"coordinates":[[[-122.81106,38.39122],[-122.8122,38.39122],[-122.81274,38.39195],[-122.81052,38.39196],[-122.81106,38.39122]]],"type":"Polygon"},"properties":{"bbox":{"roads":{"area":2097.94,"pct":17.57}},"city_same":1,"id":"hex:3443:24533"},"type":"Feature"},{"geometry":{"coordinates":[[[-122.80877,38.39122],[-122.80934,38.39044],[-122.81049,38.39044],[-122.81106,38.39122],[-122.81052,38.39196],[-122.80931,38.39196],[-122.80877,38.39122]]],"type":"Polygon"},"properties":{"bbox":{"roads":{"area":352.87,"pct":1.39}},"city_same":1,"id":"hex:3444:24533"},"type":"Feature"}],"type":"FeatureCollection","v":2}