{"features":[{"geometry":{"coordinates":[[[[-118.07307,34.09048],[-118.06184,34.08665],[-118.06306,34.08129],[-118.05937,34.08138],[-118.05904,34.08227],[-118.05991,34.08253],[-118.05943,34.0833],[-118.05782,34.08278],[-118.05694,34.085],[-118.05595,34.08467],[-118.05587,34.08089],[-118.05619,34.08032],[-118.05583,34.08016],[-118.05573,34.0724],[-118.07298,34.07214],[-118.07289,34.07095],[-118.0726,34.07015],[-118.07211,34.06947],[-118.0678,34.06535],[-118.06828,34.06504],[-118.06872,34.06568],[-118.06901,34.06563],[-118.06879,34.06476],[-118.06896,34.06391],[-118.06986,34.06285],[-118.06869,34.06285],[-118.06996,34.06167],[-118.07096,34.06023],[-118.07161,34.05716],[-118.07527,34.05718],[-118.07526,34.0536],[-118.07858,34.05361],[-118.07965,34.05174],[-118.07968,34.04996],[-118.08176,34.04996],[-118.08185,34.04451],[-118.08218,34.04451],[-118.08218,34.0441],[-118.08014,34.04407],[-118.08014,34.04363],[-118.07966,34.04363],[-118.07966,34.04274],[-118.07945,34.04274],[-118.07916,34.04231],[-118.07849,34.04186],[-118.07748,34.04185],[-118.07869,34.0418],[-118.07847,34.04111],[-118.07748,34.04111],[-118.07748,34.04049],[-118.07816,34.04049],[-118.07815,34.03942],[-118.07963,34.04003],[-118.08077,34.0394],[-118.07785,34.03562],[-118.0794,34.03501],[-118.07997,34.03534],[-118.08041,34.0347],[-118.0811,34.03436],[-118.08138,34.03487],[-118.0823,34.03491],[-118.08221,34.03627],[-118.08246,34.03629],[-118.08233,34.03774],[-118.08269,34.03815],[-118.08346,34.03791],[-118.08467,34.03862],[-118.08763,34.03915],[-118.08991,34.0398],[-118.09062,34.04022],[-118.08965,34.04177],[-118.09014,34.04198],[-118.08906,34.04383],[-118.08578,34.04244],[-118.08559,34.04271],[-118.08559,34.0436],[-118.084,34.04362],[-118.08402,34.0427],[-118.08321,34.04269],[-118.0832,34.04319],[-118.08184,34.04319],[-118.08184,34.04369],[-118.08269,34.04369],[-118.08268,34.04451],[-118.08401,34.04452],[-118.08403,34.04815],[-118.08619,34.04814],[-118.08619,34.04995],[-118.08835,34.04995],[-118.08835,34.05121],[-118.0905,34.05122],[-118.0905,34.05187],[-118.09256,34.05216],[-118.09256,34.05269],[-118.09115,34.05302],[-118.09116,34.054],[-118.09855,34.05524],[-118.10063,34.05537],[-118.10063,34.05479],[-118.10083,34.05479],[-118.10138,34.05377],[-118.10249,34.05378],[-118.10273,34.05334],[-118.10339,34.05321],[-118.10442,34.05366],[-118.10452,34.05378],[-118.1043,34.05394],[-118.10572,34.05536],[-118.10806,34.05534],[-118.10805,34.06253],[-118.10732,34.06252],[-118.10733,34.06442],[-118.10713,34.06442],[-118.10738,34.06978],[-118.10747,34.06995],[-118.10793,34.06995],[-118.10797,34.0701],[-118.10749,34.07039],[-118.10747,34.07157],[-118.10039,34.07152],[-118.10022,34.07146],[-118.10015,34.07116],[-118.09954,34.07117],[-118.09954,34.07236],[-118.08723,34.07238],[-118.0872,34.07489],[-118.08837,34.07487],[-118.08856,34.0766],[-118.08786,34.0766],[-118.08788,34.08029],[-118.08354,34.08047],[-118.08356,34.08066],[-118.08684,34.08459],[-118.08727,34.08522],[-118.08756,34.08606],[-118.08788,34.09168],[-118.08724,34.09175],[-118.08719,34.09506],[-118.07307,34.09048]]],[[[-118.06746,34.06285],[-118.06936,34.06108],[-118.06968,34.06051],[-118.07035,34.0571],[-118.07114,34.05714],[-118.07075,34.05939],[-118.07052,34.06007],[-118.06956,34.06144],[-118.06772,34.06285],[-118.06746,34.06285]]]],"type":"MultiPolygon"},"properties":{"type":"boundary"},"type":"Feature"}],"type":"FeatureCollection"}