{"features":[{"geometry":{"coordinates":[[[-118.12109,34.10557],[-118.12081,34.10645],[-118.11785,34.11104],[-118.11625,34.11293],[-118.11544,34.11336],[-118.1138,34.11378],[-118.10817,34.11429],[-118.10815,34.11336],[-118.10714,34.11338],[-118.10715,34.11373],[-118.10624,34.11375],[-118.10624,34.1134],[-118.09985,34.1135],[-118.09817,34.11527],[-118.0912,34.11532],[-118.09117,34.11466],[-118.08989,34.1147],[-118.08988,34.11409],[-118.09121,34.11409],[-118.09108,34.10805],[-118.08661,34.1081],[-118.08659,34.10625],[-118.0886,34.10624],[-118.0886,34.10524],[-118.09034,34.10523],[-118.09017,34.10433],[-118.08976,34.10433],[-118.08976,34.10405],[-118.08773,34.10391],[-118.08773,34.10488],[-118.08796,34.10488],[-118.08794,34.10523],[-118.08504,34.10525],[-118.08501,34.10392],[-118.08219,34.10402],[-118.08218,34.10612],[-118.0827,34.10612],[-118.0827,34.10583],[-118.08332,34.10582],[-118.08331,34.10626],[-118.08221,34.10627],[-118.0823,34.11351],[-118.08141,34.11352],[-118.0813,34.10557],[-118.07798,34.10559],[-118.07723,34.10489],[-118.07722,34.1018],[-118.07758,34.10179],[-118.0776,34.10145],[-118.07788,34.10143],[-118.07792,34.09905],[-118.08148,34.09907],[-118.08151,34.09337],[-118.08224,34.09367],[-118.08239,34.09593],[-118.08229,34.10028],[-118.08376,34.10027],[-118.08374,34.0997],[-118.08317,34.0997],[-118.08317,34.09956],[-118.08348,34.09956],[-118.08347,34.09907],[-118.08309,34.09908],[-118.0831,34.09845],[-118.08376,34.09844],[-118.08373,34.09699],[-118.08497,34.09697],[-118.08496,34.09654],[-118.08611,34.09654],[-118.08612,34.0969],[-118.08672,34.0969],[-118.08673,34.09737],[-118.08603,34.09737],[-118.08604,34.09814],[-118.08673,34.09814],[-118.08673,34.09858],[-118.0877,34.09869],[-118.08852,34.09856],[-118.08852,34.0987],[-118.0891,34.09869],[-118.08917,34.09767],[-118.08791,34.09581],[-118.08766,34.09516],[-118.08719,34.095],[-118.08724,34.09175],[-118.08788,34.09168],[-118.08759,34.08644],[-118.0874,34.08551],[-118.08684,34.08459],[-118.08356,34.08066],[-118.08354,34.08047],[-118.08788,34.08029],[-118.08786,34.0766],[-118.08856,34.0766],[-118.08837,34.07487],[-118.0872,34.07489],[-118.08723,34.07238],[-118.09954,34.07236],[-118.09954,34.07117],[-118.10015,34.07116],[-118.10022,34.07146],[-118.10819,34.07168],[-118.10833,34.08314],[-118.10831,34.08393],[-118.10783,34.08475],[-118.10831,34.0852],[-118.10839,34.09162],[-118.10795,34.0916],[-118.10778,34.09583],[-118.11249,34.09389],[-118.11301,34.09598],[-118.11353,34.09675],[-118.11333,34.09817],[-118.11359,34.09877],[-118.11326,34.09894],[-118.1138,34.09992],[-118.11297,34.10034],[-118.11293,34.10083],[-118.11275,34.10087],[-118.11295,34.1016],[-118.11688,34.10731],[-118.12115,34.10527],[-118.12109,34.10557]],[[-118.08051,34.09994],[-118.07952,34.0999],[-118.07955,34.10251],[-118.08124,34.10254],[-118.08043,34.10135],[-118.08044,34.1011],[-118.08124,34.1012],[-118.08125,34.09991],[-118.08051,34.09994]],[[-118.08046,34.09924],[-118.08045,34.09946],[-118.08145,34.09946],[-118.08148,34.09927],[-118.08046,34.09924]],[[-118.08974,34.10223],[-118.08971,34.10019],[-118.08921,34.10019],[-118.08921,34.10002],[-118.08972,34.10002],[-118.08971,34.09953],[-118.08853,34.09952],[-118.08854,34.09983],[-118.08791,34.09982],[-118.08808,34.09943],[-118.08735,34.09943],[-118.08735,34.09968],[-118.08646,34.09947],[-118.08647,34.0997],[-118.0859,34.09971],[-118.08593,34.09908],[-118.08523,34.09908],[-118.0852,34.0995],[-118.08458,34.09957],[-118.08457,34.10043],[-118.08226,34.10046],[-118.08224,34.10083],[-118.08395,34.10088],[-118.08386,34.10266],[-118.08451,34.10266],[-118.08464,34.10304],[-118.08975,34.10293],[-118.08974,34.10237],[-118.09029,34.10237],[-118.09029,34.10223],[-118.08974,34.10223]],[[-118.08379,34.10217],[-118.08379,34.10185],[-118.0823,34.10186],[-118.0823,34.10239],[-118.08329,34.10239],[-118.08329,34.10267],[-118.08375,34.10265],[-118.08379,34.10217]],[[-118.09651,34.11097],[-118.0964,34.11076],[-118.09617,34.11081],[-118.09651,34.11097]]],"type":"Polygon"},"properties":{"type":"boundary"},"type":"Feature"}],"type":"FeatureCollection"}