{"features":[{"geometry":{"coordinates":[[[-121.33188,38.68627],[-121.3283,38.68955],[-121.32686,38.69185],[-121.32683,38.69346],[-121.32715,38.69387],[-121.32678,38.69455],[-121.32613,38.70448],[-121.32631,38.70564],[-121.32522,38.70684],[-121.32508,38.7076],[-121.31848,38.7139],[-121.31815,38.7145],[-121.31679,38.71443],[-121.31621,38.71602],[-121.31386,38.71833],[-121.31331,38.71864],[-121.30888,38.7228],[-121.24273,38.71821],[-121.24351,38.71715],[-121.24437,38.71663],[-121.24439,38.71027],[-121.24421,38.70757],[-121.24438,38.69318],[-121.25304,38.69315],[-121.25248,38.69631],[-121.25324,38.69696],[-121.25371,38.69708],[-121.25403,38.697],[-121.25398,38.69548],[-121.25801,38.69564],[-121.25805,38.69316],[-121.26228,38.69314],[-121.2624,38.68347],[-121.26225,38.68126],[-121.26217,38.66645],[-121.26319,38.66644],[-121.26319,38.66605],[-121.26303,38.66604],[-121.26308,38.66398],[-121.2985,38.66354],[-121.2985,38.66417],[-121.29922,38.66475],[-121.2994,38.67068],[-121.30874,38.67079],[-121.30918,38.67193],[-121.31105,38.67192],[-121.31132,38.67297],[-121.30974,38.67297],[-121.31,38.67358],[-121.3127,38.67357],[-121.31267,38.67082],[-121.31535,38.67081],[-121.31531,38.67196],[-121.31508,38.67218],[-121.31522,38.6726],[-121.31665,38.67256],[-121.3179,38.67226],[-121.31952,38.67261],[-121.31997,38.67287],[-121.3201,38.67364],[-121.32249,38.67371],[-121.32304,38.67392],[-121.32433,38.67346],[-121.32485,38.67321],[-121.32493,38.67336],[-121.32534,38.67316],[-121.32751,38.67274],[-121.328,38.67322],[-121.32705,38.6739],[-121.32702,38.67478],[-121.32753,38.67511],[-121.32845,38.67514],[-121.32878,38.67692],[-121.32803,38.67691],[-121.32797,38.67792],[-121.32777,38.67794],[-121.32774,38.67811],[-121.32702,38.67811],[-121.32734,38.68102],[-121.32693,38.68127],[-121.32672,38.68798],[-121.3299,38.68502],[-121.33196,38.68619],[-121.33188,38.68627]],[[-121.28722,38.68043],[-121.28721,38.68022],[-121.28695,38.68043],[-121.28722,38.68043]],[[-121.29735,38.68801],[-121.29709,38.68762],[-121.29667,38.68792],[-121.29677,38.68824],[-121.29735,38.68801]],[[-121.32012,38.68862],[-121.3204,38.68887],[-121.32072,38.68873],[-121.32073,38.68775],[-121.32037,38.68761],[-121.31999,38.68772],[-121.31972,38.68823],[-121.32012,38.68862]]],"type":"Polygon"},"properties":{"type":"boundary"},"type":"Feature"}],"type":"FeatureCollection"}