{"features":[{"geometry":{"coordinates":[[[-118.08141,34.11341],[-118.08141,34.11352],[-118.08045,34.11352],[-118.08055,34.11372],[-118.07952,34.11412],[-118.07932,34.11353],[-118.07364,34.11355],[-118.07319,34.11692],[-118.07388,34.11676],[-118.07416,34.11744],[-118.07392,34.11746],[-118.07413,34.11786],[-118.07288,34.11866],[-118.06832,34.11956],[-118.06805,34.1204],[-118.06375,34.121],[-118.06304,34.11743],[-118.05658,34.11834],[-118.05568,34.11386],[-118.05471,34.11399],[-118.05463,34.11355],[-118.05422,34.11372],[-118.05403,34.1128],[-118.05418,34.11278],[-118.05401,34.11131],[-118.05369,34.11138],[-118.05339,34.10957],[-118.05272,34.10967],[-118.05257,34.10903],[-118.05319,34.10895],[-118.05312,34.10856],[-118.05251,34.10863],[-118.05237,34.10801],[-118.05367,34.10768],[-118.0535,34.10679],[-118.05278,34.10689],[-118.05233,34.10421],[-118.03895,34.10615],[-118.03875,34.10519],[-118.03802,34.10529],[-118.03812,34.1058],[-118.03621,34.10605],[-118.03622,34.10661],[-118.03482,34.1068],[-118.03472,34.1062],[-118.03373,34.10634],[-118.03362,34.10581],[-118.03275,34.10594],[-118.03283,34.10633],[-118.03269,34.10616],[-118.03102,34.1064],[-118.03119,34.10729],[-118.03076,34.10734],[-118.02977,34.10334],[-118.02855,34.10354],[-118.02835,34.10286],[-118.02964,34.1027],[-118.02854,34.09703],[-118.03268,34.09643],[-118.03241,34.09509],[-118.03316,34.09351],[-118.03426,34.09335],[-118.03438,34.09393],[-118.03497,34.09383],[-118.03492,34.0936],[-118.03634,34.09331],[-118.03615,34.09249],[-118.03874,34.09211],[-118.03882,34.09252],[-118.03994,34.09235],[-118.03987,34.09195],[-118.04216,34.09158],[-118.04237,34.09249],[-118.04287,34.09243],[-118.04267,34.0915],[-118.04594,34.09115],[-118.05167,34.09022],[-118.05184,34.09102],[-118.0521,34.09098],[-118.05193,34.09019],[-118.05652,34.0895],[-118.05645,34.08908],[-118.05576,34.08918],[-118.05576,34.08952],[-118.05504,34.08932],[-118.05655,34.08538],[-118.05856,34.08606],[-118.05876,34.08563],[-118.07303,34.09039],[-118.07327,34.09085],[-118.07344,34.09711],[-118.07492,34.09781],[-118.07545,34.09835],[-118.0757,34.09834],[-118.07631,34.10302],[-118.07724,34.10301],[-118.07723,34.10489],[-118.07798,34.10559],[-118.08129,34.10558],[-118.08141,34.11341]]],"type":"Polygon"},"properties":{"type":"boundary"},"type":"Feature"}],"type":"FeatureCollection"}