{"features":[{"geometry":{"coordinates":[[[-122.24912,37.82388],[-122.24812,37.82482],[-122.24768,37.82624],[-122.24426,37.82832],[-122.24444,37.82866],[-122.24332,37.83009],[-122.24282,37.83001],[-122.24109,37.83044],[-122.23789,37.83062],[-122.23228,37.83173],[-122.22808,37.83303],[-122.22687,37.83208],[-122.22628,37.83193],[-122.22503,37.83125],[-122.22449,37.83024],[-122.22236,37.82761],[-122.22135,37.82582],[-122.21849,37.82355],[-122.2163,37.8226],[-122.21549,37.82173],[-122.21015,37.81873],[-122.21233,37.81704],[-122.2128,37.81623],[-122.21311,37.81477],[-122.21404,37.81338],[-122.21517,37.81228],[-122.21652,37.81278],[-122.23223,37.8162],[-122.23526,37.8171],[-122.23759,37.81742],[-122.24503,37.81922],[-122.24747,37.8216],[-122.24934,37.82294],[-122.24886,37.82339],[-122.24937,37.82365],[-122.24912,37.82388]],[[-122.21826,37.82302],[-122.21857,37.82272],[-122.21888,37.82269],[-122.21856,37.82208],[-122.21804,37.82212],[-122.21796,37.82296],[-122.21826,37.82302]]],"type":"Polygon"},"properties":{"type":"boundary"},"type":"Feature"}],"type":"FeatureCollection"}