{"features":[{"geometry":{"coordinates":[[[-122.24837,37.82309],[-122.24781,37.82231],[-122.24803,37.82201],[-122.24804,37.82201],[-122.24934,37.82294],[-122.24917,37.8231],[-122.24837,37.82309]]],"type":"Polygon"},"properties":{"bbox":{"parking":{"area":676.89,"pct":8.74},"roads":{"area":938.02,"pct":12.12},"sidewalks":{"area":353.4,"pct":4.56}},"city_same":1,"id":"hex:3774:24170"},"type":"Feature"},{"geometry":{"coordinates":[[[-122.24779,37.82387],[-122.24837,37.82309],[-122.24917,37.8231],[-122.24895,37.8233],[-122.24886,37.82339],[-122.24937,37.82365],[-122.24912,37.82388],[-122.24837,37.82459],[-122.24833,37.82463],[-122.24779,37.82387]]],"type":"Polygon"},"properties":{"bbox":{"roads":{"area":717.93,"pct":5.61},"sidewalks":{"area":207.67,"pct":1.62}},"city_same":1,"id":"hex:3774:24171"},"type":"Feature"},{"geometry":{"coordinates":[[[-122.24778,37.82543],[-122.24806,37.82505],[-122.24804,37.82513],[-122.24802,37.82521],[-122.24795,37.82542],[-122.24789,37.8256],[-122.24778,37.82543]]],"type":"Polygon"},"properties":{"bbox":{"roads":{"area":336.86,"pct":70.66},"sidewalks":{"area":39.67,"pct":8.32}},"city_same":1,"id":"hex:3774:24172"},"type":"Feature"},{"geometry":{"coordinates":[[[-122.24781,37.82231],[-122.24667,37.8223],[-122.24611,37.82152],[-122.24661,37.82085],[-122.24667,37.8209],[-122.24727,37.82142],[-122.24741,37.82155],[-122.24747,37.8216],[-122.24803,37.82201],[-122.24781,37.82231]]],"type":"Polygon"},"properties":{"bbox":{"parking":{"area":23.4,"pct":0.16},"roads":{"area":2124.45,"pct":14.31},"sidewalks":{"area":640.77,"pct":4.32}},"city_same":1,"id":"hex:3775:24169"},"type":"Feature"},{"geometry":{"coordinates":[[[-122.2461,37.82308],[-122.24666,37.82386],[-122.24779,37.82387],[-122.24837,37.82309],[-122.24781,37.82231],[-122.24667,37.8223],[-122.2461,37.82308]]],"type":"Polygon"},"properties":{"bbox":{"roads":{"area":3138.96,"pct":12.08},"sidewalks":{"area":1247.99,"pct":4.8}},"city_same":1,"id":"hex:3775:24170"},"type":"Feature"},{"geometry":{"coordinates":[[[-122.24778,37.82543],[-122.24664,37.82543],[-122.24608,37.82464],[-122.24666,37.82386],[-122.24779,37.82387],[-122.24833,37.82463],[-122.24832,37.82463],[-122.24812,37.82482],[-122.2481,37.82489],[-122.24806,37.82505],[-122.24778,37.82543]]],"type":"Polygon"},"properties":{"bbox":{"roads":{"area":3518.42,"pct":13.69},"sidewalks":{"area":1105.47,"pct":4.3}},"city_same":1,"id":"hex:3775:24171"},"type":"Feature"},{"geometry":{"coordinates":[[[-122.24606,37.8262],[-122.24664,37.82543],[-122.24778,37.82543],[-122.24789,37.8256],[-122.24775,37.82603],[-122.24768,37.82624],[-122.24724,37.8265],[-122.24655,37.82689],[-122.24606,37.8262]]],"type":"Polygon"},"properties":{"bbox":{"roads":{"area":1754.73,"pct":10.58},"sidewalks":{"area":458.75,"pct":2.77}},"city_same":1,"id":"hex:3775:24172"},"type":"Feature"},{"geometry":{"coordinates":[[[-122.24499,37.81995],[-122.24443,37.81917],[-122.24447,37.81911],[-122.2448,37.81917],[-122.24503,37.81922],[-122.24513,37.8193],[-122.24531,37.81946],[-122.24555,37.8197],[-122.24584,37.81994],[-122.24586,37.81996],[-122.24499,37.81995]]],"type":"Polygon"},"properties":{"bbox":{"parking":{"area":876.68,"pct":16.17},"roads":{"area":1022.5,"pct":18.86},"sidewalks":{"area":137.83,"pct":2.54}},"city":{"parking":{"area":876.68,"pct":16.17},"roads":{"area":884.68,"pct":16.32},"sidewalks":{"area":137.83,"pct":2.54}},"id":"hex:3776:24168"},"type":"Feature"},{"geometry":{"coordinates":[[[-122.24611,37.82152],[-122.24498,37.82151],[-122.24441,37.82073],[-122.24499,37.81995],[-122.24586,37.81996],[-122.24599,37.82008],[-122.24612,37.82022],[-122.24632,37.8205],[-122.24639,37.8206],[-122.24647,37.82073],[-122.24661,37.82085],[-122.24611,37.82152]]],"type":"Polygon"},"properties":{"bbox":{"parking":{"area":0.77,"pct":0},"roads":{"area":3088.01,"pct":12.7},"sidewalks":{"area":921.02,"pct":3.79}},"city_same":1,"id":"hex:3776:24169"},"type":"Feature"},{"geometry":{"coordinates":[[[-122.2444,37.82229],[-122.24496,37.82307],[-122.2461,37.82308],[-122.24667,37.8223],[-122.24611,37.82152],[-122.24498,37.82151],[-122.2444,37.82229]]],"type":"Polygon"},"properties":{"bbox":{"roads":{"area":4088.84,"pct":15.74},"sidewalks":{"area":1557.12,"pct":5.99}},"city_same":1,"id":"hex:3776:24170"},"type":"Feature"},{"geometry":{"coordinates":[[[-122.24438,37.82385],[-122.24494,37.82463],[-122.24608,37.82464],[-122.24666,37.82386],[-122.2461,37.82308],[-122.24496,37.82307],[-122.24438,37.82385]]],"type":"Polygon"},"properties":{"bbox":{"roads":{"area":2433.81,"pct":9.37},"sidewalks":{"area":972.19,"pct":3.74}},"city_same":1,"id":"hex:3776:24171"},"type":"Feature"},{"geometry":{"coordinates":[[[-122.24437,37.82541],[-122.24493,37.8262],[-122.24606,37.8262],[-122.24664,37.82543],[-122.24608,37.82464],[-122.24494,37.82463],[-122.24437,37.82541]]],"type":"Polygon"},"properties":{"bbox":{"roads":{"area":2851.92,"pct":10.98},"sidewalks":{"area":1063.03,"pct":4.09}},"city_same":1,"id":"hex:3776:24172"},"type":"Feature"},{"geometry":{"coordinates":[[[-122.24491,37.82776],[-122.24435,37.82697],[-122.24493,37.8262],[-122.24606,37.8262],[-122.24655,37.82689],[-122.24594,37.82724],[-122.24591,37.82726],[-122.24548,37.82754],[-122.24531,37.82765],[-122.24514,37.82776],[-122.24491,37.82776]]],"type":"Polygon"},"properties":{"bbox":{"roads":{"area":2313.04,"pct":10.82},"sidewalks":{"area":794.91,"pct":3.72}},"city_same":1,"id":"hex:3776:24173"},"type":"Feature"},{"geometry":{"coordinates":[[[[-122.24434,37.82853],[-122.24436,37.82849],[-122.24437,37.8285],[-122.24444,37.82866],[-122.24443,37.82866],[-122.24434,37.82853]]],[[[-122.24491,37.82776],[-122.24514,37.82776],[-122.2448,37.82798],[-122.24469,37.82805],[-122.24491,37.82776]]]],"type":"MultiPolygon"},"properties":{"bbox":{"roads":{"area":276.17,"pct":73},"sidewalks":{"area":27.71,"pct":7.33}},"city_same":1,"id":"hex:3776:24174"},"type":"Feature"},{"geometry":{"coordinates":[[[-122.24443,37.81917],[-122.24329,37.81916],[-122.24292,37.81864],[-122.2432,37.81871],[-122.24317,37.81872],[-122.24335,37.81875],[-122.24352,37.81881],[-122.24402,37.81897],[-122.24419,37.81903],[-122.24429,37.81907],[-122.24447,37.81911],[-122.24443,37.81917]]],"type":"Polygon"},"properties":{"bbox":{"roads":{"area":449.59,"pct":13.02},"sidewalks":{"area":4.03,"pct":0.12}},"city_same":1,"id":"hex:3777:24167"},"type":"Feature"},{"geometry":{"coordinates":[[[-122.24272,37.81994],[-122.24328,37.82072],[-122.24441,37.82073],[-122.24499,37.81995],[-122.24443,37.81917],[-122.24329,37.81916],[-122.24272,37.81994]]],"type":"Polygon"},"properties":{"bbox":{"parking":{"area":451.15,"pct":1.74},"roads":{"area":4112.06,"pct":15.83},"sidewalks":{"area":438.98,"pct":1.69}},"city":{"parking":{"area":451.15,"pct":1.74},"roads":{"area":3263.84,"pct":12.56},"sidewalks":{"area":438.98,"pct":1.69}},"id":"hex:3777:24168"},"type":"Feature"},{"geometry":{"coordinates":[[[-122.2427,37.8215],[-122.24326,37.82228],[-122.2444,37.82229],[-122.24498,37.82151],[-122.24441,37.82073],[-122.24328,37.82072],[-122.2427,37.8215]]],"type":"Polygon"},"properties":{"bbox":{"parking":{"area":794.64,"pct":3.06},"roads":{"area":3089.01,"pct":11.89},"sidewalks":{"area":784.61,"pct":3.02}},"city":{"parking":{"area":794.64,"pct":3.06},"roads":{"area":2156.9,"pct":8.3},"sidewalks":{"area":784.61,"pct":3.02}},"id":"hex:3777:24169"},"type":"Feature"},{"geometry":{"coordinates":[[[-122.24269,37.82306],[-122.24325,37.82384],[-122.24438,37.82385],[-122.24496,37.82307],[-122.2444,37.82229],[-122.24326,37.82228],[-122.24269,37.82306]]],"type":"Polygon"},"properties":{"bbox":{"roads":{"area":3834.39,"pct":14.76},"sidewalks":{"area":1094.69,"pct":4.21}},"city":{"roads":{"area":2960.54,"pct":11.4},"sidewalks":{"area":1094.69,"pct":4.21}},"id":"hex:3777:24170"},"type":"Feature"},{"geometry":{"coordinates":[[[-122.24267,37.82462],[-122.24323,37.8254],[-122.24437,37.82541],[-122.24494,37.82463],[-122.24438,37.82385],[-122.24325,37.82384],[-122.24267,37.82462]]],"type":"Polygon"},"properties":{"bbox":{"roads":{"area":3092.06,"pct":11.9},"sidewalks":{"area":1076.07,"pct":4.14}},"city":{"roads":{"area":2846.75,"pct":10.96},"sidewalks":{"area":1076.07,"pct":4.14}},"id":"hex:3777:24171"},"type":"Feature"},{"geometry":{"coordinates":[[[-122.24265,37.82618],[-122.24322,37.82696],[-122.24435,37.82697],[-122.24493,37.8262],[-122.24437,37.82541],[-122.24323,37.8254],[-122.24265,37.82618]]],"type":"Polygon"},"properties":{"bbox":{"roads":{"area":3084.1,"pct":11.87},"sidewalks":{"area":857.45,"pct":3.3}},"city":{"roads":{"area":2772.36,"pct":10.67},"sidewalks":{"area":857.45,"pct":3.3}},"id":"hex:3777:24172"},"type":"Feature"},{"geometry":{"coordinates":[[[-122.24434,37.82853],[-122.2432,37.82853],[-122.24264,37.82774],[-122.24322,37.82696],[-122.24435,37.82697],[-122.24491,37.82776],[-122.24469,37.82805],[-122.24464,37.82809],[-122.24455,37.82814],[-122.24442,37.82821],[-122.24429,37.82829],[-122.24426,37.82832],[-122.24436,37.82849],[-122.24434,37.82853]]],"type":"Polygon"},"properties":{"bbox":{"roads":{"area":4320.61,"pct":16.98},"sidewalks":{"area":997.26,"pct":3.92}},"city":{"roads":{"area":3828.09,"pct":15.04},"sidewalks":{"area":997.26,"pct":3.92}},"id":"hex:3777:24173"},"type":"Feature"},{"geometry":{"coordinates":[[[-122.24262,37.8293],[-122.2432,37.82853],[-122.24434,37.82853],[-122.24443,37.82866],[-122.24428,37.82884],[-122.24356,37.82978],[-122.24335,37.83005],[-122.24332,37.83009],[-122.24332,37.83009],[-122.24331,37.83008],[-122.24329,37.83007],[-122.24329,37.83006],[-122.24315,37.83004],[-122.24262,37.8293]]],"type":"Polygon"},"properties":{"bbox":{"roads":{"area":2380.56,"pct":15.62},"sidewalks":{"area":796.42,"pct":5.23}},"city":{"roads":{"area":2362.82,"pct":15.51},"sidewalks":{"area":796.42,"pct":5.23}},"id":"hex:3777:24174"},"type":"Feature"},{"geometry":{"coordinates":[[[-122.24329,37.81916],[-122.24272,37.81994],[-122.24158,37.81993],[-122.24102,37.81915],[-122.2416,37.81837],[-122.2418,37.81837],[-122.2422,37.81846],[-122.2426,37.81855],[-122.24275,37.81859],[-122.24292,37.81864],[-122.24329,37.81916]]],"type":"Polygon"},"properties":{"bbox":{"roads":{"area":2837.36,"pct":11.42}},"city_same":1,"id":"hex:3778:24168"},"type":"Feature"},{"geometry":{"coordinates":[[[-122.24101,37.82071],[-122.24157,37.82149],[-122.2427,37.8215],[-122.24328,37.82072],[-122.24272,37.81994],[-122.24158,37.81993],[-122.24101,37.82071]]],"type":"Polygon"},"properties":{"bbox":{"roads":{"area":3005.51,"pct":11.57}},"city_same":1,"id":"hex:3778:24169"},"type":"Feature"},{"geometry":{"coordinates":[[[-122.24099,37.82227],[-122.24155,37.82305],[-122.24269,37.82306],[-122.24326,37.82228],[-122.2427,37.8215],[-122.24157,37.82149],[-122.24099,37.82227]]],"type":"Polygon"},"properties":{"bbox":{"roads":{"area":3564.47,"pct":13.72},"sidewalks":{"area":170.76,"pct":0.66}},"city_same":1,"id":"hex:3778:24170"},"type":"Feature"},{"geometry":{"coordinates":[[[-122.24097,37.82383],[-122.24153,37.82461],[-122.24267,37.82462],[-122.24325,37.82384],[-122.24269,37.82306],[-122.24155,37.82305],[-122.24097,37.82383]]],"type":"Polygon"},"properties":{"bbox":{"roads":{"area":2982.88,"pct":11.48},"sidewalks":{"area":1124.21,"pct":4.33}},"city":{"roads":{"area":2886.13,"pct":11.11},"sidewalks":{"area":1124.21,"pct":4.33}},"id":"hex:3778:24171"},"type":"Feature"},{"geometry":{"coordinates":[[[-122.24096,37.82539],[-122.24152,37.82617],[-122.24265,37.82618],[-122.24323,37.8254],[-122.24267,37.82462],[-122.24153,37.82461],[-122.24096,37.82539]]],"type":"Polygon"},"properties":{"bbox":{"roads":{"area":4915.85,"pct":18.92},"sidewalks":{"area":1633.04,"pct":6.29}},"city":{"roads":{"area":4746.58,"pct":18.27},"sidewalks":{"area":1633.04,"pct":6.29}},"id":"hex:3778:24172"},"type":"Feature"},{"geometry":{"coordinates":[[[-122.24094,37.82695],[-122.2415,37.82773],[-122.24264,37.82774],[-122.24322,37.82696],[-122.24265,37.82618],[-122.24152,37.82617],[-122.24094,37.82695]]],"type":"Polygon"},"properties":{"bbox":{"roads":{"area":2298.38,"pct":8.85},"sidewalks":{"area":1086.26,"pct":4.18}},"city_same":1,"id":"hex:3778:24173"},"type":"Feature"},{"geometry":{"coordinates":[[[-122.24093,37.82851],[-122.24149,37.8293],[-122.24262,37.8293],[-122.2432,37.82853],[-122.24264,37.82774],[-122.2415,37.82773],[-122.24093,37.82851]]],"type":"Polygon"},"properties":{"bbox":{"roads":{"area":3029.95,"pct":11.66},"sidewalks":{"area":1216.15,"pct":4.68}},"city_same":1,"id":"hex:3778:24174"},"type":"Feature"},{"geometry":{"coordinates":[[[-122.24091,37.83007],[-122.24149,37.8293],[-122.24262,37.8293],[-122.24315,37.83004],[-122.24302,37.83001],[-122.24291,37.83001],[-122.24282,37.83001],[-122.24271,37.83002],[-122.2424,37.83009],[-122.24235,37.83011],[-122.24123,37.83041],[-122.24116,37.83042],[-122.24091,37.83007]]],"type":"Polygon"},"properties":{"bbox":{"roads":{"area":2622.31,"pct":17.22},"sidewalks":{"area":815.3,"pct":5.35}},"city":{"roads":{"area":2618.33,"pct":17.19},"sidewalks":{"area":815.3,"pct":5.35}},"id":"hex:3778:24175"},"type":"Feature"},{"geometry":{"coordinates":[[[-122.2416,37.81837],[-122.24102,37.81915],[-122.23989,37.81914],[-122.23933,37.81835],[-122.23966,37.81791],[-122.24035,37.81805],[-122.24061,37.8181],[-122.24101,37.81819],[-122.24156,37.81831],[-122.2416,37.81837]]],"type":"Polygon"},"properties":{"bbox":{"roads":{"area":1573.95,"pct":8.5}},"city_same":1,"id":"hex:3779:24167"},"type":"Feature"},{"geometry":{"coordinates":[[[-122.23931,37.81991],[-122.23987,37.8207],[-122.24101,37.82071],[-122.24158,37.81993],[-122.24102,37.81915],[-122.23989,37.81914],[-122.23931,37.81991]]],"type":"Polygon"},"properties":{"bbox":{"roads":{"area":3857.14,"pct":14.85},"sidewalks":{"area":33.69,"pct":0.13}},"city_same":1,"id":"hex:3779:24168"},"type":"Feature"},{"geometry":{"coordinates":[[[-122.23929,37.82148],[-122.23985,37.82226],[-122.24099,37.82227],[-122.24157,37.82149],[-122.24101,37.82071],[-122.23987,37.8207],[-122.23929,37.82148]]],"type":"Polygon"},"properties":{"bbox":{"roads":{"area":3184.14,"pct":12.26},"sidewalks":{"area":236.36,"pct":0.91}},"city_same":1,"id":"hex:3779:24169"},"type":"Feature"},{"geometry":{"coordinates":[[[-122.23928,37.82304],[-122.23984,37.82382],[-122.24097,37.82383],[-122.24155,37.82305],[-122.24099,37.82227],[-122.23985,37.82226],[-122.23928,37.82304]]],"type":"Polygon"},"properties":{"bbox":{"roads":{"area":3545.53,"pct":13.65},"sidewalks":{"area":1051.43,"pct":4.05}},"city_same":1,"id":"hex:3779:24170"},"type":"Feature"},{"geometry":{"coordinates":[[[-122.23926,37.8246],[-122.23982,37.82538],[-122.24096,37.82539],[-122.24153,37.82461],[-122.24097,37.82383],[-122.23984,37.82382],[-122.23926,37.8246]]],"type":"Polygon"},"properties":{"bbox":{"roads":{"area":3288.86,"pct":12.66},"sidewalks":{"area":1189.07,"pct":4.58}},"city_same":1,"id":"hex:3779:24171"},"type":"Feature"},{"geometry":{"coordinates":[[[-122.23925,37.82616],[-122.23981,37.82694],[-122.24094,37.82695],[-122.24152,37.82617],[-122.24096,37.82539],[-122.23982,37.82538],[-122.23925,37.82616]]],"type":"Polygon"},"properties":{"bbox":{"roads":{"area":2778.22,"pct":10.69},"sidewalks":{"area":962.23,"pct":3.7}},"city_same":1,"id":"hex:3779:24172"},"type":"Feature"},{"geometry":{"coordinates":[[[-122.23923,37.82772],[-122.23979,37.8285],[-122.24093,37.82851],[-122.2415,37.82773],[-122.24094,37.82695],[-122.23981,37.82694],[-122.23923,37.82772]]],"type":"Polygon"},"properties":{"bbox":{"roads":{"area":2596.46,"pct":9.99},"sidewalks":{"area":1036.96,"pct":3.99}},"city_same":1,"id":"hex:3779:24173"},"type":"Feature"},{"geometry":{"coordinates":[[[-122.23921,37.82928],[-122.23977,37.83006],[-122.24091,37.83007],[-122.24149,37.8293],[-122.24093,37.82851],[-122.23979,37.8285],[-122.23921,37.82928]]],"type":"Polygon"},"properties":{"bbox":{"roads":{"area":3805.91,"pct":14.65},"sidewalks":{"area":1315.99,"pct":5.07}},"city_same":1,"id":"hex:3779:24174"},"type":"Feature"},{"geometry":{"coordinates":[[[-122.23977,37.83006],[-122.24091,37.83007],[-122.24116,37.83042],[-122.24109,37.83044],[-122.24093,37.83046],[-122.24078,37.83047],[-122.23975,37.83048],[-122.23967,37.83048],[-122.23946,37.83049],[-122.23977,37.83006]]],"type":"Polygon"},"properties":{"bbox":{"roads":{"area":595.6,"pct":10.68},"sidewalks":{"area":212.26,"pct":3.81}},"city_same":1,"id":"hex:3779:24175"},"type":"Feature"},{"geometry":{"coordinates":[[[-122.23933,37.81835],[-122.23819,37.81835],[-122.23763,37.81756],[-122.23771,37.81745],[-122.23793,37.8175],[-122.23897,37.81776],[-122.23931,37.81784],[-122.23957,37.81789],[-122.23966,37.81791],[-122.23933,37.81835]]],"type":"Polygon"},"properties":{"bbox":{"roads":{"area":1278.17,"pct":12.27},"sidewalks":{"area":321.8,"pct":3.09}},"city_same":1,"id":"hex:3780:24167"},"type":"Feature"},{"geometry":{"coordinates":[[[-122.23761,37.81912],[-122.23817,37.81991],[-122.23931,37.81991],[-122.23989,37.81914],[-122.23933,37.81835],[-122.23819,37.81835],[-122.23761,37.81912]]],"type":"Polygon"},"properties":{"bbox":{"roads":{"area":3485.51,"pct":13.42},"sidewalks":{"area":661.76,"pct":2.55}},"city_same":1,"id":"hex:3780:24168"},"type":"Feature"},{"geometry":{"coordinates":[[[-122.2376,37.82068],[-122.23816,37.82147],[-122.23929,37.82148],[-122.23987,37.8207],[-122.23931,37.81991],[-122.23817,37.81991],[-122.2376,37.82068]]],"type":"Polygon"},"properties":{"bbox":{"roads":{"area":2762.6,"pct":10.63}},"city_same":1,"id":"hex:3780:24169"},"type":"Feature"},{"geometry":{"coordinates":[[[-122.23758,37.82224],[-122.23814,37.82303],[-122.23928,37.82304],[-122.23985,37.82226],[-122.23929,37.82148],[-122.23816,37.82147],[-122.23758,37.82224]]],"type":"Polygon"},"properties":{"bbox":{"roads":{"area":3531.83,"pct":13.59},"sidewalks":{"area":34.19,"pct":0.13}},"city_same":1,"id":"hex:3780:24170"},"type":"Feature"},{"geometry":{"coordinates":[[[-122.23757,37.82381],[-122.23813,37.82459],[-122.23926,37.8246],[-122.23984,37.82382],[-122.23928,37.82304],[-122.23814,37.82303],[-122.23757,37.82381]]],"type":"Polygon"},"properties":{"bbox":{"roads":{"area":3627.83,"pct":13.96},"sidewalks":{"area":555.53,"pct":2.14}},"city_same":1,"id":"hex:3780:24171"},"type":"Feature"},{"geometry":{"coordinates":[[[-122.23755,37.82537],[-122.23811,37.82615],[-122.23925,37.82616],[-122.23982,37.82538],[-122.23926,37.8246],[-122.23813,37.82459],[-122.23755,37.82537]]],"type":"Polygon"},"properties":{"bbox":{"roads":{"area":3097.24,"pct":11.92},"sidewalks":{"area":1176.55,"pct":4.53}},"city_same":1,"id":"hex:3780:24172"},"type":"Feature"},{"geometry":{"coordinates":[[[-122.23753,37.82693],[-122.23809,37.82771],[-122.23923,37.82772],[-122.23981,37.82694],[-122.23925,37.82616],[-122.23811,37.82615],[-122.23753,37.82693]]],"type":"Polygon"},"properties":{"bbox":{"roads":{"area":1779.21,"pct":6.85},"sidewalks":{"area":528.74,"pct":2.04}},"city_same":1,"id":"hex:3780:24173"},"type":"Feature"},{"geometry":{"coordinates":[[[-122.23752,37.82849],[-122.23808,37.82927],[-122.23921,37.82928],[-122.23979,37.8285],[-122.23923,37.82772],[-122.23809,37.82771],[-122.23752,37.82849]]],"type":"Polygon"},"properties":{"bbox":{"roads":{"area":2872.83,"pct":11.06},"sidewalks":{"area":711.03,"pct":2.74}},"city_same":1,"id":"hex:3780:24174"},"type":"Feature"},{"geometry":{"coordinates":[[[-122.2375,37.83005],[-122.23808,37.82927],[-122.23921,37.82928],[-122.23977,37.83006],[-122.23946,37.83049],[-122.23906,37.8305],[-122.23885,37.83054],[-122.2386,37.83057],[-122.23846,37.83058],[-122.23823,37.8306],[-122.23791,37.83062],[-122.2375,37.83005]]],"type":"Polygon"},"properties":{"bbox":{"roads":{"area":2835.98,"pct":12.73},"sidewalks":{"area":892.44,"pct":4.01}},"city":{"roads":{"area":2835.95,"pct":12.73},"sidewalks":{"area":892.44,"pct":4.01}},"id":"hex:3780:24175"},"type":"Feature"},{"geometry":{"coordinates":[[[-122.23763,37.81756],[-122.23649,37.81755],[-122.23631,37.8173],[-122.23644,37.81732],[-122.23667,37.81734],[-122.23736,37.8174],[-122.23759,37.81742],[-122.23771,37.81745],[-122.23763,37.81756]]],"type":"Polygon"},"properties":{"bbox":{"roads":{"area":408.38,"pct":17.74}},"city_same":1,"id":"hex:3781:24166"},"type":"Feature"},{"geometry":{"coordinates":[[[-122.23592,37.81833],[-122.23648,37.81912],[-122.23761,37.81912],[-122.23819,37.81835],[-122.23763,37.81756],[-122.23649,37.81755],[-122.23592,37.81833]]],"type":"Polygon"},"properties":{"bbox":{"roads":{"area":4905.8,"pct":18.88},"sidewalks":{"area":536.01,"pct":2.06}},"city_same":1,"id":"hex:3781:24167"},"type":"Feature"},{"geometry":{"coordinates":[[[-122.2359,37.81989],[-122.23646,37.82068],[-122.2376,37.82068],[-122.23817,37.81991],[-122.23761,37.81912],[-122.23648,37.81912],[-122.2359,37.81989]]],"type":"Polygon"},"properties":{"bbox":{"roads":{"area":2422.73,"pct":9.33},"sidewalks":{"area":440.96,"pct":1.7}},"city_same":1,"id":"hex:3781:24168"},"type":"Feature"},{"geometry":{"coordinates":[[[-122.23589,37.82145],[-122.23645,37.82224],[-122.23758,37.82224],[-122.23816,37.82147],[-122.2376,37.82068],[-122.23646,37.82068],[-122.23589,37.82145]]],"type":"Polygon"},"properties":{"bbox":{"roads":{"area":2856.22,"pct":10.99}},"city_same":1,"id":"hex:3781:24169"},"type":"Feature"},{"geometry":{"coordinates":[[[-122.23587,37.82301],[-122.23643,37.8238],[-122.23757,37.82381],[-122.23814,37.82303],[-122.23758,37.82224],[-122.23645,37.82224],[-122.23587,37.82301]]],"type":"Polygon"},"properties":{"bbox":{"roads":{"area":4403.36,"pct":16.95}},"city_same":1,"id":"hex:3781:24170"},"type":"Feature"},{"geometry":{"coordinates":[[[-122.23585,37.82458],[-122.23641,37.82536],[-122.23755,37.82537],[-122.23813,37.82459],[-122.23757,37.82381],[-122.23643,37.8238],[-122.23585,37.82458]]],"type":"Polygon"},"properties":{"bbox":{"roads":{"area":3115.08,"pct":11.99},"sidewalks":{"area":170.84,"pct":0.66}},"city_same":1,"id":"hex:3781:24171"},"type":"Feature"},{"geometry":{"coordinates":[[[-122.23584,37.82614],[-122.2364,37.82692],[-122.23753,37.82693],[-122.23811,37.82615],[-122.23755,37.82537],[-122.23641,37.82536],[-122.23584,37.82614]]],"type":"Polygon"},"properties":{"bbox":{"roads":{"area":2852.39,"pct":10.98},"sidewalks":{"area":281.56,"pct":1.08}},"city_same":1,"id":"hex:3781:24172"},"type":"Feature"},{"geometry":{"coordinates":[[[-122.23582,37.8277],[-122.23638,37.82848],[-122.23752,37.82849],[-122.23809,37.82771],[-122.23753,37.82693],[-122.2364,37.82692],[-122.23582,37.8277]]],"type":"Polygon"},"properties":{"bbox":{"roads":{"area":1605.26,"pct":6.18},"sidewalks":{"area":6.14,"pct":0.02}},"city_same":1,"id":"hex:3781:24173"},"type":"Feature"},{"geometry":{"coordinates":[[[-122.23581,37.82926],[-122.23637,37.83004],[-122.2375,37.83005],[-122.23808,37.82927],[-122.23752,37.82849],[-122.23638,37.82848],[-122.23581,37.82926]]],"type":"Polygon"},"properties":{"bbox":{"roads":{"area":2861.17,"pct":11.01},"sidewalks":{"area":1135.96,"pct":4.37}},"city_same":1,"id":"hex:3781:24174"},"type":"Feature"},{"geometry":{"coordinates":[[[-122.23579,37.83082],[-122.23637,37.83004],[-122.2375,37.83005],[-122.23791,37.83062],[-122.23789,37.83062],[-122.23772,37.83066],[-122.23755,37.8307],[-122.23733,37.83081],[-122.2373,37.83082],[-122.23725,37.83084],[-122.23715,37.83084],[-122.23705,37.83082],[-122.23697,37.83079],[-122.23692,37.83076],[-122.23666,37.83085],[-122.23606,37.83104],[-122.23596,37.83105],[-122.23579,37.83082]]],"type":"Polygon"},"properties":{"bbox":{"roads":{"area":2346.85,"pct":17.96},"sidewalks":{"area":716.58,"pct":5.48}},"city":{"roads":{"area":2087.01,"pct":15.97},"sidewalks":{"area":716.58,"pct":5.48}},"id":"hex:3781:24175"},"type":"Feature"},{"geometry":{"coordinates":[[[-122.23649,37.81755],[-122.23592,37.81833],[-122.23478,37.81832],[-122.23422,37.81754],[-122.23467,37.81694],[-122.23476,37.81696],[-122.23514,37.81706],[-122.23526,37.8171],[-122.2355,37.81714],[-122.23621,37.81728],[-122.23631,37.8173],[-122.23649,37.81755]]],"type":"Polygon"},"properties":{"bbox":{"roads":{"area":2027.18,"pct":9.56},"sidewalks":{"area":44.98,"pct":0.21}},"city_same":1,"id":"hex:3782:24167"},"type":"Feature"},{"geometry":{"coordinates":[[[-122.23421,37.8191],[-122.23477,37.81989],[-122.2359,37.81989],[-122.23648,37.81912],[-122.23592,37.81833],[-122.23478,37.81832],[-122.23421,37.8191]]],"type":"Polygon"},"properties":{"bbox":{"roads":{"area":3983.1,"pct":15.33},"sidewalks":{"area":757.72,"pct":2.92}},"city_same":1,"id":"hex:3782:24168"},"type":"Feature"},{"geometry":{"coordinates":[[[-122.23419,37.82066],[-122.23475,37.82145],[-122.23589,37.82145],[-122.23646,37.82068],[-122.2359,37.81989],[-122.23477,37.81989],[-122.23419,37.82066]]],"type":"Polygon"},"properties":{"bbox":{"roads":{"area":237.15,"pct":0.91},"sidewalks":{"area":5.65,"pct":0.02}},"city_same":1,"id":"hex:3782:24169"},"type":"Feature"},{"geometry":{"coordinates":[[[-122.23417,37.82222],[-122.23473,37.82301],[-122.23587,37.82301],[-122.23645,37.82224],[-122.23589,37.82145],[-122.23475,37.82145],[-122.23417,37.82222]]],"type":"Polygon"},"properties":{"bbox":{"parking":{"area":536.84,"pct":2.07},"roads":{"area":2133.51,"pct":8.21}},"city_same":1,"id":"hex:3782:24170"},"type":"Feature"},{"geometry":{"coordinates":[[[-122.23416,37.82378],[-122.23472,37.82457],[-122.23585,37.82458],[-122.23643,37.8238],[-122.23587,37.82301],[-122.23473,37.82301],[-122.23416,37.82378]]],"type":"Polygon"},"properties":{"bbox":{"roads":{"area":3655.02,"pct":14.07}},"city_same":1,"id":"hex:3782:24171"},"type":"Feature"},{"geometry":{"coordinates":[[[-122.23414,37.82534],[-122.2347,37.82613],[-122.23584,37.82614],[-122.23641,37.82536],[-122.23585,37.82458],[-122.23472,37.82457],[-122.23414,37.82534]]],"type":"Polygon"},"properties":{"bbox":{"roads":{"area":2669.64,"pct":10.28}},"city_same":1,"id":"hex:3782:24172"},"type":"Feature"},{"geometry":{"coordinates":[[[-122.23413,37.82691],[-122.23469,37.82769],[-122.23582,37.8277],[-122.2364,37.82692],[-122.23584,37.82614],[-122.2347,37.82613],[-122.23413,37.82691]]],"type":"Polygon"},"properties":{"bbox":{"roads":{"area":2621.49,"pct":10.09}},"city_same":1,"id":"hex:3782:24173"},"type":"Feature"},{"geometry":{"coordinates":[[[-122.23411,37.82847],[-122.23467,37.82925],[-122.23581,37.82926],[-122.23638,37.82848],[-122.23582,37.8277],[-122.23469,37.82769],[-122.23411,37.82847]]],"type":"Polygon"},"properties":{"bbox":{"roads":{"area":3479.96,"pct":13.39},"sidewalks":{"area":678.15,"pct":2.61}},"city_same":1,"id":"hex:3782:24174"},"type":"Feature"},{"geometry":{"coordinates":[[[-122.23409,37.83003],[-122.23465,37.83081],[-122.23579,37.83082],[-122.23637,37.83004],[-122.23581,37.82926],[-122.23467,37.82925],[-122.23409,37.83003]]],"type":"Polygon"},"properties":{"bbox":{"roads":{"area":3026.6,"pct":11.65},"sidewalks":{"area":992.49,"pct":3.82}},"city":{"roads":{"area":2573.42,"pct":9.91},"sidewalks":{"area":992.49,"pct":3.82}},"id":"hex:3782:24175"},"type":"Feature"},{"geometry":{"coordinates":[[[-122.23465,37.83081],[-122.23579,37.83082],[-122.23596,37.83105],[-122.23585,37.83107],[-122.23558,37.83112],[-122.23533,37.83116],[-122.23458,37.8313],[-122.23433,37.83135],[-122.23424,37.83136],[-122.23465,37.83081]]],"type":"Polygon"},"properties":{"bbox":{"roads":{"area":170.53,"pct":3.24}},"city_same":1,"id":"hex:3782:24176"},"type":"Feature"},{"geometry":{"coordinates":[[[-122.23422,37.81754],[-122.23309,37.81753],[-122.23253,37.81675],[-122.23279,37.81639],[-122.23307,37.81648],[-122.23328,37.81655],[-122.23355,37.81662],[-122.23412,37.81678],[-122.23436,37.81685],[-122.23463,37.81693],[-122.23467,37.81694],[-122.23422,37.81754]]],"type":"Polygon"},"properties":{"bbox":{"roads":{"area":2106.93,"pct":14.08}},"city_same":1,"id":"hex:3783:24166"},"type":"Feature"},{"geometry":{"coordinates":[[[-122.23251,37.81831],[-122.23307,37.81909],[-122.23421,37.8191],[-122.23478,37.81832],[-122.23422,37.81754],[-122.23309,37.81753],[-122.23251,37.81831]]],"type":"Polygon"},"properties":{"bbox":{"roads":{"area":2801.25,"pct":10.78},"sidewalks":{"area":4.46,"pct":0.02}},"city_same":1,"id":"hex:3783:24167"},"type":"Feature"},{"geometry":{"coordinates":[[[-122.23249,37.81987],[-122.23305,37.82065],[-122.23419,37.82066],[-122.23477,37.81989],[-122.23421,37.8191],[-122.23307,37.81909],[-122.23249,37.81987]]],"type":"Polygon"},"properties":{"bbox":{"roads":{"area":3289.08,"pct":12.66},"sidewalks":{"area":4.66,"pct":0.02}},"city_same":1,"id":"hex:3783:24168"},"type":"Feature"},{"geometry":{"coordinates":[[[-122.23248,37.82143],[-122.23304,37.82222],[-122.23417,37.82222],[-122.23475,37.82145],[-122.23419,37.82066],[-122.23305,37.82065],[-122.23248,37.82143]]],"type":"Polygon"},"properties":{"bbox":{"parking":{"area":489.45,"pct":1.88},"roads":{"area":788.01,"pct":3.03}},"city_same":1,"id":"hex:3783:24169"},"type":"Feature"},{"geometry":{"coordinates":[[[-122.23246,37.82299],[-122.23302,37.82378],[-122.23416,37.82378],[-122.23473,37.82301],[-122.23417,37.82222],[-122.23304,37.82222],[-122.23246,37.82299]]],"type":"Polygon"},"properties":{"bbox":{"parking":{"area":1367.35,"pct":5.26},"roads":{"area":2268.13,"pct":8.73},"sidewalks":{"area":17.23,"pct":0.07}},"city_same":1,"id":"hex:3783:24170"},"type":"Feature"},{"geometry":{"coordinates":[[[-122.23245,37.82455],[-122.23301,37.82534],[-122.23414,37.82534],[-122.23472,37.82457],[-122.23416,37.82378],[-122.23302,37.82378],[-122.23245,37.82455]]],"type":"Polygon"},"properties":{"bbox":{"parking":{"area":304.13,"pct":1.17},"roads":{"area":2998.8,"pct":11.54}},"city_same":1,"id":"hex:3783:24171"},"type":"Feature"},{"geometry":{"coordinates":[[[-122.23243,37.82611],[-122.23299,37.8269],[-122.23413,37.82691],[-122.2347,37.82613],[-122.23414,37.82534],[-122.23301,37.82534],[-122.23243,37.82611]]],"type":"Polygon"},"properties":{"bbox":{"roads":{"area":4043.15,"pct":15.56}},"city_same":1,"id":"hex:3783:24172"},"type":"Feature"},{"geometry":{"coordinates":[[[-122.23241,37.82768],[-122.23297,37.82846],[-122.23411,37.82847],[-122.23469,37.82769],[-122.23413,37.82691],[-122.23299,37.8269],[-122.23241,37.82768]]],"type":"Polygon"},"properties":{"bbox":{"roads":{"area":4789.6,"pct":18.44},"sidewalks":{"area":256.87,"pct":0.99}},"city_same":1,"id":"hex:3783:24173"},"type":"Feature"},{"geometry":{"coordinates":[[[-122.2324,37.82924],[-122.23296,37.83002],[-122.23409,37.83003],[-122.23467,37.82925],[-122.23411,37.82847],[-122.23297,37.82846],[-122.2324,37.82924]]],"type":"Polygon"},"properties":{"bbox":{"roads":{"area":3133.85,"pct":12.06},"sidewalks":{"area":156.46,"pct":0.6}},"city_same":1,"id":"hex:3783:24174"},"type":"Feature"},{"geometry":{"coordinates":[[[-122.23294,37.83158],[-122.23238,37.8308],[-122.23296,37.83002],[-122.23409,37.83003],[-122.23465,37.83081],[-122.23424,37.83136],[-122.23342,37.83152],[-122.23336,37.8315],[-122.23332,37.83153],[-122.23305,37.83158],[-122.23305,37.83158],[-122.23294,37.83158]]],"type":"Polygon"},"properties":{"bbox":{"roads":{"area":2062.04,"pct":8.3},"sidewalks":{"area":513.4,"pct":2.07}},"city":{"roads":{"area":1652.98,"pct":6.65},"sidewalks":{"area":513.4,"pct":2.07}},"id":"hex:3783:24175"},"type":"Feature"},{"geometry":{"coordinates":[[[-122.23253,37.81675],[-122.23139,37.81674],[-122.23083,37.81596],[-122.23086,37.81592],[-122.2315,37.81605],[-122.23223,37.8162],[-122.23244,37.81627],[-122.23279,37.81639],[-122.23253,37.81675]]],"type":"Polygon"},"properties":{"bbox":{"roads":{"area":1072.28,"pct":11.64}},"city_same":1,"id":"hex:3784:24166"},"type":"Feature"},{"geometry":{"coordinates":[[[-122.23081,37.81752],[-122.23137,37.8183],[-122.23251,37.81831],[-122.23309,37.81753],[-122.23253,37.81675],[-122.23139,37.81674],[-122.23081,37.81752]]],"type":"Polygon"},"properties":{"bbox":{"roads":{"area":3190.19,"pct":12.28}},"city_same":1,"id":"hex:3784:24167"},"type":"Feature"},{"geometry":{"coordinates":[[[-122.2308,37.81908],[-122.23136,37.81986],[-122.23249,37.81987],[-122.23307,37.81909],[-122.23251,37.81831],[-122.23137,37.8183],[-122.2308,37.81908]]],"type":"Polygon"},"properties":{"bbox":{"roads":{"area":1954.61,"pct":7.52}},"city_same":1,"id":"hex:3784:24168"},"type":"Feature"},{"geometry":{"coordinates":[[[-122.23078,37.82064],[-122.23134,37.82142],[-122.23248,37.82143],[-122.23305,37.82065],[-122.23249,37.81987],[-122.23136,37.81986],[-122.23078,37.82064]]],"type":"Polygon"},"properties":{"bbox":{"roads":{"area":1920.21,"pct":7.39}},"city_same":1,"id":"hex:3784:24169"},"type":"Feature"},{"geometry":{"coordinates":[[[-122.23077,37.8222],[-122.23133,37.82298],[-122.23246,37.82299],[-122.23304,37.82222],[-122.23248,37.82143],[-122.23134,37.82142],[-122.23077,37.8222]]],"type":"Polygon"},"properties":{"bbox":{"roads":{"area":1842.21,"pct":7.09}},"city_same":1,"id":"hex:3784:24170"},"type":"Feature"},{"geometry":{"coordinates":[[[-122.23075,37.82376],[-122.23131,37.82455],[-122.23245,37.82455],[-122.23302,37.82378],[-122.23246,37.82299],[-122.23133,37.82298],[-122.23075,37.82376]]],"type":"Polygon"},"properties":{"bbox":{"parking":{"area":360.46,"pct":1.39},"roads":{"area":1926.77,"pct":7.42}},"city_same":1,"id":"hex:3784:24171"},"type":"Feature"},{"geometry":{"coordinates":[[[-122.23073,37.82532],[-122.23129,37.82611],[-122.23243,37.82611],[-122.23301,37.82534],[-122.23245,37.82455],[-122.23131,37.82455],[-122.23073,37.82532]]],"type":"Polygon"},"properties":{"bbox":{"parking":{"area":494.35,"pct":1.9},"roads":{"area":4127.59,"pct":15.89}},"city_same":1,"id":"hex:3784:24172"},"type":"Feature"},{"geometry":{"coordinates":[[[-122.23072,37.82688],[-122.23128,37.82767],[-122.23241,37.82768],[-122.23299,37.8269],[-122.23243,37.82611],[-122.23129,37.82611],[-122.23072,37.82688]]],"type":"Polygon"},"properties":{"bbox":{"roads":{"area":2190.56,"pct":8.43}},"city_same":1,"id":"hex:3784:24173"},"type":"Feature"},{"geometry":{"coordinates":[[[-122.2307,37.82844],[-122.23126,37.82923],[-122.2324,37.82924],[-122.23297,37.82846],[-122.23241,37.82768],[-122.23128,37.82767],[-122.2307,37.82844]]],"type":"Polygon"},"properties":{"bbox":{"roads":{"area":2358.73,"pct":9.08}},"city_same":1,"id":"hex:3784:24174"},"type":"Feature"},{"geometry":{"coordinates":[[[-122.23068,37.83001],[-122.23124,37.83079],[-122.23238,37.8308],[-122.23296,37.83002],[-122.2324,37.82924],[-122.23126,37.82923],[-122.23068,37.83001]]],"type":"Polygon"},"properties":{"bbox":{"roads":{"area":2816.55,"pct":10.84}},"city_same":1,"id":"hex:3784:24175"},"type":"Feature"},{"geometry":{"coordinates":[[[-122.23067,37.83157],[-122.23124,37.83079],[-122.23238,37.8308],[-122.23294,37.83158],[-122.23292,37.83161],[-122.23228,37.83173],[-122.23105,37.83211],[-122.23067,37.83157]]],"type":"Polygon"},"properties":{"bbox":{"roads":{"area":2143.11,"pct":11.49},"sidewalks":{"area":311.69,"pct":1.67}},"city":{"roads":{"area":1638.78,"pct":8.79},"sidewalks":{"area":311.69,"pct":1.67}},"id":"hex:3784:24176"},"type":"Feature"},{"geometry":{"coordinates":[[[-122.22912,37.81673],[-122.22968,37.81751],[-122.23081,37.81752],[-122.23139,37.81674],[-122.23083,37.81596],[-122.22969,37.81595],[-122.22912,37.81673]]],"type":"Polygon"},"properties":{"bbox":{"parking":{"area":143.64,"pct":0.55},"roads":{"area":632.79,"pct":2.44}},"city_same":1,"id":"hex:3785:24166"},"type":"Feature"},{"geometry":{"coordinates":[[[-122.2291,37.81829],[-122.22966,37.81907],[-122.2308,37.81908],[-122.23137,37.8183],[-122.23081,37.81752],[-122.22968,37.81751],[-122.2291,37.81829]]],"type":"Polygon"},"properties":{"bbox":{"roads":{"area":2048.23,"pct":7.88}},"city_same":1,"id":"hex:3785:24167"},"type":"Feature"},{"geometry":{"coordinates":[[[-122.22909,37.81985],[-122.22965,37.82063],[-122.23078,37.82064],[-122.23136,37.81986],[-122.2308,37.81908],[-122.22966,37.81907],[-122.22909,37.81985]]],"type":"Polygon"},"properties":{"bbox":{"roads":{"area":3115.33,"pct":11.99}},"city_same":1,"id":"hex:3785:24168"},"type":"Feature"},{"geometry":{"coordinates":[[[-122.22907,37.82141],[-122.22963,37.82219],[-122.23077,37.8222],[-122.23134,37.82142],[-122.23078,37.82064],[-122.22965,37.82063],[-122.22907,37.82141]]],"type":"Polygon"},"properties":{"bbox":{"roads":{"area":4147.89,"pct":15.97}},"city_same":1,"id":"hex:3785:24169"},"type":"Feature"},{"geometry":{"coordinates":[[[-122.22905,37.82297],[-122.22961,37.82375],[-122.23075,37.82376],[-122.23133,37.82298],[-122.23077,37.8222],[-122.22963,37.82219],[-122.22905,37.82297]]],"type":"Polygon"},"properties":{"bbox":{"parking":{"area":337.77,"pct":1.3},"roads":{"area":3527.93,"pct":13.58}},"city_same":1,"id":"hex:3785:24170"},"type":"Feature"},{"geometry":{"coordinates":[[[-122.22904,37.82453],[-122.2296,37.82532],[-122.23073,37.82532],[-122.23131,37.82455],[-122.23075,37.82376],[-122.22961,37.82375],[-122.22904,37.82453]]],"type":"Polygon"},"properties":{"bbox":{"parking":{"area":1138.58,"pct":4.38},"roads":{"area":3791.01,"pct":14.59}},"city_same":1,"id":"hex:3785:24171"},"type":"Feature"},{"geometry":{"coordinates":[[[-122.22902,37.82609],[-122.22958,37.82688],[-122.23072,37.82688],[-122.23129,37.82611],[-122.23073,37.82532],[-122.2296,37.82532],[-122.22902,37.82609]]],"type":"Polygon"},"properties":{"bbox":{"roads":{"area":2602.34,"pct":10.02}},"city_same":1,"id":"hex:3785:24172"},"type":"Feature"},{"geometry":{"coordinates":[[[-122.229,37.82765],[-122.22956,37.82844],[-122.2307,37.82844],[-122.23128,37.82767],[-122.23072,37.82688],[-122.22958,37.82688],[-122.229,37.82765]]],"type":"Polygon"},"properties":{"bbox":{"roads":{"area":2016.51,"pct":7.76}},"city_same":1,"id":"hex:3785:24173"},"type":"Feature"},{"geometry":{"coordinates":[[[-122.22899,37.82921],[-122.22955,37.83],[-122.23068,37.83001],[-122.23126,37.82923],[-122.2307,37.82844],[-122.22956,37.82844],[-122.22899,37.82921]]],"type":"Polygon"},"properties":{"bbox":{"roads":{"area":2817.39,"pct":10.84}},"city_same":1,"id":"hex:3785:24174"},"type":"Feature"},{"geometry":{"coordinates":[[[-122.22897,37.83077],[-122.22953,37.83156],[-122.23067,37.83157],[-122.23124,37.83079],[-122.23068,37.83001],[-122.22955,37.83],[-122.22897,37.83077]]],"type":"Polygon"},"properties":{"bbox":{"parking":{"area":175.44,"pct":0.68},"roads":{"area":2558.34,"pct":9.85},"sidewalks":{"area":234.67,"pct":0.9}},"city":{"parking":{"area":175.44,"pct":0.68},"roads":{"area":2125.62,"pct":8.18},"sidewalks":{"area":234.67,"pct":0.9}},"id":"hex:3785:24175"},"type":"Feature"},{"geometry":{"coordinates":[[[-122.22896,37.83234],[-122.22953,37.83156],[-122.23067,37.83157],[-122.23105,37.83211],[-122.23057,37.83226],[-122.23022,37.83236],[-122.22932,37.83264],[-122.2292,37.83268],[-122.22896,37.83234]]],"type":"Polygon"},"properties":{"bbox":{"roads":{"area":524.66,"pct":3.73}},"city_same":1,"id":"hex:3785:24176"},"type":"Feature"},{"geometry":{"coordinates":[[[-122.22969,37.81595],[-122.22912,37.81673],[-122.22798,37.81672],[-122.22742,37.81593],[-122.22789,37.8153],[-122.22793,37.81531],[-122.22861,37.81547],[-122.22895,37.81553],[-122.22933,37.81561],[-122.22947,37.81564],[-122.22969,37.81595]]],"type":"Polygon"},"properties":{"bbox":{"roads":{"area":1886.06,"pct":8.58}},"city_same":1,"id":"hex:3786:24166"},"type":"Feature"},{"geometry":{"coordinates":[[[-122.22741,37.8175],[-122.22797,37.81828],[-122.2291,37.81829],[-122.22968,37.81751],[-122.22912,37.81673],[-122.22798,37.81672],[-122.22741,37.8175]]],"type":"Polygon"},"properties":{"bbox":{"roads":{"area":2479.43,"pct":9.54}},"city_same":1,"id":"hex:3786:24167"},"type":"Feature"},{"geometry":{"coordinates":[[[-122.22739,37.81906],[-122.22795,37.81984],[-122.22909,37.81985],[-122.22966,37.81907],[-122.2291,37.81829],[-122.22797,37.81828],[-122.22739,37.81906]]],"type":"Polygon"},"properties":{"bbox":{"roads":{"area":2674.07,"pct":10.29}},"city_same":1,"id":"hex:3786:24168"},"type":"Feature"},{"geometry":{"coordinates":[[[-122.22737,37.82062],[-122.22793,37.8214],[-122.22907,37.82141],[-122.22965,37.82063],[-122.22909,37.81985],[-122.22795,37.81984],[-122.22737,37.82062]]],"type":"Polygon"},"properties":{"bbox":{"roads":{"area":1866.31,"pct":7.18}},"city_same":1,"id":"hex:3786:24169"},"type":"Feature"},{"geometry":{"coordinates":[[[-122.22736,37.82218],[-122.22792,37.82296],[-122.22905,37.82297],[-122.22963,37.82219],[-122.22907,37.82141],[-122.22793,37.8214],[-122.22736,37.82218]]],"type":"Polygon"},"properties":{"bbox":{"roads":{"area":3482.4,"pct":13.4}},"city_same":1,"id":"hex:3786:24170"},"type":"Feature"},{"geometry":{"coordinates":[[[-122.22734,37.82374],[-122.2279,37.82452],[-122.22904,37.82453],[-122.22961,37.82375],[-122.22905,37.82297],[-122.22792,37.82296],[-122.22734,37.82374]]],"type":"Polygon"},"properties":{"bbox":{"roads":{"area":2266.34,"pct":8.72}},"city_same":1,"id":"hex:3786:24171"},"type":"Feature"},{"geometry":{"coordinates":[[[-122.22732,37.8253],[-122.22788,37.82608],[-122.22902,37.82609],[-122.2296,37.82532],[-122.22904,37.82453],[-122.2279,37.82452],[-122.22732,37.8253]]],"type":"Polygon"},"properties":{"bbox":{"roads":{"area":2364.94,"pct":9.1}},"city_same":1,"id":"hex:3786:24172"},"type":"Feature"},{"geometry":{"coordinates":[[[-122.22731,37.82686],[-122.22787,37.82765],[-122.229,37.82765],[-122.22958,37.82688],[-122.22902,37.82609],[-122.22788,37.82608],[-122.22731,37.82686]]],"type":"Polygon"},"properties":{"bbox":{"roads":{"area":2708.11,"pct":10.42}},"city_same":1,"id":"hex:3786:24173"},"type":"Feature"},{"geometry":{"coordinates":[[[-122.22729,37.82842],[-122.22785,37.82921],[-122.22899,37.82921],[-122.22956,37.82844],[-122.229,37.82765],[-122.22787,37.82765],[-122.22729,37.82842]]],"type":"Polygon"},"properties":{"bbox":{"roads":{"area":2724.76,"pct":10.49}},"city_same":1,"id":"hex:3786:24174"},"type":"Feature"},{"geometry":{"coordinates":[[[-122.22728,37.82998],[-122.22784,37.83077],[-122.22897,37.83077],[-122.22955,37.83],[-122.22899,37.82921],[-122.22785,37.82921],[-122.22728,37.82998]]],"type":"Polygon"},"properties":{"bbox":{"parking":{"area":2.13,"pct":0.01},"roads":{"area":1913.23,"pct":7.36},"sidewalks":{"area":26.1,"pct":0.1}},"city":{"parking":{"area":2.13,"pct":0.01},"roads":{"area":1496.46,"pct":5.76},"sidewalks":{"area":26.1,"pct":0.1}},"id":"hex:3786:24175"},"type":"Feature"},{"geometry":{"coordinates":[[[-122.22726,37.83154],[-122.22782,37.83233],[-122.22896,37.83234],[-122.22953,37.83156],[-122.22897,37.83077],[-122.22784,37.83077],[-122.22726,37.83154]]],"type":"Polygon"},"properties":{"bbox":{"parking":{"area":961.04,"pct":3.7},"roads":{"area":1926.36,"pct":7.41},"sidewalks":{"area":39.6,"pct":0.15}},"city_same":1,"id":"hex:3786:24176"},"type":"Feature"},{"geometry":{"coordinates":[[[-122.22742,37.81593],[-122.22629,37.81593],[-122.22573,37.81514],[-122.22594,37.81486],[-122.22789,37.8153],[-122.22742,37.81593]]],"type":"Polygon"},"properties":{"bbox":{"roads":{"area":1395.45,"pct":9.61}},"city_same":1,"id":"hex:3787:24165"},"type":"Feature"},{"geometry":{"coordinates":[[[-122.22571,37.8167],[-122.22627,37.81749],[-122.22741,37.8175],[-122.22798,37.81672],[-122.22742,37.81593],[-122.22629,37.81593],[-122.22571,37.8167]]],"type":"Polygon"},"properties":{"bbox":{"roads":{"area":2481.92,"pct":9.55}},"city_same":1,"id":"hex:3787:24166"},"type":"Feature"},{"geometry":{"coordinates":[[[-122.22569,37.81826],[-122.22625,37.81905],[-122.22739,37.81906],[-122.22797,37.81828],[-122.22741,37.8175],[-122.22627,37.81749],[-122.22569,37.81826]]],"type":"Polygon"},"properties":{"bbox":{"roads":{"area":3034.68,"pct":11.68}},"city_same":1,"id":"hex:3787:24167"},"type":"Feature"},{"geometry":{"coordinates":[[[-122.22568,37.81983],[-122.22624,37.82061],[-122.22737,37.82062],[-122.22795,37.81984],[-122.22739,37.81906],[-122.22625,37.81905],[-122.22568,37.81983]]],"type":"Polygon"},"properties":{"bbox":{"roads":{"area":2394.02,"pct":9.21}},"city_same":1,"id":"hex:3787:24168"},"type":"Feature"},{"geometry":{"coordinates":[[[-122.22566,37.82139],[-122.22622,37.82217],[-122.22736,37.82218],[-122.22793,37.8214],[-122.22737,37.82062],[-122.22624,37.82061],[-122.22566,37.82139]]],"type":"Polygon"},"properties":{"bbox":{"roads":{"area":2884.95,"pct":11.1}},"city_same":1,"id":"hex:3787:24169"},"type":"Feature"},{"geometry":{"coordinates":[[[-122.22564,37.82295],[-122.2262,37.82373],[-122.22734,37.82374],[-122.22792,37.82296],[-122.22736,37.82218],[-122.22622,37.82217],[-122.22564,37.82295]]],"type":"Polygon"},"properties":{"bbox":{"roads":{"area":2769.18,"pct":10.66}},"city_same":1,"id":"hex:3787:24170"},"type":"Feature"},{"geometry":{"coordinates":[[[-122.22563,37.82451],[-122.22619,37.82529],[-122.22732,37.8253],[-122.2279,37.82452],[-122.22734,37.82374],[-122.2262,37.82373],[-122.22563,37.82451]]],"type":"Polygon"},"properties":{"bbox":{"roads":{"area":2627.16,"pct":10.11}},"city_same":1,"id":"hex:3787:24171"},"type":"Feature"},{"geometry":{"coordinates":[[[-122.22561,37.82607],[-122.22617,37.82685],[-122.22731,37.82686],[-122.22788,37.82608],[-122.22732,37.8253],[-122.22619,37.82529],[-122.22561,37.82607]]],"type":"Polygon"},"properties":{"bbox":{"roads":{"area":2711.45,"pct":10.44}},"city_same":1,"id":"hex:3787:24172"},"type":"Feature"},{"geometry":{"coordinates":[[[-122.2256,37.82763],[-122.22616,37.82841],[-122.22729,37.82842],[-122.22787,37.82765],[-122.22731,37.82686],[-122.22617,37.82685],[-122.2256,37.82763]]],"type":"Polygon"},"properties":{"bbox":{"roads":{"area":1801.42,"pct":6.93}},"city_same":1,"id":"hex:3787:24173"},"type":"Feature"},{"geometry":{"coordinates":[[[-122.22558,37.82919],[-122.22614,37.82998],[-122.22728,37.82998],[-122.22785,37.82921],[-122.22729,37.82842],[-122.22616,37.82841],[-122.22558,37.82919]]],"type":"Polygon"},"properties":{"bbox":{"roads":{"area":1777.51,"pct":6.84}},"city":{"roads":{"area":1472.39,"pct":5.67}},"id":"hex:3787:24174"},"type":"Feature"},{"geometry":{"coordinates":[[[-122.22556,37.83075],[-122.22612,37.83154],[-122.22726,37.83154],[-122.22784,37.83077],[-122.22728,37.82998],[-122.22614,37.82998],[-122.22556,37.83075]]],"type":"Polygon"},"properties":{"bbox":{"roads":{"area":3286.78,"pct":12.65}},"city_same":1,"id":"hex:3787:24175"},"type":"Feature"},{"geometry":{"coordinates":[[[-122.22612,37.83154],[-122.22726,37.83154],[-122.22782,37.83233],[-122.22756,37.83268],[-122.22726,37.83247],[-122.22705,37.83234],[-122.22702,37.83225],[-122.22697,37.83216],[-122.22696,37.83215],[-122.22692,37.83211],[-122.22687,37.83208],[-122.22682,37.83205],[-122.22675,37.83203],[-122.22646,37.832],[-122.22641,37.83198],[-122.22639,37.83198],[-122.22628,37.83193],[-122.22623,37.8319],[-122.22614,37.83185],[-122.22596,37.83175],[-122.22612,37.83154]]],"type":"Polygon"},"properties":{"bbox":{"roads":{"area":386.59,"pct":4.02}},"city_same":1,"id":"hex:3787:24176"},"type":"Feature"},{"geometry":{"coordinates":[[[-122.22573,37.81514],[-122.22459,37.81514],[-122.22403,37.81436],[-122.22426,37.81442],[-122.22499,37.81463],[-122.22508,37.81466],[-122.22524,37.8147],[-122.22591,37.81486],[-122.22594,37.81486],[-122.22573,37.81514]]],"type":"Polygon"},"properties":{"bbox":{"roads":{"area":444.18,"pct":6.18}},"city_same":1,"id":"hex:3788:24165"},"type":"Feature"},{"geometry":{"coordinates":[[[-122.22401,37.81591],[-122.22457,37.8167],[-122.22571,37.8167],[-122.22629,37.81593],[-122.22573,37.81514],[-122.22459,37.81514],[-122.22401,37.81591]]],"type":"Polygon"},"properties":{"bbox":{"roads":{"area":2567.01,"pct":9.88}},"city_same":1,"id":"hex:3788:24166"},"type":"Feature"},{"geometry":{"coordinates":[[[-122.224,37.81747],[-122.22456,37.81826],[-122.22569,37.81826],[-122.22627,37.81749],[-122.22571,37.8167],[-122.22457,37.8167],[-122.224,37.81747]]],"type":"Polygon"},"properties":{"bbox":{"roads":{"area":1841.17,"pct":7.09}},"city_same":1,"id":"hex:3788:24167"},"type":"Feature"},{"geometry":{"coordinates":[[[-122.22398,37.81903],[-122.22454,37.81982],[-122.22568,37.81983],[-122.22625,37.81905],[-122.22569,37.81826],[-122.22456,37.81826],[-122.22398,37.81903]]],"type":"Polygon"},"properties":{"bbox":{"roads":{"area":3290.02,"pct":12.66}},"city_same":1,"id":"hex:3788:24168"},"type":"Feature"},{"geometry":{"coordinates":[[[-122.22396,37.82059],[-122.22452,37.82138],[-122.22566,37.82139],[-122.22624,37.82061],[-122.22568,37.81983],[-122.22454,37.81982],[-122.22396,37.82059]]],"type":"Polygon"},"properties":{"bbox":{"roads":{"area":3598.29,"pct":13.85}},"city_same":1,"id":"hex:3788:24169"},"type":"Feature"},{"geometry":{"coordinates":[[[-122.22395,37.82216],[-122.22451,37.82294],[-122.22564,37.82295],[-122.22622,37.82217],[-122.22566,37.82139],[-122.22452,37.82138],[-122.22395,37.82216]]],"type":"Polygon"},"properties":{"bbox":{"roads":{"area":2610.67,"pct":10.05}},"city_same":1,"id":"hex:3788:24170"},"type":"Feature"},{"geometry":{"coordinates":[[[-122.22393,37.82372],[-122.22449,37.8245],[-122.22563,37.82451],[-122.2262,37.82373],[-122.22564,37.82295],[-122.22451,37.82294],[-122.22393,37.82372]]],"type":"Polygon"},"properties":{"bbox":{"roads":{"area":1819.32,"pct":7}},"city_same":1,"id":"hex:3788:24171"},"type":"Feature"},{"geometry":{"coordinates":[[[-122.22392,37.82528],[-122.22448,37.82606],[-122.22561,37.82607],[-122.22619,37.82529],[-122.22563,37.82451],[-122.22449,37.8245],[-122.22392,37.82528]]],"type":"Polygon"},"properties":{"bbox":{"roads":{"area":2776.27,"pct":10.69}},"city_same":1,"id":"hex:3788:24172"},"type":"Feature"},{"geometry":{"coordinates":[[[-122.2239,37.82684],[-122.22446,37.82762],[-122.2256,37.82763],[-122.22617,37.82685],[-122.22561,37.82607],[-122.22448,37.82606],[-122.2239,37.82684]]],"type":"Polygon"},"properties":{"bbox":{"roads":{"area":3514.4,"pct":13.53}},"city_same":1,"id":"hex:3788:24173"},"type":"Feature"},{"geometry":{"coordinates":[[[-122.22388,37.8284],[-122.22444,37.82918],[-122.22558,37.82919],[-122.22616,37.82841],[-122.2256,37.82763],[-122.22446,37.82762],[-122.22388,37.8284]]],"type":"Polygon"},"properties":{"bbox":{"roads":{"area":2830.03,"pct":10.89}},"city_same":1,"id":"hex:3788:24174"},"type":"Feature"},{"geometry":{"coordinates":[[[-122.22444,37.82918],[-122.22558,37.82919],[-122.22614,37.82998],[-122.22556,37.83075],[-122.22476,37.83075],[-122.22459,37.83044],[-122.22449,37.83024],[-122.22448,37.83023],[-122.22408,37.8297],[-122.22407,37.82968],[-122.22444,37.82918]]],"type":"Polygon"},"properties":{"bbox":{"roads":{"area":2470.57,"pct":11.02}},"city":{"roads":{"area":2029.29,"pct":9.05}},"id":"hex:3788:24175"},"type":"Feature"},{"geometry":{"coordinates":[[[-122.22556,37.83075],[-122.22612,37.83154],[-122.22596,37.83175],[-122.22587,37.8317],[-122.22578,37.83166],[-122.22569,37.8316],[-122.22563,37.83157],[-122.22518,37.83133],[-122.22503,37.83125],[-122.22492,37.83105],[-122.22476,37.83075],[-122.22556,37.83075]]],"type":"Polygon"},"properties":{"bbox":{"roads":{"area":867.72,"pct":12.87}},"city_same":1,"id":"hex:3788:24176"},"type":"Feature"},{"geometry":{"coordinates":[[[-122.22289,37.81434],[-122.22268,37.81404],[-122.22291,37.8141],[-122.22373,37.81429],[-122.22401,37.81435],[-122.22401,37.81435],[-122.22289,37.81434]]],"type":"Polygon"},"properties":{"bbox":{"roads":{"area":321.63,"pct":19.69}},"city_same":1,"id":"hex:3789:24164"},"type":"Feature"},{"geometry":{"coordinates":[[[-122.22459,37.81514],[-122.22401,37.81591],[-122.22288,37.8159],[-122.22232,37.81512],[-122.22289,37.81434],[-122.22401,37.81435],[-122.22403,37.81436],[-122.22459,37.81514]]],"type":"Polygon"},"properties":{"bbox":{"roads":{"area":3282.96,"pct":12.64}},"city_same":1,"id":"hex:3789:24165"},"type":"Feature"},{"geometry":{"coordinates":[[[-122.2223,37.81668],[-122.22286,37.81747],[-122.224,37.81747],[-122.22457,37.8167],[-122.22401,37.81591],[-122.22288,37.8159],[-122.2223,37.81668]]],"type":"Polygon"},"properties":{"bbox":{"roads":{"area":3364.67,"pct":12.95}},"city_same":1,"id":"hex:3789:24166"},"type":"Feature"},{"geometry":{"coordinates":[[[-122.22229,37.81824],[-122.22284,37.81903],[-122.22398,37.81903],[-122.22456,37.81826],[-122.224,37.81747],[-122.22286,37.81747],[-122.22229,37.81824]]],"type":"Polygon"},"properties":{"bbox":{"roads":{"area":3573.64,"pct":13.75},"sidewalks":{"area":11.25,"pct":0.04}},"city_same":1,"id":"hex:3789:24167"},"type":"Feature"},{"geometry":{"coordinates":[[[-122.22227,37.8198],[-122.22283,37.82059],[-122.22396,37.82059],[-122.22454,37.81982],[-122.22398,37.81903],[-122.22284,37.81903],[-122.22227,37.8198]]],"type":"Polygon"},"properties":{"bbox":{"roads":{"area":2269.48,"pct":8.74},"sidewalks":{"area":26.8,"pct":0.1}},"city_same":1,"id":"hex:3789:24168"},"type":"Feature"},{"geometry":{"coordinates":[[[-122.22225,37.82136],[-122.22281,37.82215],[-122.22395,37.82216],[-122.22452,37.82138],[-122.22396,37.82059],[-122.22283,37.82059],[-122.22225,37.82136]]],"type":"Polygon"},"properties":{"bbox":{"roads":{"area":2146.19,"pct":8.26}},"city_same":1,"id":"hex:3789:24169"},"type":"Feature"},{"geometry":{"coordinates":[[[-122.22224,37.82293],[-122.2228,37.82371],[-122.22393,37.82372],[-122.22451,37.82294],[-122.22395,37.82216],[-122.22281,37.82215],[-122.22224,37.82293]]],"type":"Polygon"},"properties":{"bbox":{"roads":{"area":2370.82,"pct":9.13}},"city_same":1,"id":"hex:3789:24170"},"type":"Feature"},{"geometry":{"coordinates":[[[-122.22222,37.82449],[-122.22278,37.82527],[-122.22392,37.82528],[-122.22449,37.8245],[-122.22393,37.82372],[-122.2228,37.82371],[-122.22222,37.82449]]],"type":"Polygon"},"properties":{"bbox":{"roads":{"area":2382.49,"pct":9.17}},"city_same":1,"id":"hex:3789:24171"},"type":"Feature"},{"geometry":{"coordinates":[[[-122.2222,37.82605],[-122.22276,37.82683],[-122.2239,37.82684],[-122.22448,37.82606],[-122.22392,37.82528],[-122.22278,37.82527],[-122.2222,37.82605]]],"type":"Polygon"},"properties":{"bbox":{"roads":{"area":1769.26,"pct":6.81}},"city_same":1,"id":"hex:3789:24172"},"type":"Feature"},{"geometry":{"coordinates":[[[-122.22276,37.82683],[-122.2239,37.82684],[-122.22446,37.82762],[-122.22388,37.8284],[-122.22303,37.82839],[-122.2228,37.82813],[-122.22274,37.82806],[-122.22267,37.82797],[-122.22259,37.82788],[-122.22236,37.82761],[-122.22231,37.82754],[-122.22228,37.82748],[-122.22276,37.82683]]],"type":"Polygon"},"properties":{"bbox":{"roads":{"area":2215.8,"pct":9.17},"sidewalks":{"area":232.26,"pct":0.96}},"city_same":1,"id":"hex:3789:24173"},"type":"Feature"},{"geometry":{"coordinates":[[[-122.22388,37.8284],[-122.22444,37.82918],[-122.22407,37.82968],[-122.22372,37.82921],[-122.22303,37.82839],[-122.22388,37.8284]]],"type":"Polygon"},"properties":{"bbox":{"roads":{"area":347.54,"pct":4.39}},"city_same":1,"id":"hex:3789:24174"},"type":"Feature"},{"geometry":{"coordinates":[[[-122.22289,37.81434],[-122.22232,37.81512],[-122.22118,37.81511],[-122.22062,37.81433],[-122.22104,37.81376],[-122.22114,37.8138],[-122.22144,37.81385],[-122.22234,37.81399],[-122.22263,37.81403],[-122.22268,37.81404],[-122.22289,37.81434]]],"type":"Polygon"},"properties":{"bbox":{"roads":{"area":1700.61,"pct":7.99}},"city_same":1,"id":"hex:3790:24165"},"type":"Feature"},{"geometry":{"coordinates":[[[-122.22061,37.81589],[-122.22117,37.81667],[-122.2223,37.81668],[-122.22288,37.8159],[-122.22232,37.81512],[-122.22118,37.81511],[-122.22061,37.81589]]],"type":"Polygon"},"properties":{"bbox":{"roads":{"area":2468.41,"pct":9.5}},"city_same":1,"id":"hex:3790:24166"},"type":"Feature"},{"geometry":{"coordinates":[[[-122.22059,37.81745],[-122.22115,37.81823],[-122.22229,37.81824],[-122.22286,37.81747],[-122.2223,37.81668],[-122.22117,37.81667],[-122.22059,37.81745]]],"type":"Polygon"},"properties":{"bbox":{"roads":{"area":2705.92,"pct":10.42}},"city_same":1,"id":"hex:3790:24167"},"type":"Feature"},{"geometry":{"coordinates":[[[-122.22057,37.81901],[-122.22113,37.8198],[-122.22227,37.8198],[-122.22284,37.81903],[-122.22229,37.81824],[-122.22115,37.81823],[-122.22057,37.81901]]],"type":"Polygon"},"properties":{"bbox":{"roads":{"area":1336.65,"pct":5.14},"sidewalks":{"area":23.31,"pct":0.09}},"city_same":1,"id":"hex:3790:24168"},"type":"Feature"},{"geometry":{"coordinates":[[[-122.22056,37.82057],[-122.22112,37.82136],[-122.22225,37.82136],[-122.22283,37.82059],[-122.22227,37.8198],[-122.22113,37.8198],[-122.22056,37.82057]]],"type":"Polygon"},"properties":{"bbox":{"roads":{"area":75.58,"pct":0.29}},"city_same":1,"id":"hex:3790:24169"},"type":"Feature"},{"geometry":{"coordinates":[[[-122.22054,37.82213],[-122.2211,37.82292],[-122.22224,37.82293],[-122.22281,37.82215],[-122.22225,37.82136],[-122.22112,37.82136],[-122.22054,37.82213]]],"type":"Polygon"},"properties":{"bbox":{"roads":{"area":1114.34,"pct":4.29}},"city_same":1,"id":"hex:3790:24170"},"type":"Feature"},{"geometry":{"coordinates":[[[-122.22052,37.82369],[-122.22108,37.82448],[-122.22222,37.82449],[-122.2228,37.82371],[-122.22224,37.82293],[-122.2211,37.82292],[-122.22052,37.82369]]],"type":"Polygon"},"properties":{"bbox":{"roads":{"area":1512.04,"pct":5.82}},"city_same":1,"id":"hex:3790:24171"},"type":"Feature"},{"geometry":{"coordinates":[[[-122.22108,37.82448],[-122.22222,37.82449],[-122.22278,37.82527],[-122.2222,37.82605],[-122.22147,37.82604],[-122.22135,37.82582],[-122.22078,37.82536],[-122.22056,37.82519],[-122.22108,37.82448]]],"type":"Polygon"},"properties":{"bbox":{"roads":{"area":1062.36,"pct":4.53}},"city_same":1,"id":"hex:3790:24172"},"type":"Feature"},{"geometry":{"coordinates":[[[-122.2222,37.82605],[-122.22276,37.82683],[-122.22228,37.82748],[-122.22226,37.82742],[-122.22215,37.82732],[-122.2221,37.82725],[-122.22195,37.82696],[-122.22163,37.82633],[-122.22159,37.82628],[-122.2215,37.8261],[-122.22147,37.82604],[-122.2222,37.82605]]],"type":"Polygon"},"properties":{"bbox":{"roads":{"area":1070.02,"pct":11.78}},"city_same":1,"id":"hex:3790:24173"},"type":"Feature"},{"geometry":{"coordinates":[[[-122.22062,37.81433],[-122.21949,37.81432],[-122.21893,37.81354],[-122.21911,37.81329],[-122.21967,37.81342],[-122.21969,37.81343],[-122.22016,37.81353],[-122.22035,37.81358],[-122.22094,37.81374],[-122.22101,37.81375],[-122.22104,37.81376],[-122.22062,37.81433]]],"type":"Polygon"},"properties":{"bbox":{"roads":{"area":1048.49,"pct":7.77}},"city_same":1,"id":"hex:3791:24164"},"type":"Feature"},{"geometry":{"coordinates":[[[-122.21891,37.8151],[-122.21947,37.81588],[-122.22061,37.81589],[-122.22118,37.81511],[-122.22062,37.81433],[-122.21949,37.81432],[-122.21891,37.8151]]],"type":"Polygon"},"properties":{"bbox":{"roads":{"area":778.29,"pct":3}},"city_same":1,"id":"hex:3791:24165"},"type":"Feature"},{"geometry":{"coordinates":[[[-122.21889,37.81666],[-122.21945,37.81744],[-122.22059,37.81745],[-122.22117,37.81667],[-122.22061,37.81589],[-122.21947,37.81588],[-122.21889,37.81666]]],"type":"Polygon"},"properties":{"bbox":{"roads":{"area":2391.6,"pct":9.21}},"city_same":1,"id":"hex:3791:24166"},"type":"Feature"},{"geometry":{"coordinates":[[[-122.21888,37.81822],[-122.21944,37.819],[-122.22057,37.81901],[-122.22115,37.81823],[-122.22059,37.81745],[-122.21945,37.81744],[-122.21888,37.81822]]],"type":"Polygon"},"properties":{"bbox":{"roads":{"area":3236.12,"pct":12.46}},"city_same":1,"id":"hex:3791:24167"},"type":"Feature"},{"geometry":{"coordinates":[[[-122.21886,37.81978],[-122.21942,37.82056],[-122.22056,37.82057],[-122.22113,37.8198],[-122.22057,37.81901],[-122.21944,37.819],[-122.21886,37.81978]]],"type":"Polygon"},"properties":{"bbox":{"roads":{"area":2334.78,"pct":8.99}},"city_same":1,"id":"hex:3791:24168"},"type":"Feature"},{"geometry":{"coordinates":[[[-122.21884,37.82134],[-122.2194,37.82213],[-122.22054,37.82213],[-122.22112,37.82136],[-122.22056,37.82057],[-122.21942,37.82056],[-122.21884,37.82134]]],"type":"Polygon"},"properties":{"bbox":{"roads":{"area":1926.55,"pct":7.42}},"city_same":1,"id":"hex:3791:24169"},"type":"Feature"},{"geometry":{"coordinates":[[[-122.21883,37.8229],[-122.21939,37.82369],[-122.22052,37.82369],[-122.2211,37.82292],[-122.22054,37.82213],[-122.2194,37.82213],[-122.21883,37.8229]]],"type":"Polygon"},"properties":{"bbox":{"roads":{"area":2686.16,"pct":10.34}},"city_same":1,"id":"hex:3791:24170"},"type":"Feature"},{"geometry":{"coordinates":[[[-122.21939,37.82369],[-122.22052,37.82369],[-122.22108,37.82448],[-122.22056,37.82519],[-122.21947,37.82433],[-122.21936,37.82424],[-122.21912,37.82405],[-122.21939,37.82369]]],"type":"Polygon"},"properties":{"bbox":{"roads":{"area":1599.82,"pct":9.81}},"city_same":1,"id":"hex:3791:24171"},"type":"Feature"},{"geometry":{"coordinates":[[[-122.21893,37.81354],[-122.21779,37.81353],[-122.21736,37.81293],[-122.21748,37.81295],[-122.21755,37.81295],[-122.21772,37.81299],[-122.21821,37.8131],[-122.21829,37.81311],[-122.21911,37.81329],[-122.21893,37.81354]]],"type":"Polygon"},"properties":{"bbox":{"roads":{"area":775.96,"pct":13.22}},"city_same":1,"id":"hex:3792:24164"},"type":"Feature"},{"geometry":{"coordinates":[[[-122.21721,37.81431],[-122.21777,37.81509],[-122.21891,37.8151],[-122.21949,37.81432],[-122.21893,37.81354],[-122.21779,37.81353],[-122.21721,37.81431]]],"type":"Polygon"},"properties":{"bbox":{"roads":{"area":2149.01,"pct":8.27}},"city_same":1,"id":"hex:3792:24165"},"type":"Feature"},{"geometry":{"coordinates":[[[-122.2172,37.81587],[-122.21776,37.81665],[-122.21889,37.81666],[-122.21947,37.81588],[-122.21891,37.8151],[-122.21777,37.81509],[-122.2172,37.81587]]],"type":"Polygon"},"properties":{"bbox":{"roads":{"area":2760.48,"pct":10.63}},"city_same":1,"id":"hex:3792:24166"},"type":"Feature"},{"geometry":{"coordinates":[[[-122.21718,37.81743],[-122.21774,37.81821],[-122.21888,37.81822],[-122.21945,37.81744],[-122.21889,37.81666],[-122.21776,37.81665],[-122.21718,37.81743]]],"type":"Polygon"},"properties":{"bbox":{"roads":{"area":1932.01,"pct":7.44}},"city_same":1,"id":"hex:3792:24167"},"type":"Feature"},{"geometry":{"coordinates":[[[-122.21716,37.81899],[-122.21772,37.81977],[-122.21886,37.81978],[-122.21944,37.819],[-122.21888,37.81822],[-122.21774,37.81821],[-122.21716,37.81899]]],"type":"Polygon"},"properties":{"bbox":{"roads":{"area":4207.79,"pct":16.2}},"city_same":1,"id":"hex:3792:24168"},"type":"Feature"},{"geometry":{"coordinates":[[[-122.21715,37.82055],[-122.21771,37.82133],[-122.21884,37.82134],[-122.21942,37.82056],[-122.21886,37.81978],[-122.21772,37.81977],[-122.21715,37.82055]]],"type":"Polygon"},"properties":{"bbox":{"roads":{"area":2031.39,"pct":7.82}},"city_same":1,"id":"hex:3792:24169"},"type":"Feature"},{"geometry":{"coordinates":[[[-122.21769,37.8229],[-122.21713,37.82211],[-122.21771,37.82133],[-122.21884,37.82134],[-122.2194,37.82213],[-122.21883,37.8229],[-122.21839,37.8229],[-122.21839,37.8229],[-122.21855,37.82278],[-122.21857,37.82272],[-122.21866,37.82269],[-122.21884,37.82272],[-122.21888,37.82269],[-122.21888,37.82259],[-122.21883,37.82242],[-122.21874,37.82232],[-122.21865,37.82224],[-122.21859,37.82211],[-122.21856,37.82208],[-122.21831,37.82207],[-122.21807,37.82211],[-122.21804,37.82212],[-122.2181,37.8222],[-122.2181,37.82231],[-122.21805,37.82235],[-122.21807,37.82245],[-122.21803,37.8225],[-122.21799,37.8226],[-122.21796,37.82271],[-122.21794,37.82283],[-122.21795,37.8229],[-122.21769,37.8229]]],"type":"Polygon"},"properties":{"bbox":{"roads":{"area":736.04,"pct":3.58}},"city_same":1,"id":"hex:3792:24170"},"type":"Feature"},{"geometry":{"coordinates":[[[-122.21883,37.8229],[-122.21939,37.82369],[-122.21912,37.82405],[-122.21906,37.82401],[-122.21878,37.82379],[-122.21849,37.82355],[-122.21821,37.82343],[-122.21752,37.82313],[-122.21769,37.8229],[-122.21795,37.8229],[-122.21796,37.82296],[-122.21802,37.82304],[-122.21814,37.82306],[-122.21826,37.82302],[-122.21831,37.82293],[-122.21839,37.8229],[-122.21883,37.8229]]],"type":"Polygon"},"properties":{"bbox":{"roads":{"area":771.57,"pct":8.15}},"city_same":1,"id":"hex:3792:24171"},"type":"Feature"},{"geometry":{"coordinates":[[[-122.21609,37.81274],[-122.21596,37.81255],[-122.21616,37.81265],[-122.21625,37.81268],[-122.21642,37.81274],[-122.21609,37.81274]]],"type":"Polygon"},"properties":{"bbox":{"roads":{"area":180.31,"pct":66.81}},"city_same":1,"id":"hex:3793:24163"},"type":"Feature"},{"geometry":{"coordinates":[[[-122.21779,37.81353],[-122.21721,37.81431],[-122.21608,37.8143],[-122.21552,37.81351],[-122.21609,37.81274],[-122.21642,37.81274],[-122.21652,37.81278],[-122.21676,37.81282],[-122.2172,37.8129],[-122.21736,37.81293],[-122.21779,37.81353]]],"type":"Polygon"},"properties":{"bbox":{"roads":{"area":2675.74,"pct":10.62},"sidewalks":{"area":160.73,"pct":0.64}},"city_same":1,"id":"hex:3793:24164"},"type":"Feature"},{"geometry":{"coordinates":[[[-122.2155,37.81508],[-122.21606,37.81586],[-122.2172,37.81587],[-122.21777,37.81509],[-122.21721,37.81431],[-122.21608,37.8143],[-122.2155,37.81508]]],"type":"Polygon"},"properties":{"bbox":{"roads":{"area":3429.55,"pct":13.2}},"city_same":1,"id":"hex:3793:24165"},"type":"Feature"},{"geometry":{"coordinates":[[[-122.21549,37.81664],[-122.21604,37.81742],[-122.21718,37.81743],[-122.21776,37.81665],[-122.2172,37.81587],[-122.21606,37.81586],[-122.21549,37.81664]]],"type":"Polygon"},"properties":{"bbox":{"roads":{"area":2407.78,"pct":9.27}},"city_same":1,"id":"hex:3793:24166"},"type":"Feature"},{"geometry":{"coordinates":[[[-122.21547,37.8182],[-122.21603,37.81898],[-122.21716,37.81899],[-122.21774,37.81821],[-122.21718,37.81743],[-122.21604,37.81742],[-122.21547,37.8182]]],"type":"Polygon"},"properties":{"bbox":{"roads":{"area":2650.89,"pct":10.2}},"city_same":1,"id":"hex:3793:24167"},"type":"Feature"},{"geometry":{"coordinates":[[[-122.21545,37.81976],[-122.21601,37.82054],[-122.21715,37.82055],[-122.21772,37.81977],[-122.21716,37.81899],[-122.21603,37.81898],[-122.21545,37.81976]]],"type":"Polygon"},"properties":{"bbox":{"roads":{"area":3163.67,"pct":12.18}},"city_same":1,"id":"hex:3793:24168"},"type":"Feature"},{"geometry":{"coordinates":[[[-122.21544,37.82132],[-122.216,37.8221],[-122.21713,37.82211],[-122.21771,37.82133],[-122.21715,37.82055],[-122.21601,37.82054],[-122.21544,37.82132]]],"type":"Polygon"},"properties":{"bbox":{"roads":{"area":2878.39,"pct":11.08}},"city_same":1,"id":"hex:3793:24169"},"type":"Feature"},{"geometry":{"coordinates":[[[-122.216,37.8221],[-122.21713,37.82211],[-122.21769,37.8229],[-122.21752,37.82313],[-122.21738,37.82307],[-122.21725,37.82302],[-122.2171,37.82295],[-122.21701,37.8229],[-122.21691,37.82285],[-122.21671,37.82274],[-122.21662,37.82269],[-122.21649,37.82267],[-122.21647,37.82267],[-122.2163,37.8226],[-122.21618,37.82251],[-122.21617,37.82249],[-122.21614,37.82243],[-122.21613,37.82237],[-122.216,37.82224],[-122.21594,37.82218],[-122.216,37.8221]]],"type":"Polygon"},"properties":{"bbox":{"roads":{"area":2170.86,"pct":23.56}},"city_same":1,"id":"hex:3793:24170"},"type":"Feature"},{"geometry":{"coordinates":[[[-122.21609,37.81274],[-122.21552,37.81351],[-122.21438,37.81351],[-122.21419,37.81324],[-122.21424,37.8132],[-122.21435,37.81311],[-122.21448,37.81302],[-122.21459,37.81293],[-122.21464,37.81289],[-122.21479,37.81275],[-122.21486,37.8127],[-122.21488,37.81267],[-122.21499,37.81255],[-122.21502,37.81252],[-122.21511,37.81238],[-122.21513,37.81235],[-122.21517,37.81228],[-122.21544,37.81237],[-122.21594,37.81254],[-122.21596,37.81255],[-122.21609,37.81274]]],"type":"Polygon"},"properties":{"bbox":{"parking":{"area":59.92,"pct":0.44},"roads":{"area":1892.72,"pct":13.8},"sidewalks":{"area":324.35,"pct":2.36}},"city":{"parking":{"area":59.92,"pct":0.44},"roads":{"area":1395.63,"pct":10.17},"sidewalks":{"area":324.35,"pct":2.36}},"id":"hex:3794:24164"},"type":"Feature"},{"geometry":{"coordinates":[[[-122.21381,37.81428],[-122.21437,37.81507],[-122.2155,37.81508],[-122.21608,37.8143],[-122.21552,37.81351],[-122.21438,37.81351],[-122.21381,37.81428]]],"type":"Polygon"},"properties":{"bbox":{"parking":{"area":2752.45,"pct":10.59},"roads":{"area":2849.73,"pct":10.97},"sidewalks":{"area":117.9,"pct":0.45}},"city_same":1,"id":"hex:3794:24165"},"type":"Feature"},{"geometry":{"coordinates":[[[-122.21379,37.81584],[-122.21435,37.81663],[-122.21549,37.81664],[-122.21606,37.81586],[-122.2155,37.81508],[-122.21437,37.81507],[-122.21379,37.81584]]],"type":"Polygon"},"properties":{"bbox":{"roads":{"area":2348.92,"pct":9.04},"sidewalks":{"area":381.95,"pct":1.47}},"city_same":1,"id":"hex:3794:24166"},"type":"Feature"},{"geometry":{"coordinates":[[[-122.21377,37.81741],[-122.21433,37.81819],[-122.21547,37.8182],[-122.21604,37.81742],[-122.21549,37.81664],[-122.21435,37.81663],[-122.21377,37.81741]]],"type":"Polygon"},"properties":{"bbox":{"roads":{"area":2975.88,"pct":11.45}},"city_same":1,"id":"hex:3794:24167"},"type":"Feature"},{"geometry":{"coordinates":[[[-122.21376,37.81897],[-122.21432,37.81975],[-122.21545,37.81976],[-122.21603,37.81898],[-122.21547,37.8182],[-122.21433,37.81819],[-122.21376,37.81897]]],"type":"Polygon"},"properties":{"bbox":{"roads":{"area":2778.28,"pct":10.69}},"city_same":1,"id":"hex:3794:24168"},"type":"Feature"},{"geometry":{"coordinates":[[[-122.21374,37.82053],[-122.21432,37.81975],[-122.21545,37.81976],[-122.21601,37.82054],[-122.21544,37.82132],[-122.21471,37.82131],[-122.21465,37.82128],[-122.21444,37.82117],[-122.21401,37.82091],[-122.21374,37.82053]]],"type":"Polygon"},"properties":{"bbox":{"roads":{"area":2311.6,"pct":9.17}},"city_same":1,"id":"hex:3794:24169"},"type":"Feature"},{"geometry":{"coordinates":[[[-122.21544,37.82132],[-122.216,37.8221],[-122.21594,37.82218],[-122.21577,37.822],[-122.21561,37.82186],[-122.21549,37.82173],[-122.21528,37.82162],[-122.21471,37.82131],[-122.21544,37.82132]]],"type":"Polygon"},"properties":{"bbox":{"roads":{"area":185.03,"pct":6.9}},"city_same":1,"id":"hex:3794:24170"},"type":"Feature"},{"geometry":{"coordinates":[[[-122.21438,37.81351],[-122.21381,37.81428],[-122.21349,37.81428],[-122.21362,37.81412],[-122.21367,37.81406],[-122.21373,37.81397],[-122.2138,37.81382],[-122.21385,37.81371],[-122.21386,37.81367],[-122.2139,37.81359],[-122.21396,37.8135],[-122.21398,37.81347],[-122.21401,37.81342],[-122.21404,37.81338],[-122.21409,37.81334],[-122.21419,37.81324],[-122.21438,37.81351]]],"type":"Polygon"},"properties":{"bbox":{"parking":{"area":49.29,"pct":1.53},"roads":{"area":636.46,"pct":19.79},"sidewalks":{"area":143.92,"pct":4.48}},"city":{"parking":{"area":49.29,"pct":1.53},"roads":{"area":436.66,"pct":13.58},"sidewalks":{"area":143.92,"pct":4.48}},"id":"hex:3795:24164"},"type":"Feature"},{"geometry":{"coordinates":[[[-122.21381,37.81428],[-122.21437,37.81507],[-122.21379,37.81584],[-122.2129,37.81584],[-122.21291,37.81581],[-122.21299,37.8152],[-122.21302,37.81506],[-122.21305,37.81491],[-122.2131,37.81478],[-122.21311,37.81477],[-122.21319,37.81464],[-122.21349,37.81428],[-122.21381,37.81428]]],"type":"Polygon"},"properties":{"bbox":{"roads":{"area":1383.5,"pct":9.06},"sidewalks":{"area":204.13,"pct":1.34}},"city":{"roads":{"area":1159.62,"pct":7.59},"sidewalks":{"area":204.13,"pct":1.34}},"id":"hex:3795:24165"},"type":"Feature"},{"geometry":{"coordinates":[[[-122.21379,37.81584],[-122.21435,37.81663],[-122.21377,37.81741],[-122.21264,37.8174],[-122.21235,37.817],[-122.21248,37.81683],[-122.2126,37.81665],[-122.21273,37.81638],[-122.2128,37.81623],[-122.21285,37.81608],[-122.2129,37.81584],[-122.21379,37.81584]]],"type":"Polygon"},"properties":{"bbox":{"roads":{"area":1899.07,"pct":8.72},"sidewalks":{"area":180.99,"pct":0.83}},"city":{"roads":{"area":1542.65,"pct":7.09},"sidewalks":{"area":180.99,"pct":0.83}},"id":"hex:3795:24166"},"type":"Feature"},{"geometry":{"coordinates":[[[-122.21206,37.81817],[-122.21262,37.81896],[-122.21376,37.81897],[-122.21433,37.81819],[-122.21377,37.81741],[-122.21264,37.8174],[-122.21206,37.81817]]],"type":"Polygon"},"properties":{"bbox":{"roads":{"area":4320.48,"pct":16.63}},"city_same":1,"id":"hex:3795:24167"},"type":"Feature"},{"geometry":{"coordinates":[[[-122.21204,37.81974],[-122.21262,37.81896],[-122.21376,37.81897],[-122.21432,37.81975],[-122.21374,37.82053],[-122.21337,37.82052],[-122.21273,37.82014],[-122.21272,37.82012],[-122.2123,37.81989],[-122.21213,37.81979],[-122.21205,37.81974],[-122.21204,37.81974]]],"type":"Polygon"},"properties":{"bbox":{"roads":{"area":2376.47,"pct":10.34}},"city_same":1,"id":"hex:3795:24168"},"type":"Feature"},{"geometry":{"coordinates":[[[-122.21264,37.8174],[-122.21206,37.81817],[-122.21094,37.81817],[-122.21121,37.81798],[-122.21161,37.81771],[-122.21193,37.81746],[-122.21213,37.81727],[-122.21233,37.81704],[-122.21235,37.817],[-122.21264,37.8174]]],"type":"Polygon"},"properties":{"bbox":{"roads":{"area":388.43,"pct":5.03}},"id":"hex:3796:24167"},"type":"Feature"},{"geometry":{"coordinates":[[[-122.21206,37.81817],[-122.21262,37.81896],[-122.21204,37.81974],[-122.21203,37.81974],[-122.21163,37.81951],[-122.21146,37.81942],[-122.21119,37.81928],[-122.21041,37.81887],[-122.21041,37.81886],[-122.2109,37.8182],[-122.21094,37.81817],[-122.21206,37.81817]]],"type":"Polygon"},"properties":{"bbox":{"roads":{"area":1344.68,"pct":6.48}},"city":{"roads":{"area":1327.21,"pct":6.4}},"id":"hex:3796:24168"},"type":"Feature"},{"geometry":{"coordinates":[[[-122.21041,37.81886],[-122.21015,37.81873],[-122.21072,37.81832],[-122.2109,37.8182],[-122.21041,37.81886]]],"type":"Polygon"},"properties":{"bbox":{"roads":{"area":143.95,"pct":12.19}},"id":"hex:3797:24167"},"type":"Feature"}],"type":"FeatureCollection","v":2}