{"features":[{"geometry":{"coordinates":[[[[-122.32863,37.51372],[-122.3268,37.51499],[-122.32673,37.51563],[-122.32589,37.51648],[-122.32552,37.51713],[-122.32484,37.51733],[-122.32501,37.51755],[-122.32509,37.51847],[-122.3255,37.51909],[-122.32517,37.52004],[-122.32454,37.52029],[-122.32371,37.52102],[-122.32346,37.521],[-122.32316,37.52071],[-122.32151,37.52122],[-122.32052,37.52048],[-122.32008,37.51984],[-122.31924,37.51926],[-122.31778,37.51924],[-122.31635,37.51947],[-122.31502,37.51926],[-122.31451,37.52115],[-122.31419,37.52141],[-122.31334,37.52161],[-122.31258,37.5227],[-122.31185,37.52454],[-122.31072,37.52416],[-122.3073,37.52116],[-122.28688,37.52949],[-122.28552,37.53068],[-122.27839,37.52883],[-122.27795,37.5299],[-122.27642,37.5295],[-122.27509,37.53074],[-122.27459,37.53076],[-122.27724,37.53355],[-122.27659,37.53393],[-122.26624,37.53396],[-122.26748,37.53287],[-122.26804,37.53066],[-122.27,37.53065],[-122.27001,37.52964],[-122.27017,37.5296],[-122.26992,37.52892],[-122.26933,37.52855],[-122.26909,37.52863],[-122.26572,37.52576],[-122.26513,37.52507],[-122.26458,37.52355],[-122.26107,37.52043],[-122.26261,37.51917],[-122.26554,37.5217],[-122.26595,37.52181],[-122.26637,37.52166],[-122.26661,37.52186],[-122.26642,37.52239],[-122.26797,37.52381],[-122.2709,37.52125],[-122.27019,37.52073],[-122.27043,37.52053],[-122.27113,37.52105],[-122.27254,37.51972],[-122.27166,37.51924],[-122.27223,37.51875],[-122.27254,37.519],[-122.27276,37.51882],[-122.26728,37.5142],[-122.27302,37.51021],[-122.27359,37.51085],[-122.27562,37.51182],[-122.27732,37.51293],[-122.27828,37.51313],[-122.2791,37.51242],[-122.27798,37.51145],[-122.28445,37.50973],[-122.28656,37.51058],[-122.28855,37.50751],[-122.28643,37.50671],[-122.28955,37.50201],[-122.28622,37.50095],[-122.28787,37.50089],[-122.28815,37.50056],[-122.28724,37.4996],[-122.28749,37.49949],[-122.28808,37.49972],[-122.28857,37.49974],[-122.28916,37.50029],[-122.28951,37.50047],[-122.28979,37.50042],[-122.28991,37.50018],[-122.28953,37.49952],[-122.28967,37.49931],[-122.29022,37.49938],[-122.29061,37.49909],[-122.29167,37.49887],[-122.29147,37.49849],[-122.29236,37.49844],[-122.29389,37.49772],[-122.29445,37.49774],[-122.29501,37.49799],[-122.29553,37.49728],[-122.29624,37.49713],[-122.30055,37.49992],[-122.30261,37.4984],[-122.30788,37.50211],[-122.30885,37.50197],[-122.30885,37.50129],[-122.30955,37.50097],[-122.31019,37.50107],[-122.31065,37.50166],[-122.31051,37.5021],[-122.31402,37.50302],[-122.31861,37.50288],[-122.31878,37.50309],[-122.32001,37.50342],[-122.32039,37.50366],[-122.31999,37.50463],[-122.32454,37.5105],[-122.3283,37.51307],[-122.32887,37.51357],[-122.32863,37.51372]],[[-122.27057,37.53224],[-122.27057,37.53183],[-122.26932,37.53188],[-122.26931,37.53253],[-122.26984,37.53292],[-122.27009,37.53292],[-122.27009,37.53253],[-122.27057,37.53224]],[[-122.30997,37.5088],[-122.30961,37.5088],[-122.30939,37.50852],[-122.30898,37.50887],[-122.30837,37.50899],[-122.30843,37.50942],[-122.30946,37.50921],[-122.31005,37.50887],[-122.30997,37.5088]]],[[[-122.2650348,37.5339581],[-122.2662416,37.5339552],[-122.2662416,37.5339552],[-122.2650348,37.5339581]]]],"type":"MultiPolygon"},"properties":{"type":"boundary"},"type":"Feature"}],"type":"FeatureCollection"}