{"features":[{"geometry":{"coordinates":[[[[-118.16783,33.92612],[-118.1683,33.92724],[-118.16761,33.92832],[-118.16699,33.9269],[-118.16633,33.92752],[-118.16418,33.92645],[-118.16255,33.92752],[-118.16158,33.92885],[-118.1625,33.92914],[-118.16248,33.93037],[-118.1635,33.9329],[-118.16372,33.93311],[-118.16438,33.9333],[-118.1651,33.933],[-118.16609,33.93538],[-118.16588,33.93839],[-118.16575,33.93843],[-118.16596,33.93855],[-118.16225,33.9423],[-118.15932,33.94692],[-118.15851,33.94846],[-118.15627,33.95103],[-118.15845,33.95186],[-118.15744,33.95286],[-118.15527,33.9545],[-118.13816,33.96376],[-118.12587,33.96969],[-118.12397,33.97078],[-118.12112,33.97283],[-118.11051,33.96133],[-118.0974,33.95213],[-118.0962,33.95146],[-118.09359,33.95048],[-118.0979,33.94562],[-118.09847,33.94414],[-118.09026,33.93206],[-118.10478,33.93203],[-118.10603,33.93311],[-118.10717,33.93135],[-118.11052,33.92464],[-118.11128,33.92287],[-118.11165,33.92099],[-118.11117,33.91436],[-118.10981,33.9098],[-118.1346,33.90977],[-118.13778,33.90902],[-118.13887,33.90899],[-118.13993,33.90929],[-118.1424,33.91045],[-118.1429,33.90865],[-118.14284,33.90238],[-118.14524,33.90348],[-118.14534,33.90378],[-118.14586,33.90378],[-118.15354,33.90738],[-118.14923,33.91375],[-118.17043,33.92364],[-118.16783,33.92612]],[[-118.10062,33.9372],[-118.10086,33.93707],[-118.1008,33.93684],[-118.10015,33.93686],[-118.10026,33.93732],[-118.10004,33.93773],[-118.10023,33.93783],[-118.10038,33.9373],[-118.10062,33.9372]],[[-118.10168,33.93608],[-118.10163,33.93593],[-118.10131,33.93592],[-118.10138,33.93555],[-118.10107,33.93546],[-118.10092,33.93619],[-118.10116,33.93627],[-118.10168,33.93608]],[[-118.11826,33.92389],[-118.11826,33.92425],[-118.11843,33.92425],[-118.11843,33.92389],[-118.11826,33.92389]],[[-118.14681,33.95366],[-118.14735,33.95409],[-118.14769,33.95413],[-118.14773,33.954],[-118.14644,33.95328],[-118.14666,33.95354],[-118.14662,33.95377],[-118.14681,33.95366]],[[-118.14788,33.95779],[-118.14841,33.95722],[-118.14813,33.9573],[-118.1479,33.95725],[-118.14768,33.95764],[-118.14723,33.95761],[-118.14745,33.95773],[-118.14749,33.958],[-118.14788,33.95779]],[[-118.14952,33.95373],[-118.14958,33.9539],[-118.14928,33.95389],[-118.14888,33.95346],[-118.14881,33.95413],[-118.14964,33.95458],[-118.14996,33.95431],[-118.15055,33.95419],[-118.15001,33.95402],[-118.15007,33.95368],[-118.14955,33.95324],[-118.1493,33.95339],[-118.14952,33.95373]],[[-118.15383,33.9542],[-118.15357,33.95472],[-118.15406,33.95431],[-118.15399,33.95409],[-118.15383,33.9542]],[[-118.16013,33.93385],[-118.1604,33.93425],[-118.16047,33.93486],[-118.16087,33.93531],[-118.16108,33.93535],[-118.16125,33.93509],[-118.16081,33.93478],[-118.16072,33.93449],[-118.16118,33.93445],[-118.16159,33.9349],[-118.16181,33.93478],[-118.16173,33.93441],[-118.16193,33.93399],[-118.16173,33.9338],[-118.16138,33.93375],[-118.16075,33.93436],[-118.16042,33.93365],[-118.16017,33.93369],[-118.16013,33.93385]],[[-118.16365,33.93525],[-118.16406,33.93539],[-118.16383,33.93586],[-118.1636,33.93593],[-118.16364,33.93607],[-118.16434,33.93639],[-118.16396,33.9358],[-118.16423,33.93525],[-118.16474,33.93554],[-118.16492,33.9354],[-118.16431,33.93494],[-118.16304,33.9353],[-118.16365,33.93525]]],[[[-118.13961,33.9634],[-118.13845,33.96485],[-118.13661,33.96777],[-118.13629,33.96761],[-118.13583,33.96898],[-118.13519,33.96975],[-118.13427,33.97039],[-118.13259,33.97094],[-118.13223,33.97062],[-118.13091,33.97082],[-118.13014,33.97044],[-118.12985,33.97046],[-118.12973,33.9709],[-118.12959,33.97089],[-118.12966,33.9706],[-118.12634,33.97053],[-118.12549,33.97065],[-118.125,33.97096],[-118.12412,33.97115],[-118.12689,33.96952],[-118.14076,33.9627],[-118.13961,33.9634]]]],"type":"MultiPolygon"},"properties":{"type":"boundary"},"type":"Feature"}],"type":"FeatureCollection"}