{"features":[{"geometry":{"coordinates":[[[-122.47292,37.63358],[-122.47232,37.63377],[-122.4713,37.63442],[-122.47174,37.6352],[-122.47062,37.63616],[-122.46968,37.63779],[-122.46879,37.63852],[-122.46809,37.63761],[-122.4589,37.64054],[-122.44895,37.63522],[-122.44801,37.6352],[-122.44801,37.63547],[-122.44767,37.63547],[-122.44763,37.63589],[-122.4469,37.63693],[-122.44543,37.63656],[-122.44491,37.63598],[-122.44519,37.63499],[-122.44392,37.63449],[-122.43714,37.63813],[-122.43304,37.63438],[-122.42372,37.64041],[-122.42316,37.64047],[-122.4186,37.6422],[-122.41694,37.63935],[-122.41148,37.64135],[-122.41135,37.63552],[-122.40566,37.63554],[-122.40428,37.62512],[-122.40334,37.62073],[-122.40472,37.61971],[-122.40522,37.61954],[-122.4001,37.61269],[-122.40117,37.61215],[-122.4005,37.61138],[-122.40168,37.61078],[-122.40596,37.61508],[-122.40646,37.61468],[-122.40568,37.61389],[-122.40575,37.61376],[-122.40529,37.61362],[-122.40539,37.61341],[-122.40585,37.61355],[-122.40629,37.61266],[-122.40586,37.61243],[-122.40589,37.61219],[-122.40386,37.61014],[-122.40392,37.60972],[-122.40743,37.60785],[-122.40914,37.60798],[-122.40925,37.60911],[-122.4069,37.61198],[-122.40608,37.61224],[-122.40917,37.61412],[-122.41832,37.60947],[-122.41886,37.61017],[-122.42073,37.60922],[-122.42056,37.60833],[-122.42538,37.60584],[-122.42539,37.60551],[-122.42615,37.60498],[-122.42762,37.60467],[-122.42817,37.60397],[-122.44575,37.62209],[-122.44918,37.61877],[-122.45071,37.61767],[-122.4513,37.61793],[-122.4516,37.61844],[-122.4528,37.61885],[-122.45425,37.61976],[-122.45426,37.62013],[-122.45455,37.62015],[-122.45501,37.62079],[-122.45493,37.62142],[-122.45379,37.6219],[-122.45373,37.62241],[-122.45573,37.6246],[-122.45619,37.62536],[-122.45602,37.6262],[-122.45562,37.62695],[-122.45573,37.62777],[-122.45773,37.62694],[-122.45833,37.62713],[-122.46001,37.62928],[-122.46053,37.62912],[-122.46139,37.62952],[-122.46208,37.62918],[-122.46302,37.62917],[-122.4637,37.6288],[-122.46504,37.62882],[-122.46582,37.62912],[-122.46634,37.62897],[-122.46742,37.62721],[-122.46886,37.62723],[-122.47161,37.63082],[-122.47289,37.63138],[-122.47292,37.63358]]],"type":"Polygon"},"properties":{"type":"boundary"},"type":"Feature"}],"type":"FeatureCollection"}