{"features":[{"geometry":{"coordinates":[[[-118.09119,33.87668],[-118.09089,33.86125],[-118.09002,33.86126],[-118.09002,33.86023],[-118.08653,33.86026],[-118.08647,33.85601],[-118.082,33.85604],[-118.08202,33.85855],[-118.08274,33.85856],[-118.08274,33.85926],[-118.08203,33.85926],[-118.08203,33.86041],[-118.07518,33.85625],[-118.07518,33.85696],[-118.07234,33.85698],[-118.07231,33.85449],[-118.07057,33.85342],[-118.06891,33.85345],[-118.06898,33.85857],[-118.07124,33.85857],[-118.07128,33.86035],[-118.07019,33.86036],[-118.07034,33.86946],[-118.07242,33.86945],[-118.07243,33.8699],[-118.07035,33.86992],[-118.07043,33.87311],[-118.0801,33.87307],[-118.08011,33.8753],[-118.07966,33.8753],[-118.07969,33.87674],[-118.07486,33.87682],[-118.07493,33.88041],[-118.08786,33.88038],[-118.0878,33.87673],[-118.09119,33.87668]]],"type":"Polygon"},"properties":{"type":"boundary"},"type":"Feature"}],"type":"FeatureCollection"}