{"features":[{"geometry":{"coordinates":[[[-118.09064,33.86125],[-118.09089,33.86125],[-118.0909,33.86162],[-118.09064,33.86125]]],"type":"Polygon"},"properties":{"bbox":{"roads":{"area":408.21,"pct":84.64}},"city_same":1,"id":"hex:2128:17308"},"type":"Feature"},{"geometry":{"coordinates":[[[-118.09057,33.86307],[-118.09092,33.86255],[-118.09094,33.86359],[-118.09057,33.86307]]],"type":"Polygon"},"properties":{"bbox":{"roads":{"area":1304.96,"pct":67.08}},"city_same":1,"id":"hex:2128:17309"},"type":"Feature"},{"geometry":{"coordinates":[[[-118.09059,33.86502],[-118.09096,33.86448],[-118.09098,33.86556],[-118.09059,33.86502]]],"type":"Polygon"},"properties":{"bbox":{"parking":{"area":747.94,"pct":35.84},"roads":{"area":1251.67,"pct":59.98}},"city_same":1,"id":"hex:2128:17310"},"type":"Feature"},{"geometry":{"coordinates":[[[-118.09062,33.86697],[-118.09099,33.86641],[-118.09101,33.86754],[-118.09062,33.86697]]],"type":"Polygon"},"properties":{"bbox":{"roads":{"area":1340.39,"pct":60.02}},"city_same":1,"id":"hex:2128:17311"},"type":"Feature"},{"geometry":{"coordinates":[[[-118.09064,33.86893],[-118.09103,33.86835],[-118.09105,33.86951],[-118.09064,33.86893]]],"type":"Polygon"},"properties":{"bbox":{"roads":{"area":1549.46,"pct":64.98}},"city_same":1,"id":"hex:2128:17312"},"type":"Feature"},{"geometry":{"coordinates":[[[-118.09066,33.87088],[-118.09107,33.87028],[-118.09109,33.87148],[-118.09066,33.87088]]],"type":"Polygon"},"properties":{"bbox":{"roads":{"area":1525.9,"pct":60.05}},"city_same":1,"id":"hex:2128:17313"},"type":"Feature"},{"geometry":{"coordinates":[[[-118.09069,33.87283],[-118.0911,33.87222],[-118.09113,33.87345],[-118.09069,33.87283]]],"type":"Polygon"},"properties":{"bbox":{"roads":{"area":2065.63,"pct":76.45}},"city":{"roads":{"area":1907.73,"pct":70.6}},"id":"hex:2128:17314"},"type":"Feature"},{"geometry":{"coordinates":[[[-118.09071,33.87478],[-118.09114,33.87415],[-118.09117,33.87542],[-118.09071,33.87478]]],"type":"Polygon"},"properties":{"bbox":{"roads":{"area":619.78,"pct":21.61}},"city_same":1,"id":"hex:2128:17315"},"type":"Feature"},{"geometry":{"coordinates":[[[-118.09118,33.87608],[-118.09119,33.87668],[-118.09077,33.87669],[-118.09118,33.87608]]],"type":"Polygon"},"properties":{"bbox":{"roads":{"area":840.16,"pct":64.53}},"id":"hex:2128:17316"},"type":"Feature"},{"geometry":{"coordinates":[[[-118.08919,33.86113],[-118.08856,33.86024],[-118.09002,33.86023],[-118.09002,33.86112],[-118.08919,33.86113]]],"type":"Polygon"},"properties":{"bbox":{"roads":{"area":844.83,"pct":8.03}},"city_same":1,"id":"hex:2129:17307"},"type":"Feature"},{"geometry":{"coordinates":[[[-118.09057,33.86307],[-118.08921,33.86308],[-118.08853,33.86211],[-118.08919,33.86113],[-118.09002,33.86112],[-118.09002,33.86126],[-118.09064,33.86125],[-118.0909,33.86162],[-118.09092,33.86255],[-118.09057,33.86307]]],"type":"Polygon"},"properties":{"bbox":{"roads":{"area":6633.59,"pct":17.33}},"city_same":1,"id":"hex:2129:17308"},"type":"Feature"},{"geometry":{"coordinates":[[[-118.09059,33.86502],[-118.08924,33.86503],[-118.08855,33.86406],[-118.08921,33.86308],[-118.09057,33.86307],[-118.09094,33.86359],[-118.09096,33.86448],[-118.09059,33.86502]]],"type":"Polygon"},"properties":{"bbox":{"parking":{"area":2206.75,"pct":5.63},"roads":{"area":4914.49,"pct":12.54}},"city_same":1,"id":"hex:2129:17309"},"type":"Feature"},{"geometry":{"coordinates":[[[-118.09062,33.86697],[-118.08926,33.86699],[-118.08858,33.86601],[-118.08924,33.86503],[-118.09059,33.86502],[-118.09098,33.86556],[-118.09099,33.86641],[-118.09062,33.86697]]],"type":"Polygon"},"properties":{"bbox":{"parking":{"area":274.97,"pct":0.7},"roads":{"area":5426.07,"pct":13.8}},"city_same":1,"id":"hex:2129:17310"},"type":"Feature"},{"geometry":{"coordinates":[[[-118.09064,33.86893],[-118.08929,33.86894],[-118.0886,33.86797],[-118.08926,33.86699],[-118.09062,33.86697],[-118.09101,33.86754],[-118.09103,33.86835],[-118.09064,33.86893]]],"type":"Polygon"},"properties":{"bbox":{"roads":{"area":3617.66,"pct":9.18}},"city_same":1,"id":"hex:2129:17311"},"type":"Feature"},{"geometry":{"coordinates":[[[-118.09066,33.87088],[-118.08931,33.87089],[-118.08863,33.86992],[-118.08929,33.86894],[-118.09064,33.86893],[-118.09105,33.86951],[-118.09107,33.87028],[-118.09066,33.87088]]],"type":"Polygon"},"properties":{"bbox":{"roads":{"area":4771.88,"pct":12.07}},"city_same":1,"id":"hex:2129:17312"},"type":"Feature"},{"geometry":{"coordinates":[[[-118.09069,33.87283],[-118.08934,33.87284],[-118.08865,33.87187],[-118.08931,33.87089],[-118.09066,33.87088],[-118.09109,33.87148],[-118.0911,33.87222],[-118.09069,33.87283]]],"type":"Polygon"},"properties":{"bbox":{"roads":{"area":4547.26,"pct":11.47}},"city_same":1,"id":"hex:2129:17313"},"type":"Feature"},{"geometry":{"coordinates":[[[-118.09071,33.87478],[-118.08936,33.87479],[-118.08868,33.87382],[-118.08934,33.87284],[-118.09069,33.87283],[-118.09113,33.87345],[-118.09114,33.87415],[-118.09071,33.87478]]],"type":"Polygon"},"properties":{"bbox":{"roads":{"area":6722.86,"pct":16.92}},"city":{"roads":{"area":4493.66,"pct":11.31}},"id":"hex:2129:17314"},"type":"Feature"},{"geometry":{"coordinates":[[[-118.0887,33.87578],[-118.08936,33.87479],[-118.09071,33.87478],[-118.09117,33.87542],[-118.09118,33.87608],[-118.09077,33.87669],[-118.08936,33.87671],[-118.0887,33.87578]]],"type":"Polygon"},"properties":{"bbox":{"roads":{"area":9228.34,"pct":23.51}},"city":{"roads":{"area":2683.53,"pct":6.84}},"id":"hex:2129:17315"},"type":"Feature"},{"geometry":{"coordinates":[[[-118.08919,33.86113],[-118.08853,33.86211],[-118.08718,33.86212],[-118.08649,33.86115],[-118.0871,33.86025],[-118.08856,33.86024],[-118.08919,33.86113]]],"type":"Polygon"},"properties":{"bbox":{"roads":{"area":3649.5,"pct":9.26}},"city_same":1,"id":"hex:2130:17308"},"type":"Feature"},{"geometry":{"coordinates":[[[-118.08651,33.8631],[-118.0872,33.86407],[-118.08855,33.86406],[-118.08921,33.86308],[-118.08853,33.86211],[-118.08718,33.86212],[-118.08651,33.8631]]],"type":"Polygon"},"properties":{"bbox":{"roads":{"area":3479.68,"pct":8.57}},"city_same":1,"id":"hex:2130:17309"},"type":"Feature"},{"geometry":{"coordinates":[[[-118.08654,33.86506],[-118.08722,33.86603],[-118.08858,33.86601],[-118.08924,33.86503],[-118.08855,33.86406],[-118.0872,33.86407],[-118.08654,33.86506]]],"type":"Polygon"},"properties":{"bbox":{"roads":{"area":3767.43,"pct":9.28}},"city_same":1,"id":"hex:2130:17310"},"type":"Feature"},{"geometry":{"coordinates":[[[-118.08656,33.86701],[-118.08725,33.86798],[-118.0886,33.86797],[-118.08926,33.86699],[-118.08858,33.86601],[-118.08722,33.86603],[-118.08656,33.86701]]],"type":"Polygon"},"properties":{"bbox":{"roads":{"area":2309.47,"pct":5.69}},"city_same":1,"id":"hex:2130:17311"},"type":"Feature"},{"geometry":{"coordinates":[[[-118.08659,33.86896],[-118.08727,33.86993],[-118.08863,33.86992],[-118.08929,33.86894],[-118.0886,33.86797],[-118.08725,33.86798],[-118.08659,33.86896]]],"type":"Polygon"},"properties":{"bbox":{"roads":{"area":2711.99,"pct":6.68}},"city_same":1,"id":"hex:2130:17312"},"type":"Feature"},{"geometry":{"coordinates":[[[-118.08661,33.87091],[-118.0873,33.87188],[-118.08865,33.87187],[-118.08931,33.87089],[-118.08863,33.86992],[-118.08727,33.86993],[-118.08661,33.87091]]],"type":"Polygon"},"properties":{"bbox":{"roads":{"area":2045.71,"pct":5.04}},"city_same":1,"id":"hex:2130:17313"},"type":"Feature"},{"geometry":{"coordinates":[[[-118.08664,33.87287],[-118.08732,33.87384],[-118.08868,33.87382],[-118.08934,33.87284],[-118.08865,33.87187],[-118.0873,33.87188],[-118.08664,33.87287]]],"type":"Polygon"},"properties":{"bbox":{"parking":{"area":1245.98,"pct":3.07},"roads":{"area":6472.47,"pct":15.94}},"city":{"parking":{"area":1245.98,"pct":3.07},"roads":{"area":2843.64,"pct":7}},"id":"hex:2130:17314"},"type":"Feature"},{"geometry":{"coordinates":[[[-118.08666,33.87482],[-118.08735,33.87579],[-118.0887,33.87578],[-118.08936,33.87479],[-118.08868,33.87382],[-118.08732,33.87384],[-118.08666,33.87482]]],"type":"Polygon"},"properties":{"bbox":{"roads":{"area":3953.3,"pct":9.74}},"city_same":1,"id":"hex:2130:17315"},"type":"Feature"},{"geometry":{"coordinates":[[[-118.08737,33.87774],[-118.08669,33.87677],[-118.08735,33.87579],[-118.0887,33.87578],[-118.08936,33.87671],[-118.0878,33.87673],[-118.08781,33.87774],[-118.08737,33.87774]]],"type":"Polygon"},"properties":{"bbox":{"roads":{"area":8565.51,"pct":31.07}},"city":{"roads":{"area":557.57,"pct":2.02}},"id":"hex:2130:17316"},"type":"Feature"},{"geometry":{"coordinates":[[[-118.0874,33.87969],[-118.08671,33.87872],[-118.08737,33.87774],[-118.08781,33.87774],[-118.08785,33.87969],[-118.0874,33.87969]]],"type":"Polygon"},"properties":{"bbox":{"roads":{"area":42.32,"pct":0.27}},"city_same":1,"id":"hex:2130:17317"},"type":"Feature"},{"geometry":{"coordinates":[[[-118.0874,33.87969],[-118.08785,33.87969],[-118.08786,33.88031],[-118.08786,33.88038],[-118.08694,33.88038],[-118.0874,33.87969]]],"type":"Polygon"},"properties":{"bbox":{"roads":{"area":831.48,"pct":17.11}},"city_same":1,"id":"hex:2130:17318"},"type":"Feature"},{"geometry":{"coordinates":[[[-118.08644,33.85725],[-118.08509,33.85726],[-118.0844,33.85629],[-118.08458,33.85602],[-118.08647,33.85601],[-118.08649,33.85717],[-118.08644,33.85725]]],"type":"Polygon"},"properties":{"bbox":{"roads":{"area":1602.34,"pct":7.05}},"city_same":1,"id":"hex:2131:17305"},"type":"Feature"},{"geometry":{"coordinates":[[[-118.08646,33.8592],[-118.08511,33.85921],[-118.08442,33.85824],[-118.08509,33.85726],[-118.08644,33.85725],[-118.08649,33.85732],[-118.08651,33.85913],[-118.08646,33.8592]]],"type":"Polygon"},"properties":{"bbox":{"parking":{"area":718.9,"pct":2.07},"roads":{"area":8354.98,"pct":24.01}},"city_same":1,"id":"hex:2131:17306"},"type":"Feature"},{"geometry":{"coordinates":[[[-118.08649,33.86115],[-118.08514,33.86116],[-118.08445,33.86019],[-118.08511,33.85921],[-118.08646,33.8592],[-118.08651,33.85927],[-118.08653,33.86026],[-118.0871,33.86025],[-118.08649,33.86115]]],"type":"Polygon"},"properties":{"bbox":{"roads":{"area":4385.3,"pct":11.79}},"city_same":1,"id":"hex:2131:17307"},"type":"Feature"},{"geometry":{"coordinates":[[[-118.08447,33.86215],[-118.08516,33.86312],[-118.08651,33.8631],[-118.08718,33.86212],[-118.08649,33.86115],[-118.08514,33.86116],[-118.08447,33.86215]]],"type":"Polygon"},"properties":{"bbox":{"roads":{"area":4377.51,"pct":10.78}},"city_same":1,"id":"hex:2131:17308"},"type":"Feature"},{"geometry":{"coordinates":[[[-118.0845,33.8641],[-118.08519,33.86507],[-118.08654,33.86506],[-118.0872,33.86407],[-118.08651,33.8631],[-118.08516,33.86312],[-118.0845,33.8641]]],"type":"Polygon"},"properties":{"bbox":{"roads":{"area":3531.4,"pct":8.7}},"city_same":1,"id":"hex:2131:17309"},"type":"Feature"},{"geometry":{"coordinates":[[[-118.08452,33.86605],[-118.08521,33.86702],[-118.08656,33.86701],[-118.08722,33.86603],[-118.08654,33.86506],[-118.08519,33.86507],[-118.08452,33.86605]]],"type":"Polygon"},"properties":{"bbox":{"roads":{"area":6625.59,"pct":16.32}},"city_same":1,"id":"hex:2131:17310"},"type":"Feature"},{"geometry":{"coordinates":[[[-118.08455,33.868],[-118.08523,33.86897],[-118.08659,33.86896],[-118.08725,33.86798],[-118.08656,33.86701],[-118.08521,33.86702],[-118.08455,33.868]]],"type":"Polygon"},"properties":{"bbox":{"roads":{"area":3897.78,"pct":9.6}},"city_same":1,"id":"hex:2131:17311"},"type":"Feature"},{"geometry":{"coordinates":[[[-118.08457,33.86996],[-118.08526,33.87093],[-118.08661,33.87091],[-118.08727,33.86993],[-118.08659,33.86896],[-118.08523,33.86897],[-118.08457,33.86996]]],"type":"Polygon"},"properties":{"bbox":{"roads":{"area":4154.56,"pct":10.23}},"city_same":1,"id":"hex:2131:17312"},"type":"Feature"},{"geometry":{"coordinates":[[[-118.0846,33.87191],[-118.08528,33.87288],[-118.08664,33.87287],[-118.0873,33.87188],[-118.08661,33.87091],[-118.08526,33.87093],[-118.0846,33.87191]]],"type":"Polygon"},"properties":{"bbox":{"roads":{"area":3367.94,"pct":8.3}},"city_same":1,"id":"hex:2131:17313"},"type":"Feature"},{"geometry":{"coordinates":[[[-118.08462,33.87386],[-118.08531,33.87483],[-118.08666,33.87482],[-118.08732,33.87384],[-118.08664,33.87287],[-118.08528,33.87288],[-118.08462,33.87386]]],"type":"Polygon"},"properties":{"bbox":{"roads":{"area":5699.89,"pct":14.04}},"city":{"roads":{"area":3548.03,"pct":8.74}},"id":"hex:2131:17314"},"type":"Feature"},{"geometry":{"coordinates":[[[-118.08465,33.87581],[-118.08533,33.87678],[-118.08669,33.87677],[-118.08735,33.87579],[-118.08666,33.87482],[-118.08531,33.87483],[-118.08465,33.87581]]],"type":"Polygon"},"properties":{"bbox":{"roads":{"area":9467.9,"pct":23.32}},"city":{"roads":{"area":2136.48,"pct":5.26}},"id":"hex:2131:17315"},"type":"Feature"},{"geometry":{"coordinates":[[[-118.08467,33.87776],[-118.08536,33.87873],[-118.08671,33.87872],[-118.08737,33.87774],[-118.08669,33.87677],[-118.08533,33.87678],[-118.08467,33.87776]]],"type":"Polygon"},"properties":{"bbox":{"roads":{"area":3643.31,"pct":8.97}},"city_same":1,"id":"hex:2131:17316"},"type":"Feature"},{"geometry":{"coordinates":[[[-118.0847,33.87972],[-118.08536,33.87873],[-118.08671,33.87872],[-118.0874,33.87969],[-118.08694,33.88038],[-118.08517,33.88038],[-118.0847,33.87972]]],"type":"Polygon"},"properties":{"bbox":{"roads":{"area":3632.65,"pct":10.15}},"city_same":1,"id":"hex:2131:17317"},"type":"Feature"},{"geometry":{"coordinates":[[[-118.0844,33.85629],[-118.08305,33.8563],[-118.08286,33.85604],[-118.08458,33.85602],[-118.0844,33.85629]]],"type":"Polygon"},"properties":{"bbox":{"roads":{"area":449.24,"pct":10.82}},"city_same":1,"id":"hex:2132:17305"},"type":"Feature"},{"geometry":{"coordinates":[[[-118.08238,33.85728],[-118.08307,33.85825],[-118.08442,33.85824],[-118.08509,33.85726],[-118.0844,33.85629],[-118.08305,33.8563],[-118.08238,33.85728]]],"type":"Polygon"},"properties":{"bbox":{"parking":{"area":136.91,"pct":0.34},"roads":{"area":4810.64,"pct":11.85}},"city_same":1,"id":"hex:2132:17306"},"type":"Feature"},{"geometry":{"coordinates":[[[-118.08307,33.85825],[-118.08442,33.85824],[-118.08511,33.85921],[-118.08445,33.86019],[-118.0831,33.86021],[-118.08243,33.85926],[-118.08274,33.85926],[-118.08274,33.85875],[-118.08307,33.85825]]],"type":"Polygon"},"properties":{"bbox":{"roads":{"area":7567.21,"pct":19.07}},"city_same":1,"id":"hex:2132:17307"},"type":"Feature"},{"geometry":{"coordinates":[[[-118.08243,33.86119],[-118.08312,33.86216],[-118.08447,33.86215],[-118.08514,33.86116],[-118.08445,33.86019],[-118.0831,33.86021],[-118.08243,33.86119]]],"type":"Polygon"},"properties":{"bbox":{"roads":{"area":5220.67,"pct":12.86}},"city_same":1,"id":"hex:2132:17308"},"type":"Feature"},{"geometry":{"coordinates":[[[-118.08246,33.86314],[-118.08315,33.86411],[-118.0845,33.8641],[-118.08516,33.86312],[-118.08447,33.86215],[-118.08312,33.86216],[-118.08246,33.86314]]],"type":"Polygon"},"properties":{"bbox":{"parking":{"area":897.08,"pct":2.21},"roads":{"area":5519.67,"pct":13.6}},"city_same":1,"id":"hex:2132:17309"},"type":"Feature"},{"geometry":{"coordinates":[[[-118.08248,33.86509],[-118.08317,33.86606],[-118.08452,33.86605],[-118.08519,33.86507],[-118.0845,33.8641],[-118.08315,33.86411],[-118.08248,33.86509]]],"type":"Polygon"},"properties":{"bbox":{"roads":{"area":7795.73,"pct":19.2}},"city_same":1,"id":"hex:2132:17310"},"type":"Feature"},{"geometry":{"coordinates":[[[-118.08251,33.86704],[-118.0832,33.86801],[-118.08455,33.868],[-118.08521,33.86702],[-118.08452,33.86605],[-118.08317,33.86606],[-118.08251,33.86704]]],"type":"Polygon"},"properties":{"bbox":{"roads":{"area":3910.09,"pct":9.63}},"city_same":1,"id":"hex:2132:17311"},"type":"Feature"},{"geometry":{"coordinates":[[[-118.08253,33.869],[-118.08322,33.86997],[-118.08457,33.86996],[-118.08523,33.86897],[-118.08455,33.868],[-118.0832,33.86801],[-118.08253,33.869]]],"type":"Polygon"},"properties":{"bbox":{"roads":{"area":4968.19,"pct":12.24}},"city_same":1,"id":"hex:2132:17312"},"type":"Feature"},{"geometry":{"coordinates":[[[-118.08256,33.87095],[-118.08325,33.87192],[-118.0846,33.87191],[-118.08526,33.87093],[-118.08457,33.86996],[-118.08322,33.86997],[-118.08256,33.87095]]],"type":"Polygon"},"properties":{"bbox":{"parking":{"area":1553.83,"pct":3.83},"roads":{"area":3051.87,"pct":7.52}},"city_same":1,"id":"hex:2132:17313"},"type":"Feature"},{"geometry":{"coordinates":[[[-118.08258,33.8729],[-118.08327,33.87387],[-118.08462,33.87386],[-118.08528,33.87288],[-118.0846,33.87191],[-118.08325,33.87192],[-118.08258,33.8729]]],"type":"Polygon"},"properties":{"bbox":{"roads":{"area":7379.72,"pct":18.18}},"city":{"roads":{"area":3845.42,"pct":9.47}},"id":"hex:2132:17314"},"type":"Feature"},{"geometry":{"coordinates":[[[-118.08261,33.87485],[-118.08329,33.87582],[-118.08465,33.87581],[-118.08531,33.87483],[-118.08462,33.87386],[-118.08327,33.87387],[-118.08261,33.87485]]],"type":"Polygon"},"properties":{"bbox":{"roads":{"area":3787.57,"pct":9.33}},"city":{"roads":{"area":2474.18,"pct":6.09}},"id":"hex:2132:17315"},"type":"Feature"},{"geometry":{"coordinates":[[[-118.08263,33.87681],[-118.08332,33.87778],[-118.08467,33.87776],[-118.08533,33.87678],[-118.08465,33.87581],[-118.08329,33.87582],[-118.08263,33.87681]]],"type":"Polygon"},"properties":{"bbox":{"roads":{"area":11105.59,"pct":27.36}},"city":{"roads":{"area":1362.13,"pct":3.36}},"id":"hex:2132:17316"},"type":"Feature"},{"geometry":{"coordinates":[[[-118.08266,33.87876],[-118.08334,33.87973],[-118.0847,33.87972],[-118.08536,33.87873],[-118.08467,33.87776],[-118.08332,33.87778],[-118.08266,33.87876]]],"type":"Polygon"},"properties":{"bbox":{"parking":{"area":653.67,"pct":1.61},"roads":{"area":4048.64,"pct":9.97}},"city_same":1,"id":"hex:2132:17317"},"type":"Feature"},{"geometry":{"coordinates":[[[-118.08334,33.87973],[-118.0847,33.87972],[-118.08517,33.88038],[-118.0829,33.88039],[-118.08334,33.87973]]],"type":"Polygon"},"properties":{"bbox":{"roads":{"area":2460.16,"pct":19.93}},"city_same":1,"id":"hex:2132:17318"},"type":"Feature"},{"geometry":{"coordinates":[[[-118.08305,33.8563],[-118.08238,33.85728],[-118.08201,33.85729],[-118.082,33.85604],[-118.08286,33.85604],[-118.08305,33.8563]]],"type":"Polygon"},"properties":{"bbox":{"roads":{"area":2669.93,"pct":27.55}},"city_same":1,"id":"hex:2133:17305"},"type":"Feature"},{"geometry":{"coordinates":[[[-118.08238,33.85728],[-118.08307,33.85825],[-118.08274,33.85875],[-118.08274,33.85856],[-118.08202,33.85855],[-118.08201,33.85729],[-118.08238,33.85728]]],"type":"Polygon"},"properties":{"bbox":{"parking":{"area":184.81,"pct":1.83},"roads":{"area":4395.03,"pct":43.41}},"city_same":1,"id":"hex:2133:17306"},"type":"Feature"},{"geometry":{"coordinates":[[[-118.0831,33.86021],[-118.08243,33.86119],[-118.08108,33.8612],[-118.08039,33.86023],[-118.08078,33.85965],[-118.08203,33.86041],[-118.08203,33.85926],[-118.08243,33.85926],[-118.0831,33.86021]]],"type":"Polygon"},"properties":{"bbox":{"roads":{"area":5274.01,"pct":17.03}},"city_same":1,"id":"hex:2133:17307"},"type":"Feature"},{"geometry":{"coordinates":[[[-118.08042,33.86218],[-118.08111,33.86315],[-118.08246,33.86314],[-118.08312,33.86216],[-118.08243,33.86119],[-118.08108,33.8612],[-118.08042,33.86218]]],"type":"Polygon"},"properties":{"bbox":{"parking":{"area":5.81,"pct":0.01},"roads":{"area":7386.7,"pct":18.2}},"city_same":1,"id":"hex:2133:17308"},"type":"Feature"},{"geometry":{"coordinates":[[[-118.08044,33.86413],[-118.08113,33.8651],[-118.08248,33.86509],[-118.08315,33.86411],[-118.08246,33.86314],[-118.08111,33.86315],[-118.08044,33.86413]]],"type":"Polygon"},"properties":{"bbox":{"parking":{"area":239.32,"pct":0.59},"roads":{"area":6926.4,"pct":17.06}},"city_same":1,"id":"hex:2133:17309"},"type":"Feature"},{"geometry":{"coordinates":[[[-118.08047,33.86609],[-118.08116,33.86706],[-118.08251,33.86704],[-118.08317,33.86606],[-118.08248,33.86509],[-118.08113,33.8651],[-118.08047,33.86609]]],"type":"Polygon"},"properties":{"bbox":{"parking":{"area":3357.31,"pct":8.27},"roads":{"area":10685.46,"pct":26.32}},"city_same":1,"id":"hex:2133:17310"},"type":"Feature"},{"geometry":{"coordinates":[[[-118.08049,33.86804],[-118.08118,33.86901],[-118.08253,33.869],[-118.0832,33.86801],[-118.08251,33.86704],[-118.08116,33.86706],[-118.08049,33.86804]]],"type":"Polygon"},"properties":{"bbox":{"roads":{"area":7465.01,"pct":18.39}},"city_same":1,"id":"hex:2133:17311"},"type":"Feature"},{"geometry":{"coordinates":[[[-118.08052,33.86999],[-118.08121,33.87096],[-118.08256,33.87095],[-118.08322,33.86997],[-118.08253,33.869],[-118.08118,33.86901],[-118.08052,33.86999]]],"type":"Polygon"},"properties":{"bbox":{"parking":{"area":1670.44,"pct":4.11},"roads":{"area":7386.36,"pct":18.2}},"city_same":1,"id":"hex:2133:17312"},"type":"Feature"},{"geometry":{"coordinates":[[[-118.08054,33.87194],[-118.08123,33.87291],[-118.08258,33.8729],[-118.08325,33.87192],[-118.08256,33.87095],[-118.08121,33.87096],[-118.08054,33.87194]]],"type":"Polygon"},"properties":{"bbox":{"parking":{"area":1383.52,"pct":3.41},"roads":{"area":8571,"pct":21.11}},"city_same":1,"id":"hex:2133:17313"},"type":"Feature"},{"geometry":{"coordinates":[[[-118.08057,33.8739],[-118.08126,33.87487],[-118.08261,33.87485],[-118.08327,33.87387],[-118.08258,33.8729],[-118.08123,33.87291],[-118.08057,33.8739]]],"type":"Polygon"},"properties":{"bbox":{"parking":{"area":12758.92,"pct":31.43},"roads":{"area":10907.32,"pct":26.87}},"city":{"parking":{"area":12758.92,"pct":31.43},"roads":{"area":8735.49,"pct":21.52}},"id":"hex:2133:17314"},"type":"Feature"},{"geometry":{"coordinates":[[[-118.08059,33.87585],[-118.08128,33.87682],[-118.08263,33.87681],[-118.08329,33.87582],[-118.08261,33.87485],[-118.08126,33.87487],[-118.08059,33.87585]]],"type":"Polygon"},"properties":{"bbox":{"roads":{"area":12760.57,"pct":31.43}},"city":{"roads":{"area":5375.83,"pct":13.24}},"id":"hex:2133:17315"},"type":"Feature"},{"geometry":{"coordinates":[[[-118.08062,33.8778],[-118.0813,33.87877],[-118.08266,33.87876],[-118.08332,33.87778],[-118.08263,33.87681],[-118.08128,33.87682],[-118.08062,33.8778]]],"type":"Polygon"},"properties":{"bbox":{"parking":{"area":40.83,"pct":0.1},"roads":{"area":8569.27,"pct":21.11}},"city":{"parking":{"area":40.83,"pct":0.1},"roads":{"area":6548.95,"pct":16.13}},"id":"hex:2133:17316"},"type":"Feature"},{"geometry":{"coordinates":[[[-118.08064,33.87975],[-118.0813,33.87877],[-118.08266,33.87876],[-118.08334,33.87973],[-118.0829,33.88039],[-118.0811,33.8804],[-118.08064,33.87975]]],"type":"Polygon"},"properties":{"bbox":{"parking":{"area":242.12,"pct":0.68},"roads":{"area":7253.71,"pct":20.51}},"city_same":1,"id":"hex:2133:17317"},"type":"Feature"},{"geometry":{"coordinates":[[[-118.08039,33.86023],[-118.07904,33.86024],[-118.07836,33.85927],[-118.07888,33.8585],[-118.08078,33.85965],[-118.08039,33.86023]]],"type":"Polygon"},"properties":{"bbox":{"parking":{"area":893.35,"pct":3.53},"roads":{"area":2563.52,"pct":10.12}},"city_same":1,"id":"hex:2134:17307"},"type":"Feature"},{"geometry":{"coordinates":[[[-118.07838,33.86122],[-118.07907,33.86219],[-118.08042,33.86218],[-118.08108,33.8612],[-118.08039,33.86023],[-118.07904,33.86024],[-118.07838,33.86122]]],"type":"Polygon"},"properties":{"bbox":{"parking":{"area":2300.06,"pct":5.67},"roads":{"area":4913.77,"pct":12.1}},"city_same":1,"id":"hex:2134:17308"},"type":"Feature"},{"geometry":{"coordinates":[[[-118.0784,33.86318],[-118.07909,33.86415],[-118.08044,33.86413],[-118.08111,33.86315],[-118.08042,33.86218],[-118.07907,33.86219],[-118.0784,33.86318]]],"type":"Polygon"},"properties":{"bbox":{"roads":{"area":5355.06,"pct":13.19}},"city_same":1,"id":"hex:2134:17309"},"type":"Feature"},{"geometry":{"coordinates":[[[-118.07843,33.86513],[-118.07912,33.8661],[-118.08047,33.86609],[-118.08113,33.8651],[-118.08044,33.86413],[-118.07909,33.86415],[-118.07843,33.86513]]],"type":"Polygon"},"properties":{"bbox":{"roads":{"area":6017.85,"pct":14.82}},"city_same":1,"id":"hex:2134:17310"},"type":"Feature"},{"geometry":{"coordinates":[[[-118.07845,33.86708],[-118.07914,33.86805],[-118.08049,33.86804],[-118.08116,33.86706],[-118.08047,33.86609],[-118.07912,33.8661],[-118.07845,33.86708]]],"type":"Polygon"},"properties":{"bbox":{"roads":{"area":4283.97,"pct":10.55}},"city_same":1,"id":"hex:2134:17311"},"type":"Feature"},{"geometry":{"coordinates":[[[-118.07848,33.86903],[-118.07917,33.87],[-118.08052,33.86999],[-118.08118,33.86901],[-118.08049,33.86804],[-118.07914,33.86805],[-118.07848,33.86903]]],"type":"Polygon"},"properties":{"bbox":{"roads":{"area":4311.92,"pct":10.62}},"city_same":1,"id":"hex:2134:17312"},"type":"Feature"},{"geometry":{"coordinates":[[[-118.0785,33.87098],[-118.07919,33.87196],[-118.08054,33.87194],[-118.08121,33.87096],[-118.08052,33.86999],[-118.07917,33.87],[-118.0785,33.87098]]],"type":"Polygon"},"properties":{"bbox":{"roads":{"area":2849.91,"pct":7.02}},"city_same":1,"id":"hex:2134:17313"},"type":"Feature"},{"geometry":{"coordinates":[[[-118.07853,33.87294],[-118.07919,33.87196],[-118.08054,33.87194],[-118.08123,33.87291],[-118.08057,33.8739],[-118.0801,33.8739],[-118.0801,33.87307],[-118.07862,33.87307],[-118.07853,33.87294]]],"type":"Polygon"},"properties":{"bbox":{"parking":{"area":1071.83,"pct":3.52},"roads":{"area":3951.74,"pct":12.97}},"city":{"parking":{"area":1071.83,"pct":3.52},"roads":{"area":1458.7,"pct":4.79}},"id":"hex:2134:17314"},"type":"Feature"},{"geometry":{"coordinates":[[[-118.08057,33.8739],[-118.08126,33.87487],[-118.08059,33.87585],[-118.07967,33.87586],[-118.07966,33.8753],[-118.08011,33.8753],[-118.0801,33.8739],[-118.08057,33.8739]]],"type":"Polygon"},"properties":{"bbox":{"parking":{"area":3559.88,"pct":18.97},"roads":{"area":2423.49,"pct":12.91}},"city_same":1,"id":"hex:2134:17315"},"type":"Feature"},{"geometry":{"coordinates":[[[-118.08059,33.87585],[-118.08128,33.87682],[-118.08062,33.8778],[-118.07926,33.87781],[-118.07858,33.87684],[-118.07864,33.87675],[-118.07969,33.87674],[-118.07967,33.87586],[-118.08059,33.87585]]],"type":"Polygon"},"properties":{"bbox":{"roads":{"area":7940.52,"pct":23.42}},"city":{"roads":{"area":1805.45,"pct":5.32}},"id":"hex:2134:17316"},"type":"Feature"},{"geometry":{"coordinates":[[[-118.0786,33.87879],[-118.07929,33.87976],[-118.08064,33.87975],[-118.0813,33.87877],[-118.08062,33.8778],[-118.07926,33.87781],[-118.0786,33.87879]]],"type":"Polygon"},"properties":{"bbox":{"roads":{"area":5491.41,"pct":13.53}},"city_same":1,"id":"hex:2134:17317"},"type":"Feature"},{"geometry":{"coordinates":[[[-118.07929,33.87976],[-118.08064,33.87975],[-118.0811,33.8804],[-118.07886,33.8804],[-118.07929,33.87976]]],"type":"Polygon"},"properties":{"bbox":{"roads":{"area":2139.38,"pct":18.12}},"city_same":1,"id":"hex:2134:17318"},"type":"Feature"},{"geometry":{"coordinates":[[[-118.07836,33.85927],[-118.077,33.85928],[-118.07632,33.85831],[-118.07697,33.85734],[-118.07888,33.8585],[-118.07836,33.85927]]],"type":"Polygon"},"properties":{"bbox":{"roads":{"area":5758.32,"pct":18.69}},"city_same":1,"id":"hex:2135:17306"},"type":"Feature"},{"geometry":{"coordinates":[[[-118.07634,33.86026],[-118.07703,33.86123],[-118.07838,33.86122],[-118.07904,33.86024],[-118.07836,33.85927],[-118.077,33.85928],[-118.07634,33.86026]]],"type":"Polygon"},"properties":{"bbox":{"parking":{"area":296.04,"pct":0.73},"roads":{"area":1964.36,"pct":4.84}},"city_same":1,"id":"hex:2135:17307"},"type":"Feature"},{"geometry":{"coordinates":[[[-118.07637,33.86222],[-118.07705,33.86319],[-118.0784,33.86318],[-118.07907,33.86219],[-118.07838,33.86122],[-118.07703,33.86123],[-118.07637,33.86222]]],"type":"Polygon"},"properties":{"bbox":{"roads":{"area":4784.45,"pct":11.79}},"city_same":1,"id":"hex:2135:17308"},"type":"Feature"},{"geometry":{"coordinates":[[[-118.07639,33.86417],[-118.07708,33.86514],[-118.07843,33.86513],[-118.07909,33.86415],[-118.0784,33.86318],[-118.07705,33.86319],[-118.07639,33.86417]]],"type":"Polygon"},"properties":{"bbox":{"roads":{"area":4613.85,"pct":11.37}},"city_same":1,"id":"hex:2135:17309"},"type":"Feature"},{"geometry":{"coordinates":[[[-118.07641,33.86612],[-118.0771,33.86709],[-118.07845,33.86708],[-118.07912,33.8661],[-118.07843,33.86513],[-118.07708,33.86514],[-118.07641,33.86612]]],"type":"Polygon"},"properties":{"bbox":{"roads":{"area":7098.61,"pct":17.49}},"city_same":1,"id":"hex:2135:17310"},"type":"Feature"},{"geometry":{"coordinates":[[[-118.07644,33.86807],[-118.07713,33.86904],[-118.07848,33.86903],[-118.07914,33.86805],[-118.07845,33.86708],[-118.0771,33.86709],[-118.07644,33.86807]]],"type":"Polygon"},"properties":{"bbox":{"roads":{"area":4969.92,"pct":12.24}},"city_same":1,"id":"hex:2135:17311"},"type":"Feature"},{"geometry":{"coordinates":[[[-118.07646,33.87003],[-118.07715,33.871],[-118.0785,33.87098],[-118.07917,33.87],[-118.07848,33.86903],[-118.07713,33.86904],[-118.07646,33.87003]]],"type":"Polygon"},"properties":{"bbox":{"roads":{"area":3317.41,"pct":8.17}},"city_same":1,"id":"hex:2135:17312"},"type":"Feature"},{"geometry":{"coordinates":[[[-118.07649,33.87198],[-118.07718,33.87295],[-118.07853,33.87294],[-118.07919,33.87196],[-118.0785,33.87098],[-118.07715,33.871],[-118.07649,33.87198]]],"type":"Polygon"},"properties":{"bbox":{"roads":{"area":1585.65,"pct":3.91}},"city_same":1,"id":"hex:2135:17313"},"type":"Feature"},{"geometry":{"coordinates":[[[-118.07718,33.87295],[-118.07853,33.87294],[-118.07862,33.87307],[-118.07709,33.87308],[-118.07718,33.87295]]],"type":"Polygon"},"properties":{"bbox":{"roads":{"area":1228.13,"pct":61.81}},"city":{"roads":{"area":119.34,"pct":6.01}},"id":"hex:2135:17314"},"type":"Feature"},{"geometry":{"coordinates":[[[-118.07858,33.87684],[-118.07723,33.87685],[-118.07716,33.87676],[-118.07864,33.87675],[-118.07858,33.87684]]],"type":"Polygon"},"properties":{"bbox":{"roads":{"area":476.84,"pct":34.25}},"city_same":1,"id":"hex:2135:17315"},"type":"Feature"},{"geometry":{"coordinates":[[[-118.07656,33.87784],[-118.07725,33.87881],[-118.0786,33.87879],[-118.07926,33.87781],[-118.07858,33.87684],[-118.07723,33.87685],[-118.07656,33.87784]]],"type":"Polygon"},"properties":{"bbox":{"roads":{"area":3658.59,"pct":9.01}},"city_same":1,"id":"hex:2135:17316"},"type":"Feature"},{"geometry":{"coordinates":[[[-118.07659,33.87979],[-118.07725,33.87881],[-118.0786,33.87879],[-118.07929,33.87976],[-118.07886,33.8804],[-118.07703,33.88041],[-118.07659,33.87979]]],"type":"Polygon"},"properties":{"bbox":{"roads":{"area":5044.69,"pct":14.44}},"city_same":1,"id":"hex:2135:17317"},"type":"Feature"},{"geometry":{"coordinates":[[[-118.07632,33.85831],[-118.07497,33.85832],[-118.07428,33.85735],[-118.07454,33.85696],[-118.07518,33.85696],[-118.07518,33.85637],[-118.07537,33.85637],[-118.07697,33.85734],[-118.07632,33.85831]]],"type":"Polygon"},"properties":{"bbox":{"roads":{"area":2783.01,"pct":8.37}},"city_same":1,"id":"hex:2136:17306"},"type":"Feature"},{"geometry":{"coordinates":[[[-118.0743,33.85931],[-118.07499,33.86028],[-118.07634,33.86026],[-118.077,33.85928],[-118.07632,33.85831],[-118.07497,33.85832],[-118.0743,33.85931]]],"type":"Polygon"},"properties":{"bbox":{"roads":{"area":5629.2,"pct":13.87}},"city_same":1,"id":"hex:2136:17307"},"type":"Feature"},{"geometry":{"coordinates":[[[-118.07433,33.86126],[-118.07501,33.86223],[-118.07637,33.86222],[-118.07703,33.86123],[-118.07634,33.86026],[-118.07499,33.86028],[-118.07433,33.86126]]],"type":"Polygon"},"properties":{"bbox":{"roads":{"area":2950.43,"pct":7.27}},"city_same":1,"id":"hex:2136:17308"},"type":"Feature"},{"geometry":{"coordinates":[[[-118.07435,33.86321],[-118.07504,33.86418],[-118.07639,33.86417],[-118.07705,33.86319],[-118.07637,33.86222],[-118.07501,33.86223],[-118.07435,33.86321]]],"type":"Polygon"},"properties":{"bbox":{"roads":{"area":5478.18,"pct":13.49}},"city_same":1,"id":"hex:2136:17309"},"type":"Feature"},{"geometry":{"coordinates":[[[-118.07438,33.86516],[-118.07506,33.86613],[-118.07641,33.86612],[-118.07708,33.86514],[-118.07639,33.86417],[-118.07504,33.86418],[-118.07438,33.86516]]],"type":"Polygon"},"properties":{"bbox":{"roads":{"area":7714,"pct":19}},"city_same":1,"id":"hex:2136:17310"},"type":"Feature"},{"geometry":{"coordinates":[[[-118.0744,33.86712],[-118.07509,33.86809],[-118.07644,33.86807],[-118.0771,33.86709],[-118.07641,33.86612],[-118.07506,33.86613],[-118.0744,33.86712]]],"type":"Polygon"},"properties":{"bbox":{"roads":{"area":2322.39,"pct":5.72}},"city_same":1,"id":"hex:2136:17311"},"type":"Feature"},{"geometry":{"coordinates":[[[-118.07442,33.86907],[-118.07511,33.87004],[-118.07646,33.87003],[-118.07713,33.86904],[-118.07644,33.86807],[-118.07509,33.86809],[-118.07442,33.86907]]],"type":"Polygon"},"properties":{"bbox":{"roads":{"area":3887.49,"pct":9.58}},"city_same":1,"id":"hex:2136:17312"},"type":"Feature"},{"geometry":{"coordinates":[[[-118.07445,33.87102],[-118.07514,33.87199],[-118.07649,33.87198],[-118.07715,33.871],[-118.07646,33.87003],[-118.07511,33.87004],[-118.07445,33.87102]]],"type":"Polygon"},"properties":{"bbox":{"roads":{"area":2974.19,"pct":7.33}},"city_same":1,"id":"hex:2136:17313"},"type":"Feature"},{"geometry":{"coordinates":[[[-118.07447,33.87297],[-118.07514,33.87199],[-118.07649,33.87198],[-118.07718,33.87295],[-118.07709,33.87308],[-118.07456,33.87309],[-118.07447,33.87297]]],"type":"Polygon"},"properties":{"bbox":{"roads":{"area":4559.95,"pct":19.25}},"city":{"roads":{"area":2682.68,"pct":11.32}},"id":"hex:2136:17314"},"type":"Feature"},{"geometry":{"coordinates":[[[-118.07723,33.87685],[-118.07656,33.87784],[-118.07521,33.87785],[-118.07487,33.87737],[-118.07486,33.87682],[-118.07607,33.87676],[-118.07694,33.87676],[-118.07716,33.87676],[-118.07723,33.87685]]],"type":"Polygon"},"properties":{"bbox":{"roads":{"area":2291.36,"pct":10.64}},"city_same":1,"id":"hex:2136:17316"},"type":"Feature"},{"geometry":{"coordinates":[[[-118.07521,33.87785],[-118.07656,33.87784],[-118.07725,33.87881],[-118.07659,33.87979],[-118.07524,33.8798],[-118.07491,33.87934],[-118.07489,33.87832],[-118.07521,33.87785]]],"type":"Polygon"},"properties":{"bbox":{"roads":{"area":4235.03,"pct":10.93}},"city_same":1,"id":"hex:2136:17317"},"type":"Feature"},{"geometry":{"coordinates":[[[-118.07524,33.8798],[-118.07659,33.87979],[-118.07703,33.88041],[-118.07493,33.88041],[-118.07493,33.88025],[-118.07524,33.8798]]],"type":"Polygon"},"properties":{"bbox":{"roads":{"area":1805.48,"pct":16.15}},"city_same":1,"id":"hex:2136:17318"},"type":"Feature"},{"geometry":{"coordinates":[[[[-118.07224,33.8564],[-118.07233,33.85626],[-118.07234,33.85653],[-118.07224,33.8564]]],[[[-118.07428,33.85735],[-118.07293,33.85737],[-118.07265,33.85698],[-118.07454,33.85696],[-118.07428,33.85735]]]],"type":"MultiPolygon"},"properties":{"bbox":{"roads":{"area":571.68,"pct":8.62}},"city":{"roads":{"area":443.19,"pct":6.68}},"id":"hex:2137:17305"},"type":"Feature"},{"geometry":{"coordinates":[[[-118.07226,33.85835],[-118.07295,33.85932],[-118.0743,33.85931],[-118.07497,33.85832],[-118.07428,33.85735],[-118.07293,33.85737],[-118.07226,33.85835]]],"type":"Polygon"},"properties":{"bbox":{"parking":{"area":4201.87,"pct":10.35},"roads":{"area":7208.66,"pct":17.76},"sidewalks":{"area":2.66,"pct":0.01}},"city":{"parking":{"area":4201.87,"pct":10.35},"roads":{"area":6872.45,"pct":16.93},"sidewalks":{"area":2.66,"pct":0.01}},"id":"hex:2137:17306"},"type":"Feature"},{"geometry":{"coordinates":[[[-118.07229,33.8603],[-118.07298,33.86127],[-118.07433,33.86126],[-118.07499,33.86028],[-118.0743,33.85931],[-118.07295,33.85932],[-118.07229,33.8603]]],"type":"Polygon"},"properties":{"bbox":{"parking":{"area":141.56,"pct":0.35},"roads":{"area":3429.58,"pct":8.45}},"city":{"parking":{"area":141.56,"pct":0.35},"roads":{"area":3033.62,"pct":7.47}},"id":"hex:2137:17307"},"type":"Feature"},{"geometry":{"coordinates":[[[-118.07231,33.86225],[-118.073,33.86322],[-118.07435,33.86321],[-118.07501,33.86223],[-118.07433,33.86126],[-118.07298,33.86127],[-118.07231,33.86225]]],"type":"Polygon"},"properties":{"bbox":{"roads":{"area":3997.18,"pct":9.85}},"city":{"roads":{"area":3521.15,"pct":8.67}},"id":"hex:2137:17308"},"type":"Feature"},{"geometry":{"coordinates":[[[-118.07234,33.8642],[-118.07302,33.86518],[-118.07438,33.86516],[-118.07504,33.86418],[-118.07435,33.86321],[-118.073,33.86322],[-118.07234,33.8642]]],"type":"Polygon"},"properties":{"bbox":{"roads":{"area":4230.87,"pct":10.42}},"city":{"roads":{"area":3828.61,"pct":9.43}},"id":"hex:2137:17309"},"type":"Feature"},{"geometry":{"coordinates":[[[-118.07236,33.86616],[-118.07305,33.86713],[-118.0744,33.86712],[-118.07506,33.86613],[-118.07438,33.86516],[-118.07302,33.86518],[-118.07236,33.86616]]],"type":"Polygon"},"properties":{"bbox":{"roads":{"area":6870.96,"pct":16.93}},"city":{"roads":{"area":6337.98,"pct":15.61}},"id":"hex:2137:17310"},"type":"Feature"},{"geometry":{"coordinates":[[[-118.07239,33.86811],[-118.07307,33.86908],[-118.07442,33.86907],[-118.07509,33.86809],[-118.0744,33.86712],[-118.07305,33.86713],[-118.07239,33.86811]]],"type":"Polygon"},"properties":{"bbox":{"roads":{"area":3911.9,"pct":9.64}},"city":{"roads":{"area":3418.52,"pct":8.42}},"id":"hex:2137:17311"},"type":"Feature"},{"geometry":{"coordinates":[[[-118.07241,33.87006],[-118.0731,33.87103],[-118.07445,33.87102],[-118.07511,33.87004],[-118.07442,33.86907],[-118.07307,33.86908],[-118.07241,33.87006]]],"type":"Polygon"},"properties":{"bbox":{"roads":{"area":3691.49,"pct":9.09}},"city":{"roads":{"area":3083.74,"pct":7.6}},"id":"hex:2137:17312"},"type":"Feature"},{"geometry":{"coordinates":[[[-118.07243,33.87201],[-118.07312,33.87298],[-118.07447,33.87297],[-118.07514,33.87199],[-118.07445,33.87102],[-118.0731,33.87103],[-118.07243,33.87201]]],"type":"Polygon"},"properties":{"bbox":{"parking":{"area":841.02,"pct":2.07},"roads":{"area":4258.84,"pct":10.49}},"city":{"parking":{"area":841.02,"pct":2.07},"roads":{"area":3596.33,"pct":8.86}},"id":"hex:2137:17313"},"type":"Feature"},{"geometry":{"coordinates":[[[-118.07312,33.87298],[-118.07447,33.87297],[-118.07456,33.87309],[-118.07304,33.8731],[-118.07312,33.87298]]],"type":"Polygon"},"properties":{"bbox":{"roads":{"area":1037.85,"pct":59.42}},"city":{"roads":{"area":30.03,"pct":1.72}},"id":"hex:2137:17314"},"type":"Feature"},{"geometry":{"coordinates":[[[-118.07521,33.87785],[-118.07489,33.87832],[-118.07487,33.87737],[-118.07521,33.87785]]],"type":"Polygon"},"properties":{"bbox":{"roads":{"area":13.47,"pct":0.84}},"city_same":1,"id":"hex:2137:17316"},"type":"Feature"},{"geometry":{"coordinates":[[[-118.07524,33.8798],[-118.07493,33.88025],[-118.07491,33.87934],[-118.07524,33.8798]]],"type":"Polygon"},"properties":{"bbox":{"roads":{"area":87.68,"pct":5.99}},"city_same":1,"id":"hex:2137:17317"},"type":"Feature"},{"geometry":{"coordinates":[[[-118.07221,33.85444],[-118.07086,33.85445],[-118.07018,33.85348],[-118.07021,33.85343],[-118.07057,33.85342],[-118.07222,33.85443],[-118.07221,33.85444]]],"type":"Polygon"},"properties":{"bbox":{"roads":{"area":1759.32,"pct":18.47}},"city":{"roads":{"area":1754.52,"pct":18.42}},"id":"hex:2138:17304"},"type":"Feature"},{"geometry":{"coordinates":[[[-118.07224,33.8564],[-118.07089,33.85641],[-118.0702,33.85544],[-118.07086,33.85445],[-118.07221,33.85444],[-118.07231,33.85457],[-118.07233,33.85626],[-118.07224,33.8564]]],"type":"Polygon"},"properties":{"bbox":{"roads":{"area":4928.75,"pct":13.86}},"city":{"roads":{"area":2749.2,"pct":7.73}},"id":"hex:2138:17305"},"type":"Feature"},{"geometry":{"coordinates":[[[-118.07293,33.85737],[-118.07226,33.85835],[-118.07091,33.85836],[-118.07022,33.85739],[-118.07089,33.85641],[-118.07224,33.8564],[-118.07234,33.85653],[-118.07234,33.85698],[-118.07265,33.85698],[-118.07293,33.85737]]],"type":"Polygon"},"properties":{"bbox":{"parking":{"area":3179.47,"pct":7.97},"roads":{"area":6422.32,"pct":16.1}},"city":{"parking":{"area":3179.47,"pct":7.97},"roads":{"area":3753.23,"pct":9.41}},"id":"hex:2138:17306"},"type":"Feature"},{"geometry":{"coordinates":[[[-118.07091,33.85836],[-118.07226,33.85835],[-118.07295,33.85932],[-118.07229,33.8603],[-118.07128,33.86031],[-118.07124,33.85857],[-118.07077,33.85857],[-118.07091,33.85836]]],"type":"Polygon"},"properties":{"bbox":{"parking":{"area":8846.77,"pct":31.54},"roads":{"area":8622.56,"pct":30.74},"sidewalks":{"area":336.3,"pct":1.2}},"city":{"parking":{"area":8846.77,"pct":31.54},"roads":{"area":5971.23,"pct":21.29},"sidewalks":{"area":336.3,"pct":1.2}},"id":"hex:2138:17307"},"type":"Feature"},{"geometry":{"coordinates":[[[-118.07229,33.8603],[-118.07298,33.86127],[-118.07231,33.86225],[-118.07096,33.86226],[-118.07027,33.86129],[-118.07091,33.86036],[-118.07128,33.86035],[-118.07128,33.86031],[-118.07229,33.8603]]],"type":"Polygon"},"properties":{"bbox":{"parking":{"area":9876.46,"pct":24.43},"roads":{"area":6144,"pct":15.2}},"city":{"parking":{"area":9876.46,"pct":24.43},"roads":{"area":3236.45,"pct":8.01}},"id":"hex:2138:17308"},"type":"Feature"},{"geometry":{"coordinates":[[[-118.0703,33.86325],[-118.07099,33.86422],[-118.07234,33.8642],[-118.073,33.86322],[-118.07231,33.86225],[-118.07096,33.86226],[-118.0703,33.86325]]],"type":"Polygon"},"properties":{"bbox":{"roads":{"area":6213.75,"pct":15.31}},"city":{"roads":{"area":3281.45,"pct":8.08}},"id":"hex:2138:17309"},"type":"Feature"},{"geometry":{"coordinates":[[[-118.07032,33.8652],[-118.07101,33.86617],[-118.07236,33.86616],[-118.07302,33.86518],[-118.07234,33.8642],[-118.07099,33.86422],[-118.07032,33.8652]]],"type":"Polygon"},"properties":{"bbox":{"roads":{"area":5176.14,"pct":12.75},"sidewalks":{"area":411.67,"pct":1.01}},"city":{"roads":{"area":2408.46,"pct":5.93},"sidewalks":{"area":411.67,"pct":1.01}},"id":"hex:2138:17310"},"type":"Feature"},{"geometry":{"coordinates":[[[-118.07035,33.86715],[-118.07103,33.86812],[-118.07239,33.86811],[-118.07305,33.86713],[-118.07236,33.86616],[-118.07101,33.86617],[-118.07035,33.86715]]],"type":"Polygon"},"properties":{"bbox":{"roads":{"area":5803.74,"pct":14.3}},"city":{"roads":{"area":3062.78,"pct":7.54}},"id":"hex:2138:17311"},"type":"Feature"},{"geometry":{"coordinates":[[[-118.07037,33.8691],[-118.07103,33.86812],[-118.07239,33.86811],[-118.07307,33.86908],[-118.07241,33.87006],[-118.07106,33.87007],[-118.07095,33.86991],[-118.07243,33.8699],[-118.07242,33.86945],[-118.07063,33.86946],[-118.07037,33.8691]]],"type":"Polygon"},"properties":{"bbox":{"roads":{"area":4530.74,"pct":13.73}},"city":{"roads":{"area":1824.25,"pct":5.53}},"id":"hex:2138:17312"},"type":"Feature"},{"geometry":{"coordinates":[[[-118.0704,33.87106],[-118.07108,33.87203],[-118.07243,33.87201],[-118.0731,33.87103],[-118.07241,33.87006],[-118.07106,33.87007],[-118.0704,33.87106]]],"type":"Polygon"},"properties":{"bbox":{"roads":{"area":6388.45,"pct":15.74}},"city":{"roads":{"area":3657.79,"pct":9.01}},"id":"hex:2138:17313"},"type":"Feature"},{"geometry":{"coordinates":[[[-118.07042,33.87302],[-118.07042,33.873],[-118.07108,33.87203],[-118.07243,33.87201],[-118.07312,33.87298],[-118.07304,33.8731],[-118.07049,33.87311],[-118.07042,33.87302]]],"type":"Polygon"},"properties":{"bbox":{"parking":{"area":3767.61,"pct":16.18},"roads":{"area":5725.92,"pct":24.59}},"city":{"parking":{"area":3767.61,"pct":16.18},"roads":{"area":2275.06,"pct":9.77}},"id":"hex:2138:17314"},"type":"Feature"},{"geometry":{"coordinates":[[[-118.07018,33.85348],[-118.06891,33.8535],[-118.06891,33.85345],[-118.07021,33.85343],[-118.07018,33.85348]]],"type":"Polygon"},"properties":{"bbox":{"roads":{"area":386.51,"pct":56.6}},"city_same":1,"id":"hex:2139:17303"},"type":"Feature"},{"geometry":{"coordinates":[[[-118.07018,33.85348],[-118.07086,33.85445],[-118.0702,33.85544],[-118.06894,33.85545],[-118.06891,33.85352],[-118.06891,33.8535],[-118.07018,33.85348]]],"type":"Polygon"},"properties":{"bbox":{"roads":{"area":2788.98,"pct":8.71}},"city_same":1,"id":"hex:2139:17304"},"type":"Feature"},{"geometry":{"coordinates":[[[-118.0702,33.85544],[-118.07089,33.85641],[-118.07022,33.85739],[-118.06897,33.8574],[-118.06894,33.85545],[-118.0702,33.85544]]],"type":"Polygon"},"properties":{"bbox":{"roads":{"area":3515.94,"pct":10.99}},"city_same":1,"id":"hex:2139:17305"},"type":"Feature"},{"geometry":{"coordinates":[[[-118.07022,33.85739],[-118.07091,33.85836],[-118.07077,33.85857],[-118.06898,33.85857],[-118.06897,33.8574],[-118.07022,33.85739]]],"type":"Polygon"},"properties":{"bbox":{"parking":{"area":1831.55,"pct":9.24},"roads":{"area":3561.35,"pct":17.96},"sidewalks":{"area":243.55,"pct":1.23}},"city_same":1,"id":"hex:2139:17306"},"type":"Feature"},{"geometry":{"coordinates":[[[-118.07027,33.86129],[-118.07096,33.86226],[-118.0703,33.86325],[-118.07024,33.86325],[-118.0702,33.86129],[-118.07027,33.86129]]],"type":"Polygon"},"properties":{"bbox":{"parking":{"area":439.33,"pct":5.42},"roads":{"area":524.68,"pct":6.47}},"city_same":1,"id":"hex:2139:17308"},"type":"Feature"},{"geometry":{"coordinates":[[[-118.0703,33.86325],[-118.07099,33.86422],[-118.07032,33.8652],[-118.07027,33.8652],[-118.07024,33.86325],[-118.0703,33.86325]]],"type":"Polygon"},"properties":{"bbox":{"roads":{"area":319.17,"pct":4.03}},"city_same":1,"id":"hex:2139:17309"},"type":"Feature"},{"geometry":{"coordinates":[[[-118.07032,33.8652],[-118.07101,33.86617],[-118.07035,33.86715],[-118.0703,33.86715],[-118.07027,33.8652],[-118.07032,33.8652]]],"type":"Polygon"},"properties":{"bbox":{"roads":{"area":712.4,"pct":9.21},"sidewalks":{"area":133.2,"pct":1.72}},"city_same":1,"id":"hex:2139:17310"},"type":"Feature"},{"geometry":{"coordinates":[[[-118.07035,33.86715],[-118.07103,33.86812],[-118.07037,33.8691],[-118.07034,33.8691],[-118.0703,33.86715],[-118.07035,33.86715]]],"type":"Polygon"},"properties":{"bbox":{"roads":{"area":415.11,"pct":5.5}},"city_same":1,"id":"hex:2139:17311"},"type":"Feature"},{"geometry":{"coordinates":[[[[-118.07106,33.87007],[-118.0704,33.87106],[-118.07038,33.87106],[-118.07035,33.86992],[-118.07095,33.86991],[-118.07106,33.87007]]],[[[-118.07037,33.8691],[-118.07063,33.86946],[-118.07034,33.86946],[-118.07034,33.8691],[-118.07037,33.8691]]]],"type":"MultiPolygon"},"properties":{"bbox":{"roads":{"area":354.21,"pct":6.75}},"city_same":1,"id":"hex:2139:17312"},"type":"Feature"},{"geometry":{"coordinates":[[[-118.0704,33.87106],[-118.07108,33.87203],[-118.07042,33.873],[-118.07038,33.87106],[-118.0704,33.87106]]],"type":"Polygon"},"properties":{"bbox":{"roads":{"area":1020.44,"pct":14.85}},"city_same":1,"id":"hex:2139:17313"},"type":"Feature"}],"type":"FeatureCollection","v":2}