{"features":[{"geometry":{"coordinates":[[[-122.00517,37.24024],[-122.00425,37.24038],[-122.00405,37.24059],[-122.00228,37.23703],[-122.00185,37.23747],[-122.00002,37.23732],[-122.00093,37.23579],[-121.9993,37.23703],[-121.9984,37.23629],[-121.99757,37.23646],[-121.99695,37.2358],[-121.99606,37.23596],[-121.99545,37.23647],[-121.99464,37.23776],[-121.99471,37.23805],[-121.99518,37.23847],[-121.9933,37.23973],[-121.9928,37.24011],[-121.99183,37.24154],[-121.99173,37.2424],[-121.99235,37.24262],[-121.99293,37.24223],[-121.99351,37.24272],[-121.99412,37.2426],[-121.99475,37.24329],[-121.99518,37.24315],[-121.99541,37.24331],[-121.99557,37.24267],[-121.99583,37.24259],[-121.99645,37.24272],[-121.99659,37.24251],[-121.99643,37.24232],[-121.99711,37.24183],[-121.99776,37.24189],[-121.9982,37.2423],[-121.99839,37.24214],[-121.99812,37.24118],[-121.99763,37.24071],[-121.99806,37.24029],[-121.99841,37.24041],[-121.99857,37.24027],[-121.99872,37.24051],[-122.00088,37.24107],[-122.00086,37.23994],[-122.00229,37.24001],[-122.00239,37.24099],[-122.00208,37.24101],[-122.00216,37.24133],[-122.00381,37.24117],[-122.00311,37.24129],[-122.00317,37.24147],[-122.00251,37.24176],[-122.00156,37.24189],[-122.00141,37.24177],[-122.00119,37.24199],[-122.00091,37.24199],[-122.00093,37.24218],[-122.00023,37.2426],[-121.99945,37.24227],[-121.99886,37.24263],[-121.99832,37.24272],[-121.99697,37.24395],[-121.99704,37.24423],[-121.9968,37.24493],[-121.99602,37.24573],[-121.9961,37.2463],[-121.9952,37.24673],[-121.9958,37.24775],[-121.99517,37.24957],[-121.99547,37.25028],[-121.9953,37.25093],[-121.97931,37.24954],[-121.97965,37.25274],[-121.97844,37.25249],[-121.97821,37.25134],[-121.97728,37.25112],[-121.97685,37.24932],[-121.97429,37.24913],[-121.97492,37.24977],[-121.97382,37.25067],[-121.97367,37.25096],[-121.97383,37.2514],[-121.97166,37.2513],[-121.97044,37.25153],[-121.96935,37.25094],[-121.97062,37.24951],[-121.97138,37.24825],[-121.97282,37.24686],[-121.97462,37.24745],[-121.97525,37.24654],[-121.97349,37.24608],[-121.97455,37.24508],[-121.9755,37.24339],[-121.97339,37.24302],[-121.97351,37.24251],[-121.97229,37.24233],[-121.97267,37.24182],[-121.97327,37.24184],[-121.97399,37.24078],[-121.97681,37.24124],[-121.97722,37.23843],[-121.978,37.23856],[-121.97808,37.23826],[-121.97869,37.23837],[-121.9788,37.23787],[-121.97932,37.23798],[-121.97959,37.23711],[-121.98305,37.23782],[-121.98292,37.2383],[-121.98378,37.23847],[-121.98362,37.23908],[-121.98273,37.2389],[-121.98258,37.23944],[-121.98208,37.23933],[-121.98193,37.23963],[-121.98239,37.23972],[-121.98235,37.23988],[-121.98189,37.23979],[-121.98185,37.23995],[-121.98231,37.24004],[-121.98213,37.24102],[-121.98305,37.24118],[-121.98335,37.24006],[-121.98438,37.24024],[-121.98453,37.23985],[-121.98571,37.24006],[-121.98614,37.23844],[-121.98419,37.23805],[-121.98466,37.23751],[-121.98445,37.23742],[-121.98399,37.23759],[-121.9838,37.23739],[-121.98432,37.23717],[-121.98386,37.23691],[-121.98455,37.23616],[-121.98544,37.2366],[-121.98619,37.23574],[-121.98444,37.23467],[-121.98377,37.23545],[-121.98181,37.23449],[-121.98216,37.23399],[-121.98237,37.2341],[-121.98254,37.23387],[-121.98232,37.23376],[-121.98412,37.23113],[-121.98607,37.22988],[-121.98806,37.23106],[-121.98956,37.22946],[-121.99026,37.22988],[-121.99097,37.22911],[-121.99153,37.22934],[-121.99252,37.22935],[-121.99357,37.22895],[-121.99336,37.22883],[-121.99492,37.22846],[-121.99637,37.22792],[-121.99642,37.22744],[-121.99759,37.22681],[-121.99857,37.22681],[-121.99918,37.2265],[-121.99916,37.22776],[-122.0043,37.23185],[-122.00389,37.23205],[-122.0033,37.23298],[-122.00158,37.23424],[-121.99901,37.23525],[-122.00012,37.23612],[-122.00115,37.23501],[-122.00203,37.23469],[-122.00279,37.23538],[-122.0035,37.23677],[-122.00336,37.23681],[-122.0035,37.2373],[-122.00403,37.23791],[-122.00448,37.23773],[-122.0051,37.23914],[-122.00487,37.23936],[-122.00517,37.24024]],[[-121.9861,37.2324],[-121.98583,37.23223],[-121.98574,37.2324],[-121.986,37.23251],[-121.9861,37.2324]]],"type":"Polygon"},"properties":{"type":"boundary"},"type":"Feature"}],"type":"FeatureCollection"}