{"features":[{"geometry":{"coordinates":[[[-122.00392,37.23897],[-122.00337,37.23819],[-122.00381,37.2376],[-122.00403,37.23791],[-122.00406,37.23792],[-122.00413,37.23786],[-122.00448,37.23773],[-122.00455,37.23795],[-122.00481,37.23864],[-122.00501,37.23898],[-122.00392,37.23897]]],"type":"Polygon"},"properties":{"bbox":{"roads":{"area":160.17,"pct":1.21}},"city_same":1,"id":"hex:3922:23797"},"type":"Feature"},{"geometry":{"coordinates":[[[-122.00404,37.24054],[-122.00378,37.24002],[-122.00353,37.23951],[-122.00392,37.23897],[-122.00501,37.23898],[-122.0051,37.23914],[-122.00506,37.23926],[-122.00505,37.23931],[-122.00503,37.23932],[-122.00495,37.23934],[-122.00487,37.23936],[-122.0049,37.23941],[-122.00516,37.23992],[-122.00517,37.24024],[-122.00487,37.24023],[-122.00472,37.2403],[-122.00443,37.24041],[-122.00442,37.2404],[-122.00425,37.24038],[-122.00421,37.24049],[-122.00414,37.24054],[-122.00404,37.24054]]],"type":"Polygon"},"properties":{"bbox":{"roads":{"area":797.78,"pct":4.39}},"city_same":1,"id":"hex:3922:23798"},"type":"Feature"},{"geometry":{"coordinates":[[[[-122.00414,37.24054],[-122.00405,37.24059],[-122.00405,37.24056],[-122.00404,37.24054],[-122.00414,37.24054]]],[[[-122.00345,37.24115],[-122.00377,37.24109],[-122.00381,37.24117],[-122.00378,37.24118],[-122.00366,37.2412],[-122.00342,37.24124],[-122.00338,37.24125],[-122.00345,37.24115]]]],"type":"MultiPolygon"},"properties":{"bbox":{"roads":{"area":139.37,"pct":38.88}},"city_same":1,"id":"hex:3922:23799"},"type":"Feature"},{"geometry":{"coordinates":[[[-122.00345,37.23195],[-122.00233,37.23194],[-122.00177,37.23115],[-122.00235,37.23037],[-122.00246,37.23038],[-122.00381,37.23146],[-122.00345,37.23195]]],"type":"Polygon"},"properties":{"bbox":{"roads":{"area":1861.52,"pct":9.77}},"city_same":1,"id":"hex:3923:23792"},"type":"Feature"},{"geometry":{"coordinates":[[[-122.00231,37.2335],[-122.00175,37.23271],[-122.00233,37.23194],[-122.00345,37.23195],[-122.00375,37.23237],[-122.00363,37.23247],[-122.00356,37.23255],[-122.0033,37.23298],[-122.00296,37.23324],[-122.00275,37.23339],[-122.00259,37.2335],[-122.00231,37.2335]]],"type":"Polygon"},"properties":{"bbox":{"roads":{"area":1175.2,"pct":5.85}},"city_same":1,"id":"hex:3923:23793"},"type":"Feature"},{"geometry":{"coordinates":[[[-122.00339,37.23663],[-122.00226,37.23662],[-122.00171,37.23583],[-122.00228,37.23506],[-122.00244,37.23506],[-122.00279,37.23538],[-122.00284,37.23546],[-122.00341,37.2366],[-122.00339,37.23663]]],"type":"Polygon"},"properties":{"bbox":{"roads":{"area":719.85,"pct":4.6}},"city_same":1,"id":"hex:3923:23795"},"type":"Feature"},{"geometry":{"coordinates":[[[-122.00169,37.23739],[-122.00226,37.23662],[-122.00339,37.23663],[-122.00349,37.23677],[-122.00336,37.23681],[-122.0035,37.2373],[-122.00368,37.2374],[-122.00381,37.2376],[-122.00337,37.23819],[-122.00286,37.23819],[-122.00239,37.23724],[-122.00228,37.23703],[-122.00185,37.23747],[-122.00179,37.23746],[-122.00173,37.23745],[-122.00169,37.23739]]],"type":"Polygon"},"properties":{"bbox":{"roads":{"area":37.75,"pct":0.21}},"city_same":1,"id":"hex:3923:23796"},"type":"Feature"},{"geometry":{"coordinates":[[[[-122.00165,37.24052],[-122.00202,37.24001],[-122.00208,37.24003],[-122.00229,37.24001],[-122.00229,37.24004],[-122.00239,37.24099],[-122.00208,37.24101],[-122.0021,37.24116],[-122.00165,37.24052]]],[[[-122.00261,37.24131],[-122.00345,37.24115],[-122.00338,37.24125],[-122.00311,37.24129],[-122.00314,37.24131],[-122.00261,37.24131]]]],"type":"MultiPolygon"},"properties":{"bbox":{"roads":{"area":649.9,"pct":11.74}},"city_same":1,"id":"hex:3923:23798"},"type":"Feature"},{"geometry":{"coordinates":[[[-122.00314,37.24131],[-122.00318,37.24134],[-122.00315,37.24135],[-122.00314,37.24136],[-122.00313,37.24137],[-122.00312,37.24138],[-122.00311,37.24139],[-122.00311,37.2414],[-122.00311,37.24141],[-122.00311,37.24142],[-122.00312,37.24143],[-122.00312,37.24144],[-122.00313,37.24145],[-122.00314,37.24146],[-122.00315,37.24147],[-122.00317,37.24147],[-122.00251,37.24176],[-122.00179,37.24186],[-122.00218,37.24133],[-122.00226,37.24134],[-122.00236,37.24134],[-122.00245,37.24133],[-122.00255,37.24132],[-122.00261,37.24131],[-122.00314,37.24131]]],"type":"Polygon"},"properties":{"bbox":{"roads":{"area":1408.53,"pct":32.8}},"city":{"roads":{"area":407.23,"pct":9.48}},"id":"hex:3923:23799"},"type":"Feature"},{"geometry":{"coordinates":[[[-122.00067,37.22958],[-122.00011,37.22879],[-122.00023,37.22863],[-122.00026,37.22865],[-122.00147,37.22959],[-122.00067,37.22958]]],"type":"Polygon"},"properties":{"bbox":{"roads":{"area":23.09,"pct":0.5}},"city_same":1,"id":"hex:3924:23791"},"type":"Feature"},{"geometry":{"coordinates":[[[-122.00235,37.23037],[-122.00177,37.23115],[-122.00065,37.23114],[-122.00009,37.23036],[-122.00067,37.22958],[-122.00147,37.22959],[-122.00175,37.2298],[-122.0022,37.23016],[-122.00235,37.23037]]],"type":"Polygon"},"properties":{"bbox":{"roads":{"area":1574.84,"pct":6.28}},"city_same":1,"id":"hex:3924:23792"},"type":"Feature"},{"geometry":{"coordinates":[[[-122.00007,37.23192],[-122.00062,37.2327],[-122.00175,37.23271],[-122.00233,37.23194],[-122.00177,37.23115],[-122.00065,37.23114],[-122.00007,37.23192]]],"type":"Polygon"},"properties":{"bbox":{"roads":{"area":1432.33,"pct":5.51}},"city_same":1,"id":"hex:3924:23793"},"type":"Feature"},{"geometry":{"coordinates":[[[[-122.00024,37.23693],[-122.00026,37.23689],[-122.00033,37.2368],[-122.00034,37.23679],[-122.00036,37.23678],[-122.00037,37.23677],[-122.00039,37.23676],[-122.00041,37.23675],[-122.00043,37.23675],[-122.00046,37.23676],[-122.00048,37.23667],[-122.00048,37.23665],[-122.00064,37.23624],[-122.0009,37.23583],[-122.00171,37.23583],[-122.00226,37.23662],[-122.00169,37.23739],[-122.00088,37.23739],[-122.00055,37.23736],[-122.00024,37.23693]]],[[[-122.00058,37.23582],[-122.00088,37.23583],[-122.00032,37.23628],[-122.00015,37.23641],[-122.00058,37.23582]]]],"type":"MultiPolygon"},"properties":{"bbox":{"roads":{"area":748.72,"pct":3.25}},"city_same":1,"id":"hex:3924:23796"},"type":"Feature"},{"geometry":{"coordinates":[[[-122.00169,37.23739],[-122.00173,37.23745],[-122.00088,37.23739],[-122.00169,37.23739]]],"type":"Polygon"},"properties":{"bbox":{"roads":{"area":1.6,"pct":0.71}},"city_same":1,"id":"hex:3924:23797"},"type":"Feature"},{"geometry":{"coordinates":[[[-122.00165,37.24052],[-122.00087,37.24051],[-122.00086,37.23994],[-122.0009,37.23993],[-122.00112,37.23989],[-122.00122,37.2399],[-122.00128,37.23989],[-122.00169,37.23996],[-122.00202,37.24001],[-122.00165,37.24052]]],"type":"Polygon"},"properties":{"bbox":{"roads":{"area":445.39,"pct":7.86}},"city_same":1,"id":"hex:3924:23798"},"type":"Feature"},{"geometry":{"coordinates":[[[-122.0005,37.24207],[-121.99995,37.24128],[-122.00023,37.2409],[-122.00049,37.24099],[-122.00054,37.241],[-122.00088,37.24107],[-122.00087,37.24051],[-122.00165,37.24052],[-122.0021,37.24116],[-122.00212,37.24132],[-122.00216,37.24133],[-122.00218,37.24133],[-122.00179,37.24186],[-122.00156,37.24189],[-122.00141,37.24177],[-122.00128,37.2418],[-122.00119,37.24199],[-122.00107,37.24201],[-122.00096,37.24196],[-122.00091,37.24199],[-122.00093,37.24207],[-122.0005,37.24207]]],"type":"Polygon"},"properties":{"bbox":{"roads":{"area":4914.14,"pct":22.4}},"city":{"roads":{"area":2158.41,"pct":9.84}},"id":"hex:3924:23799"},"type":"Feature"},{"geometry":{"coordinates":[[[-122.0005,37.24207],[-122.00093,37.24207],[-122.00095,37.24215],[-122.00093,37.24218],[-122.00073,37.24218],[-122.00058,37.2424],[-122.00043,37.24237],[-122.00033,37.24244],[-122.00029,37.24259],[-122.00023,37.2426],[-122.00013,37.24257],[-122.0005,37.24207]]],"type":"Polygon"},"properties":{"bbox":{"roads":{"area":141.55,"pct":9.83}},"city_same":1,"id":"hex:3924:23800"},"type":"Feature"},{"geometry":{"coordinates":[[[-121.99901,37.22722],[-121.99869,37.22677],[-121.99878,37.22672],[-121.99893,37.22664],[-121.99918,37.2265],[-121.99917,37.22723],[-121.99901,37.22722]]],"type":"Polygon"},"properties":{"bbox":{"roads":{"area":272.25,"pct":12.98}},"city_same":1,"id":"hex:3925:23789"},"type":"Feature"},{"geometry":{"coordinates":[[[-122.00011,37.22879],[-121.99899,37.22879],[-121.99843,37.228],[-121.99901,37.22722],[-121.99917,37.22723],[-121.99916,37.22776],[-122.00023,37.22863],[-122.00011,37.22879]]],"type":"Polygon"},"properties":{"bbox":{"roads":{"area":472.81,"pct":3.61}},"city_same":1,"id":"hex:3925:23790"},"type":"Feature"},{"geometry":{"coordinates":[[[-121.99841,37.22956],[-121.99896,37.23035],[-122.00009,37.23036],[-122.00067,37.22958],[-122.00011,37.22879],[-121.99899,37.22879],[-121.99841,37.22956]]],"type":"Polygon"},"properties":{"bbox":{"roads":{"area":2201.95,"pct":8.48}},"city_same":1,"id":"hex:3925:23791"},"type":"Feature"},{"geometry":{"coordinates":[[[-121.99839,37.23112],[-121.99894,37.23191],[-122.00007,37.23192],[-122.00065,37.23114],[-122.00009,37.23036],[-121.99896,37.23035],[-121.99839,37.23112]]],"type":"Polygon"},"properties":{"bbox":{"roads":{"area":2285.74,"pct":8.8}},"city_same":1,"id":"hex:3925:23792"},"type":"Feature"},{"geometry":{"coordinates":[[[-121.99837,37.23268],[-121.99892,37.23347],[-122.00005,37.23348],[-122.00062,37.2327],[-122.00007,37.23192],[-121.99894,37.23191],[-121.99837,37.23268]]],"type":"Polygon"},"properties":{"bbox":{"roads":{"area":1167.62,"pct":4.49}},"city_same":1,"id":"hex:3925:23793"},"type":"Feature"},{"geometry":{"coordinates":[[[-121.9989,37.23503],[-121.99835,37.23424],[-121.99892,37.23347],[-122.00005,37.23348],[-122.0006,37.23426],[-122.00027,37.23471],[-121.99947,37.23503],[-121.9989,37.23503]]],"type":"Polygon"},"properties":{"bbox":{"roads":{"area":588.49,"pct":2.35}},"city_same":1,"id":"hex:3925:23794"},"type":"Feature"},{"geometry":{"coordinates":[[[-121.99888,37.23659],[-121.99833,37.23581],[-121.9989,37.23503],[-121.99947,37.23503],[-121.99938,37.23507],[-121.99901,37.23525],[-122.00012,37.23612],[-122.00049,37.23569],[-122.00058,37.23582],[-122.00015,37.23641],[-121.99989,37.2366],[-121.99888,37.23659]]],"type":"Polygon"},"properties":{"bbox":{"roads":{"area":531.72,"pct":3.02}},"city_same":1,"id":"hex:3925:23795"},"type":"Feature"},{"geometry":{"coordinates":[[[[-122.00055,37.23736],[-122.00002,37.23732],[-122.00006,37.23722],[-122.00013,37.2371],[-122.0002,37.23698],[-122.00024,37.23693],[-122.00055,37.23736]]],[[[-121.99888,37.23659],[-121.99989,37.2366],[-121.9993,37.23703],[-121.99884,37.23665],[-121.99888,37.23659]]]],"type":"MultiPolygon"},"properties":{"bbox":{"roads":{"area":41.91,"pct":1.21}},"city_same":1,"id":"hex:3925:23796"},"type":"Feature"},{"geometry":{"coordinates":[[[-121.99995,37.24128],[-121.99882,37.24127],[-121.99827,37.24049],[-121.99833,37.2404],[-121.99835,37.24041],[-121.99838,37.24041],[-121.99841,37.24041],[-121.99844,37.24041],[-121.99848,37.2404],[-121.99851,37.24039],[-121.99853,37.24037],[-121.99855,37.24035],[-121.99856,37.24032],[-121.99857,37.2403],[-121.99857,37.24027],[-121.99871,37.24038],[-121.99869,37.2404],[-121.99868,37.24041],[-121.99867,37.24043],[-121.99867,37.24045],[-121.99867,37.24047],[-121.99868,37.24048],[-121.9987,37.2405],[-121.99872,37.24051],[-121.99991,37.24078],[-122.00023,37.2409],[-121.99995,37.24128]]],"type":"Polygon"},"properties":{"bbox":{"roads":{"area":2632.67,"pct":25.95}},"city":{"roads":{"area":254.28,"pct":2.51}},"id":"hex:3925:23798"},"type":"Feature"},{"geometry":{"coordinates":[[[-121.99834,37.24218],[-121.99839,37.24214],[-121.9983,37.24198],[-121.99882,37.24127],[-121.99995,37.24128],[-122.0005,37.24207],[-122.00013,37.24257],[-121.99996,37.24251],[-121.99991,37.24244],[-121.99954,37.24229],[-121.99945,37.24227],[-121.99935,37.24232],[-121.99924,37.24234],[-121.99886,37.24263],[-121.99868,37.24266],[-121.99834,37.24218]]],"type":"Polygon"},"properties":{"bbox":{"roads":{"area":1554.99,"pct":7.56}},"city":{"roads":{"area":1552.72,"pct":7.55}},"id":"hex:3925:23799"},"type":"Feature"},{"geometry":{"coordinates":[[[-121.99901,37.22722],[-121.99843,37.228],[-121.99731,37.22799],[-121.99678,37.22725],[-121.99687,37.22719],[-121.99693,37.22715],[-121.99698,37.22712],[-121.99703,37.22709],[-121.9971,37.22706],[-121.99733,37.22697],[-121.9974,37.22693],[-121.99745,37.2269],[-121.99751,37.22685],[-121.99754,37.22683],[-121.99756,37.22682],[-121.99759,37.22681],[-121.99763,37.2268],[-121.99768,37.2268],[-121.9977,37.2268],[-121.99798,37.22683],[-121.99806,37.22683],[-121.9981,37.22683],[-121.99831,37.22683],[-121.9984,37.22683],[-121.99849,37.22683],[-121.99857,37.22681],[-121.99863,37.2268],[-121.99869,37.22677],[-121.99901,37.22722]]],"type":"Polygon"},"properties":{"bbox":{"roads":{"area":831.2,"pct":4.28}},"city_same":1,"id":"hex:3926:23790"},"type":"Feature"},{"geometry":{"coordinates":[[[-121.99673,37.22877],[-121.99728,37.22955],[-121.99841,37.22956],[-121.99899,37.22879],[-121.99843,37.228],[-121.99731,37.22799],[-121.99673,37.22877]]],"type":"Polygon"},"properties":{"bbox":{"roads":{"area":2154.14,"pct":8.29}},"city_same":1,"id":"hex:3926:23791"},"type":"Feature"},{"geometry":{"coordinates":[[[-121.99671,37.23033],[-121.99726,37.23111],[-121.99839,37.23112],[-121.99896,37.23035],[-121.99841,37.22956],[-121.99728,37.22955],[-121.99671,37.23033]]],"type":"Polygon"},"properties":{"bbox":{"roads":{"area":516.78,"pct":1.99}},"city_same":1,"id":"hex:3926:23792"},"type":"Feature"},{"geometry":{"coordinates":[[[-121.99669,37.23189],[-121.99724,37.23267],[-121.99837,37.23268],[-121.99894,37.23191],[-121.99839,37.23112],[-121.99726,37.23111],[-121.99669,37.23189]]],"type":"Polygon"},"properties":{"bbox":{"roads":{"area":810.24,"pct":3.12}},"city_same":1,"id":"hex:3926:23793"},"type":"Feature"},{"geometry":{"coordinates":[[[-121.99667,37.23345],[-121.99722,37.23423],[-121.99835,37.23424],[-121.99892,37.23347],[-121.99837,37.23268],[-121.99724,37.23267],[-121.99667,37.23345]]],"type":"Polygon"},"properties":{"bbox":{"roads":{"area":1949.54,"pct":7.5}},"city_same":1,"id":"hex:3926:23794"},"type":"Feature"},{"geometry":{"coordinates":[[[-121.99665,37.23501],[-121.9972,37.2358],[-121.99833,37.23581],[-121.9989,37.23503],[-121.99835,37.23424],[-121.99722,37.23423],[-121.99665,37.23501]]],"type":"Polygon"},"properties":{"bbox":{"roads":{"area":1613.14,"pct":6.21}},"city_same":1,"id":"hex:3926:23795"},"type":"Feature"},{"geometry":{"coordinates":[[[-121.99827,37.24049],[-121.99789,37.24049],[-121.99806,37.24029],[-121.99824,37.24036],[-121.99833,37.2404],[-121.99827,37.24049]]],"type":"Polygon"},"properties":{"bbox":{"roads":{"area":167.72,"pct":32.1}},"id":"hex:3926:23798"},"type":"Feature"},{"geometry":{"coordinates":[[[[-121.99712,37.24204],[-121.99699,37.24186],[-121.997,37.24186],[-121.99701,37.24185],[-121.99704,37.24185],[-121.99707,37.24184],[-121.99711,37.24183],[-121.99736,37.24182],[-121.99743,37.24182],[-121.99751,37.24183],[-121.99759,37.24184],[-121.99767,37.24186],[-121.99776,37.24189],[-121.9978,37.24197],[-121.99783,37.24202],[-121.99785,37.24205],[-121.99712,37.24204]]],[[[-121.99827,37.24049],[-121.99882,37.24127],[-121.9983,37.24198],[-121.99829,37.24196],[-121.99829,37.2418],[-121.99823,37.24181],[-121.9982,37.24164],[-121.99818,37.24155],[-121.99816,37.24146],[-121.9981,37.24131],[-121.99809,37.24129],[-121.99805,37.24121],[-121.99812,37.24118],[-121.998,37.24107],[-121.99763,37.24071],[-121.99772,37.24067],[-121.99789,37.24049],[-121.99827,37.24049]]]],"type":"MultiPolygon"},"properties":{"bbox":{"roads":{"area":926.43,"pct":10.07}},"city":{"roads":{"area":457.06,"pct":4.97}},"id":"hex:3926:23799"},"type":"Feature"},{"geometry":{"coordinates":[[[-121.9971,37.2436],[-121.99654,37.24282],[-121.99712,37.24204],[-121.99785,37.24205],[-121.99787,37.24207],[-121.99792,37.24212],[-121.99798,37.24216],[-121.99809,37.24224],[-121.9982,37.2423],[-121.99834,37.24218],[-121.99868,37.24266],[-121.9986,37.24267],[-121.99841,37.24269],[-121.99832,37.24272],[-121.9982,37.24289],[-121.99788,37.24308],[-121.99782,37.2433],[-121.99754,37.24344],[-121.99736,37.2436],[-121.9971,37.2436]]],"type":"Polygon"},"properties":{"bbox":{"roads":{"area":1655.46,"pct":8.61}},"city":{"roads":{"area":1335.55,"pct":6.95}},"id":"hex:3926:23800"},"type":"Feature"},{"geometry":{"coordinates":[[[-121.99652,37.24438],[-121.9971,37.2436],[-121.99736,37.2436],[-121.9973,37.24367],[-121.99716,37.24388],[-121.99697,37.24395],[-121.99705,37.24397],[-121.99697,37.24408],[-121.99704,37.24423],[-121.99688,37.2444],[-121.99683,37.24455],[-121.99685,37.24465],[-121.99682,37.2448],[-121.99652,37.24438]]],"type":"Polygon"},"properties":{"bbox":{"roads":{"area":92.66,"pct":3.22}},"city_same":1,"id":"hex:3926:23801"},"type":"Feature"},{"geometry":{"coordinates":[[[-121.99731,37.22799],[-121.99673,37.22877],[-121.9956,37.22876],[-121.99528,37.22829],[-121.99544,37.22821],[-121.99564,37.22813],[-121.99637,37.22792],[-121.99642,37.22744],[-121.99645,37.22743],[-121.99652,37.22741],[-121.99659,37.22738],[-121.99665,37.22734],[-121.99678,37.22725],[-121.99731,37.22799]]],"type":"Polygon"},"properties":{"bbox":{"roads":{"area":569.17,"pct":3.63}},"city_same":1,"id":"hex:3927:23790"},"type":"Feature"},{"geometry":{"coordinates":[[[-121.99503,37.22953],[-121.99558,37.23032],[-121.99671,37.23033],[-121.99728,37.22955],[-121.99673,37.22877],[-121.9956,37.22876],[-121.99503,37.22953]]],"type":"Polygon"},"properties":{"bbox":{"roads":{"area":2177.9,"pct":8.38}},"city_same":1,"id":"hex:3927:23791"},"type":"Feature"},{"geometry":{"coordinates":[[[-121.99501,37.23109],[-121.99556,37.23188],[-121.99669,37.23189],[-121.99726,37.23111],[-121.99671,37.23033],[-121.99558,37.23032],[-121.99501,37.23109]]],"type":"Polygon"},"properties":{"bbox":{"roads":{"area":841.17,"pct":3.24}},"city_same":1,"id":"hex:3927:23792"},"type":"Feature"},{"geometry":{"coordinates":[[[-121.99499,37.23265],[-121.99554,37.23344],[-121.99667,37.23345],[-121.99724,37.23267],[-121.99669,37.23189],[-121.99556,37.23188],[-121.99499,37.23265]]],"type":"Polygon"},"properties":{"bbox":{"roads":{"area":1897.09,"pct":7.3}},"city_same":1,"id":"hex:3927:23793"},"type":"Feature"},{"geometry":{"coordinates":[[[-121.99497,37.23422],[-121.99552,37.235],[-121.99665,37.23501],[-121.99722,37.23423],[-121.99667,37.23345],[-121.99554,37.23344],[-121.99497,37.23422]]],"type":"Polygon"},"properties":{"bbox":{"roads":{"area":2709.44,"pct":10.43}},"city_same":1,"id":"hex:3927:23794"},"type":"Feature"},{"geometry":{"coordinates":[[[-121.99495,37.23578],[-121.99552,37.235],[-121.99665,37.23501],[-121.9972,37.2358],[-121.99711,37.23592],[-121.99711,37.23591],[-121.99707,37.23586],[-121.99706,37.23584],[-121.99704,37.23583],[-121.99702,37.23582],[-121.997,37.23581],[-121.99698,37.23581],[-121.99695,37.2358],[-121.99693,37.23581],[-121.9969,37.23581],[-121.99689,37.23582],[-121.99673,37.23589],[-121.99638,37.2359],[-121.99629,37.2359],[-121.99621,37.23592],[-121.99613,37.23593],[-121.99606,37.23596],[-121.99599,37.23599],[-121.99592,37.23603],[-121.99586,37.23608],[-121.99583,37.23611],[-121.99557,37.23634],[-121.99552,37.23639],[-121.99545,37.23647],[-121.99544,37.23648],[-121.99495,37.23578]]],"type":"Polygon"},"properties":{"bbox":{"roads":{"area":400.31,"pct":2.21}},"city_same":1,"id":"hex:3927:23795"},"type":"Feature"},{"geometry":{"coordinates":[[[-121.99712,37.24204],[-121.99654,37.24282],[-121.99553,37.24281],[-121.99554,37.24274],[-121.99554,37.24271],[-121.99555,37.24269],[-121.99557,37.24267],[-121.99559,37.24266],[-121.99561,37.24264],[-121.99574,37.2426],[-121.99575,37.24259],[-121.99579,37.24259],[-121.99583,37.24259],[-121.99585,37.24259],[-121.99633,37.24274],[-121.99635,37.24274],[-121.99637,37.24274],[-121.99639,37.24274],[-121.99641,37.24274],[-121.99643,37.24273],[-121.99645,37.24272],[-121.99646,37.24271],[-121.99655,37.24262],[-121.99657,37.2426],[-121.99658,37.24257],[-121.99659,37.24254],[-121.99659,37.24251],[-121.99659,37.24248],[-121.99658,37.24245],[-121.99656,37.24243],[-121.99654,37.2424],[-121.99653,37.24239],[-121.99647,37.24235],[-121.99643,37.24232],[-121.99686,37.24195],[-121.99697,37.2419],[-121.99698,37.24188],[-121.99699,37.24187],[-121.99699,37.24186],[-121.99712,37.24204]]],"type":"Polygon"},"properties":{"bbox":{"roads":{"area":480.63,"pct":12.51}},"city_same":1,"id":"hex:3927:23799"},"type":"Feature"},{"geometry":{"coordinates":[[[-121.99654,37.24282],[-121.9971,37.2436],[-121.99652,37.24438],[-121.9954,37.24437],[-121.99484,37.24358],[-121.99516,37.24316],[-121.99518,37.24315],[-121.99522,37.24318],[-121.99527,37.24322],[-121.99532,37.24327],[-121.99534,37.24329],[-121.99536,37.2433],[-121.99538,37.24331],[-121.99541,37.24331],[-121.99549,37.2432],[-121.9955,37.24316],[-121.99551,37.24313],[-121.99553,37.24281],[-121.99654,37.24282]]],"type":"Polygon"},"properties":{"bbox":{"roads":{"area":997.89,"pct":4.01}},"city_same":1,"id":"hex:3927:23800"},"type":"Feature"},{"geometry":{"coordinates":[[[-121.99538,37.24593],[-121.99482,37.24514],[-121.9954,37.24437],[-121.99652,37.24438],[-121.99682,37.2448],[-121.9968,37.24493],[-121.99666,37.24514],[-121.99625,37.24536],[-121.99622,37.24557],[-121.99618,37.24566],[-121.99602,37.24573],[-121.99599,37.24586],[-121.99599,37.24593],[-121.99538,37.24593]]],"type":"Polygon"},"properties":{"bbox":{"roads":{"area":1550.07,"pct":7.44}},"city_same":1,"id":"hex:3927:23801"},"type":"Feature"},{"geometry":{"coordinates":[[[-121.99536,37.24749],[-121.9948,37.2467],[-121.99538,37.24593],[-121.99599,37.24593],[-121.99598,37.24598],[-121.99611,37.24621],[-121.9961,37.2463],[-121.99601,37.2464],[-121.9958,37.24651],[-121.99572,37.24657],[-121.9953,37.24662],[-121.99524,37.24665],[-121.9952,37.24673],[-121.99548,37.24703],[-121.99553,37.24708],[-121.99573,37.24744],[-121.99575,37.24749],[-121.99536,37.24749]]],"type":"Polygon"},"properties":{"bbox":{"roads":{"area":55.12,"pct":0.59}},"city_same":1,"id":"hex:3927:23802"},"type":"Feature"},{"geometry":{"coordinates":[[[-121.99533,37.24905],[-121.99478,37.24826],[-121.99536,37.24749],[-121.99575,37.24749],[-121.99579,37.24761],[-121.9958,37.24775],[-121.99578,37.24783],[-121.9957,37.24797],[-121.99566,37.24806],[-121.99559,37.24821],[-121.99547,37.24854],[-121.99544,37.24859],[-121.99547,37.24883],[-121.99534,37.24898],[-121.99534,37.24905],[-121.99533,37.24905]]],"type":"Polygon"},"properties":{"bbox":{"roads":{"area":596.55,"pct":7.39}},"city_same":1,"id":"hex:3927:23803"},"type":"Feature"},{"geometry":{"coordinates":[[[-121.99531,37.25061],[-121.99476,37.24983],[-121.99533,37.24905],[-121.99534,37.24905],[-121.99534,37.24937],[-121.99525,37.24946],[-121.99517,37.24957],[-121.99529,37.24993],[-121.99528,37.25004],[-121.99534,37.25022],[-121.99538,37.25028],[-121.99547,37.25028],[-121.99547,37.25058],[-121.99545,37.25061],[-121.99531,37.25061]]],"type":"Polygon"},"properties":{"bbox":{"roads":{"area":140.3,"pct":3.27}},"id":"hex:3927:23804"},"type":"Feature"},{"geometry":{"coordinates":[[[-121.99531,37.25061],[-121.99545,37.25061],[-121.99542,37.25065],[-121.99538,37.25071],[-121.99536,37.25075],[-121.99534,37.25081],[-121.9953,37.25093],[-121.99527,37.25093],[-121.9952,37.25093],[-121.99521,37.25089],[-121.99511,37.25088],[-121.99531,37.25061]]],"type":"Polygon"},"properties":{"bbox":{"roads":{"area":275.34,"pct":58.94}},"city":{"roads":{"area":22.47,"pct":4.81}},"id":"hex:3927:23805"},"type":"Feature"},{"geometry":{"coordinates":[[[-121.99341,37.22882],[-121.99492,37.22846],[-121.99528,37.22829],[-121.9956,37.22876],[-121.99503,37.22953],[-121.9939,37.22952],[-121.99351,37.22897],[-121.99357,37.22895],[-121.99345,37.22888],[-121.99341,37.22882]]],"type":"Polygon"},"properties":{"bbox":{"roads":{"area":1856.4,"pct":11.24}},"city_same":1,"id":"hex:3928:23791"},"type":"Feature"},{"geometry":{"coordinates":[[[-121.99333,37.2303],[-121.99388,37.23108],[-121.99501,37.23109],[-121.99558,37.23032],[-121.99503,37.22953],[-121.9939,37.22952],[-121.99333,37.2303]]],"type":"Polygon"},"properties":{"bbox":{"roads":{"area":2433.89,"pct":9.37}},"city_same":1,"id":"hex:3928:23792"},"type":"Feature"},{"geometry":{"coordinates":[[[-121.99331,37.23186],[-121.99386,37.23264],[-121.99499,37.23265],[-121.99556,37.23188],[-121.99501,37.23109],[-121.99388,37.23108],[-121.99331,37.23186]]],"type":"Polygon"},"properties":{"bbox":{"roads":{"area":924.11,"pct":3.56}},"city_same":1,"id":"hex:3928:23793"},"type":"Feature"},{"geometry":{"coordinates":[[[-121.99329,37.23342],[-121.99384,37.23421],[-121.99497,37.23422],[-121.99554,37.23344],[-121.99499,37.23265],[-121.99386,37.23264],[-121.99329,37.23342]]],"type":"Polygon"},"properties":{"bbox":{"roads":{"area":2280.74,"pct":8.78}},"city_same":1,"id":"hex:3928:23794"},"type":"Feature"},{"geometry":{"coordinates":[[[-121.99327,37.23498],[-121.99382,37.23577],[-121.99495,37.23578],[-121.99552,37.235],[-121.99497,37.23422],[-121.99384,37.23421],[-121.99327,37.23498]]],"type":"Polygon"},"properties":{"bbox":{"roads":{"area":2094.34,"pct":8.06}},"city_same":1,"id":"hex:3928:23795"},"type":"Feature"},{"geometry":{"coordinates":[[[-121.99493,37.23734],[-121.9938,37.23733],[-121.99325,37.23654],[-121.99382,37.23577],[-121.99495,37.23578],[-121.99544,37.23648],[-121.99539,37.23655],[-121.99533,37.23664],[-121.99529,37.23671],[-121.99515,37.23703],[-121.99493,37.23734]]],"type":"Polygon"},"properties":{"bbox":{"roads":{"area":495.18,"pct":1.93}},"city_same":1,"id":"hex:3928:23796"},"type":"Feature"},{"geometry":{"coordinates":[[[-121.99378,37.23889],[-121.99323,37.2381],[-121.9938,37.23733],[-121.99493,37.23734],[-121.99494,37.23736],[-121.99492,37.23738],[-121.99484,37.23745],[-121.99479,37.23749],[-121.99474,37.23754],[-121.9947,37.23759],[-121.99467,37.23765],[-121.99465,37.23771],[-121.99464,37.23776],[-121.99464,37.23782],[-121.99464,37.23788],[-121.99466,37.23794],[-121.99468,37.238],[-121.99471,37.23805],[-121.99475,37.2381],[-121.99479,37.23814],[-121.99518,37.23847],[-121.99478,37.23879],[-121.99464,37.2389],[-121.99378,37.23889]]],"type":"Polygon"},"properties":{"bbox":{"roads":{"area":2705.7,"pct":13.33},"sidewalks":{"area":252.12,"pct":1.24}},"city":{"roads":{"area":95.16,"pct":0.47},"sidewalks":{"area":252.12,"pct":1.24}},"id":"hex:3928:23797"},"type":"Feature"},{"geometry":{"coordinates":[[[-121.9932,37.23966],[-121.99378,37.23889],[-121.99464,37.2389],[-121.99438,37.23909],[-121.99396,37.23936],[-121.9933,37.23973],[-121.99327,37.23976],[-121.9932,37.23966]]],"type":"Polygon"},"properties":{"bbox":{"roads":{"area":162.39,"pct":3.62}},"city_same":1,"id":"hex:3928:23798"},"type":"Feature"},{"geometry":{"coordinates":[[[-121.99484,37.24358],[-121.99372,37.24357],[-121.99316,37.24279],[-121.99333,37.24256],[-121.99348,37.24269],[-121.99351,37.24272],[-121.99374,37.24266],[-121.99378,37.24264],[-121.99384,37.24263],[-121.99403,37.24263],[-121.99407,37.24262],[-121.99409,37.24261],[-121.99412,37.2426],[-121.99424,37.24264],[-121.99426,37.24268],[-121.99428,37.24272],[-121.99431,37.24275],[-121.99435,37.24278],[-121.99439,37.2428],[-121.99443,37.24281],[-121.99446,37.24286],[-121.99475,37.24329],[-121.9951,37.24318],[-121.99516,37.24316],[-121.99484,37.24358]]],"type":"Polygon"},"properties":{"bbox":{"roads":{"area":451.46,"pct":3.88}},"city_same":1,"id":"hex:3928:23800"},"type":"Feature"},{"geometry":{"coordinates":[[[-121.99314,37.24435],[-121.9937,37.24513],[-121.99482,37.24514],[-121.9954,37.24437],[-121.99484,37.24358],[-121.99372,37.24357],[-121.99314,37.24435]]],"type":"Polygon"},"properties":{"bbox":{"roads":{"area":2064.88,"pct":7.95}},"city_same":1,"id":"hex:3928:23801"},"type":"Feature"},{"geometry":{"coordinates":[[[-121.99312,37.24591],[-121.99367,37.24669],[-121.9948,37.2467],[-121.99538,37.24593],[-121.99482,37.24514],[-121.9937,37.24513],[-121.99312,37.24591]]],"type":"Polygon"},"properties":{"bbox":{"roads":{"area":2267.54,"pct":8.73}},"city_same":1,"id":"hex:3928:23802"},"type":"Feature"},{"geometry":{"coordinates":[[[-121.9931,37.24747],[-121.99365,37.24826],[-121.99478,37.24826],[-121.99536,37.24749],[-121.9948,37.2467],[-121.99367,37.24669],[-121.9931,37.24747]]],"type":"Polygon"},"properties":{"bbox":{"roads":{"area":299.5,"pct":1.15}},"city_same":1,"id":"hex:3928:23803"},"type":"Feature"},{"geometry":{"coordinates":[[[-121.99308,37.24903],[-121.99363,37.24982],[-121.99476,37.24983],[-121.99533,37.24905],[-121.99478,37.24826],[-121.99365,37.24826],[-121.99308,37.24903]]],"type":"Polygon"},"properties":{"bbox":{"roads":{"area":505.1,"pct":1.94}},"city_same":1,"id":"hex:3928:23804"},"type":"Feature"},{"geometry":{"coordinates":[[[-121.99306,37.25059],[-121.99363,37.24982],[-121.99476,37.24983],[-121.99531,37.25061],[-121.99511,37.25088],[-121.99508,37.25088],[-121.99419,37.2508],[-121.99315,37.25072],[-121.99306,37.25059]]],"type":"Polygon"},"properties":{"bbox":{"roads":{"area":8.86,"pct":0.05}},"city_same":1,"id":"hex:3928:23805"},"type":"Feature"},{"geometry":{"coordinates":[[[[-121.9939,37.22952],[-121.99333,37.2303],[-121.9922,37.23029],[-121.99165,37.2295],[-121.99177,37.22934],[-121.99195,37.22934],[-121.99216,37.22932],[-121.99252,37.22935],[-121.99301,37.22915],[-121.99351,37.22897],[-121.9939,37.22952]]],[[[-121.99345,37.22888],[-121.99336,37.22883],[-121.99341,37.22882],[-121.99345,37.22888]]]],"type":"MultiPolygon"},"properties":{"bbox":{"roads":{"area":232.6,"pct":1.23}},"city_same":1,"id":"hex:3929:23791"},"type":"Feature"},{"geometry":{"coordinates":[[[-121.99163,37.23106],[-121.99218,37.23185],[-121.99331,37.23186],[-121.99388,37.23108],[-121.99333,37.2303],[-121.9922,37.23029],[-121.99163,37.23106]]],"type":"Polygon"},"properties":{"bbox":{"roads":{"area":2820.6,"pct":10.86}},"city_same":1,"id":"hex:3929:23792"},"type":"Feature"},{"geometry":{"coordinates":[[[-121.99161,37.23263],[-121.99216,37.23341],[-121.99329,37.23342],[-121.99386,37.23264],[-121.99331,37.23186],[-121.99218,37.23185],[-121.99161,37.23263]]],"type":"Polygon"},"properties":{"bbox":{"roads":{"area":2654.87,"pct":10.22}},"city_same":1,"id":"hex:3929:23793"},"type":"Feature"},{"geometry":{"coordinates":[[[-121.99159,37.23419],[-121.99214,37.23497],[-121.99327,37.23498],[-121.99384,37.23421],[-121.99329,37.23342],[-121.99216,37.23341],[-121.99159,37.23419]]],"type":"Polygon"},"properties":{"bbox":{"roads":{"area":2057.68,"pct":7.92}},"city_same":1,"id":"hex:3929:23794"},"type":"Feature"},{"geometry":{"coordinates":[[[-121.99157,37.23575],[-121.99212,37.23653],[-121.99325,37.23654],[-121.99382,37.23577],[-121.99327,37.23498],[-121.99214,37.23497],[-121.99157,37.23575]]],"type":"Polygon"},"properties":{"bbox":{"roads":{"area":2857.49,"pct":11}},"city":{"roads":{"area":1080.93,"pct":4.16}},"id":"hex:3929:23795"},"type":"Feature"},{"geometry":{"coordinates":[[[-121.99154,37.23731],[-121.9921,37.23809],[-121.99323,37.2381],[-121.9938,37.23733],[-121.99325,37.23654],[-121.99212,37.23653],[-121.99154,37.23731]]],"type":"Polygon"},"properties":{"bbox":{"roads":{"area":3738.05,"pct":14.39},"sidewalks":{"area":199.67,"pct":0.77}},"city":{"roads":{"area":1525.99,"pct":5.87},"sidewalks":{"area":199.67,"pct":0.77}},"id":"hex:3929:23796"},"type":"Feature"},{"geometry":{"coordinates":[[[-121.99152,37.23887],[-121.99208,37.23966],[-121.9932,37.23966],[-121.99378,37.23889],[-121.99323,37.2381],[-121.9921,37.23809],[-121.99152,37.23887]]],"type":"Polygon"},"properties":{"bbox":{"roads":{"area":1596.24,"pct":6.14}},"city_same":1,"id":"hex:3929:23797"},"type":"Feature"},{"geometry":{"coordinates":[[[-121.99206,37.24122],[-121.9915,37.24043],[-121.99208,37.23966],[-121.9932,37.23966],[-121.99327,37.23976],[-121.9928,37.24011],[-121.99247,37.24051],[-121.99236,37.24072],[-121.99206,37.24122],[-121.99206,37.24122]]],"type":"Polygon"},"properties":{"bbox":{"roads":{"area":683.98,"pct":5.48}},"city_same":1,"id":"hex:3929:23798"},"type":"Feature"},{"geometry":{"coordinates":[[[[-121.99148,37.24199],[-121.99188,37.24145],[-121.99183,37.24154],[-121.99186,37.24155],[-121.99175,37.24174],[-121.99167,37.24195],[-121.99172,37.24222],[-121.99176,37.24234],[-121.99174,37.24236],[-121.99148,37.24199]]],[[[-121.99316,37.24279],[-121.99204,37.24278],[-121.99179,37.24242],[-121.99235,37.24262],[-121.99293,37.24223],[-121.99333,37.24256],[-121.99316,37.24279]]],[[[-121.99206,37.24122],[-121.99206,37.24122],[-121.99204,37.24124],[-121.99204,37.24124],[-121.99206,37.24122]]]],"type":"MultiPolygon"},"properties":{"bbox":{"roads":{"area":150.4,"pct":2.87}},"city_same":1,"id":"hex:3929:23799"},"type":"Feature"},{"geometry":{"coordinates":[[[-121.99146,37.24355],[-121.99201,37.24434],[-121.99314,37.24435],[-121.99372,37.24357],[-121.99316,37.24279],[-121.99204,37.24278],[-121.99146,37.24355]]],"type":"Polygon"},"properties":{"bbox":{"roads":{"area":1118.99,"pct":4.31}},"city_same":1,"id":"hex:3929:23800"},"type":"Feature"},{"geometry":{"coordinates":[[[-121.99144,37.24511],[-121.99199,37.2459],[-121.99312,37.24591],[-121.9937,37.24513],[-121.99314,37.24435],[-121.99201,37.24434],[-121.99144,37.24511]]],"type":"Polygon"},"properties":{"bbox":{"roads":{"area":2100.98,"pct":8.09}},"city_same":1,"id":"hex:3929:23801"},"type":"Feature"},{"geometry":{"coordinates":[[[-121.99142,37.24667],[-121.99197,37.24746],[-121.9931,37.24747],[-121.99367,37.24669],[-121.99312,37.24591],[-121.99199,37.2459],[-121.99142,37.24667]]],"type":"Polygon"},"properties":{"bbox":{"roads":{"area":2103.89,"pct":8.1}},"city_same":1,"id":"hex:3929:23802"},"type":"Feature"},{"geometry":{"coordinates":[[[-121.9914,37.24824],[-121.99195,37.24902],[-121.99308,37.24903],[-121.99365,37.24826],[-121.9931,37.24747],[-121.99197,37.24746],[-121.9914,37.24824]]],"type":"Polygon"},"properties":{"bbox":{"roads":{"area":2433.02,"pct":9.36}},"city_same":1,"id":"hex:3929:23803"},"type":"Feature"},{"geometry":{"coordinates":[[[-121.99138,37.2498],[-121.99193,37.25058],[-121.99306,37.25059],[-121.99363,37.24982],[-121.99308,37.24903],[-121.99195,37.24902],[-121.99138,37.2498]]],"type":"Polygon"},"properties":{"bbox":{"roads":{"area":1730.4,"pct":6.66}},"city_same":1,"id":"hex:3929:23804"},"type":"Feature"},{"geometry":{"coordinates":[[[-121.99193,37.25058],[-121.99306,37.25059],[-121.99315,37.25072],[-121.99191,37.25061],[-121.99193,37.25058]]],"type":"Polygon"},"properties":{"bbox":{"roads":{"area":207.47,"pct":23.09}},"city_same":1,"id":"hex:3929:23805"},"type":"Feature"},{"geometry":{"coordinates":[[[-121.99165,37.2295],[-121.9922,37.23029],[-121.99163,37.23106],[-121.9905,37.23105],[-121.98995,37.23027],[-121.99024,37.22987],[-121.99026,37.22988],[-121.9905,37.22961],[-121.99063,37.22949],[-121.99165,37.2295]]],"type":"Polygon"},"properties":{"bbox":{"roads":{"area":1739.72,"pct":6.76}},"city_same":1,"id":"hex:3930:23792"},"type":"Feature"},{"geometry":{"coordinates":[[[-121.98993,37.23183],[-121.99048,37.23262],[-121.99161,37.23263],[-121.99218,37.23185],[-121.99163,37.23106],[-121.9905,37.23105],[-121.98993,37.23183]]],"type":"Polygon"},"properties":{"bbox":{"roads":{"area":1615.44,"pct":6.22}},"city_same":1,"id":"hex:3930:23793"},"type":"Feature"},{"geometry":{"coordinates":[[[-121.98991,37.23339],[-121.99046,37.23418],[-121.99159,37.23419],[-121.99216,37.23341],[-121.99161,37.23263],[-121.99048,37.23262],[-121.98991,37.23339]]],"type":"Polygon"},"properties":{"bbox":{"roads":{"area":1393.42,"pct":5.36}},"city_same":1,"id":"hex:3930:23794"},"type":"Feature"},{"geometry":{"coordinates":[[[-121.98989,37.23495],[-121.99044,37.23574],[-121.99157,37.23575],[-121.99214,37.23497],[-121.99159,37.23419],[-121.99046,37.23418],[-121.98989,37.23495]]],"type":"Polygon"},"properties":{"bbox":{"roads":{"area":4258.09,"pct":16.39}},"city":{"roads":{"area":1587.06,"pct":6.11}},"id":"hex:3930:23795"},"type":"Feature"},{"geometry":{"coordinates":[[[-121.98986,37.23651],[-121.99042,37.2373],[-121.99154,37.23731],[-121.99212,37.23653],[-121.99157,37.23575],[-121.99044,37.23574],[-121.98986,37.23651]]],"type":"Polygon"},"properties":{"bbox":{"roads":{"area":1436.48,"pct":5.53}},"city":{"roads":{"area":1288.22,"pct":4.96}},"id":"hex:3930:23796"},"type":"Feature"},{"geometry":{"coordinates":[[[-121.98984,37.23807],[-121.9904,37.23886],[-121.99152,37.23887],[-121.9921,37.23809],[-121.99154,37.23731],[-121.99042,37.2373],[-121.98984,37.23807]]],"type":"Polygon"},"properties":{"bbox":{"roads":{"area":480.26,"pct":1.85}},"city_same":1,"id":"hex:3930:23797"},"type":"Feature"},{"geometry":{"coordinates":[[[-121.98982,37.23964],[-121.99038,37.24042],[-121.9915,37.24043],[-121.99208,37.23966],[-121.99152,37.23887],[-121.9904,37.23886],[-121.98982,37.23964]]],"type":"Polygon"},"properties":{"bbox":{"roads":{"area":2295.75,"pct":8.84}},"city_same":1,"id":"hex:3930:23798"},"type":"Feature"},{"geometry":{"coordinates":[[[-121.99148,37.24199],[-121.99036,37.24198],[-121.9898,37.2412],[-121.99038,37.24042],[-121.9915,37.24043],[-121.99206,37.24122],[-121.99204,37.24124],[-121.99201,37.24123],[-121.99188,37.24145],[-121.99148,37.24199]]],"type":"Polygon"},"properties":{"bbox":{"roads":{"area":551.99,"pct":2.13}},"city_same":1,"id":"hex:3930:23799"},"type":"Feature"},{"geometry":{"coordinates":[[[-121.99204,37.24278],[-121.99146,37.24355],[-121.99033,37.24354],[-121.98978,37.24276],[-121.99036,37.24198],[-121.99148,37.24199],[-121.99174,37.24236],[-121.99173,37.2424],[-121.99179,37.24242],[-121.99204,37.24278]]],"type":"Polygon"},"properties":{"bbox":{"roads":{"area":2152.29,"pct":8.29}},"city_same":1,"id":"hex:3930:23800"},"type":"Feature"},{"geometry":{"coordinates":[[[-121.98976,37.24432],[-121.99031,37.2451],[-121.99144,37.24511],[-121.99201,37.24434],[-121.99146,37.24355],[-121.99033,37.24354],[-121.98976,37.24432]]],"type":"Polygon"},"properties":{"bbox":{"roads":{"area":1221.78,"pct":4.7}},"city_same":1,"id":"hex:3930:23801"},"type":"Feature"},{"geometry":{"coordinates":[[[-121.98974,37.24588],[-121.99029,37.24667],[-121.99142,37.24667],[-121.99199,37.2459],[-121.99144,37.24511],[-121.99031,37.2451],[-121.98974,37.24588]]],"type":"Polygon"},"properties":{"bbox":{"roads":{"area":1419.73,"pct":5.46}},"city_same":1,"id":"hex:3930:23802"},"type":"Feature"},{"geometry":{"coordinates":[[[-121.98972,37.24744],[-121.99027,37.24823],[-121.9914,37.24824],[-121.99197,37.24746],[-121.99142,37.24667],[-121.99029,37.24667],[-121.98972,37.24744]]],"type":"Polygon"},"properties":{"bbox":{"roads":{"area":1584.14,"pct":6.1}},"city_same":1,"id":"hex:3930:23803"},"type":"Feature"},{"geometry":{"coordinates":[[[-121.9897,37.249],[-121.99025,37.24979],[-121.99138,37.2498],[-121.99195,37.24902],[-121.9914,37.24824],[-121.99027,37.24823],[-121.9897,37.249]]],"type":"Polygon"},"properties":{"bbox":{"roads":{"area":438.53,"pct":1.69}},"city_same":1,"id":"hex:3930:23804"},"type":"Feature"},{"geometry":{"coordinates":[[[-121.99025,37.24979],[-121.99138,37.2498],[-121.99193,37.25058],[-121.99191,37.25061],[-121.99145,37.25058],[-121.98977,37.25043],[-121.99025,37.24979]]],"type":"Polygon"},"properties":{"bbox":{"roads":{"area":758.85,"pct":6.37}},"city_same":1,"id":"hex:3930:23805"},"type":"Feature"},{"geometry":{"coordinates":[[[-121.98995,37.23027],[-121.98882,37.23026],[-121.98882,37.23025],[-121.98945,37.22957],[-121.98956,37.22946],[-121.99024,37.22987],[-121.98995,37.23027]]],"type":"Polygon"},"properties":{"bbox":{"roads":{"area":668.86,"pct":10.41}},"city_same":1,"id":"hex:3931:23791"},"type":"Feature"},{"geometry":{"coordinates":[[[-121.98825,37.23104],[-121.9888,37.23182],[-121.98993,37.23183],[-121.9905,37.23105],[-121.98995,37.23027],[-121.98882,37.23026],[-121.98825,37.23104]]],"type":"Polygon"},"properties":{"bbox":{"roads":{"area":643.36,"pct":2.48}},"city_same":1,"id":"hex:3931:23792"},"type":"Feature"},{"geometry":{"coordinates":[[[-121.98823,37.2326],[-121.98878,37.23338],[-121.98991,37.23339],[-121.99048,37.23262],[-121.98993,37.23183],[-121.9888,37.23182],[-121.98823,37.2326]]],"type":"Polygon"},"properties":{"bbox":{"roads":{"area":1538.25,"pct":5.92}},"city_same":1,"id":"hex:3931:23793"},"type":"Feature"},{"geometry":{"coordinates":[[[-121.9882,37.23416],[-121.98876,37.23494],[-121.98989,37.23495],[-121.99046,37.23418],[-121.98991,37.23339],[-121.98878,37.23338],[-121.9882,37.23416]]],"type":"Polygon"},"properties":{"bbox":{"roads":{"area":3091.61,"pct":11.9}},"city":{"roads":{"area":1204.16,"pct":4.63}},"id":"hex:3931:23794"},"type":"Feature"},{"geometry":{"coordinates":[[[-121.98818,37.23572],[-121.98874,37.2365],[-121.98986,37.23651],[-121.99044,37.23574],[-121.98989,37.23495],[-121.98876,37.23494],[-121.98818,37.23572]]],"type":"Polygon"},"properties":{"bbox":{"roads":{"area":266.43,"pct":1.03}},"city_same":1,"id":"hex:3931:23795"},"type":"Feature"},{"geometry":{"coordinates":[[[-121.98816,37.23728],[-121.98872,37.23807],[-121.98984,37.23807],[-121.99042,37.2373],[-121.98986,37.23651],[-121.98874,37.2365],[-121.98816,37.23728]]],"type":"Polygon"},"properties":{"bbox":{"roads":{"area":891.29,"pct":3.43}},"city_same":1,"id":"hex:3931:23796"},"type":"Feature"},{"geometry":{"coordinates":[[[-121.98814,37.23884],[-121.9887,37.23963],[-121.98982,37.23964],[-121.9904,37.23886],[-121.98984,37.23807],[-121.98872,37.23807],[-121.98814,37.23884]]],"type":"Polygon"},"properties":{"bbox":{"roads":{"area":1125.07,"pct":4.33}},"city_same":1,"id":"hex:3931:23797"},"type":"Feature"},{"geometry":{"coordinates":[[[-121.98812,37.2404],[-121.98867,37.24119],[-121.9898,37.2412],[-121.99038,37.24042],[-121.98982,37.23964],[-121.9887,37.23963],[-121.98812,37.2404]]],"type":"Polygon"},"properties":{"bbox":{"roads":{"area":911.09,"pct":3.51}},"city_same":1,"id":"hex:3931:23798"},"type":"Feature"},{"geometry":{"coordinates":[[[-121.9881,37.24196],[-121.98865,37.24275],[-121.98978,37.24276],[-121.99036,37.24198],[-121.9898,37.2412],[-121.98867,37.24119],[-121.9881,37.24196]]],"type":"Polygon"},"properties":{"bbox":{"roads":{"area":1795.71,"pct":6.91}},"city_same":1,"id":"hex:3931:23799"},"type":"Feature"},{"geometry":{"coordinates":[[[-121.98808,37.24352],[-121.98863,37.24431],[-121.98976,37.24432],[-121.99033,37.24354],[-121.98978,37.24276],[-121.98865,37.24275],[-121.98808,37.24352]]],"type":"Polygon"},"properties":{"bbox":{"roads":{"area":2143.21,"pct":8.25}},"city_same":1,"id":"hex:3931:23800"},"type":"Feature"},{"geometry":{"coordinates":[[[-121.98806,37.24509],[-121.98861,37.24587],[-121.98974,37.24588],[-121.99031,37.2451],[-121.98976,37.24432],[-121.98863,37.24431],[-121.98806,37.24509]]],"type":"Polygon"},"properties":{"bbox":{"roads":{"area":914.55,"pct":3.52}},"city_same":1,"id":"hex:3931:23801"},"type":"Feature"},{"geometry":{"coordinates":[[[-121.98804,37.24665],[-121.98859,37.24743],[-121.98972,37.24744],[-121.99029,37.24667],[-121.98974,37.24588],[-121.98861,37.24587],[-121.98804,37.24665]]],"type":"Polygon"},"properties":{"bbox":{"roads":{"area":1820.38,"pct":7.01}},"city_same":1,"id":"hex:3931:23802"},"type":"Feature"},{"geometry":{"coordinates":[[[-121.98802,37.24821],[-121.98857,37.24899],[-121.9897,37.249],[-121.99027,37.24823],[-121.98972,37.24744],[-121.98859,37.24743],[-121.98802,37.24821]]],"type":"Polygon"},"properties":{"bbox":{"roads":{"area":2068.81,"pct":7.96}},"city_same":1,"id":"hex:3931:23803"},"type":"Feature"},{"geometry":{"coordinates":[[[-121.988,37.24977],[-121.98857,37.24899],[-121.9897,37.249],[-121.99025,37.24979],[-121.98977,37.25043],[-121.98951,37.25041],[-121.98929,37.2504],[-121.9884,37.25035],[-121.988,37.24977]]],"type":"Polygon"},"properties":{"bbox":{"roads":{"area":1111.17,"pct":4.66}},"city_same":1,"id":"hex:3931:23804"},"type":"Feature"},{"geometry":{"coordinates":[[[[-121.98712,37.23103],[-121.98657,37.23024],[-121.9866,37.23019],[-121.98801,37.23103],[-121.98712,37.23103]]],[[[-121.98882,37.23026],[-121.98825,37.23104],[-121.98808,37.23103],[-121.98816,37.23095],[-121.98882,37.23025],[-121.98882,37.23026]]]],"type":"MultiPolygon"},"properties":{"bbox":{"roads":{"area":329.24,"pct":7.23}},"city_same":1,"id":"hex:3932:23792"},"type":"Feature"},{"geometry":{"coordinates":[[[-121.98825,37.23104],[-121.9888,37.23182],[-121.98823,37.2326],[-121.9871,37.23259],[-121.98655,37.2318],[-121.98712,37.23103],[-121.98801,37.23103],[-121.98806,37.23106],[-121.98808,37.23103],[-121.98825,37.23104]]],"type":"Polygon"},"properties":{"bbox":{"roads":{"area":545.36,"pct":2.1}},"city_same":1,"id":"hex:3932:23793"},"type":"Feature"},{"geometry":{"coordinates":[[[-121.98652,37.23336],[-121.98708,37.23415],[-121.9882,37.23416],[-121.98878,37.23338],[-121.98823,37.2326],[-121.9871,37.23259],[-121.98652,37.23336]]],"type":"Polygon"},"properties":{"bbox":{"roads":{"area":3157.39,"pct":12.15}},"city":{"roads":{"area":1335.84,"pct":5.14}},"id":"hex:3932:23794"},"type":"Feature"},{"geometry":{"coordinates":[[[-121.9865,37.23492],[-121.98706,37.23571],[-121.98818,37.23572],[-121.98876,37.23494],[-121.9882,37.23416],[-121.98708,37.23415],[-121.9865,37.23492]]],"type":"Polygon"},"properties":{"bbox":{"roads":{"area":1681.21,"pct":6.47}},"city_same":1,"id":"hex:3932:23795"},"type":"Feature"},{"geometry":{"coordinates":[[[-121.98648,37.23648],[-121.98704,37.23727],[-121.98816,37.23728],[-121.98874,37.2365],[-121.98818,37.23572],[-121.98706,37.23571],[-121.98648,37.23648]]],"type":"Polygon"},"properties":{"bbox":{"roads":{"area":1990,"pct":7.66}},"city_same":1,"id":"hex:3932:23796"},"type":"Feature"},{"geometry":{"coordinates":[[[-121.98646,37.23805],[-121.98702,37.23883],[-121.98814,37.23884],[-121.98872,37.23807],[-121.98816,37.23728],[-121.98704,37.23727],[-121.98646,37.23805]]],"type":"Polygon"},"properties":{"bbox":{"roads":{"area":1186.05,"pct":4.57}},"city_same":1,"id":"hex:3932:23797"},"type":"Feature"},{"geometry":{"coordinates":[[[-121.98644,37.23961],[-121.98699,37.24039],[-121.98812,37.2404],[-121.9887,37.23963],[-121.98814,37.23884],[-121.98702,37.23883],[-121.98644,37.23961]]],"type":"Polygon"},"properties":{"bbox":{"roads":{"area":1196.19,"pct":4.6}},"city_same":1,"id":"hex:3932:23798"},"type":"Feature"},{"geometry":{"coordinates":[[[-121.98642,37.24117],[-121.98697,37.24195],[-121.9881,37.24196],[-121.98867,37.24119],[-121.98812,37.2404],[-121.98699,37.24039],[-121.98642,37.24117]]],"type":"Polygon"},"properties":{"bbox":{"roads":{"area":2297.15,"pct":8.84}},"city_same":1,"id":"hex:3932:23799"},"type":"Feature"},{"geometry":{"coordinates":[[[-121.9864,37.24273],[-121.98695,37.24351],[-121.98808,37.24352],[-121.98865,37.24275],[-121.9881,37.24196],[-121.98697,37.24195],[-121.9864,37.24273]]],"type":"Polygon"},"properties":{"bbox":{"roads":{"area":1164.6,"pct":4.48}},"city_same":1,"id":"hex:3932:23800"},"type":"Feature"},{"geometry":{"coordinates":[[[-121.98638,37.24429],[-121.98693,37.24508],[-121.98806,37.24509],[-121.98863,37.24431],[-121.98808,37.24352],[-121.98695,37.24351],[-121.98638,37.24429]]],"type":"Polygon"},"properties":{"bbox":{"parking":{"area":261.59,"pct":1.01},"roads":{"area":382.2,"pct":1.47}},"city_same":1,"id":"hex:3932:23801"},"type":"Feature"},{"geometry":{"coordinates":[[[-121.98636,37.24585],[-121.98691,37.24664],[-121.98804,37.24665],[-121.98861,37.24587],[-121.98806,37.24509],[-121.98693,37.24508],[-121.98636,37.24585]]],"type":"Polygon"},"properties":{"bbox":{"roads":{"area":877.67,"pct":3.38}},"city_same":1,"id":"hex:3932:23802"},"type":"Feature"},{"geometry":{"coordinates":[[[-121.98634,37.24741],[-121.98689,37.2482],[-121.98802,37.24821],[-121.98859,37.24743],[-121.98804,37.24665],[-121.98691,37.24664],[-121.98634,37.24741]]],"type":"Polygon"},"properties":{"bbox":{"roads":{"area":1200.14,"pct":4.62}},"city_same":1,"id":"hex:3932:23803"},"type":"Feature"},{"geometry":{"coordinates":[[[-121.98632,37.24897],[-121.98687,37.24976],[-121.988,37.24977],[-121.98857,37.24899],[-121.98802,37.24821],[-121.98689,37.2482],[-121.98632,37.24897]]],"type":"Polygon"},"properties":{"bbox":{"roads":{"area":501.47,"pct":1.93}},"city_same":1,"id":"hex:3932:23804"},"type":"Feature"},{"geometry":{"coordinates":[[[-121.98687,37.24976],[-121.988,37.24977],[-121.9884,37.25035],[-121.98832,37.25034],[-121.98808,37.25034],[-121.98721,37.25027],[-121.98717,37.25024],[-121.98713,37.25023],[-121.9871,37.25022],[-121.98656,37.25018],[-121.98687,37.24976]]],"type":"Polygon"},"properties":{"bbox":{"roads":{"area":642.1,"pct":8.57}},"city_same":1,"id":"hex:3932:23805"},"type":"Feature"},{"geometry":{"coordinates":[[[-121.98657,37.23024],[-121.98552,37.23023],[-121.98607,37.22988],[-121.9866,37.23019],[-121.98657,37.23024]]],"type":"Polygon"},"properties":{"bbox":{"roads":{"area":1.31,"pct":0.07}},"city_same":1,"id":"hex:3933:23791"},"type":"Feature"},{"geometry":{"coordinates":[[[-121.98657,37.23024],[-121.98712,37.23103],[-121.98655,37.2318],[-121.98542,37.23179],[-121.98487,37.23101],[-121.98536,37.23033],[-121.98552,37.23023],[-121.98657,37.23024]]],"type":"Polygon"},"properties":{"bbox":{"roads":{"area":755.64,"pct":2.91}},"city":{"roads":{"area":737.4,"pct":2.84}},"id":"hex:3933:23792"},"type":"Feature"},{"geometry":{"coordinates":[[[-121.98542,37.23179],[-121.98655,37.2318],[-121.9871,37.23259],[-121.98652,37.23336],[-121.9854,37.23335],[-121.98484,37.23257],[-121.98542,37.23179]],[[-121.98604,37.23237],[-121.98603,37.23238],[-121.98596,37.23233],[-121.98597,37.23232],[-121.98583,37.23223],[-121.98574,37.23233],[-121.98578,37.23236],[-121.98574,37.2324],[-121.98582,37.23245],[-121.98587,37.2324],[-121.98596,37.23245],[-121.98594,37.23247],[-121.986,37.23251],[-121.9861,37.2324],[-121.98604,37.23237]]],"type":"Polygon"},"properties":{"bbox":{"roads":{"area":3857.4,"pct":15.11},"sidewalks":{"area":228.29,"pct":0.89}},"city":{"roads":{"area":2038.26,"pct":7.98},"sidewalks":{"area":228.29,"pct":0.89}},"id":"hex:3933:23793"},"type":"Feature"},{"geometry":{"coordinates":[[[-121.98482,37.23413],[-121.98538,37.23491],[-121.9865,37.23492],[-121.98708,37.23415],[-121.98652,37.23336],[-121.9854,37.23335],[-121.98482,37.23413]]],"type":"Polygon"},"properties":{"bbox":{"roads":{"area":1831.93,"pct":7.05}},"city_same":1,"id":"hex:3933:23794"},"type":"Feature"},{"geometry":{"coordinates":[[[-121.98538,37.23491],[-121.9865,37.23492],[-121.98706,37.23571],[-121.98648,37.23648],[-121.98555,37.23648],[-121.98619,37.23574],[-121.98521,37.23514],[-121.98538,37.23491]]],"type":"Polygon"},"properties":{"bbox":{"roads":{"area":256.28,"pct":1.59}},"city_same":1,"id":"hex:3933:23795"},"type":"Feature"},{"geometry":{"coordinates":[[[-121.98648,37.23648],[-121.98704,37.23727],[-121.98646,37.23805],[-121.98533,37.23804],[-121.98478,37.23725],[-121.98531,37.23654],[-121.98544,37.2366],[-121.98555,37.23648],[-121.98648,37.23648]]],"type":"Polygon"},"properties":{"bbox":{"roads":{"area":1129.76,"pct":4.38}},"city_same":1,"id":"hex:3933:23796"},"type":"Feature"},{"geometry":{"coordinates":[[[-121.98533,37.23804],[-121.98646,37.23805],[-121.98702,37.23883],[-121.98644,37.23961],[-121.98583,37.2396],[-121.98614,37.23844],[-121.98518,37.23825],[-121.98533,37.23804]]],"type":"Polygon"},"properties":{"bbox":{"roads":{"area":595.71,"pct":4.38}},"city_same":1,"id":"hex:3933:23797"},"type":"Feature"},{"geometry":{"coordinates":[[[-121.98644,37.23961],[-121.98699,37.24039],[-121.98642,37.24117],[-121.98529,37.24116],[-121.98474,37.24037],[-121.98505,37.23995],[-121.98571,37.24006],[-121.98583,37.2396],[-121.98644,37.23961]]],"type":"Polygon"},"properties":{"bbox":{"roads":{"area":834.21,"pct":3.55}},"city_same":1,"id":"hex:3933:23798"},"type":"Feature"},{"geometry":{"coordinates":[[[-121.98472,37.24193],[-121.98527,37.24272],[-121.9864,37.24273],[-121.98697,37.24195],[-121.98642,37.24117],[-121.98529,37.24116],[-121.98472,37.24193]]],"type":"Polygon"},"properties":{"bbox":{"roads":{"area":2170.61,"pct":8.35}},"city_same":1,"id":"hex:3933:23799"},"type":"Feature"},{"geometry":{"coordinates":[[[-121.9847,37.2435],[-121.98525,37.24428],[-121.98638,37.24429],[-121.98695,37.24351],[-121.9864,37.24273],[-121.98527,37.24272],[-121.9847,37.2435]]],"type":"Polygon"},"properties":{"bbox":{"roads":{"area":232.91,"pct":0.9}},"city_same":1,"id":"hex:3933:23800"},"type":"Feature"},{"geometry":{"coordinates":[[[-121.98468,37.24506],[-121.98523,37.24584],[-121.98636,37.24585],[-121.98693,37.24508],[-121.98638,37.24429],[-121.98525,37.24428],[-121.98468,37.24506]]],"type":"Polygon"},"properties":{"bbox":{"parking":{"area":193.19,"pct":0.74},"roads":{"area":1914.01,"pct":7.37}},"city_same":1,"id":"hex:3933:23801"},"type":"Feature"},{"geometry":{"coordinates":[[[-121.98466,37.24662],[-121.98521,37.2474],[-121.98634,37.24741],[-121.98691,37.24664],[-121.98636,37.24585],[-121.98523,37.24584],[-121.98466,37.24662]]],"type":"Polygon"},"properties":{"bbox":{"roads":{"area":150.2,"pct":0.58}},"city_same":1,"id":"hex:3933:23802"},"type":"Feature"},{"geometry":{"coordinates":[[[-121.98463,37.24818],[-121.98519,37.24896],[-121.98632,37.24897],[-121.98689,37.2482],[-121.98634,37.24741],[-121.98521,37.2474],[-121.98463,37.24818]]],"type":"Polygon"},"properties":{"bbox":{"roads":{"area":1523.48,"pct":5.86}},"city_same":1,"id":"hex:3933:23803"},"type":"Feature"},{"geometry":{"coordinates":[[[-121.98461,37.24974],[-121.98519,37.24896],[-121.98632,37.24897],[-121.98687,37.24976],[-121.98656,37.25018],[-121.9853,37.25007],[-121.9853,37.25005],[-121.9848,37.25],[-121.98461,37.24974]]],"type":"Polygon"},"properties":{"bbox":{"roads":{"area":1582.56,"pct":7.95}},"city_same":1,"id":"hex:3933:23804"},"type":"Feature"},{"geometry":{"coordinates":[[[-121.98487,37.23101],[-121.98432,37.231],[-121.98536,37.23033],[-121.98487,37.23101]]],"type":"Polygon"},"properties":{"bbox":{"roads":{"area":159.8,"pct":8.77}},"city_same":1,"id":"hex:3934:23792"},"type":"Feature"},{"geometry":{"coordinates":[[[-121.98487,37.23101],[-121.98542,37.23179],[-121.98484,37.23257],[-121.98372,37.23256],[-121.98342,37.23214],[-121.98412,37.23113],[-121.98432,37.231],[-121.98487,37.23101]]],"type":"Polygon"},"properties":{"bbox":{"roads":{"area":2466.88,"pct":11.62},"sidewalks":{"area":205.88,"pct":0.97}},"city":{"roads":{"area":1123.53,"pct":5.29},"sidewalks":{"area":205.88,"pct":0.97}},"id":"hex:3934:23793"},"type":"Feature"},{"geometry":{"coordinates":[[[-121.98314,37.23333],[-121.9837,37.23412],[-121.98482,37.23413],[-121.9854,37.23335],[-121.98484,37.23257],[-121.98372,37.23256],[-121.98314,37.23333]]],"type":"Polygon"},"properties":{"bbox":{"roads":{"area":2074.4,"pct":7.98}},"city_same":1,"id":"hex:3934:23794"},"type":"Feature"},{"geometry":{"coordinates":[[[-121.98312,37.23489],[-121.9837,37.23412],[-121.98482,37.23413],[-121.98538,37.23491],[-121.98521,37.23514],[-121.98444,37.23467],[-121.98442,37.23469],[-121.98377,37.23545],[-121.98336,37.23523],[-121.98312,37.23489]]],"type":"Polygon"},"properties":{"bbox":{"roads":{"area":437.37,"pct":2.68}},"city_same":1,"id":"hex:3934:23795"},"type":"Feature"},{"geometry":{"coordinates":[[[-121.98478,37.23725],[-121.98426,37.23725],[-121.98432,37.23717],[-121.98386,37.23691],[-121.98387,37.2369],[-121.9843,37.23641],[-121.98455,37.23616],[-121.98531,37.23654],[-121.98478,37.23725]]],"type":"Polygon"},"properties":{"bbox":{"roads":{"area":867.35,"pct":9.78}},"city_same":1,"id":"hex:3934:23796"},"type":"Feature"},{"geometry":{"coordinates":[[[[-121.98363,37.2388],[-121.98334,37.23838],[-121.98378,37.23847],[-121.98369,37.2388],[-121.98363,37.2388]]],[[[-121.98478,37.23725],[-121.98533,37.23804],[-121.98518,37.23825],[-121.98419,37.23805],[-121.98466,37.23751],[-121.98445,37.23742],[-121.98399,37.23759],[-121.98386,37.23746],[-121.98382,37.23742],[-121.9838,37.23739],[-121.98423,37.23728],[-121.98426,37.23725],[-121.98478,37.23725]]]],"type":"MultiPolygon"},"properties":{"bbox":{"roads":{"area":128.29,"pct":1.58}},"city_same":1,"id":"hex:3934:23797"},"type":"Feature"},{"geometry":{"coordinates":[[[[-121.98474,37.24037],[-121.98361,37.24036],[-121.98341,37.24007],[-121.98435,37.24024],[-121.98437,37.24024],[-121.98438,37.24024],[-121.9844,37.24023],[-121.98441,37.24022],[-121.98442,37.24022],[-121.98443,37.2402],[-121.98453,37.23985],[-121.98505,37.23995],[-121.98474,37.24037]]],[[[-121.98363,37.2388],[-121.98369,37.2388],[-121.98362,37.23908],[-121.98345,37.23905],[-121.98363,37.2388]]]],"type":"MultiPolygon"},"properties":{"bbox":{"roads":{"area":656.59,"pct":15.59}},"city_same":1,"id":"hex:3934:23798"},"type":"Feature"},{"geometry":{"coordinates":[[[-121.98361,37.24036],[-121.98474,37.24037],[-121.98529,37.24116],[-121.98472,37.24193],[-121.98359,37.24192],[-121.98306,37.24116],[-121.98308,37.24109],[-121.98361,37.24036]]],"type":"Polygon"},"properties":{"bbox":{"roads":{"area":2659.91,"pct":10.24}},"city_same":1,"id":"hex:3934:23799"},"type":"Feature"},{"geometry":{"coordinates":[[[-121.98302,37.2427],[-121.98357,37.24349],[-121.9847,37.2435],[-121.98527,37.24272],[-121.98472,37.24193],[-121.98359,37.24192],[-121.98302,37.2427]]],"type":"Polygon"},"properties":{"bbox":{"roads":{"area":1106.95,"pct":4.26}},"city_same":1,"id":"hex:3934:23800"},"type":"Feature"},{"geometry":{"coordinates":[[[-121.983,37.24426],[-121.98355,37.24505],[-121.98468,37.24506],[-121.98525,37.24428],[-121.9847,37.2435],[-121.98357,37.24349],[-121.983,37.24426]]],"type":"Polygon"},"properties":{"bbox":{"roads":{"area":1859.57,"pct":7.16}},"city_same":1,"id":"hex:3934:23801"},"type":"Feature"},{"geometry":{"coordinates":[[[-121.98298,37.24582],[-121.98353,37.24661],[-121.98466,37.24662],[-121.98523,37.24584],[-121.98468,37.24506],[-121.98355,37.24505],[-121.98298,37.24582]]],"type":"Polygon"},"properties":{"bbox":{"roads":{"area":769.74,"pct":2.96}},"city_same":1,"id":"hex:3934:23802"},"type":"Feature"},{"geometry":{"coordinates":[[[-121.98295,37.24738],[-121.98351,37.24817],[-121.98463,37.24818],[-121.98521,37.2474],[-121.98466,37.24662],[-121.98353,37.24661],[-121.98295,37.24738]]],"type":"Polygon"},"properties":{"bbox":{"roads":{"area":987.81,"pct":3.8}},"city_same":1,"id":"hex:3934:23803"},"type":"Feature"},{"geometry":{"coordinates":[[[-121.98293,37.24894],[-121.98349,37.24973],[-121.98461,37.24974],[-121.98519,37.24896],[-121.98463,37.24818],[-121.98351,37.24817],[-121.98293,37.24894]]],"type":"Polygon"},"properties":{"bbox":{"roads":{"area":651.91,"pct":2.51}},"city_same":1,"id":"hex:3934:23804"},"type":"Feature"},{"geometry":{"coordinates":[[[-121.98372,37.23256],[-121.98314,37.23333],[-121.98262,37.23333],[-121.9828,37.23307],[-121.98286,37.23297],[-121.98342,37.23214],[-121.98372,37.23256]]],"type":"Polygon"},"properties":{"bbox":{"roads":{"area":537.19,"pct":9.96}},"city_same":1,"id":"hex:3935:23793"},"type":"Feature"},{"geometry":{"coordinates":[[[-121.98314,37.23333],[-121.9837,37.23412],[-121.98312,37.23489],[-121.98256,37.23489],[-121.98181,37.23449],[-121.982,37.23423],[-121.98216,37.23399],[-121.98237,37.2341],[-121.98254,37.23387],[-121.98232,37.23376],[-121.98262,37.23333],[-121.98314,37.23333]]],"type":"Polygon"},"properties":{"bbox":{"roads":{"area":1527.7,"pct":8.57}},"city_same":1,"id":"hex:3935:23794"},"type":"Feature"},{"geometry":{"coordinates":[[[-121.98312,37.23489],[-121.98336,37.23523],[-121.98288,37.23498],[-121.98283,37.23504],[-121.98256,37.23489],[-121.98312,37.23489]]],"type":"Polygon"},"properties":{"bbox":{"roads":{"area":16.45,"pct":1.93}},"city_same":1,"id":"hex:3935:23795"},"type":"Feature"},{"geometry":{"coordinates":[[[-121.98195,37.23801],[-121.98161,37.23752],[-121.98239,37.23768],[-121.98252,37.23771],[-121.98305,37.23782],[-121.98299,37.23802],[-121.98195,37.23801]]],"type":"Polygon"},"properties":{"bbox":{"roads":{"area":196.28,"pct":4.93}},"city_same":1,"id":"hex:3935:23796"},"type":"Feature"},{"geometry":{"coordinates":[[[-121.98193,37.23957],[-121.98138,37.23878],[-121.98195,37.23801],[-121.98299,37.23802],[-121.98292,37.2383],[-121.98334,37.23838],[-121.98363,37.2388],[-121.98345,37.23905],[-121.98273,37.2389],[-121.98258,37.23944],[-121.98208,37.23933],[-121.98196,37.23957],[-121.98193,37.23957]]],"type":"Polygon"},"properties":{"bbox":{"roads":{"area":2162.75,"pct":10.66}},"city_same":1,"id":"hex:3935:23797"},"type":"Feature"},{"geometry":{"coordinates":[[[[-121.98191,37.24113],[-121.98136,37.24034],[-121.98193,37.23957],[-121.98196,37.23957],[-121.98193,37.23963],[-121.98239,37.23972],[-121.98235,37.23988],[-121.98189,37.23979],[-121.98185,37.23995],[-121.98226,37.24002],[-121.98224,37.24003],[-121.98231,37.24004],[-121.98218,37.24052],[-121.98226,37.24053],[-121.98213,37.24102],[-121.98283,37.24114],[-121.98191,37.24113]]],[[[-121.98361,37.24036],[-121.98308,37.24109],[-121.98335,37.24006],[-121.98341,37.24007],[-121.98361,37.24036]]]],"type":"MultiPolygon"},"properties":{"bbox":{"parking":{"area":586.8,"pct":5.62},"roads":{"area":1265.03,"pct":12.11}},"city_same":1,"id":"hex:3935:23798"},"type":"Feature"},{"geometry":{"coordinates":[[[-121.98359,37.24192],[-121.98302,37.2427],[-121.98189,37.24269],[-121.98134,37.24191],[-121.98191,37.24113],[-121.98283,37.24114],[-121.98305,37.24118],[-121.98306,37.24116],[-121.98359,37.24192]]],"type":"Polygon"},"properties":{"bbox":{"roads":{"area":1350.21,"pct":5.2}},"city_same":1,"id":"hex:3935:23799"},"type":"Feature"},{"geometry":{"coordinates":[[[-121.98132,37.24347],[-121.98187,37.24425],[-121.983,37.24426],[-121.98357,37.24349],[-121.98302,37.2427],[-121.98189,37.24269],[-121.98132,37.24347]]],"type":"Polygon"},"properties":{"bbox":{"roads":{"area":1408.33,"pct":5.42}},"city_same":1,"id":"hex:3935:23800"},"type":"Feature"},{"geometry":{"coordinates":[[[-121.98129,37.24503],[-121.98185,37.24581],[-121.98298,37.24582],[-121.98355,37.24505],[-121.983,37.24426],[-121.98187,37.24425],[-121.98129,37.24503]]],"type":"Polygon"},"properties":{"bbox":{"roads":{"area":1588.41,"pct":6.11}},"city_same":1,"id":"hex:3935:23801"},"type":"Feature"},{"geometry":{"coordinates":[[[-121.98127,37.24659],[-121.98183,37.24737],[-121.98295,37.24738],[-121.98353,37.24661],[-121.98298,37.24582],[-121.98185,37.24581],[-121.98127,37.24659]]],"type":"Polygon"},"properties":{"bbox":{"roads":{"area":203.72,"pct":0.78}},"city_same":1,"id":"hex:3935:23802"},"type":"Feature"},{"geometry":{"coordinates":[[[-121.98125,37.24815],[-121.98181,37.24893],[-121.98293,37.24894],[-121.98351,37.24817],[-121.98295,37.24738],[-121.98183,37.24737],[-121.98125,37.24815]]],"type":"Polygon"},"properties":{"bbox":{"roads":{"area":993.59,"pct":3.82}},"city_same":1,"id":"hex:3935:23803"},"type":"Feature"},{"geometry":{"coordinates":[[[-121.98181,37.24893],[-121.98293,37.24894],[-121.98349,37.24973],[-121.98337,37.24988],[-121.98127,37.24971],[-121.98124,37.2497],[-121.98181,37.24893]]],"type":"Polygon"},"properties":{"bbox":{"roads":{"area":108.74,"pct":0.74}},"city_same":1,"id":"hex:3935:23804"},"type":"Feature"},{"geometry":{"coordinates":[[[-121.98195,37.23801],[-121.98138,37.23878],[-121.98025,37.23877],[-121.9797,37.23799],[-121.98025,37.23724],[-121.98161,37.23752],[-121.98195,37.23801]]],"type":"Polygon"},"properties":{"bbox":{"roads":{"area":1645.23,"pct":6.82}},"city_same":1,"id":"hex:3936:23797"},"type":"Feature"},{"geometry":{"coordinates":[[[-121.97968,37.23955],[-121.98023,37.24033],[-121.98136,37.24034],[-121.98193,37.23957],[-121.98138,37.23878],[-121.98025,37.23877],[-121.97968,37.23955]]],"type":"Polygon"},"properties":{"bbox":{"parking":{"area":236.99,"pct":0.91},"roads":{"area":420.21,"pct":1.62}},"city_same":1,"id":"hex:3936:23798"},"type":"Feature"},{"geometry":{"coordinates":[[[-121.97966,37.24111],[-121.98021,37.2419],[-121.98134,37.24191],[-121.98191,37.24113],[-121.98136,37.24034],[-121.98023,37.24033],[-121.97966,37.24111]]],"type":"Polygon"},"properties":{"bbox":{"parking":{"area":6418.13,"pct":24.7},"roads":{"area":3658.81,"pct":14.08}},"city_same":1,"id":"hex:3936:23799"},"type":"Feature"},{"geometry":{"coordinates":[[[-121.97964,37.24267],[-121.98019,37.24346],[-121.98132,37.24347],[-121.98189,37.24269],[-121.98134,37.24191],[-121.98021,37.2419],[-121.97964,37.24267]]],"type":"Polygon"},"properties":{"bbox":{"roads":{"area":855.74,"pct":3.29}},"city_same":1,"id":"hex:3936:23800"},"type":"Feature"},{"geometry":{"coordinates":[[[-121.97961,37.24423],[-121.98017,37.24502],[-121.98129,37.24503],[-121.98187,37.24425],[-121.98132,37.24347],[-121.98019,37.24346],[-121.97961,37.24423]]],"type":"Polygon"},"properties":{"bbox":{"roads":{"area":2149.57,"pct":8.27}},"city_same":1,"id":"hex:3936:23801"},"type":"Feature"},{"geometry":{"coordinates":[[[-121.97959,37.24579],[-121.98015,37.24658],[-121.98127,37.24659],[-121.98185,37.24581],[-121.98129,37.24503],[-121.98017,37.24502],[-121.97959,37.24579]]],"type":"Polygon"},"properties":{"bbox":{"roads":{"area":1273.7,"pct":4.9}},"city_same":1,"id":"hex:3936:23802"},"type":"Feature"},{"geometry":{"coordinates":[[[-121.97957,37.24735],[-121.98013,37.24814],[-121.98125,37.24815],[-121.98183,37.24737],[-121.98127,37.24659],[-121.98015,37.24658],[-121.97957,37.24735]]],"type":"Polygon"},"properties":{"bbox":{"roads":{"area":403.18,"pct":1.55}},"city_same":1,"id":"hex:3936:23803"},"type":"Feature"},{"geometry":{"coordinates":[[[-121.9797,37.23799],[-121.97877,37.23798],[-121.9788,37.23787],[-121.97926,37.23796],[-121.97932,37.23798],[-121.97945,37.23754],[-121.97959,37.23711],[-121.98025,37.23724],[-121.9797,37.23799]]],"type":"Polygon"},"properties":{"bbox":{"roads":{"area":397.16,"pct":8.37}},"city_same":1,"id":"hex:3937:23796"},"type":"Feature"},{"geometry":{"coordinates":[[[-121.9797,37.23799],[-121.98025,37.23877],[-121.97968,37.23955],[-121.97855,37.23954],[-121.978,37.23875],[-121.97833,37.23831],[-121.97869,37.23837],[-121.9788,37.23804],[-121.97875,37.23803],[-121.97877,37.23798],[-121.9797,37.23799]]],"type":"Polygon"},"properties":{"bbox":{"roads":{"area":1479.42,"pct":5.95}},"city_same":1,"id":"hex:3937:23797"},"type":"Feature"},{"geometry":{"coordinates":[[[-121.97798,37.24031],[-121.97853,37.2411],[-121.97966,37.24111],[-121.98023,37.24033],[-121.97968,37.23955],[-121.97855,37.23954],[-121.97798,37.24031]]],"type":"Polygon"},"properties":{"bbox":{"roads":{"area":2098.81,"pct":8.08}},"city_same":1,"id":"hex:3937:23798"},"type":"Feature"},{"geometry":{"coordinates":[[[-121.97795,37.24188],[-121.97851,37.24266],[-121.97964,37.24267],[-121.98021,37.2419],[-121.97966,37.24111],[-121.97853,37.2411],[-121.97795,37.24188]]],"type":"Polygon"},"properties":{"bbox":{"roads":{"area":762.72,"pct":2.94}},"city_same":1,"id":"hex:3937:23799"},"type":"Feature"},{"geometry":{"coordinates":[[[-121.97793,37.24344],[-121.97849,37.24422],[-121.97961,37.24423],[-121.98019,37.24346],[-121.97964,37.24267],[-121.97851,37.24266],[-121.97793,37.24344]]],"type":"Polygon"},"properties":{"bbox":{"roads":{"area":1604.42,"pct":6.18}},"city_same":1,"id":"hex:3937:23800"},"type":"Feature"},{"geometry":{"coordinates":[[[-121.97791,37.245],[-121.97847,37.24578],[-121.97959,37.24579],[-121.98017,37.24502],[-121.97961,37.24423],[-121.97849,37.24422],[-121.97791,37.245]]],"type":"Polygon"},"properties":{"bbox":{"roads":{"area":965.14,"pct":3.71}},"city_same":1,"id":"hex:3937:23801"},"type":"Feature"},{"geometry":{"coordinates":[[[-121.97789,37.24656],[-121.97844,37.24734],[-121.97957,37.24735],[-121.98015,37.24658],[-121.97959,37.24579],[-121.97847,37.24578],[-121.97789,37.24656]]],"type":"Polygon"},"properties":{"bbox":{"roads":{"area":1779.69,"pct":6.85}},"city_same":1,"id":"hex:3937:23802"},"type":"Feature"},{"geometry":{"coordinates":[[[-121.97787,37.24812],[-121.97842,37.24891],[-121.97955,37.24892],[-121.98013,37.24814],[-121.97957,37.24735],[-121.97844,37.24734],[-121.97787,37.24812]]],"type":"Polygon"},"properties":{"bbox":{"roads":{"area":1219.79,"pct":4.69}},"city_same":1,"id":"hex:3937:23803"},"type":"Feature"},{"geometry":{"coordinates":[[[-121.9784,37.25047],[-121.97785,37.24968],[-121.97842,37.24891],[-121.97955,37.24892],[-121.98003,37.2496],[-121.97931,37.24954],[-121.97938,37.25047],[-121.9784,37.25047]]],"type":"Polygon"},"properties":{"bbox":{"roads":{"area":956.83,"pct":4.46}},"city_same":1,"id":"hex:3937:23804"},"type":"Feature"},{"geometry":{"coordinates":[[[-121.97783,37.25124],[-121.9784,37.25047],[-121.97938,37.25047],[-121.97939,37.25062],[-121.97947,37.25152],[-121.97952,37.25202],[-121.97951,37.25204],[-121.97838,37.25203],[-121.97827,37.25187],[-121.97821,37.25134],[-121.97783,37.25125],[-121.97783,37.25124]]],"type":"Polygon"},"properties":{"bbox":{"roads":{"area":1163,"pct":5.96}},"city_same":1,"id":"hex:3937:23805"},"type":"Feature"},{"geometry":{"coordinates":[[[-121.97838,37.25203],[-121.97951,37.25204],[-121.97952,37.25206],[-121.97953,37.25214],[-121.97956,37.25236],[-121.97965,37.25274],[-121.97848,37.2525],[-121.97844,37.25249],[-121.97833,37.2521],[-121.97838,37.25203]]],"type":"Polygon"},"properties":{"bbox":{"roads":{"area":486.38,"pct":7.26}},"city_same":1,"id":"hex:3937:23806"},"type":"Feature"},{"geometry":{"coordinates":[[[-121.978,37.23875],[-121.97718,37.23875],[-121.97719,37.2387],[-121.97722,37.23843],[-121.978,37.23856],[-121.97808,37.23826],[-121.97833,37.23831],[-121.978,37.23875]]],"type":"Polygon"},"properties":{"bbox":{"roads":{"area":48.65,"pct":1.81},"sidewalks":{"area":52.77,"pct":1.96}},"city_same":1,"id":"hex:3938:23797"},"type":"Feature"},{"geometry":{"coordinates":[[[-121.978,37.23875],[-121.97855,37.23954],[-121.97798,37.24031],[-121.97698,37.24031],[-121.97698,37.24027],[-121.97702,37.23999],[-121.97706,37.23966],[-121.97707,37.23964],[-121.9771,37.23957],[-121.97712,37.2395],[-121.97712,37.23947],[-121.97712,37.23943],[-121.97712,37.23936],[-121.97711,37.23928],[-121.97715,37.23897],[-121.97718,37.23875],[-121.978,37.23875]]],"type":"Polygon"},"properties":{"bbox":{"roads":{"area":1287.49,"pct":7.08},"sidewalks":{"area":95.06,"pct":0.52}},"city_same":1,"id":"hex:3938:23798"},"type":"Feature"},{"geometry":{"coordinates":[[[-121.97798,37.24031],[-121.97853,37.2411],[-121.97795,37.24188],[-121.97683,37.24187],[-121.97634,37.24117],[-121.97647,37.24119],[-121.97681,37.24124],[-121.97685,37.24113],[-121.97689,37.24095],[-121.97692,37.24081],[-121.97695,37.24064],[-121.97697,37.24046],[-121.97698,37.24031],[-121.97798,37.24031]]],"type":"Polygon"},"properties":{"bbox":{"roads":{"area":996.36,"pct":4.43},"sidewalks":{"area":24.25,"pct":0.11}},"city":{"roads":{"area":689.48,"pct":3.07},"sidewalks":{"area":24.25,"pct":0.11}},"id":"hex:3938:23799"},"type":"Feature"},{"geometry":{"coordinates":[[[-121.97625,37.24264],[-121.97681,37.24343],[-121.97793,37.24344],[-121.97851,37.24266],[-121.97795,37.24188],[-121.97683,37.24187],[-121.97625,37.24264]]],"type":"Polygon"},"properties":{"bbox":{"roads":{"area":1441.81,"pct":5.55}},"city_same":1,"id":"hex:3938:23800"},"type":"Feature"},{"geometry":{"coordinates":[[[-121.97623,37.2442],[-121.97679,37.24499],[-121.97791,37.245],[-121.97849,37.24422],[-121.97793,37.24344],[-121.97681,37.24343],[-121.97623,37.2442]]],"type":"Polygon"},"properties":{"bbox":{"roads":{"area":1428.07,"pct":5.5}},"city_same":1,"id":"hex:3938:23801"},"type":"Feature"},{"geometry":{"coordinates":[[[-121.97621,37.24576],[-121.97676,37.24655],[-121.97789,37.24656],[-121.97847,37.24578],[-121.97791,37.245],[-121.97679,37.24499],[-121.97621,37.24576]]],"type":"Polygon"},"properties":{"bbox":{"roads":{"area":558.94,"pct":2.15}},"city_same":1,"id":"hex:3938:23802"},"type":"Feature"},{"geometry":{"coordinates":[[[-121.97619,37.24732],[-121.97674,37.24811],[-121.97787,37.24812],[-121.97844,37.24734],[-121.97789,37.24656],[-121.97676,37.24655],[-121.97619,37.24732]]],"type":"Polygon"},"properties":{"bbox":{"roads":{"area":781.87,"pct":3.01}},"city_same":1,"id":"hex:3938:23803"},"type":"Feature"},{"geometry":{"coordinates":[[[-121.97617,37.24889],[-121.97674,37.24811],[-121.97787,37.24812],[-121.97842,37.24891],[-121.97785,37.24968],[-121.97692,37.24967],[-121.97685,37.24932],[-121.97645,37.24929],[-121.97617,37.24889]]],"type":"Polygon"},"properties":{"bbox":{"roads":{"area":1150.12,"pct":4.61}},"city_same":1,"id":"hex:3938:23804"},"type":"Feature"},{"geometry":{"coordinates":[[[-121.97785,37.24968],[-121.9784,37.25047],[-121.97783,37.25124],[-121.9778,37.25124],[-121.97728,37.25112],[-121.97709,37.25049],[-121.97692,37.24967],[-121.97785,37.24968]]],"type":"Polygon"},"properties":{"bbox":{"roads":{"area":371.39,"pct":2.4}},"city_same":1,"id":"hex:3938:23805"},"type":"Feature"},{"geometry":{"coordinates":[[[-121.97683,37.24187],[-121.97625,37.24264],[-121.97513,37.24263],[-121.97457,37.24185],[-121.97515,37.24107],[-121.97594,37.24108],[-121.97594,37.24111],[-121.97634,37.24117],[-121.97683,37.24187]]],"type":"Polygon"},"properties":{"bbox":{"roads":{"area":3147.56,"pct":12.21},"sidewalks":{"area":322.33,"pct":1.25}},"city":{"roads":{"area":1673.71,"pct":6.49},"sidewalks":{"area":322.33,"pct":1.25}},"id":"hex:3939:23799"},"type":"Feature"},{"geometry":{"coordinates":[[[-121.97513,37.24263],[-121.97625,37.24264],[-121.97681,37.24343],[-121.97623,37.2442],[-121.9751,37.24419],[-121.97508,37.24416],[-121.97514,37.24403],[-121.97521,37.2439],[-121.97528,37.24377],[-121.97536,37.24364],[-121.9754,37.24358],[-121.97544,37.24351],[-121.97547,37.24345],[-121.9755,37.24339],[-121.9753,37.24335],[-121.97499,37.24327],[-121.97469,37.24322],[-121.97513,37.24263]]],"type":"Polygon"},"properties":{"bbox":{"roads":{"area":2589.02,"pct":12.02},"sidewalks":{"area":269.87,"pct":1.25}},"city":{"roads":{"area":860.63,"pct":4},"sidewalks":{"area":269.87,"pct":1.25}},"id":"hex:3939:23800"},"type":"Feature"},{"geometry":{"coordinates":[[[-121.9751,37.24419],[-121.97623,37.2442],[-121.97679,37.24499],[-121.97621,37.24576],[-121.97508,37.24575],[-121.97458,37.24504],[-121.97464,37.24496],[-121.97469,37.24487],[-121.97475,37.24479],[-121.97495,37.24441],[-121.9751,37.24419]]],"type":"Polygon"},"properties":{"bbox":{"roads":{"area":1859.99,"pct":7.26}},"city":{"roads":{"area":1218.27,"pct":4.75}},"id":"hex:3939:23801"},"type":"Feature"},{"geometry":{"coordinates":[[[-121.97508,37.24575],[-121.97621,37.24576],[-121.97676,37.24655],[-121.97619,37.24732],[-121.97506,37.24732],[-121.97491,37.2471],[-121.97492,37.2471],[-121.97509,37.24673],[-121.97524,37.24656],[-121.97525,37.24654],[-121.97462,37.24638],[-121.97508,37.24575]]],"type":"Polygon"},"properties":{"bbox":{"roads":{"area":213.16,"pct":0.91}},"city_same":1,"id":"hex:3939:23802"},"type":"Feature"},{"geometry":{"coordinates":[[[-121.97449,37.24809],[-121.97504,37.24888],[-121.97617,37.24889],[-121.97674,37.24811],[-121.97619,37.24732],[-121.97506,37.24732],[-121.97449,37.24809]]],"type":"Polygon"},"properties":{"bbox":{"roads":{"area":1336.53,"pct":5.14}},"city_same":1,"id":"hex:3939:23803"},"type":"Feature"},{"geometry":{"coordinates":[[[-121.97515,37.24107],[-121.97457,37.24185],[-121.97345,37.24184],[-121.97335,37.24169],[-121.97349,37.24142],[-121.97363,37.24147],[-121.97399,37.24078],[-121.97505,37.24094],[-121.97515,37.24107]]],"type":"Polygon"},"properties":{"bbox":{"roads":{"area":316.8,"pct":2.58}},"city_same":1,"id":"hex:3940:23799"},"type":"Feature"},{"geometry":{"coordinates":[[[-121.97345,37.24184],[-121.97457,37.24185],[-121.97513,37.24263],[-121.97469,37.24322],[-121.97339,37.24302],[-121.97351,37.24251],[-121.973,37.24244],[-121.97345,37.24184]]],"type":"Polygon"},"properties":{"bbox":{"roads":{"area":680.58,"pct":3.46},"sidewalks":{"area":20.42,"pct":0.1}},"city_same":1,"id":"hex:3940:23800"},"type":"Feature"},{"geometry":{"coordinates":[[[-121.97508,37.24575],[-121.97462,37.24638],[-121.97367,37.24612],[-121.97349,37.24608],[-121.97421,37.24546],[-121.97431,37.24536],[-121.97439,37.24528],[-121.97445,37.2452],[-121.97455,37.24508],[-121.97458,37.24504],[-121.97508,37.24575]]],"type":"Polygon"},"properties":{"bbox":{"roads":{"area":2070.39,"pct":20.43}},"city":{"roads":{"area":1040.53,"pct":10.27}},"id":"hex:3940:23802"},"type":"Feature"},{"geometry":{"coordinates":[[[-121.97506,37.24732],[-121.97449,37.24809],[-121.97336,37.24808],[-121.97281,37.2473],[-121.97307,37.24694],[-121.97462,37.24745],[-121.97486,37.24725],[-121.97475,37.24722],[-121.97491,37.2471],[-121.97506,37.24732]]],"type":"Polygon"},"properties":{"bbox":{"roads":{"area":517.15,"pct":3.36}},"city_same":1,"id":"hex:3940:23803"},"type":"Feature"},{"geometry":{"coordinates":[[[-121.97447,37.24965],[-121.97334,37.24964],[-121.97279,37.24886],[-121.97336,37.24808],[-121.97449,37.24809],[-121.97504,37.24888],[-121.97483,37.24917],[-121.97429,37.24913],[-121.97461,37.24946],[-121.97447,37.24965]]],"type":"Polygon"},"properties":{"bbox":{"roads":{"area":1287.25,"pct":5.11}},"city_same":1,"id":"hex:3940:23804"},"type":"Feature"},{"geometry":{"coordinates":[[[-121.97332,37.2512],[-121.97277,37.25042],[-121.97334,37.24964],[-121.97447,37.24965],[-121.97467,37.24995],[-121.97442,37.25011],[-121.97426,37.25024],[-121.97406,37.25039],[-121.97382,37.25067],[-121.97367,37.25096],[-121.97373,37.25119],[-121.97374,37.25121],[-121.97332,37.2512]]],"type":"Polygon"},"properties":{"bbox":{"roads":{"area":659.95,"pct":4.06}},"city_same":1,"id":"hex:3940:23805"},"type":"Feature"},{"geometry":{"coordinates":[[[-121.97332,37.2512],[-121.97374,37.25121],[-121.97383,37.2514],[-121.97321,37.2514],[-121.97319,37.25139],[-121.97318,37.25139],[-121.97332,37.2512]]],"type":"Polygon"},"properties":{"bbox":{"roads":{"area":78.33,"pct":7.66}},"city_same":1,"id":"hex:3940:23806"},"type":"Feature"},{"geometry":{"coordinates":[[[-121.97345,37.24184],[-121.973,37.24244],[-121.97229,37.24233],[-121.97267,37.24182],[-121.97303,37.24187],[-121.97306,37.24178],[-121.9731,37.2418],[-121.97313,37.24181],[-121.97327,37.24184],[-121.97335,37.24169],[-121.97345,37.24184]]],"type":"Polygon"},"properties":{"bbox":{"roads":{"area":383.91,"pct":8.71},"sidewalks":{"area":76.11,"pct":1.73}},"city_same":1,"id":"hex:3941:23799"},"type":"Feature"},{"geometry":{"coordinates":[[[-121.97281,37.2473],[-121.97235,37.24729],[-121.97242,37.24722],[-121.97269,37.24699],[-121.97282,37.24686],[-121.97307,37.24694],[-121.97281,37.2473]]],"type":"Polygon"},"properties":{"bbox":{"roads":{"area":135.65,"pct":8.84}},"city_same":1,"id":"hex:3941:23802"},"type":"Feature"},{"geometry":{"coordinates":[[[-121.97281,37.2473],[-121.97336,37.24808],[-121.97279,37.24886],[-121.97166,37.24885],[-121.97131,37.24835],[-121.97138,37.24825],[-121.97141,37.24822],[-121.97186,37.24776],[-121.97192,37.24777],[-121.9722,37.24744],[-121.97235,37.24729],[-121.97281,37.2473]]],"type":"Polygon"},"properties":{"bbox":{"roads":{"area":1112.73,"pct":5.31}},"city_same":1,"id":"hex:3941:23803"},"type":"Feature"},{"geometry":{"coordinates":[[[-121.97108,37.24962],[-121.97164,37.25041],[-121.97277,37.25042],[-121.97334,37.24964],[-121.97279,37.24886],[-121.97166,37.24885],[-121.97108,37.24962]]],"type":"Polygon"},"properties":{"bbox":{"roads":{"area":2089.4,"pct":8.04}},"city_same":1,"id":"hex:3941:23804"},"type":"Feature"},{"geometry":{"coordinates":[[[-121.97106,37.25118],[-121.97164,37.25041],[-121.97277,37.25042],[-121.97332,37.2512],[-121.97318,37.25139],[-121.97317,37.25138],[-121.97316,37.25137],[-121.97316,37.25136],[-121.97313,37.25128],[-121.97292,37.25128],[-121.97293,37.2513],[-121.97292,37.25131],[-121.97292,37.25132],[-121.97291,37.25133],[-121.97291,37.25134],[-121.9729,37.25135],[-121.97288,37.25136],[-121.97287,37.25136],[-121.97285,37.25137],[-121.97192,37.25137],[-121.9719,37.25137],[-121.97189,37.25137],[-121.97188,37.25136],[-121.97186,37.25135],[-121.97185,37.25135],[-121.97184,37.25134],[-121.97184,37.25132],[-121.97183,37.25131],[-121.97183,37.2513],[-121.97166,37.2513],[-121.97166,37.25131],[-121.97166,37.25132],[-121.97165,37.25133],[-121.97164,37.25134],[-121.97163,37.25135],[-121.97162,37.25136],[-121.9716,37.25136],[-121.97159,37.25137],[-121.97157,37.25137],[-121.97122,37.25137],[-121.97122,37.2514],[-121.97106,37.25118]]],"type":"Polygon"},"properties":{"bbox":{"roads":{"area":1330.92,"pct":8.15}},"city_same":1,"id":"hex:3941:23805"},"type":"Feature"},{"geometry":{"coordinates":[[[-121.97166,37.24885],[-121.97108,37.24962],[-121.97053,37.24962],[-121.97056,37.24958],[-121.97062,37.24951],[-121.97078,37.24927],[-121.97099,37.24884],[-121.97104,37.24874],[-121.97112,37.24861],[-121.97121,37.24848],[-121.97131,37.24835],[-121.97166,37.24885]]],"type":"Polygon"},"properties":{"bbox":{"roads":{"area":327.07,"pct":5.28}},"city_same":1,"id":"hex:3942:23804"},"type":"Feature"},{"geometry":{"coordinates":[[[-121.97108,37.24962],[-121.97164,37.25041],[-121.97106,37.25118],[-121.96994,37.25117],[-121.96959,37.25068],[-121.96999,37.25022],[-121.97013,37.25012],[-121.97016,37.25008],[-121.9701,37.2501],[-121.97053,37.24962],[-121.97108,37.24962]]],"type":"Polygon"},"properties":{"bbox":{"roads":{"area":882.23,"pct":4.13}},"city_same":1,"id":"hex:3942:23805"},"type":"Feature"},{"geometry":{"coordinates":[[[-121.96994,37.25117],[-121.97106,37.25118],[-121.97122,37.2514],[-121.97122,37.25145],[-121.97044,37.25153],[-121.96989,37.25123],[-121.96994,37.25117]]],"type":"Polygon"},"properties":{"bbox":{"roads":{"area":708.79,"pct":21.43}},"city_same":1,"id":"hex:3942:23806"},"type":"Feature"},{"geometry":{"coordinates":[[[-121.96994,37.25117],[-121.96989,37.25123],[-121.96935,37.25094],[-121.96947,37.25081],[-121.96959,37.25068],[-121.96994,37.25117]]],"type":"Polygon"},"properties":{"bbox":{"roads":{"area":296.3,"pct":23.81}},"city_same":1,"id":"hex:3943:23805"},"type":"Feature"}],"type":"FeatureCollection","v":2}