{"features":[{"geometry":{"coordinates":[[[-122.31275,37.89726],[-122.30215,37.89852],[-122.30101,37.89796],[-122.30017,37.89794],[-122.29892,37.89823],[-122.29878,37.89842],[-122.2964,37.89896],[-122.29422,37.89861],[-122.29397,37.89842],[-122.29288,37.8983],[-122.29256,37.89839],[-122.28964,37.89749],[-122.28845,37.89761],[-122.28761,37.89844],[-122.28707,37.89835],[-122.2867,37.89852],[-122.28705,37.89105],[-122.28257,37.89129],[-122.2817,37.88844],[-122.28278,37.88538],[-122.28268,37.88505],[-122.28177,37.88511],[-122.28205,37.88414],[-122.28296,37.88241],[-122.28311,37.88251],[-122.28354,37.88235],[-122.28599,37.88252],[-122.28607,37.88232],[-122.28657,37.88243],[-122.28662,37.88233],[-122.28947,37.88315],[-122.28985,37.88293],[-122.29054,37.8832],[-122.29137,37.88305],[-122.2916,37.88326],[-122.29232,37.8829],[-122.29372,37.88307],[-122.29445,37.88258],[-122.29598,37.88295],[-122.29659,37.88346],[-122.29863,37.88288],[-122.30007,37.8829],[-122.30366,37.88217],[-122.3075,37.88179],[-122.30852,37.88221],[-122.31341,37.8812],[-122.31252,37.88139],[-122.3131,37.88224],[-122.31411,37.88278],[-122.31499,37.88392],[-122.31537,37.88415],[-122.31567,37.88407],[-122.31579,37.88427],[-122.31555,37.8847],[-122.31587,37.88543],[-122.31637,37.88544],[-122.31638,37.88565],[-122.31603,37.88568],[-122.31604,37.88587],[-122.31645,37.88612],[-122.31607,37.8862],[-122.31607,37.88786],[-122.31742,37.88931],[-122.32041,37.88927],[-122.32113,37.88914],[-122.3221,37.8893],[-122.32308,37.88916],[-122.32323,37.88821],[-122.32342,37.88828],[-122.32416,37.88798],[-122.32532,37.88796],[-122.32703,37.88863],[-122.32748,37.88867],[-122.32782,37.88852],[-122.32757,37.88883],[-122.32783,37.89144],[-122.3277,37.89146],[-122.32764,37.89078],[-122.32643,37.89078],[-122.32598,37.89095],[-122.32571,37.89079],[-122.32572,37.89215],[-122.32584,37.89228],[-122.32618,37.89221],[-122.32592,37.89236],[-122.32599,37.89248],[-122.32418,37.89232],[-122.32358,37.89142],[-122.32368,37.89135],[-122.32425,37.89218],[-122.32438,37.89217],[-122.32399,37.89139],[-122.32372,37.89116],[-122.32345,37.89124],[-122.32291,37.88999],[-122.31975,37.88999],[-122.31739,37.89095],[-122.31631,37.89097],[-122.31615,37.8917],[-122.31391,37.89171],[-122.31201,37.89033],[-122.31183,37.89033],[-122.31194,37.89014],[-122.31174,37.88972],[-122.31141,37.88962],[-122.31135,37.89007],[-122.31116,37.88961],[-122.31027,37.88907],[-122.30953,37.88824],[-122.30922,37.89097],[-122.30929,37.89229],[-122.30978,37.89358],[-122.31129,37.89567],[-122.3123,37.89683],[-122.31289,37.89706],[-122.31292,37.89722],[-122.31275,37.89726]]],"type":"Polygon"},"properties":{"type":"boundary"},"type":"Feature"}],"type":"FeatureCollection"}