{"features":[{"geometry":{"coordinates":[[[-122.32218,37.88989],[-122.32265,37.88926],[-122.32269,37.88925],[-122.32308,37.88916],[-122.32312,37.88911],[-122.32389,37.88912],[-122.32445,37.8899],[-122.32388,37.89068],[-122.32319,37.89068],[-122.323,37.8902],[-122.32291,37.88999],[-122.32225,37.88999],[-122.32218,37.88989]]],"type":"Polygon"},"properties":{"bbox":{"roads":{"area":256.35,"pct":1.17}},"city_same":1,"id":"hex:3730:24213"},"type":"Feature"},{"geometry":{"coordinates":[[[-122.32218,37.88989],[-122.32104,37.88988],[-122.32058,37.88924],[-122.32071,37.88921],[-122.3209,37.88915],[-122.32113,37.88914],[-122.32133,37.88916],[-122.32144,37.88921],[-122.32154,37.88926],[-122.32168,37.88928],[-122.32183,37.88926],[-122.32197,37.88928],[-122.3221,37.8893],[-122.32224,37.8893],[-122.32265,37.88926],[-122.32218,37.88989]]],"type":"Polygon"},"properties":{"bbox":{"roads":{"area":856.53,"pct":8.3}},"city_same":1,"id":"hex:3731:24212"},"type":"Feature"},{"geometry":{"coordinates":[[[-122.31877,37.88987],[-122.31919,37.8893],[-122.31929,37.8893],[-122.32041,37.88927],[-122.32058,37.88924],[-122.32104,37.88988],[-122.32098,37.88996],[-122.31975,37.88999],[-122.31945,37.89011],[-122.3193,37.89026],[-122.31909,37.89031],[-122.31877,37.88987]]],"type":"Polygon"},"properties":{"bbox":{"roads":{"area":819.15,"pct":5.7}},"city_same":1,"id":"hex:3732:24213"},"type":"Feature"},{"geometry":{"coordinates":[[[-122.31877,37.88987],[-122.31763,37.88986],[-122.31707,37.88908],[-122.31713,37.889],[-122.31716,37.88903],[-122.31742,37.88931],[-122.31901,37.88928],[-122.31919,37.8893],[-122.31877,37.88987]]],"type":"Polygon"},"properties":{"bbox":{"roads":{"area":807.03,"pct":8.95}},"city_same":1,"id":"hex:3733:24212"},"type":"Feature"},{"geometry":{"coordinates":[[[-122.31596,37.88595],[-122.3154,37.88517],[-122.31562,37.88487],[-122.31587,37.88543],[-122.31637,37.88544],[-122.31638,37.88565],[-122.31603,37.88568],[-122.31604,37.88587],[-122.31626,37.88592],[-122.31629,37.88595],[-122.31596,37.88595]]],"type":"Polygon"},"properties":{"bbox":{"parking":{"area":73.07,"pct":2.08},"roads":{"area":47.53,"pct":1.35}},"city_same":1,"id":"hex:3734:24210"},"type":"Feature"},{"geometry":{"coordinates":[[[-122.31595,37.88751],[-122.31539,37.88673],[-122.31596,37.88595],[-122.31629,37.88595],[-122.31645,37.88612],[-122.31607,37.8862],[-122.31607,37.88751],[-122.31595,37.88751]]],"type":"Polygon"},"properties":{"bbox":{"parking":{"area":2861.38,"pct":42.69},"roads":{"area":929.3,"pct":13.86}},"city_same":1,"id":"hex:3734:24211"},"type":"Feature"},{"geometry":{"coordinates":[[[-122.31707,37.88908],[-122.31593,37.88907],[-122.31537,37.88829],[-122.31595,37.88751],[-122.31607,37.88751],[-122.31607,37.88786],[-122.31648,37.8883],[-122.3168,37.88865],[-122.31713,37.889],[-122.31707,37.88908]]],"type":"Polygon"},"properties":{"bbox":{"parking":{"area":9.82,"pct":0.08},"roads":{"area":38.05,"pct":0.29}},"city_same":1,"id":"hex:3734:24212"},"type":"Feature"},{"geometry":{"coordinates":[[[-122.31536,37.88985],[-122.31592,37.89063],[-122.31706,37.89064],[-122.31763,37.88986],[-122.31707,37.88908],[-122.31593,37.88907],[-122.31536,37.88985]]],"type":"Polygon"},"properties":{"bbox":{"roads":{"area":868.65,"pct":3.34}},"city_same":1,"id":"hex:3734:24213"},"type":"Feature"},{"geometry":{"coordinates":[[[-122.31428,37.8836],[-122.31372,37.88282],[-122.31389,37.88259],[-122.31411,37.88278],[-122.31429,37.88295],[-122.31471,37.8836],[-122.31428,37.8836]]],"type":"Polygon"},"properties":{"bbox":{"parking":{"area":27.66,"pct":0.7}},"city_same":1,"id":"hex:3735:24208"},"type":"Feature"},{"geometry":{"coordinates":[[[-122.3154,37.88517],[-122.31426,37.88516],[-122.3137,37.88438],[-122.31428,37.8836],[-122.31471,37.8836],[-122.31478,37.88372],[-122.31499,37.88392],[-122.31537,37.88415],[-122.31567,37.88407],[-122.31579,37.88427],[-122.31555,37.8847],[-122.31562,37.88487],[-122.3154,37.88517]]],"type":"Polygon"},"properties":{"bbox":{"parking":{"area":12928.96,"pct":59.88},"roads":{"area":4067.74,"pct":18.84}},"city_same":1,"id":"hex:3735:24209"},"type":"Feature"},{"geometry":{"coordinates":[[[-122.31369,37.88594],[-122.31425,37.88672],[-122.31539,37.88673],[-122.31596,37.88595],[-122.3154,37.88517],[-122.31426,37.88516],[-122.31369,37.88594]]],"type":"Polygon"},"properties":{"bbox":{"parking":{"area":19462.75,"pct":74.91},"roads":{"area":5853.27,"pct":22.53}},"city_same":1,"id":"hex:3735:24210"},"type":"Feature"},{"geometry":{"coordinates":[[[-122.31367,37.8875],[-122.31423,37.88828],[-122.31537,37.88829],[-122.31595,37.88751],[-122.31539,37.88673],[-122.31425,37.88672],[-122.31367,37.8875]]],"type":"Polygon"},"properties":{"bbox":{"parking":{"area":22434.89,"pct":86.35},"roads":{"area":5951.37,"pct":22.91}},"city_same":1,"id":"hex:3735:24211"},"type":"Feature"},{"geometry":{"coordinates":[[[-122.31366,37.88906],[-122.31422,37.88984],[-122.31536,37.88985],[-122.31593,37.88907],[-122.31537,37.88829],[-122.31423,37.88828],[-122.31366,37.88906]]],"type":"Polygon"},"properties":{"bbox":{"parking":{"area":15545.22,"pct":59.83},"roads":{"area":4411.59,"pct":16.98}},"city_same":1,"id":"hex:3735:24212"},"type":"Feature"},{"geometry":{"coordinates":[[[-122.31372,37.88282],[-122.31258,37.88281],[-122.31202,37.88202],[-122.31248,37.88139],[-122.31252,37.88139],[-122.31319,37.88125],[-122.31319,37.88125],[-122.31252,37.88139],[-122.31258,37.88149],[-122.3131,37.88224],[-122.31336,37.88237],[-122.31385,37.88256],[-122.31389,37.88259],[-122.31372,37.88282]]],"type":"Polygon"},"properties":{"bbox":{"parking":{"area":2258.03,"pct":19.07},"roads":{"area":2005.04,"pct":16.94}},"city_same":1,"id":"hex:3736:24208"},"type":"Feature"},{"geometry":{"coordinates":[[[-122.312,37.88359],[-122.31256,37.88437],[-122.3137,37.88438],[-122.31428,37.8836],[-122.31372,37.88282],[-122.31258,37.88281],[-122.312,37.88359]]],"type":"Polygon"},"properties":{"bbox":{"parking":{"area":8325.79,"pct":32.05},"roads":{"area":2987.4,"pct":11.5}},"city_same":1,"id":"hex:3736:24209"},"type":"Feature"},{"geometry":{"coordinates":[[[-122.31199,37.88515],[-122.31255,37.88593],[-122.31369,37.88594],[-122.31426,37.88516],[-122.3137,37.88438],[-122.31256,37.88437],[-122.31199,37.88515]]],"type":"Polygon"},"properties":{"bbox":{"parking":{"area":2794.76,"pct":10.76},"roads":{"area":614.32,"pct":2.36}},"city_same":1,"id":"hex:3736:24210"},"type":"Feature"},{"geometry":{"coordinates":[[[-122.31197,37.88671],[-122.31254,37.88749],[-122.31367,37.8875],[-122.31425,37.88672],[-122.31369,37.88594],[-122.31255,37.88593],[-122.31197,37.88671]]],"type":"Polygon"},"properties":{"bbox":{"parking":{"area":7579.95,"pct":29.18},"roads":{"area":2248.92,"pct":8.66}},"city_same":1,"id":"hex:3736:24211"},"type":"Feature"},{"geometry":{"coordinates":[[[-122.31196,37.88827],[-122.31252,37.88905],[-122.31366,37.88906],[-122.31423,37.88828],[-122.31367,37.8875],[-122.31254,37.88749],[-122.31196,37.88827]]],"type":"Polygon"},"properties":{"bbox":{"parking":{"area":4415.22,"pct":16.99},"roads":{"area":2982.82,"pct":11.48}},"city_same":1,"id":"hex:3736:24212"},"type":"Feature"},{"geometry":{"coordinates":[[[-122.31195,37.88983],[-122.31251,37.89061],[-122.31364,37.89062],[-122.31422,37.88984],[-122.31366,37.88906],[-122.31252,37.88905],[-122.31195,37.88983]]],"type":"Polygon"},"properties":{"bbox":{"roads":{"area":1991.65,"pct":7.67}},"city_same":1,"id":"hex:3736:24213"},"type":"Feature"},{"geometry":{"geometries":[{"coordinates":[[[-122.31243,37.89688],[-122.31289,37.89706],[-122.31292,37.89722],[-122.31275,37.89726],[-122.31206,37.89738],[-122.31243,37.89688]]],"type":"Polygon"},{"coordinates":[[-122.31292,37.89722],[-122.31371,37.89704]],"type":"LineString"}],"type":"GeometryCollection"},"properties":{"bbox":{"roads":{"area":0.58,"pct":0.03}},"city_same":1,"id":"hex:3736:24218"},"type":"Feature"},{"geometry":{"coordinates":[[[-122.31202,37.88202],[-122.31088,37.88202],[-122.3107,37.88176],[-122.31248,37.88139],[-122.31202,37.88202]]],"type":"Polygon"},"properties":{"bbox":{"roads":{"area":897.93,"pct":14.78}},"city_same":1,"id":"hex:3737:24207"},"type":"Feature"},{"geometry":{"coordinates":[[[-122.3103,37.8828],[-122.31087,37.88358],[-122.312,37.88359],[-122.31258,37.88281],[-122.31202,37.88202],[-122.31088,37.88202],[-122.3103,37.8828]]],"type":"Polygon"},"properties":{"bbox":{"roads":{"area":147.88,"pct":0.57}},"city_same":1,"id":"hex:3737:24208"},"type":"Feature"},{"geometry":{"coordinates":[[[-122.31128,37.88983],[-122.31127,37.88982],[-122.31123,37.8897],[-122.31116,37.88961],[-122.31105,37.88952],[-122.31089,37.88945],[-122.31062,37.88934],[-122.31038,37.88915],[-122.31027,37.88907],[-122.31025,37.88903],[-122.31082,37.88826],[-122.31196,37.88827],[-122.31252,37.88905],[-122.31195,37.88983],[-122.31177,37.88983],[-122.31175,37.88977],[-122.31174,37.88972],[-122.31169,37.88967],[-122.31164,37.88963],[-122.31158,37.88962],[-122.31149,37.88961],[-122.31141,37.88962],[-122.31136,37.88968],[-122.31135,37.88974],[-122.3114,37.88983],[-122.31128,37.88983]]],"type":"Polygon"},"properties":{"bbox":{"roads":{"area":2389.44,"pct":10.36}},"city_same":1,"id":"hex:3737:24212"},"type":"Feature"},{"geometry":{"coordinates":[[[-122.31075,37.89607],[-122.31019,37.89528],[-122.31056,37.89478],[-122.31129,37.89567],[-122.31164,37.89607],[-122.31075,37.89607]]],"type":"Polygon"},"properties":{"bbox":{"roads":{"area":953.92,"pct":11.44}},"city":{"roads":{"area":616.61,"pct":7.4}},"id":"hex:3737:24216"},"type":"Feature"},{"geometry":{"coordinates":[[[-122.31017,37.89684],[-122.31075,37.89607],[-122.31164,37.89607],[-122.3123,37.89683],[-122.31241,37.89688],[-122.31243,37.89688],[-122.31206,37.89738],[-122.31205,37.89738],[-122.31156,37.89746],[-122.31069,37.89756],[-122.31017,37.89684]]],"type":"Polygon"},"properties":{"bbox":{"roads":{"area":4810.36,"pct":21.12}},"city":{"roads":{"area":3287.21,"pct":14.43}},"id":"hex:3737:24217"},"type":"Feature"},{"geometry":{"coordinates":[[[-122.31088,37.88202],[-122.3103,37.8828],[-122.30917,37.88279],[-122.30872,37.88217],[-122.3107,37.88176],[-122.31088,37.88202]]],"type":"Polygon"},"properties":{"bbox":{"roads":{"area":102.5,"pct":0.73}},"city_same":1,"id":"hex:3738:24208"},"type":"Feature"},{"geometry":{"coordinates":[[[-122.30859,37.88357],[-122.30915,37.88435],[-122.31029,37.88436],[-122.31087,37.88358],[-122.3103,37.8828],[-122.30917,37.88279],[-122.30859,37.88357]]],"type":"Polygon"},"properties":{"bbox":{"roads":{"area":621.63,"pct":2.39}},"city":{"roads":{"area":67.39,"pct":0.26}},"id":"hex:3738:24209"},"type":"Feature"},{"geometry":{"coordinates":[[[-122.30858,37.88513],[-122.30914,37.88591],[-122.31028,37.88592],[-122.31085,37.88514],[-122.31029,37.88436],[-122.30915,37.88435],[-122.30858,37.88513]]],"type":"Polygon"},"properties":{"bbox":{"roads":{"area":4681.01,"pct":18.02}},"city":{"roads":{"area":1734.68,"pct":6.68}},"id":"hex:3738:24210"},"type":"Feature"},{"geometry":{"coordinates":[[[-122.30856,37.88669],[-122.30912,37.88747],[-122.31026,37.88748],[-122.31084,37.8867],[-122.31028,37.88592],[-122.30914,37.88591],[-122.30856,37.88669]]],"type":"Polygon"},"properties":{"bbox":{"parking":{"area":7166.92,"pct":27.59},"roads":{"area":8713.15,"pct":33.54}},"city":{"parking":{"area":7166.92,"pct":27.59},"roads":{"area":4379.37,"pct":16.86}},"id":"hex:3738:24211"},"type":"Feature"},{"geometry":{"coordinates":[[[-122.30911,37.88903],[-122.30855,37.88825],[-122.30912,37.88747],[-122.31026,37.88748],[-122.31082,37.88826],[-122.31025,37.88903],[-122.31022,37.88895],[-122.3102,37.88883],[-122.31,37.88868],[-122.30993,37.88857],[-122.30977,37.88845],[-122.30974,37.88842],[-122.3096,37.88826],[-122.30953,37.88824],[-122.30953,37.8883],[-122.30946,37.88903],[-122.30911,37.88903]]],"type":"Polygon"},"properties":{"bbox":{"parking":{"area":260.13,"pct":1.16},"roads":{"area":8969.93,"pct":40.15},"sidewalks":{"area":29.07,"pct":0.13}},"city":{"parking":{"area":260.13,"pct":1.16},"roads":{"area":5510.62,"pct":24.66},"sidewalks":{"area":29.07,"pct":0.13}},"id":"hex:3738:24212"},"type":"Feature"},{"geometry":{"coordinates":[[[-122.30909,37.89059],[-122.30853,37.88981],[-122.30911,37.88903],[-122.30946,37.88903],[-122.30941,37.88956],[-122.30927,37.89059],[-122.30909,37.89059]]],"type":"Polygon"},"properties":{"bbox":{"roads":{"area":2979.07,"pct":35.54}},"city":{"roads":{"area":1331.92,"pct":15.89}},"id":"hex:3738:24213"},"type":"Feature"},{"geometry":{"coordinates":[[[-122.30908,37.89215],[-122.30852,37.89137],[-122.30909,37.89059],[-122.30927,37.89059],[-122.30922,37.89097],[-122.30928,37.89216],[-122.30908,37.89215]]],"type":"Polygon"},"properties":{"bbox":{"roads":{"area":1898.22,"pct":28.12}},"city":{"roads":{"area":1215.56,"pct":18.01}},"id":"hex:3738:24214"},"type":"Feature"},{"geometry":{"coordinates":[[[-122.30907,37.89372],[-122.3085,37.89293],[-122.30908,37.89215],[-122.30928,37.89216],[-122.30929,37.89229],[-122.30962,37.89314],[-122.30978,37.89358],[-122.30988,37.89372],[-122.30907,37.89372]]],"type":"Polygon"},"properties":{"bbox":{"roads":{"area":2974.94,"pct":25.92}},"city":{"roads":{"area":1837.5,"pct":16.01}},"id":"hex:3738:24215"},"type":"Feature"},{"geometry":{"coordinates":[[[-122.31019,37.89528],[-122.30905,37.89528],[-122.30849,37.89449],[-122.30907,37.89372],[-122.30988,37.89372],[-122.31007,37.89401],[-122.31039,37.89456],[-122.31056,37.89478],[-122.31019,37.89528]]],"type":"Polygon"},"properties":{"bbox":{"roads":{"area":3912.67,"pct":17.22}},"city":{"roads":{"area":2221.39,"pct":9.77}},"id":"hex:3738:24216"},"type":"Feature"},{"geometry":{"coordinates":[[[-122.30848,37.89605],[-122.30904,37.89684],[-122.31017,37.89684],[-122.31075,37.89607],[-122.31019,37.89528],[-122.30905,37.89528],[-122.30848,37.89605]]],"type":"Polygon"},"properties":{"bbox":{"parking":{"area":3569.93,"pct":13.74},"roads":{"area":4130.38,"pct":15.9}},"city":{"parking":{"area":3569.93,"pct":13.74},"roads":{"area":2941.97,"pct":11.32}},"id":"hex:3738:24217"},"type":"Feature"},{"geometry":{"coordinates":[[[-122.30846,37.89761],[-122.30904,37.89684],[-122.31017,37.89684],[-122.31069,37.89756],[-122.30877,37.89779],[-122.3086,37.89781],[-122.30846,37.89761]]],"type":"Polygon"},"properties":{"bbox":{"roads":{"area":3977.5,"pct":27.56}},"city":{"roads":{"area":2428.7,"pct":16.83}},"id":"hex:3738:24218"},"type":"Feature"},{"geometry":{"coordinates":[[[-122.30747,37.882],[-122.30734,37.88182],[-122.3075,37.88179],[-122.30757,37.8818],[-122.30757,37.8818],[-122.30776,37.88183],[-122.3081,37.882],[-122.30747,37.882]]],"type":"Polygon"},"properties":{"bbox":{"roads":{"area":266.28,"pct":28.28}},"city":{"roads":{"area":194.16,"pct":20.62}},"id":"hex:3739:24207"},"type":"Feature"},{"geometry":{"coordinates":[[[-122.30917,37.88279],[-122.30859,37.88357],[-122.30745,37.88356],[-122.30689,37.88278],[-122.30747,37.882],[-122.3081,37.882],[-122.30852,37.88221],[-122.30872,37.88217],[-122.30917,37.88279]]],"type":"Polygon"},"properties":{"bbox":{"parking":{"area":1683.47,"pct":6.65},"roads":{"area":9974.79,"pct":39.43}},"city":{"parking":{"area":1683.47,"pct":6.65},"roads":{"area":4685.4,"pct":18.52}},"id":"hex:3739:24208"},"type":"Feature"},{"geometry":{"coordinates":[[[-122.30688,37.88434],[-122.30744,37.88512],[-122.30858,37.88513],[-122.30915,37.88435],[-122.30859,37.88357],[-122.30745,37.88356],[-122.30688,37.88434]]],"type":"Polygon"},"properties":{"bbox":{"parking":{"area":4986.47,"pct":19.19},"roads":{"area":11320.6,"pct":43.57}},"city":{"parking":{"area":4986.47,"pct":19.19},"roads":{"area":7546.47,"pct":29.05}},"id":"hex:3739:24209"},"type":"Feature"},{"geometry":{"coordinates":[[[-122.30686,37.8859],[-122.30743,37.88668],[-122.30856,37.88669],[-122.30914,37.88591],[-122.30858,37.88513],[-122.30744,37.88512],[-122.30686,37.8859]]],"type":"Polygon"},"properties":{"bbox":{"parking":{"area":1444.79,"pct":5.56},"roads":{"area":7964.5,"pct":30.66}},"city":{"parking":{"area":1444.79,"pct":5.56},"roads":{"area":5661.23,"pct":21.79}},"id":"hex:3739:24210"},"type":"Feature"},{"geometry":{"coordinates":[[[-122.30685,37.88746],[-122.30741,37.88824],[-122.30855,37.88825],[-122.30912,37.88747],[-122.30856,37.88669],[-122.30743,37.88668],[-122.30685,37.88746]]],"type":"Polygon"},"properties":{"bbox":{"parking":{"area":802.25,"pct":3.09},"roads":{"area":8845.75,"pct":34.05}},"city":{"parking":{"area":802.25,"pct":3.09},"roads":{"area":4784.14,"pct":18.41}},"id":"hex:3739:24211"},"type":"Feature"},{"geometry":{"coordinates":[[[-122.30684,37.88902],[-122.3074,37.8898],[-122.30853,37.88981],[-122.30911,37.88903],[-122.30855,37.88825],[-122.30741,37.88824],[-122.30684,37.88902]]],"type":"Polygon"},"properties":{"bbox":{"roads":{"area":10657.89,"pct":41.02}},"city":{"roads":{"area":6444.23,"pct":24.8}},"id":"hex:3739:24212"},"type":"Feature"},{"geometry":{"coordinates":[[[-122.30682,37.89058],[-122.30738,37.89136],[-122.30852,37.89137],[-122.30909,37.89059],[-122.30853,37.88981],[-122.3074,37.8898],[-122.30682,37.89058]]],"type":"Polygon"},"properties":{"bbox":{"roads":{"area":10831.08,"pct":41.69}},"city":{"roads":{"area":6455.46,"pct":24.85}},"id":"hex:3739:24213"},"type":"Feature"},{"geometry":{"coordinates":[[[-122.30681,37.89214],[-122.30737,37.89293],[-122.3085,37.89293],[-122.30908,37.89215],[-122.30852,37.89137],[-122.30738,37.89136],[-122.30681,37.89214]]],"type":"Polygon"},"properties":{"bbox":{"roads":{"area":10238.34,"pct":39.41}},"city":{"roads":{"area":5687.73,"pct":21.89}},"id":"hex:3739:24214"},"type":"Feature"},{"geometry":{"coordinates":[[[-122.30679,37.8937],[-122.30735,37.89449],[-122.30849,37.89449],[-122.30907,37.89372],[-122.3085,37.89293],[-122.30737,37.89293],[-122.30679,37.8937]]],"type":"Polygon"},"properties":{"bbox":{"roads":{"area":8996,"pct":34.63}},"city":{"roads":{"area":5635.21,"pct":21.69}},"id":"hex:3739:24215"},"type":"Feature"},{"geometry":{"coordinates":[[[-122.30678,37.89526],[-122.30734,37.89605],[-122.30848,37.89605],[-122.30905,37.89528],[-122.30849,37.89449],[-122.30735,37.89449],[-122.30678,37.89526]]],"type":"Polygon"},"properties":{"bbox":{"roads":{"area":8983.81,"pct":34.58}},"city":{"roads":{"area":5805.32,"pct":22.34}},"id":"hex:3739:24216"},"type":"Feature"},{"geometry":{"coordinates":[[[-122.30676,37.89682],[-122.30732,37.89761],[-122.30846,37.89761],[-122.30904,37.89684],[-122.30848,37.89605],[-122.30734,37.89605],[-122.30676,37.89682]]],"type":"Polygon"},"properties":{"bbox":{"roads":{"area":4783.96,"pct":18.41}},"city":{"roads":{"area":3128.33,"pct":12.04}},"id":"hex:3739:24217"},"type":"Feature"},{"geometry":{"coordinates":[[[-122.30747,37.882],[-122.30689,37.88278],[-122.30576,37.88277],[-122.30526,37.88208],[-122.30539,37.88206],[-122.30551,37.88205],[-122.30551,37.88204],[-122.30588,37.88201],[-122.30652,37.88195],[-122.30677,37.88191],[-122.30734,37.88182],[-122.30747,37.882]]],"type":"Polygon"},"properties":{"bbox":{"parking":{"area":969.42,"pct":7.09},"roads":{"area":299.45,"pct":2.19}},"city_same":1,"id":"hex:3740:24208"},"type":"Feature"},{"geometry":{"coordinates":[[[-122.30518,37.88355],[-122.30574,37.88433],[-122.30688,37.88434],[-122.30745,37.88356],[-122.30689,37.88278],[-122.30576,37.88277],[-122.30518,37.88355]]],"type":"Polygon"},"properties":{"bbox":{"parking":{"area":6601.91,"pct":25.41},"roads":{"area":1720.85,"pct":6.62}},"city_same":1,"id":"hex:3740:24209"},"type":"Feature"},{"geometry":{"coordinates":[[[-122.30517,37.88511],[-122.30573,37.88589],[-122.30686,37.8859],[-122.30744,37.88512],[-122.30688,37.88434],[-122.30574,37.88433],[-122.30517,37.88511]]],"type":"Polygon"},"properties":{"bbox":{"parking":{"area":5810.04,"pct":22.36},"roads":{"area":1854.1,"pct":7.14}},"city_same":1,"id":"hex:3740:24210"},"type":"Feature"},{"geometry":{"coordinates":[[[-122.30515,37.88667],[-122.30571,37.88745],[-122.30685,37.88746],[-122.30743,37.88668],[-122.30686,37.8859],[-122.30573,37.88589],[-122.30515,37.88667]]],"type":"Polygon"},"properties":{"bbox":{"parking":{"area":1074.68,"pct":4.14},"roads":{"area":3831.84,"pct":14.75}},"city":{"parking":{"area":1074.68,"pct":4.14},"roads":{"area":2535.67,"pct":9.76}},"id":"hex:3740:24211"},"type":"Feature"},{"geometry":{"coordinates":[[[-122.30514,37.88823],[-122.3057,37.88901],[-122.30684,37.88902],[-122.30741,37.88824],[-122.30685,37.88746],[-122.30571,37.88745],[-122.30514,37.88823]]],"type":"Polygon"},"properties":{"bbox":{"roads":{"area":4495.32,"pct":17.3}},"city":{"roads":{"area":4458.75,"pct":17.16}},"id":"hex:3740:24212"},"type":"Feature"},{"geometry":{"coordinates":[[[-122.30512,37.88979],[-122.30568,37.89057],[-122.30682,37.89058],[-122.3074,37.8898],[-122.30684,37.88902],[-122.3057,37.88901],[-122.30512,37.88979]]],"type":"Polygon"},"properties":{"bbox":{"roads":{"area":3310.77,"pct":12.74}},"city_same":1,"id":"hex:3740:24213"},"type":"Feature"},{"geometry":{"coordinates":[[[-122.30511,37.89135],[-122.30567,37.89213],[-122.30681,37.89214],[-122.30738,37.89136],[-122.30682,37.89058],[-122.30568,37.89057],[-122.30511,37.89135]]],"type":"Polygon"},"properties":{"bbox":{"roads":{"area":2894.5,"pct":11.14}},"city":{"roads":{"area":2872.23,"pct":11.06}},"id":"hex:3740:24214"},"type":"Feature"},{"geometry":{"coordinates":[[[-122.30509,37.89291],[-122.30565,37.8937],[-122.30679,37.8937],[-122.30737,37.89293],[-122.30681,37.89214],[-122.30567,37.89213],[-122.30509,37.89291]]],"type":"Polygon"},"properties":{"bbox":{"roads":{"area":1607.63,"pct":6.19}},"city":{"roads":{"area":1567.62,"pct":6.03}},"id":"hex:3740:24215"},"type":"Feature"},{"geometry":{"coordinates":[[[-122.30508,37.89447],[-122.30564,37.89526],[-122.30678,37.89526],[-122.30735,37.89449],[-122.30679,37.8937],[-122.30565,37.8937],[-122.30508,37.89447]]],"type":"Polygon"},"properties":{"bbox":{"roads":{"area":134.96,"pct":0.52}},"city_same":1,"id":"hex:3740:24216"},"type":"Feature"},{"geometry":{"coordinates":[[[-122.30506,37.89603],[-122.30562,37.89682],[-122.30676,37.89682],[-122.30734,37.89605],[-122.30678,37.89526],[-122.30564,37.89526],[-122.30506,37.89603]]],"type":"Polygon"},"properties":{"bbox":{"roads":{"area":587.85,"pct":2.26}},"city_same":1,"id":"hex:3740:24217"},"type":"Feature"},{"geometry":{"coordinates":[[[-122.30576,37.88277],[-122.30518,37.88355],[-122.30404,37.88354],[-122.30348,37.88276],[-122.30392,37.88217],[-122.30394,37.88216],[-122.30422,37.88214],[-122.30439,37.88213],[-122.30445,37.88214],[-122.30502,37.88209],[-122.30516,37.88209],[-122.30526,37.88208],[-122.30576,37.88277]]],"type":"Polygon"},"properties":{"bbox":{"roads":{"area":1347.68,"pct":5.55}},"city_same":1,"id":"hex:3741:24208"},"type":"Feature"},{"geometry":{"coordinates":[[[-122.30347,37.88432],[-122.30403,37.8851],[-122.30517,37.88511],[-122.30574,37.88433],[-122.30518,37.88355],[-122.30404,37.88354],[-122.30347,37.88432]]],"type":"Polygon"},"properties":{"bbox":{"roads":{"area":3464.13,"pct":13.33}},"city_same":1,"id":"hex:3741:24209"},"type":"Feature"},{"geometry":{"coordinates":[[[-122.30345,37.88588],[-122.30401,37.88666],[-122.30515,37.88667],[-122.30573,37.88589],[-122.30517,37.88511],[-122.30403,37.8851],[-122.30345,37.88588]]],"type":"Polygon"},"properties":{"bbox":{"parking":{"area":7605.96,"pct":29.28},"roads":{"area":2783.12,"pct":10.71}},"city_same":1,"id":"hex:3741:24210"},"type":"Feature"},{"geometry":{"coordinates":[[[-122.30344,37.88744],[-122.304,37.88822],[-122.30514,37.88823],[-122.30571,37.88745],[-122.30515,37.88667],[-122.30401,37.88666],[-122.30344,37.88744]]],"type":"Polygon"},"properties":{"bbox":{"roads":{"area":5107.32,"pct":19.66},"sidewalks":{"area":201.68,"pct":0.78}},"city":{"roads":{"area":3041.71,"pct":11.71},"sidewalks":{"area":201.68,"pct":0.78}},"id":"hex:3741:24211"},"type":"Feature"},{"geometry":{"coordinates":[[[-122.30342,37.889],[-122.30398,37.88978],[-122.30512,37.88979],[-122.3057,37.88901],[-122.30514,37.88823],[-122.304,37.88822],[-122.30342,37.889]]],"type":"Polygon"},"properties":{"bbox":{"roads":{"area":2613.24,"pct":10.06}},"city_same":1,"id":"hex:3741:24212"},"type":"Feature"},{"geometry":{"coordinates":[[[-122.30341,37.89056],[-122.30397,37.89134],[-122.30511,37.89135],[-122.30568,37.89057],[-122.30512,37.88979],[-122.30398,37.88978],[-122.30341,37.89056]]],"type":"Polygon"},"properties":{"bbox":{"roads":{"area":3073.63,"pct":11.83}},"city_same":1,"id":"hex:3741:24213"},"type":"Feature"},{"geometry":{"coordinates":[[[-122.30339,37.89212],[-122.30396,37.8929],[-122.30509,37.89291],[-122.30567,37.89213],[-122.30511,37.89135],[-122.30397,37.89134],[-122.30339,37.89212]]],"type":"Polygon"},"properties":{"bbox":{"roads":{"area":2034.87,"pct":7.83}},"city_same":1,"id":"hex:3741:24214"},"type":"Feature"},{"geometry":{"coordinates":[[[-122.30338,37.89368],[-122.30394,37.89447],[-122.30508,37.89447],[-122.30565,37.8937],[-122.30509,37.89291],[-122.30396,37.8929],[-122.30338,37.89368]]],"type":"Polygon"},"properties":{"bbox":{"roads":{"area":1008.97,"pct":3.88}},"city_same":1,"id":"hex:3741:24215"},"type":"Feature"},{"geometry":{"coordinates":[[[-122.30336,37.89524],[-122.30393,37.89603],[-122.30506,37.89603],[-122.30564,37.89526],[-122.30508,37.89447],[-122.30394,37.89447],[-122.30336,37.89524]]],"type":"Polygon"},"properties":{"bbox":{"roads":{"area":1120.47,"pct":4.31},"sidewalks":{"area":12.83,"pct":0.05}},"city_same":1,"id":"hex:3741:24216"},"type":"Feature"},{"geometry":{"coordinates":[[[-122.30335,37.8968],[-122.30391,37.89759],[-122.30505,37.89759],[-122.30562,37.89682],[-122.30506,37.89603],[-122.30393,37.89603],[-122.30335,37.8968]]],"type":"Polygon"},"properties":{"bbox":{"roads":{"area":1373.72,"pct":5.29},"sidewalks":{"area":10.56,"pct":0.04}},"city_same":1,"id":"hex:3741:24217"},"type":"Feature"},{"geometry":{"coordinates":[[[-122.30348,37.88276],[-122.30235,37.88275],[-122.30212,37.88244],[-122.30217,37.88242],[-122.30244,37.88236],[-122.30337,37.88227],[-122.30357,37.88219],[-122.3036,37.88219],[-122.30366,37.88217],[-122.30375,37.88218],[-122.30392,37.88217],[-122.30348,37.88276]]],"type":"Polygon"},"properties":{"bbox":{"roads":{"area":399.31,"pct":6.2}},"city_same":1,"id":"hex:3742:24208"},"type":"Feature"},{"geometry":{"coordinates":[[[-122.30177,37.88353],[-122.30233,37.88431],[-122.30347,37.88432],[-122.30404,37.88354],[-122.30348,37.88276],[-122.30235,37.88275],[-122.30177,37.88353]]],"type":"Polygon"},"properties":{"bbox":{"roads":{"area":3403.73,"pct":13.1}},"city_same":1,"id":"hex:3742:24209"},"type":"Feature"},{"geometry":{"coordinates":[[[-122.30175,37.88509],[-122.30232,37.88587],[-122.30345,37.88588],[-122.30403,37.8851],[-122.30347,37.88432],[-122.30233,37.88431],[-122.30175,37.88509]]],"type":"Polygon"},"properties":{"bbox":{"roads":{"area":2385.91,"pct":9.18},"sidewalks":{"area":93.34,"pct":0.36}},"city_same":1,"id":"hex:3742:24210"},"type":"Feature"},{"geometry":{"coordinates":[[[-122.30174,37.88665],[-122.3023,37.88743],[-122.30344,37.88744],[-122.30401,37.88666],[-122.30345,37.88588],[-122.30232,37.88587],[-122.30174,37.88665]]],"type":"Polygon"},"properties":{"bbox":{"roads":{"area":668.59,"pct":2.57}},"city":{"roads":{"area":668.08,"pct":2.57}},"id":"hex:3742:24211"},"type":"Feature"},{"geometry":{"coordinates":[[[-122.30173,37.88821],[-122.30229,37.88899],[-122.30342,37.889],[-122.304,37.88822],[-122.30344,37.88744],[-122.3023,37.88743],[-122.30173,37.88821]]],"type":"Polygon"},"properties":{"bbox":{"roads":{"area":4417.52,"pct":17},"sidewalks":{"area":173.76,"pct":0.67}},"city":{"roads":{"area":3017.19,"pct":11.61},"sidewalks":{"area":173.76,"pct":0.67}},"id":"hex:3742:24212"},"type":"Feature"},{"geometry":{"coordinates":[[[-122.30171,37.88977],[-122.30227,37.89055],[-122.30341,37.89056],[-122.30398,37.88978],[-122.30342,37.889],[-122.30229,37.88899],[-122.30171,37.88977]]],"type":"Polygon"},"properties":{"bbox":{"roads":{"area":3321.49,"pct":12.78},"sidewalks":{"area":378.38,"pct":1.46}},"city_same":1,"id":"hex:3742:24213"},"type":"Feature"},{"geometry":{"coordinates":[[[-122.3017,37.89133],[-122.30226,37.89211],[-122.30339,37.89212],[-122.30397,37.89134],[-122.30341,37.89056],[-122.30227,37.89055],[-122.3017,37.89133]]],"type":"Polygon"},"properties":{"bbox":{"roads":{"area":3332.53,"pct":12.83}},"city_same":1,"id":"hex:3742:24214"},"type":"Feature"},{"geometry":{"coordinates":[[[-122.30168,37.89289],[-122.30224,37.89368],[-122.30338,37.89368],[-122.30396,37.8929],[-122.30339,37.89212],[-122.30226,37.89211],[-122.30168,37.89289]]],"type":"Polygon"},"properties":{"bbox":{"roads":{"area":2785.73,"pct":10.72}},"city_same":1,"id":"hex:3742:24215"},"type":"Feature"},{"geometry":{"coordinates":[[[-122.30167,37.89445],[-122.30223,37.89524],[-122.30336,37.89524],[-122.30394,37.89447],[-122.30338,37.89368],[-122.30224,37.89368],[-122.30167,37.89445]]],"type":"Polygon"},"properties":{"bbox":{"roads":{"area":2905.95,"pct":11.18}},"city_same":1,"id":"hex:3742:24216"},"type":"Feature"},{"geometry":{"coordinates":[[[-122.30165,37.89601],[-122.30221,37.8968],[-122.30335,37.8968],[-122.30393,37.89603],[-122.30336,37.89524],[-122.30223,37.89524],[-122.30165,37.89601]]],"type":"Polygon"},"properties":{"bbox":{"roads":{"area":2791.6,"pct":10.74}},"city_same":1,"id":"hex:3742:24217"},"type":"Feature"},{"geometry":{"coordinates":[[[-122.30164,37.89757],[-122.3022,37.89836],[-122.30334,37.89837],[-122.30391,37.89759],[-122.30335,37.8968],[-122.30221,37.8968],[-122.30164,37.89757]]],"type":"Polygon"},"properties":{"bbox":{"roads":{"area":1212.4,"pct":4.67}},"city_same":1,"id":"hex:3742:24218"},"type":"Feature"},{"geometry":{"coordinates":[[[-122.30235,37.88275],[-122.30177,37.88353],[-122.30063,37.88352],[-122.30017,37.88287],[-122.30027,37.88285],[-122.30212,37.88244],[-122.30235,37.88275]]],"type":"Polygon"},"properties":{"bbox":{"roads":{"area":1343.27,"pct":9}},"city_same":1,"id":"hex:3743:24208"},"type":"Feature"},{"geometry":{"coordinates":[[[-122.30006,37.8843],[-122.30062,37.88508],[-122.30175,37.88509],[-122.30233,37.88431],[-122.30177,37.88353],[-122.30063,37.88352],[-122.30006,37.8843]]],"type":"Polygon"},"properties":{"bbox":{"roads":{"area":1851.35,"pct":7.13}},"city_same":1,"id":"hex:3743:24209"},"type":"Feature"},{"geometry":{"coordinates":[[[-122.30004,37.88586],[-122.3006,37.88664],[-122.30174,37.88665],[-122.30232,37.88587],[-122.30175,37.88509],[-122.30062,37.88508],[-122.30004,37.88586]]],"type":"Polygon"},"properties":{"bbox":{"roads":{"area":3176.63,"pct":12.23}},"city_same":1,"id":"hex:3743:24210"},"type":"Feature"},{"geometry":{"coordinates":[[[-122.30003,37.88742],[-122.30059,37.8882],[-122.30173,37.88821],[-122.3023,37.88743],[-122.30174,37.88665],[-122.3006,37.88664],[-122.30003,37.88742]]],"type":"Polygon"},"properties":{"bbox":{"roads":{"area":5175.77,"pct":19.92},"sidewalks":{"area":363.01,"pct":1.4}},"city":{"roads":{"area":2990.31,"pct":11.51},"sidewalks":{"area":363.01,"pct":1.4}},"id":"hex:3743:24211"},"type":"Feature"},{"geometry":{"coordinates":[[[-122.30001,37.88898],[-122.30057,37.88976],[-122.30171,37.88977],[-122.30229,37.88899],[-122.30173,37.88821],[-122.30059,37.8882],[-122.30001,37.88898]]],"type":"Polygon"},"properties":{"bbox":{"roads":{"area":2667.65,"pct":10.27},"sidewalks":{"area":566.43,"pct":2.18}},"city_same":1,"id":"hex:3743:24212"},"type":"Feature"},{"geometry":{"coordinates":[[[-122.3,37.89054],[-122.30056,37.89132],[-122.3017,37.89133],[-122.30227,37.89055],[-122.30171,37.88977],[-122.30057,37.88976],[-122.3,37.89054]]],"type":"Polygon"},"properties":{"bbox":{"roads":{"area":2924.63,"pct":11.26},"sidewalks":{"area":292.52,"pct":1.13}},"city_same":1,"id":"hex:3743:24213"},"type":"Feature"},{"geometry":{"coordinates":[[[-122.29998,37.8921],[-122.30054,37.89288],[-122.30168,37.89289],[-122.30226,37.89211],[-122.3017,37.89133],[-122.30056,37.89132],[-122.29998,37.8921]]],"type":"Polygon"},"properties":{"bbox":{"roads":{"area":3354,"pct":12.91}},"city_same":1,"id":"hex:3743:24214"},"type":"Feature"},{"geometry":{"coordinates":[[[-122.29997,37.89366],[-122.30053,37.89445],[-122.30167,37.89445],[-122.30224,37.89368],[-122.30168,37.89289],[-122.30054,37.89288],[-122.29997,37.89366]]],"type":"Polygon"},"properties":{"bbox":{"roads":{"area":3913.82,"pct":15.06}},"city":{"roads":{"area":3461.29,"pct":13.32}},"id":"hex:3743:24215"},"type":"Feature"},{"geometry":{"coordinates":[[[-122.29995,37.89522],[-122.30051,37.89601],[-122.30165,37.89601],[-122.30223,37.89524],[-122.30167,37.89445],[-122.30053,37.89445],[-122.29995,37.89522]]],"type":"Polygon"},"properties":{"bbox":{"parking":{"area":251.05,"pct":0.97},"roads":{"area":5476.81,"pct":21.08}},"city":{"parking":{"area":251.05,"pct":0.97},"roads":{"area":3678.91,"pct":14.16}},"id":"hex:3743:24216"},"type":"Feature"},{"geometry":{"coordinates":[[[-122.29994,37.89678],[-122.3005,37.89757],[-122.30164,37.89757],[-122.30221,37.8968],[-122.30165,37.89601],[-122.30051,37.89601],[-122.29994,37.89678]]],"type":"Polygon"},"properties":{"bbox":{"parking":{"area":983.2,"pct":3.78},"roads":{"area":6161.61,"pct":23.72}},"city":{"parking":{"area":983.2,"pct":3.78},"roads":{"area":4447.98,"pct":17.12}},"id":"hex:3743:24217"},"type":"Feature"},{"geometry":{"coordinates":[[[-122.3005,37.89757],[-122.30164,37.89757],[-122.3022,37.89836],[-122.3021,37.8985],[-122.30101,37.89796],[-122.30055,37.89799],[-122.30022,37.89795],[-122.3005,37.89757]]],"type":"Polygon"},"properties":{"bbox":{"parking":{"area":1727.63,"pct":20.95},"roads":{"area":553.02,"pct":6.7},"sidewalks":{"area":14.71,"pct":0.18}},"city_same":1,"id":"hex:3743:24218"},"type":"Feature"},{"geometry":{"coordinates":[[[-122.30063,37.88352],[-122.30006,37.8843],[-122.29892,37.88429],[-122.29836,37.88351],[-122.29882,37.88288],[-122.29886,37.88288],[-122.29921,37.88286],[-122.29963,37.88289],[-122.30007,37.8829],[-122.30017,37.88287],[-122.30063,37.88352]]],"type":"Polygon"},"properties":{"bbox":{"parking":{"area":1265.73,"pct":5.24},"roads":{"area":2472.65,"pct":10.24}},"city_same":1,"id":"hex:3744:24209"},"type":"Feature"},{"geometry":{"coordinates":[[[-122.29834,37.88507],[-122.2989,37.88585],[-122.30004,37.88586],[-122.30062,37.88508],[-122.30006,37.8843],[-122.29892,37.88429],[-122.29834,37.88507]]],"type":"Polygon"},"properties":{"bbox":{"parking":{"area":1190.86,"pct":4.58},"roads":{"area":2674.14,"pct":10.29}},"city_same":1,"id":"hex:3744:24210"},"type":"Feature"},{"geometry":{"coordinates":[[[-122.29833,37.88663],[-122.29889,37.88741],[-122.30003,37.88742],[-122.3006,37.88664],[-122.30004,37.88586],[-122.2989,37.88585],[-122.29833,37.88663]]],"type":"Polygon"},"properties":{"bbox":{"parking":{"area":33.11,"pct":0.13},"roads":{"area":1721.25,"pct":6.63},"sidewalks":{"area":50.02,"pct":0.19}},"city":{"parking":{"area":33.11,"pct":0.13},"roads":{"area":814.25,"pct":3.13},"sidewalks":{"area":50.02,"pct":0.19}},"id":"hex:3744:24211"},"type":"Feature"},{"geometry":{"coordinates":[[[-122.29831,37.88819],[-122.29887,37.88897],[-122.30001,37.88898],[-122.30059,37.8882],[-122.30003,37.88742],[-122.29889,37.88741],[-122.29831,37.88819]]],"type":"Polygon"},"properties":{"bbox":{"parking":{"area":2365.03,"pct":9.1},"roads":{"area":4977.39,"pct":19.16},"sidewalks":{"area":446.02,"pct":1.72}},"city":{"parking":{"area":2365.03,"pct":9.1},"roads":{"area":3952.65,"pct":15.21},"sidewalks":{"area":446.02,"pct":1.72}},"id":"hex:3744:24212"},"type":"Feature"},{"geometry":{"coordinates":[[[-122.2983,37.88975],[-122.29886,37.89053],[-122.3,37.89054],[-122.30057,37.88976],[-122.30001,37.88898],[-122.29887,37.88897],[-122.2983,37.88975]]],"type":"Polygon"},"properties":{"bbox":{"parking":{"area":287.41,"pct":1.11},"roads":{"area":5756.04,"pct":22.16},"sidewalks":{"area":683.92,"pct":2.63}},"city":{"parking":{"area":287.41,"pct":1.11},"roads":{"area":4040.36,"pct":15.55},"sidewalks":{"area":683.92,"pct":2.63}},"id":"hex:3744:24213"},"type":"Feature"},{"geometry":{"coordinates":[[[-122.29828,37.89131],[-122.29885,37.89209],[-122.29998,37.8921],[-122.30056,37.89132],[-122.3,37.89054],[-122.29886,37.89053],[-122.29828,37.89131]]],"type":"Polygon"},"properties":{"bbox":{"parking":{"area":3172.91,"pct":12.21},"roads":{"area":5686.7,"pct":21.89},"sidewalks":{"area":487.46,"pct":1.88}},"city":{"parking":{"area":3172.91,"pct":12.21},"roads":{"area":3960.26,"pct":15.24},"sidewalks":{"area":487.46,"pct":1.88}},"id":"hex:3744:24214"},"type":"Feature"},{"geometry":{"coordinates":[[[-122.29827,37.89287],[-122.29883,37.89366],[-122.29997,37.89366],[-122.30054,37.89288],[-122.29998,37.8921],[-122.29885,37.89209],[-122.29827,37.89287]]],"type":"Polygon"},"properties":{"bbox":{"parking":{"area":270.66,"pct":1.04},"roads":{"area":5297,"pct":20.39},"sidewalks":{"area":35.46,"pct":0.14}},"city":{"parking":{"area":270.66,"pct":1.04},"roads":{"area":3441.46,"pct":13.25},"sidewalks":{"area":35.46,"pct":0.14}},"id":"hex:3744:24215"},"type":"Feature"},{"geometry":{"coordinates":[[[-122.29825,37.89443],[-122.29882,37.89522],[-122.29995,37.89522],[-122.30053,37.89445],[-122.29997,37.89366],[-122.29883,37.89366],[-122.29825,37.89443]]],"type":"Polygon"},"properties":{"bbox":{"parking":{"area":1581.74,"pct":6.09},"roads":{"area":3894.65,"pct":14.99}},"city":{"parking":{"area":1581.74,"pct":6.09},"roads":{"area":2896.05,"pct":11.15}},"id":"hex:3744:24216"},"type":"Feature"},{"geometry":{"coordinates":[[[-122.29824,37.89599],[-122.2988,37.89678],[-122.29994,37.89678],[-122.30051,37.89601],[-122.29995,37.89522],[-122.29882,37.89522],[-122.29824,37.89599]]],"type":"Polygon"},"properties":{"bbox":{"parking":{"area":432.35,"pct":1.66},"roads":{"area":2413.45,"pct":9.29}},"city_same":1,"id":"hex:3744:24217"},"type":"Feature"},{"geometry":{"coordinates":[[[-122.29879,37.89834],[-122.29822,37.89755],[-122.2988,37.89678],[-122.29994,37.89678],[-122.3005,37.89757],[-122.30022,37.89795],[-122.30017,37.89794],[-122.29964,37.8981],[-122.29892,37.89823],[-122.29884,37.89834],[-122.29879,37.89834]]],"type":"Polygon"},"properties":{"bbox":{"roads":{"area":2525.13,"pct":10.76}},"city_same":1,"id":"hex:3744:24218"},"type":"Feature"},{"geometry":{"coordinates":[[[-122.29836,37.88351],[-122.29722,37.8835],[-122.29713,37.88337],[-122.29734,37.88329],[-122.29734,37.88329],[-122.29737,37.88328],[-122.29737,37.88329],[-122.2978,37.88315],[-122.2978,37.88314],[-122.29843,37.88294],[-122.29863,37.88288],[-122.29882,37.88288],[-122.29836,37.88351]]],"type":"Polygon"},"properties":{"bbox":{"roads":{"area":265.06,"pct":5.03}},"city_same":1,"id":"hex:3745:24208"},"type":"Feature"},{"geometry":{"coordinates":[[[-122.29664,37.88428],[-122.29721,37.88506],[-122.29834,37.88507],[-122.29892,37.88429],[-122.29836,37.88351],[-122.29722,37.8835],[-122.29664,37.88428]]],"type":"Polygon"},"properties":{"bbox":{"parking":{"area":3637.26,"pct":14},"roads":{"area":5372.24,"pct":20.68},"sidewalks":{"area":147.47,"pct":0.57}},"city":{"parking":{"area":3637.26,"pct":14},"roads":{"area":3826.43,"pct":14.73},"sidewalks":{"area":147.47,"pct":0.57}},"id":"hex:3745:24209"},"type":"Feature"},{"geometry":{"coordinates":[[[-122.29663,37.88584],[-122.29719,37.88662],[-122.29833,37.88663],[-122.2989,37.88585],[-122.29834,37.88507],[-122.29721,37.88506],[-122.29663,37.88584]]],"type":"Polygon"},"properties":{"bbox":{"parking":{"area":1636.14,"pct":6.3},"roads":{"area":4438.42,"pct":17.08},"sidewalks":{"area":427.33,"pct":1.64}},"city":{"parking":{"area":1636.14,"pct":6.3},"roads":{"area":2205.97,"pct":8.49},"sidewalks":{"area":427.33,"pct":1.64}},"id":"hex:3745:24210"},"type":"Feature"},{"geometry":{"coordinates":[[[-122.29662,37.8874],[-122.29718,37.88818],[-122.29831,37.88819],[-122.29889,37.88741],[-122.29833,37.88663],[-122.29719,37.88662],[-122.29662,37.8874]]],"type":"Polygon"},"properties":{"bbox":{"parking":{"area":1931.66,"pct":7.43},"roads":{"area":8006.01,"pct":30.82},"sidewalks":{"area":769.52,"pct":2.96}},"city":{"parking":{"area":1931.66,"pct":7.43},"roads":{"area":4043.99,"pct":15.57},"sidewalks":{"area":769.52,"pct":2.96}},"id":"hex:3745:24211"},"type":"Feature"},{"geometry":{"coordinates":[[[-122.2966,37.88896],[-122.29716,37.88974],[-122.2983,37.88975],[-122.29887,37.88897],[-122.29831,37.88819],[-122.29718,37.88818],[-122.2966,37.88896]]],"type":"Polygon"},"properties":{"bbox":{"parking":{"area":667.56,"pct":2.57},"roads":{"area":3922.82,"pct":15.1},"sidewalks":{"area":321.42,"pct":1.24}},"city":{"parking":{"area":667.56,"pct":2.57},"roads":{"area":2483.85,"pct":9.56},"sidewalks":{"area":321.42,"pct":1.24}},"id":"hex:3745:24212"},"type":"Feature"},{"geometry":{"coordinates":[[[-122.29659,37.89052],[-122.29715,37.8913],[-122.29828,37.89131],[-122.29886,37.89053],[-122.2983,37.88975],[-122.29716,37.88974],[-122.29659,37.89052]]],"type":"Polygon"},"properties":{"bbox":{"parking":{"area":302.95,"pct":1.17},"roads":{"area":3729.34,"pct":14.35}},"city":{"parking":{"area":302.95,"pct":1.17},"roads":{"area":3360.38,"pct":12.93}},"id":"hex:3745:24213"},"type":"Feature"},{"geometry":{"coordinates":[[[-122.29657,37.89208],[-122.29713,37.89286],[-122.29827,37.89287],[-122.29885,37.89209],[-122.29828,37.89131],[-122.29715,37.8913],[-122.29657,37.89208]]],"type":"Polygon"},"properties":{"bbox":{"parking":{"area":415.75,"pct":1.6},"roads":{"area":3129.19,"pct":12.04}},"city_same":1,"id":"hex:3745:24214"},"type":"Feature"},{"geometry":{"coordinates":[[[-122.29656,37.89364],[-122.29712,37.89443],[-122.29825,37.89443],[-122.29883,37.89366],[-122.29827,37.89287],[-122.29713,37.89286],[-122.29656,37.89364]]],"type":"Polygon"},"properties":{"bbox":{"roads":{"area":3019.43,"pct":11.62}},"city_same":1,"id":"hex:3745:24215"},"type":"Feature"},{"geometry":{"coordinates":[[[-122.29654,37.8952],[-122.2971,37.89599],[-122.29824,37.89599],[-122.29882,37.89522],[-122.29825,37.89443],[-122.29712,37.89443],[-122.29654,37.8952]]],"type":"Polygon"},"properties":{"bbox":{"roads":{"area":2751.56,"pct":10.59}},"city_same":1,"id":"hex:3745:24216"},"type":"Feature"},{"geometry":{"coordinates":[[[-122.29653,37.89676],[-122.29709,37.89755],[-122.29822,37.89755],[-122.2988,37.89678],[-122.29824,37.89599],[-122.2971,37.89599],[-122.29653,37.89676]]],"type":"Polygon"},"properties":{"bbox":{"roads":{"area":2140.01,"pct":8.24}},"city_same":1,"id":"hex:3745:24217"},"type":"Feature"},{"geometry":{"coordinates":[[[-122.29651,37.89832],[-122.29709,37.89755],[-122.29822,37.89755],[-122.29879,37.89834],[-122.29872,37.89843],[-122.29789,37.89858],[-122.29756,37.89877],[-122.29684,37.89878],[-122.29651,37.89832]]],"type":"Polygon"},"properties":{"bbox":{"roads":{"area":16.98,"pct":0.09},"sidewalks":{"area":0.55,"pct":0}},"city_same":1,"id":"hex:3745:24218"},"type":"Feature"},{"geometry":{"coordinates":[[[-122.29722,37.8835],[-122.29664,37.88428],[-122.29551,37.88427],[-122.29495,37.88348],[-122.2954,37.88287],[-122.29598,37.88295],[-122.29637,37.88325],[-122.29659,37.88346],[-122.29695,37.88343],[-122.29713,37.88337],[-122.29722,37.8835]]],"type":"Polygon"},"properties":{"bbox":{"roads":{"area":3146.29,"pct":15.87},"sidewalks":{"area":106.2,"pct":0.54}},"city":{"roads":{"area":2562.42,"pct":12.92},"sidewalks":{"area":106.2,"pct":0.54}},"id":"hex:3746:24209"},"type":"Feature"},{"geometry":{"coordinates":[[[-122.29493,37.88505],[-122.29549,37.88583],[-122.29663,37.88584],[-122.29721,37.88506],[-122.29664,37.88428],[-122.29551,37.88427],[-122.29493,37.88505]]],"type":"Polygon"},"properties":{"bbox":{"parking":{"area":736.28,"pct":2.83},"roads":{"area":2570.23,"pct":9.89},"sidewalks":{"area":36.23,"pct":0.14}},"city":{"parking":{"area":736.28,"pct":2.83},"roads":{"area":2560.83,"pct":9.86},"sidewalks":{"area":36.23,"pct":0.14}},"id":"hex:3746:24210"},"type":"Feature"},{"geometry":{"coordinates":[[[-122.29492,37.88661],[-122.29548,37.88739],[-122.29662,37.8874],[-122.29719,37.88662],[-122.29663,37.88584],[-122.29549,37.88583],[-122.29492,37.88661]]],"type":"Polygon"},"properties":{"bbox":{"roads":{"area":4440.38,"pct":17.09},"sidewalks":{"area":60.6,"pct":0.23}},"city":{"roads":{"area":3210.97,"pct":12.36},"sidewalks":{"area":60.6,"pct":0.23}},"id":"hex:3746:24211"},"type":"Feature"},{"geometry":{"coordinates":[[[-122.2949,37.88817],[-122.29546,37.88895],[-122.2966,37.88896],[-122.29718,37.88818],[-122.29662,37.8874],[-122.29548,37.88739],[-122.2949,37.88817]]],"type":"Polygon"},"properties":{"bbox":{"roads":{"area":1948.21,"pct":7.5}},"city_same":1,"id":"hex:3746:24212"},"type":"Feature"},{"geometry":{"coordinates":[[[-122.29489,37.88973],[-122.29545,37.89051],[-122.29659,37.89052],[-122.29716,37.88974],[-122.2966,37.88896],[-122.29546,37.88895],[-122.29489,37.88973]]],"type":"Polygon"},"properties":{"bbox":{"roads":{"area":3324.41,"pct":12.8}},"city":{"roads":{"area":3120.8,"pct":12.01}},"id":"hex:3746:24213"},"type":"Feature"},{"geometry":{"coordinates":[[[-122.29487,37.89129],[-122.29543,37.89207],[-122.29657,37.89208],[-122.29715,37.8913],[-122.29659,37.89052],[-122.29545,37.89051],[-122.29487,37.89129]]],"type":"Polygon"},"properties":{"bbox":{"parking":{"area":601.35,"pct":2.31},"roads":{"area":2245.29,"pct":8.64}},"city_same":1,"id":"hex:3746:24214"},"type":"Feature"},{"geometry":{"coordinates":[[[-122.29486,37.89285],[-122.29542,37.89363],[-122.29656,37.89364],[-122.29713,37.89286],[-122.29657,37.89208],[-122.29543,37.89207],[-122.29486,37.89285]]],"type":"Polygon"},"properties":{"bbox":{"roads":{"area":3046.32,"pct":11.73}},"city_same":1,"id":"hex:3746:24215"},"type":"Feature"},{"geometry":{"coordinates":[[[-122.29484,37.89441],[-122.2954,37.8952],[-122.29654,37.8952],[-122.29712,37.89443],[-122.29656,37.89364],[-122.29542,37.89363],[-122.29484,37.89441]]],"type":"Polygon"},"properties":{"bbox":{"roads":{"area":3027.51,"pct":11.65}},"city_same":1,"id":"hex:3746:24216"},"type":"Feature"},{"geometry":{"coordinates":[[[-122.29483,37.89597],[-122.29539,37.89676],[-122.29653,37.89676],[-122.2971,37.89599],[-122.29654,37.8952],[-122.2954,37.8952],[-122.29483,37.89597]]],"type":"Polygon"},"properties":{"bbox":{"roads":{"area":2912.72,"pct":11.21}},"city_same":1,"id":"hex:3746:24217"},"type":"Feature"},{"geometry":{"coordinates":[[[-122.29481,37.89753],[-122.29537,37.89832],[-122.29651,37.89832],[-122.29709,37.89755],[-122.29653,37.89676],[-122.29539,37.89676],[-122.29481,37.89753]]],"type":"Polygon"},"properties":{"bbox":{"roads":{"area":1742.08,"pct":6.71},"sidewalks":{"area":100.08,"pct":0.39}},"city_same":1,"id":"hex:3746:24218"},"type":"Feature"},{"geometry":{"coordinates":[[[-122.29495,37.88348],[-122.29381,37.88348],[-122.29346,37.88299],[-122.29372,37.88307],[-122.29402,37.88292],[-122.29424,37.88267],[-122.29445,37.88258],[-122.29455,37.88266],[-122.29474,37.8827],[-122.29485,37.88271],[-122.29514,37.88284],[-122.2954,37.88287],[-122.29495,37.88348]]],"type":"Polygon"},"properties":{"bbox":{"roads":{"area":804.97,"pct":7.78}},"city_same":1,"id":"hex:3747:24208"},"type":"Feature"},{"geometry":{"coordinates":[[[-122.29323,37.88426],[-122.29379,37.88504],[-122.29493,37.88505],[-122.29551,37.88427],[-122.29495,37.88348],[-122.29381,37.88348],[-122.29323,37.88426]]],"type":"Polygon"},"properties":{"bbox":{"roads":{"area":3120.25,"pct":12.01}},"city_same":1,"id":"hex:3747:24209"},"type":"Feature"},{"geometry":{"coordinates":[[[-122.29322,37.88582],[-122.29378,37.8866],[-122.29492,37.88661],[-122.29549,37.88583],[-122.29493,37.88505],[-122.29379,37.88504],[-122.29322,37.88582]]],"type":"Polygon"},"properties":{"bbox":{"roads":{"area":2105.28,"pct":8.1}},"city_same":1,"id":"hex:3747:24210"},"type":"Feature"},{"geometry":{"coordinates":[[[-122.2932,37.88738],[-122.29376,37.88816],[-122.2949,37.88817],[-122.29548,37.88739],[-122.29492,37.88661],[-122.29378,37.8866],[-122.2932,37.88738]]],"type":"Polygon"},"properties":{"bbox":{"roads":{"area":4127.66,"pct":15.89}},"city":{"roads":{"area":3222,"pct":12.4}},"id":"hex:3747:24211"},"type":"Feature"},{"geometry":{"coordinates":[[[-122.29319,37.88894],[-122.29375,37.88972],[-122.29489,37.88973],[-122.29546,37.88895],[-122.2949,37.88817],[-122.29376,37.88816],[-122.29319,37.88894]]],"type":"Polygon"},"properties":{"bbox":{"roads":{"area":1939.13,"pct":7.46}},"city_same":1,"id":"hex:3747:24212"},"type":"Feature"},{"geometry":{"coordinates":[[[-122.29317,37.8905],[-122.29374,37.89128],[-122.29487,37.89129],[-122.29545,37.89051],[-122.29489,37.88973],[-122.29375,37.88972],[-122.29317,37.8905]]],"type":"Polygon"},"properties":{"bbox":{"roads":{"area":3751.05,"pct":14.44}},"city":{"roads":{"area":3322.91,"pct":12.79}},"id":"hex:3747:24213"},"type":"Feature"},{"geometry":{"coordinates":[[[-122.29316,37.89206],[-122.29372,37.89284],[-122.29486,37.89285],[-122.29543,37.89207],[-122.29487,37.89129],[-122.29374,37.89128],[-122.29316,37.89206]]],"type":"Polygon"},"properties":{"bbox":{"roads":{"area":2418.59,"pct":9.31}},"city_same":1,"id":"hex:3747:24214"},"type":"Feature"},{"geometry":{"coordinates":[[[-122.29314,37.89362],[-122.29371,37.8944],[-122.29484,37.89441],[-122.29542,37.89363],[-122.29486,37.89285],[-122.29372,37.89284],[-122.29314,37.89362]]],"type":"Polygon"},"properties":{"bbox":{"roads":{"area":2782.39,"pct":10.71}},"city_same":1,"id":"hex:3747:24215"},"type":"Feature"},{"geometry":{"coordinates":[[[-122.29313,37.89518],[-122.29369,37.89597],[-122.29483,37.89597],[-122.2954,37.8952],[-122.29484,37.89441],[-122.29371,37.8944],[-122.29313,37.89518]]],"type":"Polygon"},"properties":{"bbox":{"roads":{"area":3965.53,"pct":15.26}},"city_same":1,"id":"hex:3747:24216"},"type":"Feature"},{"geometry":{"coordinates":[[[-122.29311,37.89674],[-122.29368,37.89753],[-122.29481,37.89753],[-122.29539,37.89676],[-122.29483,37.89597],[-122.29369,37.89597],[-122.29311,37.89674]]],"type":"Polygon"},"properties":{"bbox":{"roads":{"area":2516.73,"pct":9.69}},"city_same":1,"id":"hex:3747:24217"},"type":"Feature"},{"geometry":{"coordinates":[[[-122.2931,37.8983],[-122.29368,37.89753],[-122.29481,37.89753],[-122.29537,37.89832],[-122.29506,37.89874],[-122.29422,37.89861],[-122.29397,37.89842],[-122.29368,37.89847],[-122.29314,37.89836],[-122.2931,37.8983]]],"type":"Polygon"},"properties":{"bbox":{"roads":{"area":309.35,"pct":1.71},"sidewalks":{"area":43.09,"pct":0.24}},"city_same":1,"id":"hex:3747:24218"},"type":"Feature"},{"geometry":{"coordinates":[[[-122.29381,37.88348],[-122.29323,37.88426],[-122.2921,37.88425],[-122.29154,37.88346],[-122.29184,37.88306],[-122.29199,37.88314],[-122.29215,37.88307],[-122.2922,37.88294],[-122.29232,37.8829],[-122.29253,37.88293],[-122.29274,37.88287],[-122.29282,37.88294],[-122.29307,37.88306],[-122.29328,37.88293],[-122.29346,37.88299],[-122.29381,37.88348]]],"type":"Polygon"},"properties":{"bbox":{"roads":{"area":1700.8,"pct":7.65}},"city_same":1,"id":"hex:3748:24209"},"type":"Feature"},{"geometry":{"coordinates":[[[-122.29152,37.88503],[-122.29208,37.88581],[-122.29322,37.88582],[-122.29379,37.88504],[-122.29323,37.88426],[-122.2921,37.88425],[-122.29152,37.88503]]],"type":"Polygon"},"properties":{"bbox":{"roads":{"area":3472.64,"pct":13.37}},"city_same":1,"id":"hex:3748:24210"},"type":"Feature"},{"geometry":{"coordinates":[[[-122.29151,37.88659],[-122.29207,37.88737],[-122.2932,37.88738],[-122.29378,37.8866],[-122.29322,37.88582],[-122.29208,37.88581],[-122.29151,37.88659]]],"type":"Polygon"},"properties":{"bbox":{"roads":{"area":2541.09,"pct":9.78}},"city_same":1,"id":"hex:3748:24211"},"type":"Feature"},{"geometry":{"coordinates":[[[-122.29149,37.88815],[-122.29205,37.88893],[-122.29319,37.88894],[-122.29376,37.88816],[-122.2932,37.88738],[-122.29207,37.88737],[-122.29149,37.88815]]],"type":"Polygon"},"properties":{"bbox":{"parking":{"area":959.54,"pct":3.69},"roads":{"area":4382.5,"pct":16.87}},"city":{"parking":{"area":959.54,"pct":3.69},"roads":{"area":3665.52,"pct":14.11}},"id":"hex:3748:24212"},"type":"Feature"},{"geometry":{"coordinates":[[[-122.29148,37.88971],[-122.29204,37.89049],[-122.29317,37.8905],[-122.29375,37.88972],[-122.29319,37.88894],[-122.29205,37.88893],[-122.29148,37.88971]]],"type":"Polygon"},"properties":{"bbox":{"parking":{"area":243.8,"pct":0.94},"roads":{"area":2544.96,"pct":9.8}},"city_same":1,"id":"hex:3748:24213"},"type":"Feature"},{"geometry":{"coordinates":[[[-122.29146,37.89127],[-122.29202,37.89205],[-122.29316,37.89206],[-122.29374,37.89128],[-122.29317,37.8905],[-122.29204,37.89049],[-122.29146,37.89127]]],"type":"Polygon"},"properties":{"bbox":{"parking":{"area":424.69,"pct":1.63},"roads":{"area":4192.97,"pct":16.14}},"city":{"parking":{"area":424.69,"pct":1.63},"roads":{"area":3985.5,"pct":15.34}},"id":"hex:3748:24214"},"type":"Feature"},{"geometry":{"coordinates":[[[-122.29145,37.89283],[-122.29201,37.89361],[-122.29314,37.89362],[-122.29372,37.89284],[-122.29316,37.89206],[-122.29202,37.89205],[-122.29145,37.89283]]],"type":"Polygon"},"properties":{"bbox":{"roads":{"area":4123.82,"pct":15.87},"sidewalks":{"area":31.6,"pct":0.12}},"city_same":1,"id":"hex:3748:24215"},"type":"Feature"},{"geometry":{"coordinates":[[[-122.29143,37.89439],[-122.29199,37.89518],[-122.29313,37.89518],[-122.29371,37.8944],[-122.29314,37.89362],[-122.29201,37.89361],[-122.29143,37.89439]]],"type":"Polygon"},"properties":{"bbox":{"roads":{"area":3905.5,"pct":15.03}},"city_same":1,"id":"hex:3748:24216"},"type":"Feature"},{"geometry":{"coordinates":[[[-122.29142,37.89595],[-122.29198,37.89674],[-122.29311,37.89674],[-122.29369,37.89597],[-122.29313,37.89518],[-122.29199,37.89518],[-122.29142,37.89595]]],"type":"Polygon"},"properties":{"bbox":{"roads":{"area":2434.95,"pct":9.37}},"city_same":1,"id":"hex:3748:24217"},"type":"Feature"},{"geometry":{"coordinates":[[[-122.2914,37.89751],[-122.29198,37.89674],[-122.29311,37.89674],[-122.29368,37.89753],[-122.2931,37.8983],[-122.29288,37.8983],[-122.29288,37.8983],[-122.29288,37.8983],[-122.29227,37.8983],[-122.29188,37.89818],[-122.2914,37.89751]]],"type":"Polygon"},"properties":{"bbox":{"roads":{"area":2672.71,"pct":10.36}},"city_same":1,"id":"hex:3748:24218"},"type":"Feature"},{"geometry":{"coordinates":[[[[-122.2931,37.8983],[-122.29314,37.89836],[-122.29288,37.8983],[-122.2931,37.8983]]],[[[-122.29288,37.8983],[-122.29256,37.89839],[-122.29227,37.8983],[-122.29288,37.8983]]]],"type":"MultiPolygon"},"properties":{"bbox":{"roads":{"area":38.08,"pct":11.53}},"city_same":1,"id":"hex:3748:24219"},"type":"Feature"},{"geometry":{"coordinates":[[[-122.29154,37.88346],[-122.2904,37.88346],[-122.29006,37.88298],[-122.29019,37.88301],[-122.29037,37.88304],[-122.29054,37.8832],[-122.29062,37.88317],[-122.29078,37.88314],[-122.29095,37.88318],[-122.29109,37.88309],[-122.29125,37.88305],[-122.29137,37.88305],[-122.29151,37.88325],[-122.2916,37.88326],[-122.29173,37.8831],[-122.29183,37.88306],[-122.29184,37.88306],[-122.29154,37.88346]]],"type":"Polygon"},"properties":{"bbox":{"roads":{"area":858.18,"pct":18.59}},"city_same":1,"id":"hex:3749:24208"},"type":"Feature"},{"geometry":{"coordinates":[[[-122.28982,37.88423],[-122.29038,37.88502],[-122.29152,37.88503],[-122.2921,37.88425],[-122.29154,37.88346],[-122.2904,37.88346],[-122.28982,37.88423]]],"type":"Polygon"},"properties":{"bbox":{"roads":{"area":2855.06,"pct":10.99}},"city_same":1,"id":"hex:3749:24209"},"type":"Feature"},{"geometry":{"coordinates":[[[-122.28981,37.8858],[-122.29037,37.88658],[-122.29151,37.88659],[-122.29208,37.88581],[-122.29152,37.88503],[-122.29038,37.88502],[-122.28981,37.8858]]],"type":"Polygon"},"properties":{"bbox":{"roads":{"area":2309.23,"pct":8.89}},"city_same":1,"id":"hex:3749:24210"},"type":"Feature"},{"geometry":{"coordinates":[[[-122.28979,37.88736],[-122.29035,37.88814],[-122.29149,37.88815],[-122.29207,37.88737],[-122.29151,37.88659],[-122.29037,37.88658],[-122.28979,37.88736]]],"type":"Polygon"},"properties":{"bbox":{"roads":{"area":2287.24,"pct":8.8}},"city":{"roads":{"area":1846.09,"pct":7.11}},"id":"hex:3749:24211"},"type":"Feature"},{"geometry":{"coordinates":[[[-122.28978,37.88892],[-122.29034,37.8897],[-122.29148,37.88971],[-122.29205,37.88893],[-122.29149,37.88815],[-122.29035,37.88814],[-122.28978,37.88892]]],"type":"Polygon"},"properties":{"bbox":{"roads":{"area":2154.11,"pct":8.29}},"city":{"roads":{"area":1950.36,"pct":7.51}},"id":"hex:3749:24212"},"type":"Feature"},{"geometry":{"coordinates":[[[-122.28976,37.89048],[-122.29032,37.89126],[-122.29146,37.89127],[-122.29204,37.89049],[-122.29148,37.88971],[-122.29034,37.8897],[-122.28976,37.89048]]],"type":"Polygon"},"properties":{"bbox":{"parking":{"area":1279.41,"pct":4.92},"roads":{"area":3198.2,"pct":12.31}},"city":{"parking":{"area":1279.41,"pct":4.92},"roads":{"area":2866.65,"pct":11.03}},"id":"hex:3749:24213"},"type":"Feature"},{"geometry":{"coordinates":[[[-122.28975,37.89204],[-122.29031,37.89282],[-122.29145,37.89283],[-122.29202,37.89205],[-122.29146,37.89127],[-122.29032,37.89126],[-122.28975,37.89204]]],"type":"Polygon"},"properties":{"bbox":{"roads":{"area":1847.75,"pct":7.11}},"city_same":1,"id":"hex:3749:24214"},"type":"Feature"},{"geometry":{"coordinates":[[[-122.28973,37.8936],[-122.29029,37.89438],[-122.29143,37.89439],[-122.29201,37.89361],[-122.29145,37.89283],[-122.29031,37.89282],[-122.28973,37.8936]]],"type":"Polygon"},"properties":{"bbox":{"roads":{"area":2491.74,"pct":9.59}},"city_same":1,"id":"hex:3749:24215"},"type":"Feature"},{"geometry":{"coordinates":[[[-122.28972,37.89516],[-122.29028,37.89595],[-122.29142,37.89595],[-122.29199,37.89518],[-122.29143,37.89439],[-122.29029,37.89438],[-122.28972,37.89516]]],"type":"Polygon"},"properties":{"bbox":{"roads":{"area":2157.83,"pct":8.31}},"city_same":1,"id":"hex:3749:24216"},"type":"Feature"},{"geometry":{"coordinates":[[[-122.2897,37.89672],[-122.29026,37.89751],[-122.2914,37.89751],[-122.29198,37.89674],[-122.29142,37.89595],[-122.29028,37.89595],[-122.2897,37.89672]]],"type":"Polygon"},"properties":{"bbox":{"roads":{"area":2345.63,"pct":9.03}},"city_same":1,"id":"hex:3749:24217"},"type":"Feature"},{"geometry":{"coordinates":[[[-122.29026,37.89751],[-122.2914,37.89751],[-122.29188,37.89818],[-122.2915,37.89806],[-122.29065,37.89771],[-122.29019,37.89761],[-122.29026,37.89751]]],"type":"Polygon"},"properties":{"bbox":{"roads":{"area":346.69,"pct":7.78}},"city_same":1,"id":"hex:3749:24218"},"type":"Feature"},{"geometry":{"coordinates":[[[-122.2904,37.88346],[-122.28982,37.88423],[-122.28869,37.88423],[-122.28812,37.88344],[-122.28854,37.88289],[-122.2886,37.88292],[-122.28947,37.88315],[-122.2897,37.88302],[-122.28985,37.88293],[-122.29006,37.88298],[-122.2904,37.88346]]],"type":"Polygon"},"properties":{"bbox":{"roads":{"area":1834.18,"pct":8.62}},"city_same":1,"id":"hex:3750:24209"},"type":"Feature"},{"geometry":{"coordinates":[[[-122.28811,37.885],[-122.28867,37.88579],[-122.28981,37.8858],[-122.29038,37.88502],[-122.28982,37.88423],[-122.28869,37.88423],[-122.28811,37.885]]],"type":"Polygon"},"properties":{"bbox":{"roads":{"area":3410.5,"pct":13.13}},"city_same":1,"id":"hex:3750:24210"},"type":"Feature"},{"geometry":{"coordinates":[[[-122.28809,37.88657],[-122.28866,37.88735],[-122.28979,37.88736],[-122.29037,37.88658],[-122.28981,37.8858],[-122.28867,37.88579],[-122.28809,37.88657]]],"type":"Polygon"},"properties":{"bbox":{"roads":{"area":2527.33,"pct":9.73}},"city_same":1,"id":"hex:3750:24211"},"type":"Feature"},{"geometry":{"coordinates":[[[-122.28808,37.88813],[-122.28864,37.88891],[-122.28978,37.88892],[-122.29035,37.88814],[-122.28979,37.88736],[-122.28866,37.88735],[-122.28808,37.88813]]],"type":"Polygon"},"properties":{"bbox":{"roads":{"area":3646.99,"pct":14.04}},"city":{"roads":{"area":2844.1,"pct":10.95}},"id":"hex:3750:24212"},"type":"Feature"},{"geometry":{"coordinates":[[[-122.28806,37.88969],[-122.28863,37.89047],[-122.28976,37.89048],[-122.29034,37.8897],[-122.28978,37.88892],[-122.28864,37.88891],[-122.28806,37.88969]]],"type":"Polygon"},"properties":{"bbox":{"roads":{"area":1955.08,"pct":7.53}},"city_same":1,"id":"hex:3750:24213"},"type":"Feature"},{"geometry":{"coordinates":[[[-122.28805,37.89125],[-122.28861,37.89203],[-122.28975,37.89204],[-122.29032,37.89126],[-122.28976,37.89048],[-122.28863,37.89047],[-122.28805,37.89125]]],"type":"Polygon"},"properties":{"bbox":{"roads":{"area":3576.59,"pct":13.77}},"city":{"roads":{"area":3309.94,"pct":12.74}},"id":"hex:3750:24214"},"type":"Feature"},{"geometry":{"coordinates":[[[-122.28803,37.89281],[-122.28859,37.89359],[-122.28973,37.8936],[-122.29031,37.89282],[-122.28975,37.89204],[-122.28861,37.89203],[-122.28803,37.89281]]],"type":"Polygon"},"properties":{"bbox":{"roads":{"area":2957.37,"pct":11.38}},"city_same":1,"id":"hex:3750:24215"},"type":"Feature"},{"geometry":{"coordinates":[[[-122.28802,37.89437],[-122.28858,37.89515],[-122.28972,37.89516],[-122.29029,37.89438],[-122.28973,37.8936],[-122.28859,37.89359],[-122.28802,37.89437]]],"type":"Polygon"},"properties":{"bbox":{"roads":{"area":2950.27,"pct":11.36}},"city_same":1,"id":"hex:3750:24216"},"type":"Feature"},{"geometry":{"coordinates":[[[-122.288,37.89593],[-122.28856,37.89672],[-122.2897,37.89672],[-122.29028,37.89595],[-122.28972,37.89516],[-122.28858,37.89515],[-122.288,37.89593]]],"type":"Polygon"},"properties":{"bbox":{"roads":{"area":2577.93,"pct":9.92}},"city_same":1,"id":"hex:3750:24217"},"type":"Feature"},{"geometry":{"coordinates":[[[-122.28799,37.89749],[-122.28856,37.89672],[-122.2897,37.89672],[-122.29026,37.89751],[-122.29019,37.89761],[-122.28964,37.89749],[-122.28845,37.89761],[-122.28823,37.89783],[-122.28799,37.89749]]],"type":"Polygon"},"properties":{"bbox":{"roads":{"area":1131.75,"pct":7.65}},"city_same":1,"id":"hex:3750:24218"},"type":"Feature"},{"geometry":{"coordinates":[[[-122.28812,37.88344],[-122.28699,37.88344],[-122.28643,37.88265],[-122.28666,37.88234],[-122.28704,37.88244],[-122.28716,37.88247],[-122.28713,37.88256],[-122.28723,37.88259],[-122.28764,37.88269],[-122.28767,37.88272],[-122.28783,37.88276],[-122.28809,37.88282],[-122.28811,37.88276],[-122.28846,37.88285],[-122.28854,37.88289],[-122.28812,37.88344]]],"type":"Polygon"},"properties":{"bbox":{"roads":{"area":1134.19,"pct":8.45}},"city_same":1,"id":"hex:3751:24208"},"type":"Feature"},{"geometry":{"coordinates":[[[-122.28641,37.88421],[-122.28697,37.885],[-122.28811,37.885],[-122.28869,37.88423],[-122.28812,37.88344],[-122.28699,37.88344],[-122.28641,37.88421]]],"type":"Polygon"},"properties":{"bbox":{"roads":{"area":3010.69,"pct":11.59}},"city_same":1,"id":"hex:3751:24209"},"type":"Feature"},{"geometry":{"coordinates":[[[-122.2864,37.88577],[-122.28696,37.88656],[-122.28809,37.88657],[-122.28867,37.88579],[-122.28811,37.885],[-122.28697,37.885],[-122.2864,37.88577]]],"type":"Polygon"},"properties":{"bbox":{"roads":{"area":2390.76,"pct":9.2}},"city_same":1,"id":"hex:3751:24210"},"type":"Feature"},{"geometry":{"coordinates":[[[-122.28638,37.88734],[-122.28694,37.88812],[-122.28808,37.88813],[-122.28866,37.88735],[-122.28809,37.88657],[-122.28696,37.88656],[-122.28638,37.88734]]],"type":"Polygon"},"properties":{"bbox":{"roads":{"area":2377.46,"pct":9.15}},"city_same":1,"id":"hex:3751:24211"},"type":"Feature"},{"geometry":{"coordinates":[[[-122.28637,37.8889],[-122.28693,37.88968],[-122.28806,37.88969],[-122.28864,37.88891],[-122.28808,37.88813],[-122.28694,37.88812],[-122.28637,37.8889]]],"type":"Polygon"},"properties":{"bbox":{"roads":{"area":3638.61,"pct":14.01}},"city":{"roads":{"area":2786.56,"pct":10.73}},"id":"hex:3751:24212"},"type":"Feature"},{"geometry":{"coordinates":[[[-122.28635,37.89046],[-122.28693,37.88968],[-122.28806,37.88969],[-122.28863,37.89047],[-122.28805,37.89125],[-122.28704,37.89124],[-122.28705,37.89105],[-122.28679,37.89107],[-122.28635,37.89046]]],"type":"Polygon"},"properties":{"bbox":{"parking":{"area":2935.95,"pct":11.45},"roads":{"area":3471.57,"pct":13.54}},"city":{"parking":{"area":2935.95,"pct":11.45},"roads":{"area":3218.13,"pct":12.56}},"id":"hex:3751:24213"},"type":"Feature"},{"geometry":{"coordinates":[[[-122.28805,37.89125],[-122.28861,37.89203],[-122.28803,37.89281],[-122.28696,37.8928],[-122.28704,37.89124],[-122.28805,37.89125]]],"type":"Polygon"},"properties":{"bbox":{"roads":{"area":1532.21,"pct":7.57}},"city_same":1,"id":"hex:3751:24214"},"type":"Feature"},{"geometry":{"coordinates":[[[-122.28803,37.89281],[-122.28859,37.89359],[-122.28802,37.89437],[-122.28689,37.89436],[-122.28693,37.89332],[-122.28696,37.8928],[-122.28803,37.89281]]],"type":"Polygon"},"properties":{"bbox":{"roads":{"area":2235.54,"pct":10.57}},"city_same":1,"id":"hex:3751:24215"},"type":"Feature"},{"geometry":{"coordinates":[[[-122.28802,37.89437],[-122.28858,37.89515],[-122.288,37.89593],[-122.28687,37.89592],[-122.28682,37.89587],[-122.28687,37.89485],[-122.28689,37.89436],[-122.28802,37.89437]]],"type":"Polygon"},"properties":{"bbox":{"roads":{"area":2608.11,"pct":11.91}},"city_same":1,"id":"hex:3751:24216"},"type":"Feature"},{"geometry":{"coordinates":[[[-122.28687,37.89592],[-122.288,37.89593],[-122.28856,37.89672],[-122.28799,37.89749],[-122.28685,37.89749],[-122.28675,37.89735],[-122.28682,37.89599],[-122.28687,37.89592]]],"type":"Polygon"},"properties":{"bbox":{"roads":{"area":2704.26,"pct":11.91}},"city_same":1,"id":"hex:3751:24217"},"type":"Feature"},{"geometry":{"coordinates":[[[-122.28685,37.89749],[-122.28799,37.89749],[-122.28823,37.89783],[-122.28808,37.89799],[-122.28761,37.89844],[-122.28707,37.89835],[-122.2867,37.89852],[-122.28674,37.89764],[-122.28685,37.89749]]],"type":"Polygon"},"properties":{"bbox":{"roads":{"area":820.11,"pct":7.18}},"city_same":1,"id":"hex:3751:24218"},"type":"Feature"},{"geometry":{"coordinates":[[[-122.28643,37.88265],[-122.28529,37.88265],[-122.28518,37.88249],[-122.28548,37.88249],[-122.2855,37.88241],[-122.28592,37.88251],[-122.28599,37.88252],[-122.28607,37.88232],[-122.28657,37.88243],[-122.28662,37.88233],[-122.28666,37.88234],[-122.28643,37.88265]]],"type":"Polygon"},"properties":{"bbox":{"roads":{"area":201.9,"pct":7.46}},"city_same":1,"id":"hex:3752:24208"},"type":"Feature"},{"geometry":{"coordinates":[[[-122.28471,37.88342],[-122.28527,37.88421],[-122.28641,37.88421],[-122.28699,37.88344],[-122.28643,37.88265],[-122.28529,37.88265],[-122.28471,37.88342]]],"type":"Polygon"},"properties":{"bbox":{"roads":{"area":2984.44,"pct":11.49}},"city_same":1,"id":"hex:3752:24209"},"type":"Feature"},{"geometry":{"coordinates":[[[-122.2847,37.88498],[-122.28526,37.88577],[-122.2864,37.88577],[-122.28697,37.885],[-122.28641,37.88421],[-122.28527,37.88421],[-122.2847,37.88498]]],"type":"Polygon"},"properties":{"bbox":{"roads":{"area":2536.75,"pct":9.76}},"city_same":1,"id":"hex:3752:24210"},"type":"Feature"},{"geometry":{"coordinates":[[[-122.28468,37.88655],[-122.28524,37.88733],[-122.28638,37.88734],[-122.28696,37.88656],[-122.2864,37.88577],[-122.28526,37.88577],[-122.28468,37.88655]]],"type":"Polygon"},"properties":{"bbox":{"roads":{"area":2585.91,"pct":9.95}},"city_same":1,"id":"hex:3752:24211"},"type":"Feature"},{"geometry":{"coordinates":[[[-122.28467,37.88811],[-122.28523,37.88889],[-122.28637,37.8889],[-122.28694,37.88812],[-122.28638,37.88734],[-122.28524,37.88733],[-122.28467,37.88811]]],"type":"Polygon"},"properties":{"bbox":{"roads":{"area":2586.85,"pct":9.96}},"city_same":1,"id":"hex:3752:24212"},"type":"Feature"},{"geometry":{"coordinates":[[[-122.28465,37.88967],[-122.28521,37.89045],[-122.28635,37.89046],[-122.28693,37.88968],[-122.28637,37.8889],[-122.28523,37.88889],[-122.28465,37.88967]]],"type":"Polygon"},"properties":{"bbox":{"parking":{"area":102.5,"pct":0.39},"roads":{"area":3733.44,"pct":14.37}},"city":{"parking":{"area":102.5,"pct":0.39},"roads":{"area":2891.65,"pct":11.13}},"id":"hex:3752:24213"},"type":"Feature"},{"geometry":{"coordinates":[[[-122.28521,37.89045],[-122.28635,37.89046],[-122.28679,37.89107],[-122.28467,37.89118],[-122.28521,37.89045]]],"type":"Polygon"},"properties":{"bbox":{"parking":{"area":1631.88,"pct":15.45},"roads":{"area":2490.07,"pct":23.57}},"city":{"parking":{"area":1631.88,"pct":15.45},"roads":{"area":2212.64,"pct":20.94}},"id":"hex:3752:24214"},"type":"Feature"},{"geometry":{"coordinates":[[[-122.28529,37.88265],[-122.28471,37.88342],[-122.28358,37.88342],[-122.28301,37.88263],[-122.28311,37.88251],[-122.28311,37.88251],[-122.28322,37.88248],[-122.28342,37.88244],[-122.28354,37.88235],[-122.28376,37.88236],[-122.2839,37.88242],[-122.28407,37.88244],[-122.28424,37.88244],[-122.28429,37.88243],[-122.28457,37.88236],[-122.28476,37.88237],[-122.28474,37.88243],[-122.28495,37.8825],[-122.28518,37.88249],[-122.28529,37.88265]]],"type":"Polygon"},"properties":{"bbox":{"parking":{"area":317.17,"pct":1.82},"roads":{"area":1231.26,"pct":7.05}},"city_same":1,"id":"hex:3753:24208"},"type":"Feature"},{"geometry":{"coordinates":[[[-122.283,37.88419],[-122.28356,37.88498],[-122.2847,37.88498],[-122.28527,37.88421],[-122.28471,37.88342],[-122.28358,37.88342],[-122.283,37.88419]]],"type":"Polygon"},"properties":{"bbox":{"roads":{"area":2173.87,"pct":8.37}},"city_same":1,"id":"hex:3753:24209"},"type":"Feature"},{"geometry":{"coordinates":[[[-122.28298,37.88575],[-122.28355,37.88654],[-122.28468,37.88655],[-122.28526,37.88577],[-122.2847,37.88498],[-122.28356,37.88498],[-122.28298,37.88575]]],"type":"Polygon"},"properties":{"bbox":{"roads":{"area":2282.04,"pct":8.78}},"city_same":1,"id":"hex:3753:24210"},"type":"Feature"},{"geometry":{"coordinates":[[[-122.28297,37.88732],[-122.28353,37.8881],[-122.28467,37.88811],[-122.28524,37.88733],[-122.28468,37.88655],[-122.28355,37.88654],[-122.28297,37.88732]]],"type":"Polygon"},"properties":{"bbox":{"roads":{"area":2971.24,"pct":11.44}},"city_same":1,"id":"hex:3753:24211"},"type":"Feature"},{"geometry":{"coordinates":[[[-122.28295,37.88888],[-122.28352,37.88966],[-122.28465,37.88967],[-122.28523,37.88889],[-122.28467,37.88811],[-122.28353,37.8881],[-122.28295,37.88888]]],"type":"Polygon"},"properties":{"bbox":{"roads":{"area":3122.04,"pct":12.02}},"city":{"roads":{"area":2367.36,"pct":9.11}},"id":"hex:3753:24212"},"type":"Feature"},{"geometry":{"coordinates":[[[-122.2835,37.89122],[-122.28294,37.89044],[-122.28352,37.88966],[-122.28465,37.88967],[-122.28521,37.89045],[-122.28467,37.89118],[-122.28388,37.89122],[-122.2835,37.89122]]],"type":"Polygon"},"properties":{"bbox":{"parking":{"area":46.23,"pct":0.18},"roads":{"area":2535.55,"pct":9.83}},"city":{"parking":{"area":46.23,"pct":0.18},"roads":{"area":2332.51,"pct":9.04}},"id":"hex:3753:24213"},"type":"Feature"},{"geometry":{"coordinates":[[[-122.28301,37.88263],[-122.28358,37.88342],[-122.283,37.88419],[-122.28204,37.88419],[-122.28205,37.88414],[-122.28234,37.88363],[-122.28273,37.88287],[-122.28285,37.88263],[-122.28301,37.88263]]],"type":"Polygon"},"properties":{"bbox":{"parking":{"area":1478.21,"pct":11.47},"roads":{"area":499.06,"pct":3.87}},"city_same":1,"id":"hex:3754:24209"},"type":"Feature"},{"geometry":{"coordinates":[[[-122.283,37.88419],[-122.28356,37.88498],[-122.28298,37.88575],[-122.28264,37.88575],[-122.28278,37.88538],[-122.28268,37.88505],[-122.28252,37.8851],[-122.28238,37.88513],[-122.28225,37.88514],[-122.28209,37.88515],[-122.28194,37.88513],[-122.28177,37.88511],[-122.28184,37.88494],[-122.28195,37.88457],[-122.28193,37.88457],[-122.28204,37.88419],[-122.283,37.88419]]],"type":"Polygon"},"properties":{"bbox":{"roads":{"area":1272.75,"pct":8.05}},"city_same":1,"id":"hex:3754:24210"},"type":"Feature"},{"geometry":{"coordinates":[[[-122.28298,37.88575],[-122.28355,37.88654],[-122.28297,37.88732],[-122.2821,37.88731],[-122.28228,37.88682],[-122.28231,37.88664],[-122.28258,37.88591],[-122.28264,37.88575],[-122.28298,37.88575]]],"type":"Polygon"},"properties":{"bbox":{"roads":{"area":985.43,"pct":7.21}},"city_same":1,"id":"hex:3754:24211"},"type":"Feature"},{"geometry":{"coordinates":[[[-122.28297,37.88732],[-122.28353,37.8881],[-122.28295,37.88888],[-122.28182,37.88887],[-122.28176,37.88879],[-122.28174,37.88873],[-122.2817,37.8886],[-122.2817,37.88844],[-122.2821,37.88731],[-122.28297,37.88732]]],"type":"Polygon"},"properties":{"bbox":{"roads":{"area":900.07,"pct":4.25}},"city_same":1,"id":"hex:3754:24212"},"type":"Feature"},{"geometry":{"coordinates":[[[-122.28182,37.88887],[-122.28295,37.88888],[-122.28352,37.88966],[-122.28294,37.89044],[-122.28229,37.89043],[-122.2818,37.8889],[-122.28182,37.88887]]],"type":"Polygon"},"properties":{"bbox":{"roads":{"area":1984.46,"pct":10.93}},"city":{"roads":{"area":1423.25,"pct":7.84}},"id":"hex:3754:24213"},"type":"Feature"},{"geometry":{"coordinates":[[[-122.28294,37.89044],[-122.2835,37.89122],[-122.28348,37.89124],[-122.28257,37.89129],[-122.28229,37.89043],[-122.28294,37.89044]]],"type":"Polygon"},"properties":{"bbox":{"parking":{"area":533.08,"pct":8.11},"roads":{"area":914.38,"pct":13.92}},"city":{"parking":{"area":533.08,"pct":8.11},"roads":{"area":774.48,"pct":11.79}},"id":"hex:3754:24214"},"type":"Feature"}],"type":"FeatureCollection","v":2}