{"features":[{"geometry":{"coordinates":[[[-118.19282,34.01148],[-118.19253,34.01139],[-118.19231,34.01284],[-118.19143,34.01276],[-118.19144,34.01508],[-118.19222,34.01508],[-118.19222,34.01654],[-118.18718,34.01656],[-118.18717,34.01585],[-118.18129,34.01578],[-118.18125,34.01188],[-118.17591,34.01141],[-118.17588,34.01658],[-118.17557,34.01728],[-118.1759,34.01827],[-118.15937,34.01082],[-118.15866,34.01072],[-118.15894,34.01122],[-118.15867,34.01119],[-118.15823,34.0117],[-118.1536,34.01962],[-118.14624,34.01808],[-118.14614,34.01761],[-118.14679,34.01761],[-118.14715,34.0143],[-118.14654,34.01427],[-118.14665,34.01339],[-118.14716,34.0134],[-118.14769,34.00978],[-118.1274,34.00803],[-118.12741,34.00776],[-118.12779,34.00764],[-118.12783,34.00726],[-118.12732,34.00722],[-118.1299,34.00251],[-118.12962,34.0022],[-118.12893,34.00198],[-118.12953,34.00089],[-118.12853,34.00048],[-118.12886,33.99992],[-118.12848,33.99973],[-118.12882,33.99902],[-118.1284,33.99885],[-118.12976,33.99322],[-118.12518,33.99114],[-118.12852,33.98552],[-118.13321,33.98716],[-118.13408,33.98562],[-118.12964,33.98105],[-118.12658,33.97764],[-118.12637,33.97778],[-118.12165,33.97334],[-118.12361,33.97246],[-118.12338,33.97204],[-118.12155,33.97324],[-118.12137,33.97308],[-118.12401,33.97118],[-118.1254,33.97088],[-118.125,33.97096],[-118.12365,33.97199],[-118.12394,33.97234],[-118.12643,33.97122],[-118.12938,33.97087],[-118.1306,33.97319],[-118.13256,33.97252],[-118.13476,33.97243],[-118.14981,33.97411],[-118.14899,33.9774],[-118.16732,33.97934],[-118.16775,33.9821],[-118.16872,33.98494],[-118.16947,33.98643],[-118.17047,33.98789],[-118.17,33.98796],[-118.16181,33.98736],[-118.16109,33.99202],[-118.16014,33.99154],[-118.15903,33.99128],[-118.15535,33.99133],[-118.15445,33.99121],[-118.15268,33.99065],[-118.15209,33.99199],[-118.16044,33.99538],[-118.1655,33.99811],[-118.17287,34.00036],[-118.17447,34.00104],[-118.17429,34.00134],[-118.18127,34.00556],[-118.18641,34.00731],[-118.19089,34.00863],[-118.19351,34.00971],[-118.19282,34.01148]],[[-118.12674,33.97179],[-118.12679,33.97182],[-118.12686,33.97184],[-118.12691,33.97181],[-118.12695,33.97178],[-118.12695,33.9717],[-118.12691,33.97167],[-118.12684,33.97165],[-118.12677,33.97168],[-118.12673,33.97172],[-118.12674,33.97179]]],"type":"Polygon"},"properties":{"type":"boundary"},"type":"Feature"}],"type":"FeatureCollection"}