{"features":[{"geometry":{"coordinates":[[[[-122.58699,37.99939],[-122.58585,37.99609],[-122.58183,37.98656],[-122.57936,37.98654],[-122.58256,37.97956],[-122.58099,37.97704],[-122.58484,37.97667],[-122.58084,37.97367],[-122.58147,37.97209],[-122.58058,37.9698],[-122.5728,37.96784],[-122.57218,37.96802],[-122.57159,37.96779],[-122.57156,37.96763],[-122.57061,37.9676],[-122.56964,37.96779],[-122.56905,37.96751],[-122.56852,37.96745],[-122.56802,37.96757],[-122.56762,37.96786],[-122.56649,37.96771],[-122.56039,37.96958],[-122.56064,37.97029],[-122.55764,37.97071],[-122.5576,37.97059],[-122.5568,37.97088],[-122.55647,37.97084],[-122.55608,37.97108],[-122.55502,37.97252],[-122.55493,37.97306],[-122.55363,37.97293],[-122.55246,37.97207],[-122.55261,37.97245],[-122.55239,37.97288],[-122.55163,37.97231],[-122.55046,37.97677],[-122.55133,37.97691],[-122.55004,37.98166],[-122.55755,37.98288],[-122.56088,37.97927],[-122.55892,37.98696],[-122.5603,37.98629],[-122.56109,37.9862],[-122.56131,37.98585],[-122.5655,37.98849],[-122.56545,37.98887],[-122.56593,37.98886],[-122.56701,37.99102],[-122.56736,37.99076],[-122.568,37.99131],[-122.56654,37.99208],[-122.5682,37.99256],[-122.56757,37.99391],[-122.57096,37.99497],[-122.57168,37.99254],[-122.57372,37.99294],[-122.57411,37.99338],[-122.57404,37.99438],[-122.57315,37.99486],[-122.57362,37.99536],[-122.5734,37.99548],[-122.5718,37.99514],[-122.57232,37.99693],[-122.57166,37.99724],[-122.57235,37.99781],[-122.57158,37.99785],[-122.57161,37.99811],[-122.57135,37.99812],[-122.57139,37.99849],[-122.57165,37.99848],[-122.57165,37.99925],[-122.58699,37.99939]]],[[[-122.56594,37.9924],[-122.56415,37.99073],[-122.56401,37.99037],[-122.56429,37.98865],[-122.56408,37.98873],[-122.56375,37.99052],[-122.56333,37.9907],[-122.56299,37.98957],[-122.56245,37.9893],[-122.56198,37.98932],[-122.56266,37.98957],[-122.56151,37.99039],[-122.56166,37.99052],[-122.56134,37.99075],[-122.561,37.9903],[-122.56144,37.9896],[-122.56124,37.9896],[-122.56081,37.98892],[-122.56045,37.98922],[-122.56022,37.989],[-122.55979,37.9893],[-122.55831,37.98957],[-122.55737,37.99356],[-122.55764,37.99387],[-122.56075,37.99223],[-122.56239,37.99427],[-122.56594,37.9924]]]],"type":"MultiPolygon"},"properties":{"type":"boundary"},"type":"Feature"}],"type":"FeatureCollection"}