{"features":[{"geometry":{"coordinates":[[[-122.58656,37.99883],[-122.58599,37.99805],[-122.58635,37.99755],[-122.58679,37.99883],[-122.58656,37.99883]]],"type":"Polygon"},"properties":{"bbox":{"roads":{"area":289.21,"pct":6.85}},"city_same":1,"id":"hex:3575:24281"},"type":"Feature"},{"geometry":{"coordinates":[[[-122.58486,37.99648],[-122.58429,37.9957],[-122.58487,37.99492],[-122.58536,37.99492],[-122.58585,37.99609],[-122.58589,37.9962],[-122.58598,37.99649],[-122.58486,37.99648]]],"type":"Polygon"},"properties":{"bbox":{"roads":{"area":466.59,"pct":2.78}},"city_same":1,"id":"hex:3576:24280"},"type":"Feature"},{"geometry":{"coordinates":[[[-122.58599,37.99805],[-122.58485,37.99804],[-122.58429,37.99726],[-122.58486,37.99648],[-122.58598,37.99649],[-122.58635,37.99755],[-122.58599,37.99805]]],"type":"Polygon"},"properties":{"bbox":{"roads":{"area":2119.97,"pct":8.72}},"city_same":1,"id":"hex:3576:24281"},"type":"Feature"},{"geometry":{"coordinates":[[[-122.58428,37.99882],[-122.58485,37.99804],[-122.58599,37.99805],[-122.58656,37.99883],[-122.58614,37.99939],[-122.58468,37.99938],[-122.58428,37.99882]]],"type":"Polygon"},"properties":{"bbox":{"roads":{"area":1071.26,"pct":4.62}},"city_same":1,"id":"hex:3576:24282"},"type":"Feature"},{"geometry":{"coordinates":[[[-122.58318,37.99101],[-122.58262,37.99023],[-122.58311,37.98956],[-122.58354,37.99055],[-122.58358,37.99063],[-122.58374,37.99101],[-122.58318,37.99101]]],"type":"Polygon"},"properties":{"bbox":{"roads":{"area":433.46,"pct":5.64}},"city_same":1,"id":"hex:3577:24276"},"type":"Feature"},{"geometry":{"coordinates":[[[-122.58258,37.99647],[-122.58315,37.99726],[-122.58429,37.99726],[-122.58486,37.99648],[-122.58429,37.9957],[-122.58316,37.9957],[-122.58258,37.99647]]],"type":"Polygon"},"properties":{"bbox":{"roads":{"area":1445.76,"pct":5.56}},"city_same":1,"id":"hex:3577:24280"},"type":"Feature"},{"geometry":{"coordinates":[[[-122.58257,37.99803],[-122.58314,37.99882],[-122.58428,37.99882],[-122.58485,37.99804],[-122.58429,37.99726],[-122.58315,37.99726],[-122.58257,37.99803]]],"type":"Polygon"},"properties":{"bbox":{"roads":{"area":2086.98,"pct":8.03}},"city_same":1,"id":"hex:3577:24281"},"type":"Feature"},{"geometry":{"coordinates":[[[-122.58314,37.99882],[-122.58428,37.99882],[-122.58468,37.99938],[-122.58353,37.99938],[-122.58353,37.99941],[-122.58272,37.99939],[-122.58314,37.99882]]],"type":"Polygon"},"properties":{"bbox":{"roads":{"area":639.26,"pct":7.43}},"city_same":1,"id":"hex:3577:24282"},"type":"Feature"},{"geometry":{"coordinates":[[[-122.58154,37.9793],[-122.58098,37.97852],[-122.58148,37.97783],[-122.58228,37.97912],[-122.58232,37.97917],[-122.5824,37.9793],[-122.58154,37.9793]]],"type":"Polygon"},"properties":{"bbox":{"roads":{"area":247.33,"pct":2.48}},"city_same":1,"id":"hex:3578:24269"},"type":"Feature"},{"geometry":{"coordinates":[[[-122.58153,37.98086],[-122.58097,37.98008],[-122.58154,37.9793],[-122.5824,37.9793],[-122.58256,37.97956],[-122.58196,37.98086],[-122.58153,37.98086]]],"type":"Polygon"},"properties":{"bbox":{"roads":{"area":1250.33,"pct":7.86}},"city_same":1,"id":"hex:3578:24270"},"type":"Feature"},{"geometry":{"coordinates":[[[-122.58096,37.98164],[-122.58153,37.98086],[-122.58196,37.98086],[-122.58136,37.98219],[-122.58096,37.98164]]],"type":"Polygon"},"properties":{"bbox":{"roads":{"area":478.71,"pct":8.2}},"city_same":1,"id":"hex:3578:24271"},"type":"Feature"},{"geometry":{"coordinates":[[[-122.5815,37.9871],[-122.5811,37.98655],[-122.58183,37.98656],[-122.58186,37.98676],[-122.58202,37.98711],[-122.5815,37.9871]]],"type":"Polygon"},"properties":{"bbox":{"roads":{"area":607.03,"pct":18.82}},"city_same":1,"id":"hex:3578:24274"},"type":"Feature"},{"geometry":{"coordinates":[[[-122.58263,37.98867],[-122.58149,37.98866],[-122.58092,37.98788],[-122.5815,37.9871],[-122.58202,37.98711],[-122.58268,37.9886],[-122.58263,37.98867]]],"type":"Polygon"},"properties":{"bbox":{"roads":{"area":1738.87,"pct":9.91}},"city_same":1,"id":"hex:3578:24275"},"type":"Feature"},{"geometry":{"coordinates":[[[-122.58262,37.99023],[-122.58148,37.99023],[-122.58091,37.98944],[-122.58149,37.98866],[-122.58263,37.98867],[-122.58284,37.98897],[-122.58311,37.98956],[-122.58262,37.99023]]],"type":"Polygon"},"properties":{"bbox":{"roads":{"area":2201.03,"pct":8.6}},"city_same":1,"id":"hex:3578:24276"},"type":"Feature"},{"geometry":{"coordinates":[[[-122.5809,37.991],[-122.58147,37.99179],[-122.58261,37.99179],[-122.58318,37.99101],[-122.58262,37.99023],[-122.58148,37.99023],[-122.5809,37.991]]],"type":"Polygon"},"properties":{"bbox":{"roads":{"area":2021.92,"pct":7.78}},"city_same":1,"id":"hex:3578:24277"},"type":"Feature"},{"geometry":{"coordinates":[[[-122.5809,37.99257],[-122.58146,37.99335],[-122.5826,37.99335],[-122.58317,37.99257],[-122.58261,37.99179],[-122.58147,37.99179],[-122.5809,37.99257]]],"type":"Polygon"},"properties":{"bbox":{"roads":{"area":1016.86,"pct":3.91}},"city_same":1,"id":"hex:3578:24278"},"type":"Feature"},{"geometry":{"coordinates":[[[-122.58089,37.99413],[-122.58145,37.99491],[-122.58259,37.99491],[-122.58316,37.99413],[-122.5826,37.99335],[-122.58146,37.99335],[-122.58089,37.99413]]],"type":"Polygon"},"properties":{"bbox":{"roads":{"area":583.09,"pct":2.24}},"city_same":1,"id":"hex:3578:24279"},"type":"Feature"},{"geometry":{"coordinates":[[[-122.58088,37.99569],[-122.58144,37.99647],[-122.58258,37.99647],[-122.58316,37.9957],[-122.58259,37.99491],[-122.58145,37.99491],[-122.58088,37.99569]]],"type":"Polygon"},"properties":{"bbox":{"roads":{"area":477.72,"pct":1.84}},"city_same":1,"id":"hex:3578:24280"},"type":"Feature"},{"geometry":{"coordinates":[[[-122.58087,37.99725],[-122.58143,37.99803],[-122.58257,37.99803],[-122.58315,37.99726],[-122.58258,37.99647],[-122.58144,37.99647],[-122.58087,37.99725]]],"type":"Polygon"},"properties":{"bbox":{"roads":{"area":2530.05,"pct":9.74}},"city_same":1,"id":"hex:3578:24281"},"type":"Feature"},{"geometry":{"coordinates":[[[-122.58086,37.99881],[-122.58143,37.99803],[-122.58257,37.99803],[-122.58314,37.99882],[-122.58272,37.99939],[-122.58125,37.99935],[-122.58086,37.99881]]],"type":"Polygon"},"properties":{"bbox":{"roads":{"area":1727.23,"pct":7.47}},"city_same":1,"id":"hex:3578:24282"},"type":"Feature"},{"geometry":{"coordinates":[[[-122.57988,37.97071],[-122.57932,37.96992],[-122.57959,37.96955],[-122.58047,37.96978],[-122.58058,37.9698],[-122.58082,37.97045],[-122.58084,37.97052],[-122.5809,37.97065],[-122.58093,37.97071],[-122.57988,37.97071]]],"type":"Polygon"},"properties":{"bbox":{"roads":{"area":435.7,"pct":3.68}},"city_same":1,"id":"hex:3579:24263"},"type":"Feature"},{"geometry":{"coordinates":[[[-122.58101,37.97227],[-122.57987,37.97227],[-122.57931,37.97148],[-122.57988,37.97071],[-122.58093,37.97071],[-122.58104,37.97092],[-122.58121,37.97131],[-122.58135,37.97152],[-122.58138,37.97177],[-122.58101,37.97227]]],"type":"Polygon"},"properties":{"bbox":{"roads":{"area":892.31,"pct":3.68}},"city_same":1,"id":"hex:3579:24264"},"type":"Feature"},{"geometry":{"coordinates":[[[-122.58098,37.97852],[-122.57984,37.97851],[-122.57927,37.97773],[-122.57985,37.97695],[-122.58098,37.97695],[-122.58104,37.97703],[-122.58099,37.97704],[-122.58148,37.97783],[-122.58098,37.97852]]],"type":"Polygon"},"properties":{"bbox":{"roads":{"area":2914.42,"pct":11.51}},"city_same":1,"id":"hex:3579:24268"},"type":"Feature"},{"geometry":{"coordinates":[[[-122.57926,37.97929],[-122.57983,37.98007],[-122.58097,37.98008],[-122.58154,37.9793],[-122.58098,37.97852],[-122.57984,37.97851],[-122.57926,37.97929]]],"type":"Polygon"},"properties":{"bbox":{"parking":{"area":110.22,"pct":0.42},"roads":{"area":1531.24,"pct":5.89}},"city_same":1,"id":"hex:3579:24269"},"type":"Feature"},{"geometry":{"coordinates":[[[-122.57925,37.98085],[-122.57982,37.98163],[-122.58096,37.98164],[-122.58153,37.98086],[-122.58097,37.98008],[-122.57983,37.98007],[-122.57925,37.98085]]],"type":"Polygon"},"properties":{"bbox":{"parking":{"area":36.9,"pct":0.14},"roads":{"area":3847.7,"pct":14.81}},"city_same":1,"id":"hex:3579:24270"},"type":"Feature"},{"geometry":{"coordinates":[[[-122.57981,37.98319],[-122.57925,37.98241],[-122.57982,37.98163],[-122.58096,37.98164],[-122.58136,37.98219],[-122.58089,37.9832],[-122.57981,37.98319]]],"type":"Polygon"},"properties":{"bbox":{"roads":{"area":2135.62,"pct":8.75}},"city_same":1,"id":"hex:3579:24271"},"type":"Feature"},{"geometry":{"coordinates":[[[-122.5798,37.98476],[-122.57924,37.98397],[-122.57981,37.98319],[-122.58089,37.9832],[-122.58018,37.98476],[-122.5798,37.98476]]],"type":"Polygon"},"properties":{"bbox":{"roads":{"area":2113.81,"pct":13.71}},"city":{"roads":{"area":1321.23,"pct":8.57}},"id":"hex:3579:24272"},"type":"Feature"},{"geometry":{"coordinates":[[[-122.57923,37.98553],[-122.5798,37.98476],[-122.58018,37.98476],[-122.57959,37.98604],[-122.57923,37.98553]]],"type":"Polygon"},"properties":{"bbox":{"roads":{"area":237.11,"pct":4.62}},"city_same":1,"id":"hex:3579:24273"},"type":"Feature"},{"geometry":{"coordinates":[[[-122.5815,37.9871],[-122.58092,37.98788],[-122.57978,37.98788],[-122.57922,37.9871],[-122.57963,37.98654],[-122.5811,37.98655],[-122.5815,37.9871]]],"type":"Polygon"},"properties":{"bbox":{"roads":{"area":3119.41,"pct":13.52}},"city_same":1,"id":"hex:3579:24274"},"type":"Feature"},{"geometry":{"coordinates":[[[-122.57921,37.98866],[-122.57978,37.98944],[-122.58091,37.98944],[-122.58149,37.98866],[-122.58092,37.98788],[-122.57978,37.98788],[-122.57921,37.98866]]],"type":"Polygon"},"properties":{"bbox":{"roads":{"area":2823.02,"pct":10.87}},"city_same":1,"id":"hex:3579:24275"},"type":"Feature"},{"geometry":{"coordinates":[[[-122.5792,37.99022],[-122.57977,37.991],[-122.5809,37.991],[-122.58148,37.99023],[-122.58091,37.98944],[-122.57978,37.98944],[-122.5792,37.99022]]],"type":"Polygon"},"properties":{"bbox":{"roads":{"area":2134.04,"pct":8.21}},"city_same":1,"id":"hex:3579:24276"},"type":"Feature"},{"geometry":{"coordinates":[[[-122.57919,37.99178],[-122.57976,37.99256],[-122.5809,37.99257],[-122.58147,37.99179],[-122.5809,37.991],[-122.57977,37.991],[-122.57919,37.99178]]],"type":"Polygon"},"properties":{"bbox":{"roads":{"area":2878.42,"pct":11.08}},"city_same":1,"id":"hex:3579:24277"},"type":"Feature"},{"geometry":{"coordinates":[[[-122.57918,37.99334],[-122.57975,37.99412],[-122.58089,37.99413],[-122.58146,37.99335],[-122.5809,37.99257],[-122.57976,37.99256],[-122.57918,37.99334]]],"type":"Polygon"},"properties":{"bbox":{"roads":{"area":1245.45,"pct":4.79}},"city_same":1,"id":"hex:3579:24278"},"type":"Feature"},{"geometry":{"coordinates":[[[-122.57917,37.9949],[-122.57974,37.99568],[-122.58088,37.99569],[-122.58145,37.99491],[-122.58089,37.99413],[-122.57975,37.99412],[-122.57917,37.9949]]],"type":"Polygon"},"properties":{"bbox":{"roads":{"area":159.75,"pct":0.61}},"city_same":1,"id":"hex:3579:24279"},"type":"Feature"},{"geometry":{"coordinates":[[[-122.57917,37.99646],[-122.57973,37.99724],[-122.58087,37.99725],[-122.58144,37.99647],[-122.58088,37.99569],[-122.57974,37.99568],[-122.57917,37.99646]]],"type":"Polygon"},"properties":{"bbox":{"roads":{"area":2452.39,"pct":9.44}},"city_same":1,"id":"hex:3579:24280"},"type":"Feature"},{"geometry":{"coordinates":[[[-122.57916,37.99802],[-122.57972,37.99881],[-122.58086,37.99881],[-122.58143,37.99803],[-122.58087,37.99725],[-122.57973,37.99724],[-122.57916,37.99802]]],"type":"Polygon"},"properties":{"bbox":{"roads":{"area":810.7,"pct":3.12}},"city_same":1,"id":"hex:3579:24281"},"type":"Feature"},{"geometry":{"coordinates":[[[-122.57972,37.99881],[-122.58086,37.99881],[-122.58125,37.99935],[-122.58005,37.99932],[-122.57934,37.99932],[-122.57972,37.99881]]],"type":"Polygon"},"properties":{"bbox":{"roads":{"area":1257.17,"pct":16.26}},"city_same":1,"id":"hex:3579:24282"},"type":"Feature"},{"geometry":{"coordinates":[[[-122.5776,37.9707],[-122.57817,37.97148],[-122.57931,37.97148],[-122.57988,37.97071],[-122.57932,37.96992],[-122.57818,37.96992],[-122.5776,37.9707]]],"type":"Polygon"},"properties":{"bbox":{"roads":{"area":1012.92,"pct":3.9}},"city_same":1,"id":"hex:3580:24264"},"type":"Feature"},{"geometry":{"coordinates":[[[-122.5776,37.97226],[-122.57816,37.97304],[-122.5793,37.97305],[-122.57987,37.97227],[-122.57931,37.97148],[-122.57817,37.97148],[-122.5776,37.97226]]],"type":"Polygon"},"properties":{"bbox":{"roads":{"area":754.08,"pct":2.9}},"city_same":1,"id":"hex:3580:24265"},"type":"Feature"},{"geometry":{"coordinates":[[[-122.57759,37.97382],[-122.57815,37.9746],[-122.57929,37.97461],[-122.57986,37.97383],[-122.5793,37.97305],[-122.57816,37.97304],[-122.57759,37.97382]]],"type":"Polygon"},"properties":{"bbox":{"roads":{"area":1651.91,"pct":6.36}},"city_same":1,"id":"hex:3580:24266"},"type":"Feature"},{"geometry":{"coordinates":[[[-122.57758,37.97538],[-122.57814,37.97616],[-122.57928,37.97617],[-122.57986,37.97539],[-122.57929,37.97461],[-122.57815,37.9746],[-122.57758,37.97538]]],"type":"Polygon"},"properties":{"bbox":{"roads":{"area":1346.53,"pct":5.18}},"city_same":1,"id":"hex:3580:24267"},"type":"Feature"},{"geometry":{"coordinates":[[[-122.57757,37.97694],[-122.57813,37.97773],[-122.57927,37.97773],[-122.57985,37.97695],[-122.57928,37.97617],[-122.57814,37.97616],[-122.57757,37.97694]]],"type":"Polygon"},"properties":{"bbox":{"roads":{"area":949.96,"pct":3.66}},"city_same":1,"id":"hex:3580:24268"},"type":"Feature"},{"geometry":{"coordinates":[[[-122.57756,37.9785],[-122.57812,37.97929],[-122.57926,37.97929],[-122.57984,37.97851],[-122.57927,37.97773],[-122.57813,37.97773],[-122.57756,37.9785]]],"type":"Polygon"},"properties":{"bbox":{"roads":{"area":2014.17,"pct":7.75}},"city_same":1,"id":"hex:3580:24269"},"type":"Feature"},{"geometry":{"coordinates":[[[-122.57755,37.98006],[-122.57812,37.98085],[-122.57925,37.98085],[-122.57983,37.98007],[-122.57926,37.97929],[-122.57812,37.97929],[-122.57755,37.98006]]],"type":"Polygon"},"properties":{"bbox":{"parking":{"area":58.58,"pct":0.23},"roads":{"area":2940.4,"pct":11.32}},"city_same":1,"id":"hex:3580:24270"},"type":"Feature"},{"geometry":{"coordinates":[[[-122.57754,37.98163],[-122.57811,37.98241],[-122.57925,37.98241],[-122.57982,37.98163],[-122.57925,37.98085],[-122.57812,37.98085],[-122.57754,37.98163]]],"type":"Polygon"},"properties":{"bbox":{"parking":{"area":170.45,"pct":0.66},"roads":{"area":2313.07,"pct":8.9}},"city_same":1,"id":"hex:3580:24271"},"type":"Feature"},{"geometry":{"coordinates":[[[-122.57753,37.98319],[-122.5781,37.98397],[-122.57924,37.98397],[-122.57981,37.98319],[-122.57925,37.98241],[-122.57811,37.98241],[-122.57753,37.98319]]],"type":"Polygon"},"properties":{"bbox":{"roads":{"area":3306.27,"pct":12.73}},"city":{"roads":{"area":2008.69,"pct":7.73}},"id":"hex:3580:24272"},"type":"Feature"},{"geometry":{"coordinates":[[[-122.57752,37.98475],[-122.57809,37.98553],[-122.57923,37.98553],[-122.5798,37.98476],[-122.57924,37.98397],[-122.5781,37.98397],[-122.57752,37.98475]]],"type":"Polygon"},"properties":{"bbox":{"roads":{"area":1627.68,"pct":6.26}},"city_same":1,"id":"hex:3580:24273"},"type":"Feature"},{"geometry":{"coordinates":[[[-122.57922,37.9871],[-122.57808,37.98709],[-122.57752,37.98631],[-122.57809,37.98553],[-122.57923,37.98553],[-122.57959,37.98604],[-122.57936,37.98654],[-122.57963,37.98654],[-122.57922,37.9871]]],"type":"Polygon"},"properties":{"bbox":{"roads":{"area":3759.38,"pct":15.11}},"city_same":1,"id":"hex:3580:24274"},"type":"Feature"},{"geometry":{"coordinates":[[[-122.57751,37.98787],[-122.57807,37.98865],[-122.57921,37.98866],[-122.57978,37.98788],[-122.57922,37.9871],[-122.57808,37.98709],[-122.57751,37.98787]]],"type":"Polygon"},"properties":{"bbox":{"roads":{"area":3191.21,"pct":12.28}},"city_same":1,"id":"hex:3580:24275"},"type":"Feature"},{"geometry":{"coordinates":[[[-122.5775,37.98943],[-122.57806,37.99021],[-122.5792,37.99022],[-122.57978,37.98944],[-122.57921,37.98866],[-122.57807,37.98865],[-122.5775,37.98943]]],"type":"Polygon"},"properties":{"bbox":{"roads":{"area":1680.13,"pct":6.47}},"city_same":1,"id":"hex:3580:24276"},"type":"Feature"},{"geometry":{"coordinates":[[[-122.57749,37.99099],[-122.57805,37.99177],[-122.57919,37.99178],[-122.57977,37.991],[-122.5792,37.99022],[-122.57806,37.99021],[-122.57749,37.99099]]],"type":"Polygon"},"properties":{"bbox":{"roads":{"area":1316.83,"pct":5.07}},"city_same":1,"id":"hex:3580:24277"},"type":"Feature"},{"geometry":{"coordinates":[[[-122.57748,37.99255],[-122.57804,37.99334],[-122.57918,37.99334],[-122.57976,37.99256],[-122.57919,37.99178],[-122.57805,37.99177],[-122.57748,37.99255]]],"type":"Polygon"},"properties":{"bbox":{"roads":{"area":1575.67,"pct":6.06}},"city_same":1,"id":"hex:3580:24278"},"type":"Feature"},{"geometry":{"coordinates":[[[-122.57747,37.99411],[-122.57804,37.9949],[-122.57917,37.9949],[-122.57975,37.99412],[-122.57918,37.99334],[-122.57804,37.99334],[-122.57747,37.99411]]],"type":"Polygon"},"properties":{"bbox":{"roads":{"area":1564.71,"pct":6.02}},"city_same":1,"id":"hex:3580:24279"},"type":"Feature"},{"geometry":{"coordinates":[[[-122.57746,37.99567],[-122.57803,37.99646],[-122.57917,37.99646],[-122.57974,37.99568],[-122.57917,37.9949],[-122.57804,37.9949],[-122.57746,37.99567]]],"type":"Polygon"},"properties":{"bbox":{"roads":{"area":1956.92,"pct":7.53}},"city_same":1,"id":"hex:3580:24280"},"type":"Feature"},{"geometry":{"coordinates":[[[-122.57745,37.99724],[-122.57802,37.99802],[-122.57916,37.99802],[-122.57973,37.99724],[-122.57917,37.99646],[-122.57803,37.99646],[-122.57745,37.99724]]],"type":"Polygon"},"properties":{"bbox":{"roads":{"area":1323.32,"pct":5.09}},"city_same":1,"id":"hex:3580:24281"},"type":"Feature"},{"geometry":{"coordinates":[[[-122.57744,37.9988],[-122.57802,37.99802],[-122.57916,37.99802],[-122.57972,37.99881],[-122.57934,37.99932],[-122.57782,37.99931],[-122.57744,37.9988]]],"type":"Polygon"},"properties":{"bbox":{"roads":{"area":1740.32,"pct":7.73}},"city_same":1,"id":"hex:3580:24282"},"type":"Feature"},{"geometry":{"coordinates":[[[-122.5759,37.96991],[-122.57647,37.97069],[-122.5776,37.9707],[-122.57818,37.96992],[-122.57761,37.96914],[-122.57648,37.96913],[-122.5759,37.96991]]],"type":"Polygon"},"properties":{"bbox":{"roads":{"area":1195.53,"pct":4.6}},"city_same":1,"id":"hex:3581:24263"},"type":"Feature"},{"geometry":{"coordinates":[[[-122.57589,37.97147],[-122.57646,37.97226],[-122.5776,37.97226],[-122.57817,37.97148],[-122.5776,37.9707],[-122.57647,37.97069],[-122.57589,37.97147]]],"type":"Polygon"},"properties":{"bbox":{"roads":{"area":1885,"pct":7.26}},"city_same":1,"id":"hex:3581:24264"},"type":"Feature"},{"geometry":{"coordinates":[[[-122.57588,37.97303],[-122.57645,37.97382],[-122.57759,37.97382],[-122.57816,37.97304],[-122.5776,37.97226],[-122.57646,37.97226],[-122.57588,37.97303]]],"type":"Polygon"},"properties":{"bbox":{"roads":{"area":2202.3,"pct":8.48}},"city_same":1,"id":"hex:3581:24265"},"type":"Feature"},{"geometry":{"coordinates":[[[-122.57587,37.97459],[-122.57644,37.97538],[-122.57758,37.97538],[-122.57815,37.9746],[-122.57759,37.97382],[-122.57645,37.97382],[-122.57587,37.97459]]],"type":"Polygon"},"properties":{"bbox":{"roads":{"area":2528.49,"pct":9.73}},"city_same":1,"id":"hex:3581:24266"},"type":"Feature"},{"geometry":{"coordinates":[[[-122.57587,37.97616],[-122.57643,37.97694],[-122.57757,37.97694],[-122.57814,37.97616],[-122.57758,37.97538],[-122.57644,37.97538],[-122.57587,37.97616]]],"type":"Polygon"},"properties":{"bbox":{"roads":{"area":2508.75,"pct":9.66}},"city_same":1,"id":"hex:3581:24267"},"type":"Feature"},{"geometry":{"coordinates":[[[-122.57586,37.97772],[-122.57642,37.9785],[-122.57756,37.9785],[-122.57813,37.97773],[-122.57757,37.97694],[-122.57643,37.97694],[-122.57586,37.97772]]],"type":"Polygon"},"properties":{"bbox":{"roads":{"area":2536.4,"pct":9.76}},"city_same":1,"id":"hex:3581:24268"},"type":"Feature"},{"geometry":{"coordinates":[[[-122.57585,37.97928],[-122.57641,37.98006],[-122.57755,37.98006],[-122.57812,37.97929],[-122.57756,37.9785],[-122.57642,37.9785],[-122.57585,37.97928]]],"type":"Polygon"},"properties":{"bbox":{"roads":{"area":1738.26,"pct":6.69}},"city_same":1,"id":"hex:3581:24269"},"type":"Feature"},{"geometry":{"coordinates":[[[-122.57584,37.98084],[-122.5764,37.98162],[-122.57754,37.98163],[-122.57812,37.98085],[-122.57755,37.98006],[-122.57641,37.98006],[-122.57584,37.98084]]],"type":"Polygon"},"properties":{"bbox":{"roads":{"area":2498.1,"pct":9.62}},"city_same":1,"id":"hex:3581:24270"},"type":"Feature"},{"geometry":{"coordinates":[[[-122.57583,37.9824],[-122.57639,37.98318],[-122.57753,37.98319],[-122.57811,37.98241],[-122.57754,37.98163],[-122.5764,37.98162],[-122.57583,37.9824]]],"type":"Polygon"},"properties":{"bbox":{"parking":{"area":223.66,"pct":0.86},"roads":{"area":4067.05,"pct":15.65}},"city":{"parking":{"area":223.66,"pct":0.86},"roads":{"area":2818.01,"pct":10.85}},"id":"hex:3581:24271"},"type":"Feature"},{"geometry":{"coordinates":[[[-122.57582,37.98396],[-122.57639,37.98474],[-122.57752,37.98475],[-122.5781,37.98397],[-122.57753,37.98319],[-122.57639,37.98318],[-122.57582,37.98396]]],"type":"Polygon"},"properties":{"bbox":{"roads":{"area":2694.19,"pct":10.37}},"city_same":1,"id":"hex:3581:24272"},"type":"Feature"},{"geometry":{"coordinates":[[[-122.57581,37.98552],[-122.57638,37.9863],[-122.57752,37.98631],[-122.57809,37.98553],[-122.57752,37.98475],[-122.57639,37.98474],[-122.57581,37.98552]]],"type":"Polygon"},"properties":{"bbox":{"roads":{"area":1730.92,"pct":6.66}},"city_same":1,"id":"hex:3581:24273"},"type":"Feature"},{"geometry":{"coordinates":[[[-122.5758,37.98708],[-122.57637,37.98787],[-122.57751,37.98787],[-122.57808,37.98709],[-122.57752,37.98631],[-122.57638,37.9863],[-122.5758,37.98708]]],"type":"Polygon"},"properties":{"bbox":{"roads":{"area":3709.59,"pct":14.28}},"city_same":1,"id":"hex:3581:24274"},"type":"Feature"},{"geometry":{"coordinates":[[[-122.57579,37.98864],[-122.57636,37.98943],[-122.5775,37.98943],[-122.57807,37.98865],[-122.57751,37.98787],[-122.57637,37.98787],[-122.57579,37.98864]]],"type":"Polygon"},"properties":{"bbox":{"roads":{"area":2185.33,"pct":8.41}},"city_same":1,"id":"hex:3581:24275"},"type":"Feature"},{"geometry":{"coordinates":[[[-122.57578,37.99021],[-122.57635,37.99099],[-122.57749,37.99099],[-122.57806,37.99021],[-122.5775,37.98943],[-122.57636,37.98943],[-122.57578,37.99021]]],"type":"Polygon"},"properties":{"bbox":{"roads":{"area":1927.47,"pct":7.42}},"city_same":1,"id":"hex:3581:24276"},"type":"Feature"},{"geometry":{"coordinates":[[[-122.57578,37.99177],[-122.57634,37.99255],[-122.57748,37.99255],[-122.57805,37.99177],[-122.57749,37.99099],[-122.57635,37.99099],[-122.57578,37.99177]]],"type":"Polygon"},"properties":{"bbox":{"roads":{"area":1566.69,"pct":6.03}},"city_same":1,"id":"hex:3581:24277"},"type":"Feature"},{"geometry":{"coordinates":[[[-122.57577,37.99333],[-122.57633,37.99411],[-122.57747,37.99411],[-122.57804,37.99334],[-122.57748,37.99255],[-122.57634,37.99255],[-122.57577,37.99333]]],"type":"Polygon"},"properties":{"bbox":{"roads":{"area":1919.85,"pct":7.39}},"city_same":1,"id":"hex:3581:24278"},"type":"Feature"},{"geometry":{"coordinates":[[[-122.57576,37.99489],[-122.57632,37.99567],[-122.57746,37.99567],[-122.57804,37.9949],[-122.57747,37.99411],[-122.57633,37.99411],[-122.57576,37.99489]]],"type":"Polygon"},"properties":{"bbox":{"roads":{"area":1668.6,"pct":6.42}},"city_same":1,"id":"hex:3581:24279"},"type":"Feature"},{"geometry":{"coordinates":[[[-122.57575,37.99645],[-122.57631,37.99723],[-122.57745,37.99724],[-122.57803,37.99646],[-122.57746,37.99567],[-122.57632,37.99567],[-122.57575,37.99645]]],"type":"Polygon"},"properties":{"bbox":{"roads":{"area":3020.93,"pct":11.63}},"city_same":1,"id":"hex:3581:24280"},"type":"Feature"},{"geometry":{"coordinates":[[[-122.57574,37.99801],[-122.5763,37.99879],[-122.57744,37.9988],[-122.57802,37.99802],[-122.57745,37.99724],[-122.57631,37.99723],[-122.57574,37.99801]]],"type":"Polygon"},"properties":{"bbox":{"roads":{"area":2269.07,"pct":8.73}},"city_same":1,"id":"hex:3581:24281"},"type":"Feature"},{"geometry":{"coordinates":[[[-122.5763,37.99879],[-122.57744,37.9988],[-122.57782,37.99931],[-122.57593,37.9993],[-122.5763,37.99879]]],"type":"Polygon"},"properties":{"bbox":{"roads":{"area":166.18,"pct":2.2}},"city_same":1,"id":"hex:3581:24282"},"type":"Feature"},{"geometry":{"coordinates":[[[-122.57648,37.96913],[-122.5759,37.96991],[-122.57476,37.96991],[-122.5742,37.96912],[-122.57477,37.96835],[-122.57491,37.96835],[-122.57614,37.96866],[-122.57648,37.96913]]],"type":"Polygon"},"properties":{"bbox":{"roads":{"area":1052.51,"pct":4.3}},"city_same":1,"id":"hex:3582:24263"},"type":"Feature"},{"geometry":{"coordinates":[[[-122.57419,37.97069],[-122.57475,37.97147],[-122.57589,37.97147],[-122.57647,37.97069],[-122.5759,37.96991],[-122.57476,37.96991],[-122.57419,37.97069]]],"type":"Polygon"},"properties":{"bbox":{"roads":{"area":1849.46,"pct":7.12}},"city_same":1,"id":"hex:3582:24264"},"type":"Feature"},{"geometry":{"coordinates":[[[-122.57418,37.97225],[-122.57475,37.97303],[-122.57588,37.97303],[-122.57646,37.97226],[-122.57589,37.97147],[-122.57475,37.97147],[-122.57418,37.97225]]],"type":"Polygon"},"properties":{"bbox":{"roads":{"area":2974.69,"pct":11.45}},"city_same":1,"id":"hex:3582:24265"},"type":"Feature"},{"geometry":{"coordinates":[[[-122.57417,37.97381],[-122.57474,37.97459],[-122.57587,37.97459],[-122.57645,37.97382],[-122.57588,37.97303],[-122.57475,37.97303],[-122.57417,37.97381]]],"type":"Polygon"},"properties":{"bbox":{"roads":{"area":563.59,"pct":2.17}},"city_same":1,"id":"hex:3582:24266"},"type":"Feature"},{"geometry":{"coordinates":[[[-122.57416,37.97537],[-122.57473,37.97615],[-122.57587,37.97616],[-122.57644,37.97538],[-122.57587,37.97459],[-122.57474,37.97459],[-122.57416,37.97537]]],"type":"Polygon"},"properties":{"bbox":{"roads":{"area":2291.84,"pct":8.82}},"city_same":1,"id":"hex:3582:24267"},"type":"Feature"},{"geometry":{"coordinates":[[[-122.57415,37.97693],[-122.57472,37.97771],[-122.57586,37.97772],[-122.57643,37.97694],[-122.57587,37.97616],[-122.57473,37.97615],[-122.57415,37.97693]]],"type":"Polygon"},"properties":{"bbox":{"roads":{"area":1847.7,"pct":7.11}},"city_same":1,"id":"hex:3582:24268"},"type":"Feature"},{"geometry":{"coordinates":[[[-122.57414,37.97849],[-122.57471,37.97927],[-122.57585,37.97928],[-122.57642,37.9785],[-122.57586,37.97772],[-122.57472,37.97771],[-122.57414,37.97849]]],"type":"Polygon"},"properties":{"bbox":{"roads":{"area":2058.97,"pct":7.92}},"city_same":1,"id":"hex:3582:24269"},"type":"Feature"},{"geometry":{"coordinates":[[[-122.57414,37.98005],[-122.5747,37.98083],[-122.57584,37.98084],[-122.57641,37.98006],[-122.57585,37.97928],[-122.57471,37.97927],[-122.57414,37.98005]]],"type":"Polygon"},"properties":{"bbox":{"roads":{"area":1577.62,"pct":6.07}},"city_same":1,"id":"hex:3582:24270"},"type":"Feature"},{"geometry":{"coordinates":[[[-122.57413,37.98161],[-122.57469,37.9824],[-122.57583,37.9824],[-122.5764,37.98162],[-122.57584,37.98084],[-122.5747,37.98083],[-122.57413,37.98161]]],"type":"Polygon"},"properties":{"bbox":{"roads":{"area":2349.57,"pct":9.04}},"city":{"roads":{"area":1064.46,"pct":4.1}},"id":"hex:3582:24271"},"type":"Feature"},{"geometry":{"coordinates":[[[-122.57412,37.98317],[-122.57468,37.98396],[-122.57582,37.98396],[-122.57639,37.98318],[-122.57583,37.9824],[-122.57469,37.9824],[-122.57412,37.98317]]],"type":"Polygon"},"properties":{"bbox":{"roads":{"area":1596.87,"pct":6.15}},"city_same":1,"id":"hex:3582:24272"},"type":"Feature"},{"geometry":{"coordinates":[[[-122.57411,37.98474],[-122.57467,37.98552],[-122.57581,37.98552],[-122.57639,37.98474],[-122.57582,37.98396],[-122.57468,37.98396],[-122.57411,37.98474]]],"type":"Polygon"},"properties":{"bbox":{"roads":{"area":2671.06,"pct":10.28}},"city_same":1,"id":"hex:3582:24273"},"type":"Feature"},{"geometry":{"coordinates":[[[-122.5741,37.9863],[-122.57466,37.98708],[-122.5758,37.98708],[-122.57638,37.9863],[-122.57581,37.98552],[-122.57467,37.98552],[-122.5741,37.9863]]],"type":"Polygon"},"properties":{"bbox":{"roads":{"area":4310.2,"pct":16.59}},"city_same":1,"id":"hex:3582:24274"},"type":"Feature"},{"geometry":{"coordinates":[[[-122.57409,37.98786],[-122.57465,37.98864],[-122.57579,37.98864],[-122.57637,37.98787],[-122.5758,37.98708],[-122.57466,37.98708],[-122.57409,37.98786]]],"type":"Polygon"},"properties":{"bbox":{"roads":{"area":1667.78,"pct":6.42}},"city_same":1,"id":"hex:3582:24275"},"type":"Feature"},{"geometry":{"coordinates":[[[-122.57408,37.98942],[-122.57465,37.9902],[-122.57578,37.99021],[-122.57636,37.98943],[-122.57579,37.98864],[-122.57465,37.98864],[-122.57408,37.98942]]],"type":"Polygon"},"properties":{"bbox":{"roads":{"area":2715.89,"pct":10.45}},"city_same":1,"id":"hex:3582:24276"},"type":"Feature"},{"geometry":{"coordinates":[[[-122.57407,37.99098],[-122.57464,37.99176],[-122.57578,37.99177],[-122.57635,37.99099],[-122.57578,37.99021],[-122.57465,37.9902],[-122.57407,37.99098]]],"type":"Polygon"},"properties":{"bbox":{"roads":{"area":851.2,"pct":3.28}},"city_same":1,"id":"hex:3582:24277"},"type":"Feature"},{"geometry":{"coordinates":[[[-122.57406,37.99254],[-122.57463,37.99332],[-122.57577,37.99333],[-122.57634,37.99255],[-122.57578,37.99177],[-122.57464,37.99176],[-122.57406,37.99254]]],"type":"Polygon"},"properties":{"bbox":{"roads":{"area":1829.53,"pct":7.04}},"city_same":1,"id":"hex:3582:24278"},"type":"Feature"},{"geometry":{"coordinates":[[[-122.57463,37.99332],[-122.57577,37.99333],[-122.57633,37.99411],[-122.57576,37.99489],[-122.57462,37.99488],[-122.57406,37.99411],[-122.57406,37.99409],[-122.57463,37.99332]]],"type":"Polygon"},"properties":{"bbox":{"roads":{"area":953.22,"pct":3.67}},"city_same":1,"id":"hex:3582:24279"},"type":"Feature"},{"geometry":{"coordinates":[[[-122.57404,37.99566],[-122.57461,37.99645],[-122.57575,37.99645],[-122.57632,37.99567],[-122.57576,37.99489],[-122.57462,37.99488],[-122.57404,37.99566]]],"type":"Polygon"},"properties":{"bbox":{"roads":{"area":2313.3,"pct":8.9}},"city_same":1,"id":"hex:3582:24280"},"type":"Feature"},{"geometry":{"coordinates":[[[-122.57404,37.99722],[-122.5746,37.99801],[-122.57574,37.99801],[-122.57631,37.99723],[-122.57575,37.99645],[-122.57461,37.99645],[-122.57404,37.99722]]],"type":"Polygon"},"properties":{"bbox":{"roads":{"area":1278.6,"pct":4.92}},"city_same":1,"id":"hex:3582:24281"},"type":"Feature"},{"geometry":{"coordinates":[[[-122.57403,37.99878],[-122.5746,37.99801],[-122.57574,37.99801],[-122.5763,37.99879],[-122.57593,37.9993],[-122.57586,37.9993],[-122.57436,37.99925],[-122.57403,37.99878]]],"type":"Polygon"},"properties":{"bbox":{"roads":{"area":1957.59,"pct":8.84}},"city_same":1,"id":"hex:3582:24282"},"type":"Feature"},{"geometry":{"coordinates":[[[-122.57477,37.96835],[-122.5742,37.96912],[-122.57306,37.96912],[-122.5725,37.96834],[-122.57285,37.96785],[-122.57376,37.96805],[-122.57474,37.96831],[-122.57477,37.96835]]],"type":"Polygon"},"properties":{"bbox":{"roads":{"area":374.51,"pct":1.99}},"city_same":1,"id":"hex:3583:24262"},"type":"Feature"},{"geometry":{"coordinates":[[[-122.57249,37.9699],[-122.57305,37.97068],[-122.57419,37.97069],[-122.57476,37.96991],[-122.5742,37.96912],[-122.57306,37.96912],[-122.57249,37.9699]]],"type":"Polygon"},"properties":{"bbox":{"roads":{"area":531.8,"pct":2.05}},"city_same":1,"id":"hex:3583:24263"},"type":"Feature"},{"geometry":{"coordinates":[[[-122.57248,37.97146],[-122.57304,37.97224],[-122.57418,37.97225],[-122.57475,37.97147],[-122.57419,37.97069],[-122.57305,37.97068],[-122.57248,37.97146]]],"type":"Polygon"},"properties":{"bbox":{"roads":{"area":1084.02,"pct":4.17}},"city_same":1,"id":"hex:3583:24264"},"type":"Feature"},{"geometry":{"coordinates":[[[-122.57247,37.97302],[-122.57303,37.9738],[-122.57417,37.97381],[-122.57475,37.97303],[-122.57418,37.97225],[-122.57304,37.97224],[-122.57247,37.97302]]],"type":"Polygon"},"properties":{"bbox":{"roads":{"area":2663.28,"pct":10.25}},"city_same":1,"id":"hex:3583:24265"},"type":"Feature"},{"geometry":{"coordinates":[[[-122.57246,37.97458],[-122.57302,37.97536],[-122.57416,37.97537],[-122.57474,37.97459],[-122.57417,37.97381],[-122.57303,37.9738],[-122.57246,37.97458]]],"type":"Polygon"},"properties":{"bbox":{"roads":{"area":1506.15,"pct":5.8}},"city_same":1,"id":"hex:3583:24266"},"type":"Feature"},{"geometry":{"coordinates":[[[-122.57245,37.97614],[-122.57301,37.97693],[-122.57415,37.97693],[-122.57473,37.97615],[-122.57416,37.97537],[-122.57302,37.97536],[-122.57245,37.97614]]],"type":"Polygon"},"properties":{"bbox":{"roads":{"area":3256.31,"pct":12.53}},"city_same":1,"id":"hex:3583:24267"},"type":"Feature"},{"geometry":{"coordinates":[[[-122.57244,37.9777],[-122.57301,37.97849],[-122.57414,37.97849],[-122.57472,37.97771],[-122.57415,37.97693],[-122.57301,37.97693],[-122.57244,37.9777]]],"type":"Polygon"},"properties":{"bbox":{"roads":{"area":3003.59,"pct":11.56}},"city_same":1,"id":"hex:3583:24268"},"type":"Feature"},{"geometry":{"coordinates":[[[-122.57243,37.97927],[-122.573,37.98005],[-122.57414,37.98005],[-122.57471,37.97927],[-122.57414,37.97849],[-122.57301,37.97849],[-122.57243,37.97927]]],"type":"Polygon"},"properties":{"bbox":{"roads":{"area":2255.66,"pct":8.68}},"city":{"roads":{"area":2150.03,"pct":8.28}},"id":"hex:3583:24269"},"type":"Feature"},{"geometry":{"coordinates":[[[-122.57242,37.98083],[-122.57299,37.98161],[-122.57413,37.98161],[-122.5747,37.98083],[-122.57414,37.98005],[-122.573,37.98005],[-122.57242,37.98083]]],"type":"Polygon"},"properties":{"bbox":{"roads":{"area":2712.33,"pct":10.44}},"city":{"roads":{"area":1475.78,"pct":5.68}},"id":"hex:3583:24270"},"type":"Feature"},{"geometry":{"coordinates":[[[-122.57241,37.98239],[-122.57298,37.98317],[-122.57412,37.98317],[-122.57469,37.9824],[-122.57413,37.98161],[-122.57299,37.98161],[-122.57241,37.98239]]],"type":"Polygon"},"properties":{"bbox":{"roads":{"area":370.97,"pct":1.43}},"city_same":1,"id":"hex:3583:24271"},"type":"Feature"},{"geometry":{"coordinates":[[[-122.5724,37.98395],[-122.57297,37.98473],[-122.57411,37.98474],[-122.57468,37.98396],[-122.57412,37.98317],[-122.57298,37.98317],[-122.5724,37.98395]]],"type":"Polygon"},"properties":{"bbox":{"parking":{"area":4333.53,"pct":16.68},"roads":{"area":1366.11,"pct":5.26}},"city_same":1,"id":"hex:3583:24272"},"type":"Feature"},{"geometry":{"coordinates":[[[-122.5724,37.98551],[-122.57296,37.98629],[-122.5741,37.9863],[-122.57467,37.98552],[-122.57411,37.98474],[-122.57297,37.98473],[-122.5724,37.98551]]],"type":"Polygon"},"properties":{"bbox":{"roads":{"area":4015.35,"pct":15.46}},"city_same":1,"id":"hex:3583:24273"},"type":"Feature"},{"geometry":{"coordinates":[[[-122.57239,37.98707],[-122.57295,37.98785],[-122.57409,37.98786],[-122.57466,37.98708],[-122.5741,37.9863],[-122.57296,37.98629],[-122.57239,37.98707]]],"type":"Polygon"},"properties":{"bbox":{"roads":{"area":2803.7,"pct":10.79}},"city_same":1,"id":"hex:3583:24274"},"type":"Feature"},{"geometry":{"coordinates":[[[-122.57238,37.98863],[-122.57294,37.98941],[-122.57408,37.98942],[-122.57465,37.98864],[-122.57409,37.98786],[-122.57295,37.98785],[-122.57238,37.98863]]],"type":"Polygon"},"properties":{"bbox":{"roads":{"area":2289.53,"pct":8.81}},"city_same":1,"id":"hex:3583:24275"},"type":"Feature"},{"geometry":{"coordinates":[[[-122.57237,37.99019],[-122.57293,37.99098],[-122.57407,37.99098],[-122.57465,37.9902],[-122.57408,37.98942],[-122.57294,37.98941],[-122.57237,37.99019]]],"type":"Polygon"},"properties":{"bbox":{"roads":{"area":2993.02,"pct":11.52}},"city_same":1,"id":"hex:3583:24276"},"type":"Feature"},{"geometry":{"coordinates":[[[-122.57236,37.99175],[-122.57292,37.99254],[-122.57406,37.99254],[-122.57464,37.99176],[-122.57407,37.99098],[-122.57293,37.99098],[-122.57236,37.99175]]],"type":"Polygon"},"properties":{"bbox":{"roads":{"area":2245.24,"pct":8.64}},"city_same":1,"id":"hex:3583:24277"},"type":"Feature"},{"geometry":{"coordinates":[[[-122.57292,37.99254],[-122.57406,37.99254],[-122.57463,37.99332],[-122.57406,37.99409],[-122.57411,37.99338],[-122.57402,37.9932],[-122.57372,37.99294],[-122.57277,37.99275],[-122.57292,37.99254]]],"type":"Polygon"},"properties":{"bbox":{"roads":{"area":209.83,"pct":2.45}},"city_same":1,"id":"hex:3583:24278"},"type":"Feature"},{"geometry":{"coordinates":[[[-122.57462,37.99488],[-122.57404,37.99566],[-122.57291,37.99566],[-122.57266,37.99532],[-122.5734,37.99548],[-122.57362,37.99536],[-122.57315,37.99486],[-122.57404,37.99438],[-122.57406,37.99411],[-122.57462,37.99488]]],"type":"Polygon"},"properties":{"bbox":{"roads":{"area":302.53,"pct":2.34}},"city_same":1,"id":"hex:3583:24279"},"type":"Feature"},{"geometry":{"coordinates":[[[-122.57233,37.99644],[-122.5729,37.99722],[-122.57404,37.99722],[-122.57461,37.99645],[-122.57404,37.99566],[-122.57291,37.99566],[-122.57233,37.99644]]],"type":"Polygon"},"properties":{"bbox":{"roads":{"area":1394.8,"pct":5.37}},"city_same":1,"id":"hex:3583:24280"},"type":"Feature"},{"geometry":{"coordinates":[[[-122.57232,37.998],[-122.57289,37.99878],[-122.57403,37.99878],[-122.5746,37.99801],[-122.57404,37.99722],[-122.5729,37.99722],[-122.57232,37.998]]],"type":"Polygon"},"properties":{"bbox":{"roads":{"area":1580.44,"pct":6.08}},"city_same":1,"id":"hex:3583:24281"},"type":"Feature"},{"geometry":{"coordinates":[[[-122.57289,37.99878],[-122.57403,37.99878],[-122.57436,37.99925],[-122.57402,37.99924],[-122.57251,37.99929],[-122.57289,37.99878]]],"type":"Polygon"},"properties":{"bbox":{"roads":{"area":732.48,"pct":10.57}},"city_same":1,"id":"hex:3583:24282"},"type":"Feature"},{"geometry":{"coordinates":[[[-122.5725,37.96834],[-122.57136,37.96833],[-122.57083,37.9676],[-122.57156,37.96763],[-122.57159,37.96779],[-122.57181,37.96778],[-122.57189,37.96783],[-122.57195,37.96787],[-122.57218,37.96802],[-122.5726,37.96799],[-122.5728,37.96784],[-122.57285,37.96785],[-122.5725,37.96834]]],"type":"Polygon"},"properties":{"bbox":{"roads":{"area":636.43,"pct":8.18}},"city_same":1,"id":"hex:3584:24262"},"type":"Feature"},{"geometry":{"coordinates":[[[-122.57078,37.96911],[-122.57135,37.9699],[-122.57249,37.9699],[-122.57306,37.96912],[-122.5725,37.96834],[-122.57136,37.96833],[-122.57078,37.96911]]],"type":"Polygon"},"properties":{"bbox":{"roads":{"area":1796.7,"pct":6.92}},"city_same":1,"id":"hex:3584:24263"},"type":"Feature"},{"geometry":{"coordinates":[[[-122.57077,37.97067],[-122.57134,37.97146],[-122.57248,37.97146],[-122.57305,37.97068],[-122.57249,37.9699],[-122.57135,37.9699],[-122.57077,37.97067]]],"type":"Polygon"},"properties":{"bbox":{"roads":{"area":1832.49,"pct":7.05}},"city_same":1,"id":"hex:3584:24264"},"type":"Feature"},{"geometry":{"coordinates":[[[-122.57076,37.97223],[-122.57133,37.97302],[-122.57247,37.97302],[-122.57304,37.97224],[-122.57248,37.97146],[-122.57134,37.97146],[-122.57076,37.97223]]],"type":"Polygon"},"properties":{"bbox":{"roads":{"area":1955.39,"pct":7.53}},"city_same":1,"id":"hex:3584:24265"},"type":"Feature"},{"geometry":{"coordinates":[[[-122.57076,37.9738],[-122.57132,37.97458],[-122.57246,37.97458],[-122.57303,37.9738],[-122.57247,37.97302],[-122.57133,37.97302],[-122.57076,37.9738]]],"type":"Polygon"},"properties":{"bbox":{"roads":{"area":1129.68,"pct":4.35}},"city_same":1,"id":"hex:3584:24266"},"type":"Feature"},{"geometry":{"coordinates":[[[-122.57075,37.97536],[-122.57131,37.97614],[-122.57245,37.97614],[-122.57302,37.97536],[-122.57246,37.97458],[-122.57132,37.97458],[-122.57075,37.97536]]],"type":"Polygon"},"properties":{"bbox":{"roads":{"area":1668.67,"pct":6.42}},"city_same":1,"id":"hex:3584:24267"},"type":"Feature"},{"geometry":{"coordinates":[[[-122.57074,37.97692],[-122.5713,37.9777],[-122.57244,37.9777],[-122.57301,37.97693],[-122.57245,37.97614],[-122.57131,37.97614],[-122.57074,37.97692]]],"type":"Polygon"},"properties":{"bbox":{"roads":{"area":824.23,"pct":3.17}},"city_same":1,"id":"hex:3584:24268"},"type":"Feature"},{"geometry":{"coordinates":[[[-122.57073,37.97848],[-122.57129,37.97926],[-122.57243,37.97927],[-122.57301,37.97849],[-122.57244,37.9777],[-122.5713,37.9777],[-122.57073,37.97848]]],"type":"Polygon"},"properties":{"bbox":{"roads":{"area":3850.7,"pct":14.82}},"city":{"roads":{"area":3490.32,"pct":13.43}},"id":"hex:3584:24269"},"type":"Feature"},{"geometry":{"coordinates":[[[-122.57072,37.98004],[-122.57128,37.98082],[-122.57242,37.98083],[-122.573,37.98005],[-122.57243,37.97927],[-122.57129,37.97926],[-122.57072,37.98004]]],"type":"Polygon"},"properties":{"bbox":{"roads":{"area":3807.93,"pct":14.66}},"city":{"roads":{"area":2784.18,"pct":10.72}},"id":"hex:3584:24270"},"type":"Feature"},{"geometry":{"coordinates":[[[-122.57071,37.9816],[-122.57127,37.98238],[-122.57241,37.98239],[-122.57299,37.98161],[-122.57242,37.98083],[-122.57128,37.98082],[-122.57071,37.9816]]],"type":"Polygon"},"properties":{"bbox":{"parking":{"area":538.09,"pct":2.07},"roads":{"area":2013.15,"pct":7.75}},"city_same":1,"id":"hex:3584:24271"},"type":"Feature"},{"geometry":{"coordinates":[[[-122.5707,37.98316],[-122.57127,37.98394],[-122.5724,37.98395],[-122.57298,37.98317],[-122.57241,37.98239],[-122.57127,37.98238],[-122.5707,37.98316]]],"type":"Polygon"},"properties":{"bbox":{"parking":{"area":1833.39,"pct":7.06},"roads":{"area":2158.63,"pct":8.31}},"city_same":1,"id":"hex:3584:24272"},"type":"Feature"},{"geometry":{"coordinates":[[[-122.57069,37.98472],[-122.57126,37.98551],[-122.5724,37.98551],[-122.57297,37.98473],[-122.5724,37.98395],[-122.57127,37.98394],[-122.57069,37.98472]]],"type":"Polygon"},"properties":{"bbox":{"parking":{"area":242.46,"pct":0.93},"roads":{"area":4192.19,"pct":16.14}},"city_same":1,"id":"hex:3584:24273"},"type":"Feature"},{"geometry":{"coordinates":[[[-122.57068,37.98628],[-122.57125,37.98707],[-122.57239,37.98707],[-122.57296,37.98629],[-122.5724,37.98551],[-122.57126,37.98551],[-122.57068,37.98628]]],"type":"Polygon"},"properties":{"bbox":{"roads":{"area":2471.62,"pct":9.51}},"city_same":1,"id":"hex:3584:24274"},"type":"Feature"},{"geometry":{"coordinates":[[[-122.57067,37.98784],[-122.57124,37.98863],[-122.57238,37.98863],[-122.57295,37.98785],[-122.57239,37.98707],[-122.57125,37.98707],[-122.57067,37.98784]]],"type":"Polygon"},"properties":{"bbox":{"roads":{"area":2179.42,"pct":8.39}},"city_same":1,"id":"hex:3584:24275"},"type":"Feature"},{"geometry":{"coordinates":[[[-122.57066,37.98941],[-122.57123,37.99019],[-122.57237,37.99019],[-122.57294,37.98941],[-122.57238,37.98863],[-122.57124,37.98863],[-122.57066,37.98941]]],"type":"Polygon"},"properties":{"bbox":{"roads":{"area":2715.11,"pct":10.45}},"city_same":1,"id":"hex:3584:24276"},"type":"Feature"},{"geometry":{"coordinates":[[[-122.57066,37.99097],[-122.57122,37.99175],[-122.57236,37.99175],[-122.57293,37.99098],[-122.57237,37.99019],[-122.57123,37.99019],[-122.57066,37.99097]]],"type":"Polygon"},"properties":{"bbox":{"roads":{"area":2393.66,"pct":9.21}},"city_same":1,"id":"hex:3584:24277"},"type":"Feature"},{"geometry":{"coordinates":[[[-122.57121,37.99331],[-122.57065,37.99253],[-122.57122,37.99175],[-122.57236,37.99175],[-122.57292,37.99254],[-122.57277,37.99275],[-122.57168,37.99254],[-122.57143,37.99331],[-122.57121,37.99331]]],"type":"Polygon"},"properties":{"bbox":{"roads":{"area":727.37,"pct":3.81}},"city_same":1,"id":"hex:3584:24278"},"type":"Feature"},{"geometry":{"coordinates":[[[-122.57291,37.99566],[-122.57233,37.99644],[-122.57223,37.99644],[-122.5722,37.99626],[-122.57205,37.99617],[-122.57215,37.99609],[-122.5718,37.99514],[-122.57266,37.99532],[-122.57291,37.99566]]],"type":"Polygon"},"properties":{"bbox":{"roads":{"area":499.31,"pct":6.81}},"city_same":1,"id":"hex:3584:24280"},"type":"Feature"},{"geometry":{"coordinates":[[[-122.57233,37.99644],[-122.5729,37.99722],[-122.57232,37.998],[-122.5716,37.998],[-122.57158,37.99785],[-122.57235,37.99781],[-122.57166,37.99724],[-122.57193,37.99701],[-122.57232,37.99693],[-122.57223,37.99644],[-122.57233,37.99644]]],"type":"Polygon"},"properties":{"bbox":{"roads":{"area":282.27,"pct":3.15}},"city_same":1,"id":"hex:3584:24281"},"type":"Feature"},{"geometry":{"coordinates":[[[-122.57232,37.998],[-122.57289,37.99878],[-122.57251,37.99929],[-122.57231,37.9993],[-122.57165,37.99925],[-122.57165,37.99912],[-122.5717,37.99904],[-122.5716,37.99903],[-122.57155,37.99857],[-122.57166,37.99859],[-122.57165,37.99848],[-122.57139,37.99849],[-122.57135,37.99812],[-122.57161,37.99811],[-122.5716,37.998],[-122.57232,37.998]]],"type":"Polygon"},"properties":{"bbox":{"roads":{"area":1447.76,"pct":10.49}},"city_same":1,"id":"hex:3584:24282"},"type":"Feature"},{"geometry":{"coordinates":[[[-122.57136,37.96833],[-122.57078,37.96911],[-122.56964,37.96911],[-122.56908,37.96833],[-122.56952,37.96773],[-122.56964,37.96779],[-122.57061,37.9676],[-122.57083,37.9676],[-122.57136,37.96833]]],"type":"Polygon"},"properties":{"bbox":{"roads":{"area":2766.22,"pct":11.34}},"city_same":1,"id":"hex:3585:24262"},"type":"Feature"},{"geometry":{"coordinates":[[[-122.56907,37.96989],[-122.56964,37.97067],[-122.57077,37.97067],[-122.57135,37.9699],[-122.57078,37.96911],[-122.56964,37.96911],[-122.56907,37.96989]]],"type":"Polygon"},"properties":{"bbox":{"roads":{"area":1769.82,"pct":6.81}},"city_same":1,"id":"hex:3585:24263"},"type":"Feature"},{"geometry":{"coordinates":[[[-122.56906,37.97145],[-122.56963,37.97223],[-122.57076,37.97223],[-122.57134,37.97146],[-122.57077,37.97067],[-122.56964,37.97067],[-122.56906,37.97145]]],"type":"Polygon"},"properties":{"bbox":{"roads":{"area":3585.32,"pct":13.8}},"city_same":1,"id":"hex:3585:24264"},"type":"Feature"},{"geometry":{"coordinates":[[[-122.56905,37.97301],[-122.56962,37.97379],[-122.57076,37.9738],[-122.57133,37.97302],[-122.57076,37.97223],[-122.56963,37.97223],[-122.56905,37.97301]]],"type":"Polygon"},"properties":{"bbox":{"roads":{"area":2188.47,"pct":8.42}},"city_same":1,"id":"hex:3585:24265"},"type":"Feature"},{"geometry":{"coordinates":[[[-122.56904,37.97457],[-122.56961,37.97535],[-122.57075,37.97536],[-122.57132,37.97458],[-122.57076,37.9738],[-122.56962,37.97379],[-122.56904,37.97457]]],"type":"Polygon"},"properties":{"bbox":{"roads":{"area":1920.38,"pct":7.39}},"city_same":1,"id":"hex:3585:24266"},"type":"Feature"},{"geometry":{"coordinates":[[[-122.56903,37.97613],[-122.5696,37.97691],[-122.57074,37.97692],[-122.57131,37.97614],[-122.57075,37.97536],[-122.56961,37.97535],[-122.56903,37.97613]]],"type":"Polygon"},"properties":{"bbox":{"roads":{"area":1699.8,"pct":6.54}},"city_same":1,"id":"hex:3585:24267"},"type":"Feature"},{"geometry":{"coordinates":[[[-122.56903,37.97769],[-122.56959,37.97847],[-122.57073,37.97848],[-122.5713,37.9777],[-122.57074,37.97692],[-122.5696,37.97691],[-122.56903,37.97769]]],"type":"Polygon"},"properties":{"bbox":{"roads":{"area":3079.15,"pct":11.85}},"city":{"roads":{"area":2444.77,"pct":9.41}},"id":"hex:3585:24268"},"type":"Feature"},{"geometry":{"coordinates":[[[-122.56902,37.97925],[-122.56958,37.98004],[-122.57072,37.98004],[-122.57129,37.97926],[-122.57073,37.97848],[-122.56959,37.97847],[-122.56902,37.97925]]],"type":"Polygon"},"properties":{"bbox":{"roads":{"area":2974.5,"pct":11.45}},"city":{"roads":{"area":2173.33,"pct":8.37}},"id":"hex:3585:24269"},"type":"Feature"},{"geometry":{"coordinates":[[[-122.56901,37.98081],[-122.56957,37.9816],[-122.57071,37.9816],[-122.57128,37.98082],[-122.57072,37.98004],[-122.56958,37.98004],[-122.56901,37.98081]]],"type":"Polygon"},"properties":{"bbox":{"roads":{"area":1268.43,"pct":4.88}},"city_same":1,"id":"hex:3585:24270"},"type":"Feature"},{"geometry":{"coordinates":[[[-122.569,37.98238],[-122.56956,37.98316],[-122.5707,37.98316],[-122.57127,37.98238],[-122.57071,37.9816],[-122.56957,37.9816],[-122.569,37.98238]]],"type":"Polygon"},"properties":{"bbox":{"roads":{"area":4404.86,"pct":16.95}},"city_same":1,"id":"hex:3585:24271"},"type":"Feature"},{"geometry":{"coordinates":[[[-122.56899,37.98394],[-122.56955,37.98472],[-122.57069,37.98472],[-122.57127,37.98394],[-122.5707,37.98316],[-122.56956,37.98316],[-122.56899,37.98394]]],"type":"Polygon"},"properties":{"bbox":{"roads":{"area":2733.46,"pct":10.52}},"city_same":1,"id":"hex:3585:24272"},"type":"Feature"},{"geometry":{"coordinates":[[[-122.56898,37.9855],[-122.56954,37.98628],[-122.57068,37.98628],[-122.57126,37.98551],[-122.57069,37.98472],[-122.56955,37.98472],[-122.56898,37.9855]]],"type":"Polygon"},"properties":{"bbox":{"roads":{"area":1274.59,"pct":4.91}},"city_same":1,"id":"hex:3585:24273"},"type":"Feature"},{"geometry":{"coordinates":[[[-122.56897,37.98706],[-122.56954,37.98784],[-122.57067,37.98784],[-122.57125,37.98707],[-122.57068,37.98628],[-122.56954,37.98628],[-122.56897,37.98706]]],"type":"Polygon"},"properties":{"bbox":{"roads":{"area":346.63,"pct":1.33}},"city_same":1,"id":"hex:3585:24274"},"type":"Feature"},{"geometry":{"coordinates":[[[-122.56896,37.98862],[-122.56953,37.9894],[-122.57066,37.98941],[-122.57124,37.98863],[-122.57067,37.98784],[-122.56954,37.98784],[-122.56896,37.98862]]],"type":"Polygon"},"properties":{"bbox":{"roads":{"area":2370.87,"pct":9.13}},"city_same":1,"id":"hex:3585:24275"},"type":"Feature"},{"geometry":{"coordinates":[[[-122.56895,37.99018],[-122.56952,37.99096],[-122.57066,37.99097],[-122.57123,37.99019],[-122.57066,37.98941],[-122.56953,37.9894],[-122.56895,37.99018]]],"type":"Polygon"},"properties":{"bbox":{"roads":{"area":2680.46,"pct":10.32}},"city_same":1,"id":"hex:3585:24276"},"type":"Feature"},{"geometry":{"coordinates":[[[-122.56894,37.99174],[-122.56951,37.99252],[-122.57065,37.99253],[-122.57122,37.99175],[-122.57066,37.99097],[-122.56952,37.99096],[-122.56894,37.99174]]],"type":"Polygon"},"properties":{"bbox":{"roads":{"area":865.51,"pct":3.33}},"city_same":1,"id":"hex:3585:24277"},"type":"Feature"},{"geometry":{"coordinates":[[[-122.56893,37.9933],[-122.5695,37.99408],[-122.57064,37.99409],[-122.57121,37.99331],[-122.57065,37.99253],[-122.56951,37.99252],[-122.56893,37.9933]]],"type":"Polygon"},"properties":{"bbox":{"roads":{"area":113.46,"pct":0.44}},"city_same":1,"id":"hex:3585:24278"},"type":"Feature"},{"geometry":{"coordinates":[[[-122.56908,37.96833],[-122.56794,37.96832],[-122.56761,37.96786],[-122.56762,37.96786],[-122.56802,37.96757],[-122.56852,37.96745],[-122.56905,37.96751],[-122.56952,37.96773],[-122.56908,37.96833]]],"type":"Polygon"},"properties":{"bbox":{"roads":{"area":1611.24,"pct":13.52}},"city_same":1,"id":"hex:3586:24262"},"type":"Feature"},{"geometry":{"coordinates":[[[-122.56737,37.9691],[-122.56793,37.96988],[-122.56907,37.96989],[-122.56964,37.96911],[-122.56908,37.96833],[-122.56794,37.96832],[-122.56737,37.9691]]],"type":"Polygon"},"properties":{"bbox":{"roads":{"area":3243.06,"pct":12.48}},"city_same":1,"id":"hex:3586:24263"},"type":"Feature"},{"geometry":{"coordinates":[[[-122.56736,37.97066],[-122.56792,37.97144],[-122.56906,37.97145],[-122.56964,37.97067],[-122.56907,37.96989],[-122.56793,37.96988],[-122.56736,37.97066]]],"type":"Polygon"},"properties":{"bbox":{"roads":{"area":2283.71,"pct":8.79}},"city_same":1,"id":"hex:3586:24264"},"type":"Feature"},{"geometry":{"coordinates":[[[-122.56735,37.97222],[-122.56791,37.973],[-122.56905,37.97301],[-122.56963,37.97223],[-122.56906,37.97145],[-122.56792,37.97144],[-122.56735,37.97222]]],"type":"Polygon"},"properties":{"bbox":{"roads":{"area":1939.97,"pct":7.47}},"city_same":1,"id":"hex:3586:24265"},"type":"Feature"},{"geometry":{"coordinates":[[[-122.56734,37.97378],[-122.5679,37.97457],[-122.56904,37.97457],[-122.56962,37.97379],[-122.56905,37.97301],[-122.56791,37.973],[-122.56734,37.97378]]],"type":"Polygon"},"properties":{"bbox":{"roads":{"area":1900.21,"pct":7.31}},"city_same":1,"id":"hex:3586:24266"},"type":"Feature"},{"geometry":{"coordinates":[[[-122.56733,37.97534],[-122.5679,37.97613],[-122.56903,37.97613],[-122.56961,37.97535],[-122.56904,37.97457],[-122.5679,37.97457],[-122.56733,37.97534]]],"type":"Polygon"},"properties":{"bbox":{"roads":{"area":3164.22,"pct":12.18}},"city_same":1,"id":"hex:3586:24267"},"type":"Feature"},{"geometry":{"coordinates":[[[-122.56732,37.97691],[-122.56789,37.97769],[-122.56903,37.97769],[-122.5696,37.97691],[-122.56903,37.97613],[-122.5679,37.97613],[-122.56732,37.97691]]],"type":"Polygon"},"properties":{"bbox":{"roads":{"area":2333.43,"pct":8.98}},"city":{"roads":{"area":2223.84,"pct":8.56}},"id":"hex:3586:24268"},"type":"Feature"},{"geometry":{"coordinates":[[[-122.56731,37.97847],[-122.56788,37.97925],[-122.56902,37.97925],[-122.56959,37.97847],[-122.56903,37.97769],[-122.56789,37.97769],[-122.56731,37.97847]]],"type":"Polygon"},"properties":{"bbox":{"roads":{"area":2193.48,"pct":8.44}},"city":{"roads":{"area":1319.44,"pct":5.08}},"id":"hex:3586:24269"},"type":"Feature"},{"geometry":{"coordinates":[[[-122.5673,37.98003],[-122.56787,37.98081],[-122.56901,37.98081],[-122.56958,37.98004],[-122.56902,37.97925],[-122.56788,37.97925],[-122.5673,37.98003]]],"type":"Polygon"},"properties":{"bbox":{"roads":{"area":1505.26,"pct":5.79}},"city_same":1,"id":"hex:3586:24270"},"type":"Feature"},{"geometry":{"coordinates":[[[-122.56729,37.98159],[-122.56786,37.98237],[-122.569,37.98238],[-122.56957,37.9816],[-122.56901,37.98081],[-122.56787,37.98081],[-122.56729,37.98159]]],"type":"Polygon"},"properties":{"bbox":{"roads":{"area":4110.11,"pct":15.82}},"city_same":1,"id":"hex:3586:24271"},"type":"Feature"},{"geometry":{"coordinates":[[[-122.56729,37.98315],[-122.56785,37.98393],[-122.56899,37.98394],[-122.56956,37.98316],[-122.569,37.98238],[-122.56786,37.98237],[-122.56729,37.98315]]],"type":"Polygon"},"properties":{"bbox":{"roads":{"area":2301.34,"pct":8.86}},"city_same":1,"id":"hex:3586:24272"},"type":"Feature"},{"geometry":{"coordinates":[[[-122.56728,37.98471],[-122.56784,37.98549],[-122.56898,37.9855],[-122.56955,37.98472],[-122.56899,37.98394],[-122.56785,37.98393],[-122.56728,37.98471]]],"type":"Polygon"},"properties":{"bbox":{"roads":{"area":1861.77,"pct":7.17}},"city_same":1,"id":"hex:3586:24273"},"type":"Feature"},{"geometry":{"coordinates":[[[-122.56727,37.98627],[-122.56783,37.98705],[-122.56897,37.98706],[-122.56954,37.98628],[-122.56898,37.9855],[-122.56784,37.98549],[-122.56727,37.98627]]],"type":"Polygon"},"properties":{"bbox":{"roads":{"area":846.17,"pct":3.26}},"city_same":1,"id":"hex:3586:24274"},"type":"Feature"},{"geometry":{"coordinates":[[[-122.56726,37.98783],[-122.56782,37.98862],[-122.56896,37.98862],[-122.56954,37.98784],[-122.56897,37.98706],[-122.56783,37.98705],[-122.56726,37.98783]]],"type":"Polygon"},"properties":{"bbox":{"roads":{"area":976.46,"pct":3.76}},"city_same":1,"id":"hex:3586:24275"},"type":"Feature"},{"geometry":{"coordinates":[[[-122.56725,37.98939],[-122.56781,37.99018],[-122.56895,37.99018],[-122.56953,37.9894],[-122.56896,37.98862],[-122.56782,37.98862],[-122.56725,37.98939]]],"type":"Polygon"},"properties":{"bbox":{"roads":{"area":2573.82,"pct":9.91}},"city_same":1,"id":"hex:3586:24276"},"type":"Feature"},{"geometry":{"coordinates":[[[-122.56781,37.99018],[-122.56895,37.99018],[-122.56952,37.99096],[-122.56894,37.99174],[-122.5678,37.99174],[-122.56763,37.9915],[-122.568,37.99131],[-122.56737,37.99078],[-122.56781,37.99018]]],"type":"Polygon"},"properties":{"bbox":{"roads":{"area":1302.72,"pct":5.48}},"city_same":1,"id":"hex:3586:24277"},"type":"Feature"},{"geometry":{"coordinates":[[[-122.5678,37.99174],[-122.56894,37.99174],[-122.56951,37.99252],[-122.56893,37.9933],[-122.56785,37.9933],[-122.5682,37.99256],[-122.56737,37.99232],[-122.5678,37.99174]]],"type":"Polygon"},"properties":{"bbox":{"roads":{"area":997.36,"pct":4.69}},"city_same":1,"id":"hex:3586:24278"},"type":"Feature"},{"geometry":{"coordinates":[[[-122.56893,37.9933],[-122.5695,37.99408],[-122.56924,37.99443],[-122.56805,37.99406],[-122.56796,37.99403],[-122.5677,37.99395],[-122.56757,37.99391],[-122.56774,37.99355],[-122.56785,37.9933],[-122.56893,37.9933]]],"type":"Polygon"},"properties":{"bbox":{"roads":{"area":335.39,"pct":2.47}},"city_same":1,"id":"hex:3586:24279"},"type":"Feature"},{"geometry":{"coordinates":[[[-122.56794,37.96832],[-122.56737,37.9691],[-122.56623,37.9691],[-122.56566,37.96831],[-122.566,37.96786],[-122.56649,37.96771],[-122.56678,37.96771],[-122.56735,37.96785],[-122.56761,37.96786],[-122.56794,37.96832]]],"type":"Polygon"},"properties":{"bbox":{"roads":{"area":2705,"pct":11.8}},"city_same":1,"id":"hex:3587:24262"},"type":"Feature"},{"geometry":{"coordinates":[[[-122.56566,37.96987],[-122.56622,37.97066],[-122.56736,37.97066],[-122.56793,37.96988],[-122.56737,37.9691],[-122.56623,37.9691],[-122.56566,37.96987]]],"type":"Polygon"},"properties":{"bbox":{"roads":{"area":2795.55,"pct":10.76}},"city_same":1,"id":"hex:3587:24263"},"type":"Feature"},{"geometry":{"coordinates":[[[-122.56565,37.97144],[-122.56621,37.97222],[-122.56735,37.97222],[-122.56792,37.97144],[-122.56736,37.97066],[-122.56622,37.97066],[-122.56565,37.97144]]],"type":"Polygon"},"properties":{"bbox":{"parking":{"area":808.7,"pct":3.11},"roads":{"area":2147.38,"pct":8.27}},"city_same":1,"id":"hex:3587:24264"},"type":"Feature"},{"geometry":{"coordinates":[[[-122.56564,37.973],[-122.5662,37.97378],[-122.56734,37.97378],[-122.56791,37.973],[-122.56735,37.97222],[-122.56621,37.97222],[-122.56564,37.973]]],"type":"Polygon"},"properties":{"bbox":{"roads":{"area":1893.85,"pct":7.29}},"city_same":1,"id":"hex:3587:24265"},"type":"Feature"},{"geometry":{"coordinates":[[[-122.56563,37.97456],[-122.56619,37.97534],[-122.56733,37.97534],[-122.5679,37.97457],[-122.56734,37.97378],[-122.5662,37.97378],[-122.56563,37.97456]]],"type":"Polygon"},"properties":{"bbox":{"roads":{"area":2766.53,"pct":10.65}},"city_same":1,"id":"hex:3587:24266"},"type":"Feature"},{"geometry":{"coordinates":[[[-122.56562,37.97612],[-122.56618,37.9769],[-122.56732,37.97691],[-122.5679,37.97613],[-122.56733,37.97534],[-122.56619,37.97534],[-122.56562,37.97612]]],"type":"Polygon"},"properties":{"bbox":{"roads":{"area":1717.29,"pct":6.61}},"city_same":1,"id":"hex:3587:24267"},"type":"Feature"},{"geometry":{"coordinates":[[[-122.56561,37.97768],[-122.56617,37.97846],[-122.56731,37.97847],[-122.56789,37.97769],[-122.56732,37.97691],[-122.56618,37.9769],[-122.56561,37.97768]]],"type":"Polygon"},"properties":{"bbox":{"roads":{"area":4675.34,"pct":18}},"city":{"roads":{"area":3396.71,"pct":13.07}},"id":"hex:3587:24268"},"type":"Feature"},{"geometry":{"coordinates":[[[-122.5656,37.97924],[-122.56616,37.98002],[-122.5673,37.98003],[-122.56788,37.97925],[-122.56731,37.97847],[-122.56617,37.97846],[-122.5656,37.97924]]],"type":"Polygon"},"properties":{"bbox":{"roads":{"area":1995.7,"pct":7.68}},"city_same":1,"id":"hex:3587:24269"},"type":"Feature"},{"geometry":{"coordinates":[[[-122.56559,37.9808],[-122.56616,37.98158],[-122.56729,37.98159],[-122.56787,37.98081],[-122.5673,37.98003],[-122.56616,37.98002],[-122.56559,37.9808]]],"type":"Polygon"},"properties":{"bbox":{"parking":{"area":3235.11,"pct":12.45},"roads":{"area":5048.56,"pct":19.43}},"city_same":1,"id":"hex:3587:24270"},"type":"Feature"},{"geometry":{"coordinates":[[[-122.56558,37.98236],[-122.56615,37.98315],[-122.56729,37.98315],[-122.56786,37.98237],[-122.56729,37.98159],[-122.56616,37.98158],[-122.56558,37.98236]]],"type":"Polygon"},"properties":{"bbox":{"roads":{"area":545.09,"pct":2.1}},"city_same":1,"id":"hex:3587:24271"},"type":"Feature"},{"geometry":{"coordinates":[[[-122.56557,37.98392],[-122.56614,37.98471],[-122.56728,37.98471],[-122.56785,37.98393],[-122.56729,37.98315],[-122.56615,37.98315],[-122.56557,37.98392]]],"type":"Polygon"},"properties":{"bbox":{"parking":{"area":2637.82,"pct":10.15},"roads":{"area":1703.93,"pct":6.56}},"city_same":1,"id":"hex:3587:24272"},"type":"Feature"},{"geometry":{"coordinates":[[[-122.56556,37.98548],[-122.56613,37.98627],[-122.56727,37.98627],[-122.56784,37.98549],[-122.56728,37.98471],[-122.56614,37.98471],[-122.56556,37.98548]]],"type":"Polygon"},"properties":{"bbox":{"roads":{"area":2092.6,"pct":8.05}},"city_same":1,"id":"hex:3587:24273"},"type":"Feature"},{"geometry":{"coordinates":[[[-122.56555,37.98705],[-122.56612,37.98783],[-122.56726,37.98783],[-122.56783,37.98705],[-122.56727,37.98627],[-122.56613,37.98627],[-122.56555,37.98705]]],"type":"Polygon"},"properties":{"bbox":{"roads":{"area":1911.84,"pct":7.36}},"city_same":1,"id":"hex:3587:24274"},"type":"Feature"},{"geometry":{"coordinates":[[[-122.56554,37.98861],[-122.56612,37.98783],[-122.56726,37.98783],[-122.56782,37.98862],[-122.56725,37.98939],[-122.56611,37.98939],[-122.56604,37.9893],[-122.56597,37.98915],[-122.56593,37.98886],[-122.56573,37.98886],[-122.56554,37.98861]]],"type":"Polygon"},"properties":{"bbox":{"roads":{"area":1696.95,"pct":6.62}},"city_same":1,"id":"hex:3587:24275"},"type":"Feature"},{"geometry":{"coordinates":[[[-122.56697,37.99095],[-122.56664,37.99041],[-122.56662,37.99017],[-122.56631,37.98969],[-122.56616,37.98953],[-122.5661,37.98941],[-122.56611,37.98939],[-122.56725,37.98939],[-122.56781,37.99018],[-122.56737,37.99078],[-122.56736,37.99076],[-122.56709,37.99095],[-122.56697,37.99095]]],"type":"Polygon"},"properties":{"bbox":{"roads":{"area":1601.6,"pct":10.93}},"city_same":1,"id":"hex:3587:24276"},"type":"Feature"},{"geometry":{"coordinates":[[[-122.56566,37.96831],[-122.56453,37.96831],[-122.566,37.96786],[-122.56566,37.96831]]],"type":"Polygon"},"properties":{"bbox":{"roads":{"area":650.19,"pct":25.67}},"city_same":1,"id":"hex:3588:24262"},"type":"Feature"},{"geometry":{"coordinates":[[[-122.56566,37.96831],[-122.56623,37.9691],[-122.56566,37.96987],[-122.56452,37.96987],[-122.56395,37.96909],[-122.56453,37.96831],[-122.56453,37.96831],[-122.56566,37.96831]]],"type":"Polygon"},"properties":{"bbox":{"roads":{"area":1821.47,"pct":7.01}},"city_same":1,"id":"hex:3588:24263"},"type":"Feature"},{"geometry":{"coordinates":[[[-122.56394,37.97065],[-122.56451,37.97143],[-122.56565,37.97144],[-122.56622,37.97066],[-122.56566,37.96987],[-122.56452,37.96987],[-122.56394,37.97065]]],"type":"Polygon"},"properties":{"bbox":{"roads":{"area":2759.76,"pct":10.62}},"city_same":1,"id":"hex:3588:24264"},"type":"Feature"},{"geometry":{"coordinates":[[[-122.56393,37.97221],[-122.5645,37.97299],[-122.56564,37.973],[-122.56621,37.97222],[-122.56565,37.97144],[-122.56451,37.97143],[-122.56393,37.97221]]],"type":"Polygon"},"properties":{"bbox":{"roads":{"area":2764.26,"pct":10.64}},"city_same":1,"id":"hex:3588:24265"},"type":"Feature"},{"geometry":{"coordinates":[[[-122.56392,37.97377],[-122.56449,37.97455],[-122.56563,37.97456],[-122.5662,37.97378],[-122.56564,37.973],[-122.5645,37.97299],[-122.56392,37.97377]]],"type":"Polygon"},"properties":{"bbox":{"roads":{"area":1835.99,"pct":7.07}},"city_same":1,"id":"hex:3588:24266"},"type":"Feature"},{"geometry":{"coordinates":[[[-122.56392,37.97533],[-122.56448,37.97611],[-122.56562,37.97612],[-122.56619,37.97534],[-122.56563,37.97456],[-122.56449,37.97455],[-122.56392,37.97533]]],"type":"Polygon"},"properties":{"bbox":{"roads":{"area":1652.51,"pct":6.36}},"city_same":1,"id":"hex:3588:24267"},"type":"Feature"},{"geometry":{"coordinates":[[[-122.56391,37.97689],[-122.56447,37.97768],[-122.56561,37.97768],[-122.56618,37.9769],[-122.56562,37.97612],[-122.56448,37.97611],[-122.56391,37.97689]]],"type":"Polygon"},"properties":{"bbox":{"parking":{"area":644.68,"pct":2.48},"roads":{"area":4459.75,"pct":17.17},"sidewalks":{"area":91.94,"pct":0.35}},"city":{"parking":{"area":644.68,"pct":2.48},"roads":{"area":3332.14,"pct":12.83},"sidewalks":{"area":91.94,"pct":0.35}},"id":"hex:3588:24268"},"type":"Feature"},{"geometry":{"coordinates":[[[-122.5639,37.97845],[-122.56446,37.97924],[-122.5656,37.97924],[-122.56617,37.97846],[-122.56561,37.97768],[-122.56447,37.97768],[-122.5639,37.97845]]],"type":"Polygon"},"properties":{"bbox":{"roads":{"area":2669.09,"pct":10.27},"sidewalks":{"area":104.78,"pct":0.4}},"city_same":1,"id":"hex:3588:24269"},"type":"Feature"},{"geometry":{"coordinates":[[[-122.56389,37.98001],[-122.56445,37.9808],[-122.56559,37.9808],[-122.56616,37.98002],[-122.5656,37.97924],[-122.56446,37.97924],[-122.56389,37.98001]]],"type":"Polygon"},"properties":{"bbox":{"parking":{"area":6115.97,"pct":23.54},"roads":{"area":6140.91,"pct":23.64}},"city_same":1,"id":"hex:3588:24270"},"type":"Feature"},{"geometry":{"coordinates":[[[-122.56388,37.98158],[-122.56444,37.98236],[-122.56558,37.98236],[-122.56616,37.98158],[-122.56559,37.9808],[-122.56445,37.9808],[-122.56388,37.98158]]],"type":"Polygon"},"properties":{"bbox":{"parking":{"area":2031.27,"pct":7.82},"roads":{"area":2661.08,"pct":10.24}},"city_same":1,"id":"hex:3588:24271"},"type":"Feature"},{"geometry":{"coordinates":[[[-122.56387,37.98314],[-122.56443,37.98392],[-122.56557,37.98392],[-122.56615,37.98315],[-122.56558,37.98236],[-122.56444,37.98236],[-122.56387,37.98314]]],"type":"Polygon"},"properties":{"bbox":{"roads":{"area":75.14,"pct":0.29}},"city_same":1,"id":"hex:3588:24272"},"type":"Feature"},{"geometry":{"coordinates":[[[-122.56386,37.9847],[-122.56442,37.98548],[-122.56556,37.98548],[-122.56614,37.98471],[-122.56557,37.98392],[-122.56443,37.98392],[-122.56386,37.9847]]],"type":"Polygon"},"properties":{"bbox":{"parking":{"area":13.67,"pct":0.05},"roads":{"area":1906.53,"pct":7.34}},"city_same":1,"id":"hex:3588:24273"},"type":"Feature"},{"geometry":{"coordinates":[[[-122.56385,37.98626],[-122.56442,37.98704],[-122.56555,37.98705],[-122.56613,37.98627],[-122.56556,37.98548],[-122.56442,37.98548],[-122.56385,37.98626]]],"type":"Polygon"},"properties":{"bbox":{"roads":{"area":1197.54,"pct":4.61}},"city_same":1,"id":"hex:3588:24274"},"type":"Feature"},{"geometry":{"coordinates":[[[-122.56442,37.98704],[-122.56555,37.98705],[-122.56612,37.98783],[-122.56554,37.98861],[-122.56548,37.98861],[-122.5655,37.98849],[-122.56403,37.98756],[-122.56442,37.98704]]],"type":"Polygon"},"properties":{"bbox":{"roads":{"area":2139.78,"pct":11.79}},"city_same":1,"id":"hex:3588:24275"},"type":"Feature"},{"geometry":{"coordinates":[[[[-122.56393,37.98952],[-122.564,37.98915],[-122.56427,37.98879],[-122.56411,37.98977],[-122.56393,37.98952]]],[[[-122.56611,37.98939],[-122.5661,37.98941],[-122.56604,37.9893],[-122.56611,37.98939]]],[[[-122.56554,37.98861],[-122.56573,37.98886],[-122.56545,37.98887],[-122.56548,37.98861],[-122.56554,37.98861]]]],"type":"MultiPolygon"},"properties":{"bbox":{"roads":{"area":15.96,"pct":0.87}},"city_same":1,"id":"hex:3588:24276"},"type":"Feature"},{"geometry":{"coordinates":[[[-122.56395,37.96909],[-122.56281,37.96908],[-122.56267,37.96888],[-122.56453,37.96831],[-122.56395,37.96909]]],"type":"Polygon"},"properties":{"bbox":{"roads":{"area":1384.01,"pct":21.02}},"city_same":1,"id":"hex:3589:24262"},"type":"Feature"},{"geometry":{"coordinates":[[[-122.56224,37.96986],[-122.5628,37.97064],[-122.56394,37.97065],[-122.56452,37.96987],[-122.56395,37.96909],[-122.56281,37.96908],[-122.56224,37.96986]]],"type":"Polygon"},"properties":{"bbox":{"roads":{"area":1926.19,"pct":7.41}},"city_same":1,"id":"hex:3589:24263"},"type":"Feature"},{"geometry":{"coordinates":[[[-122.56223,37.97142],[-122.5628,37.97221],[-122.56393,37.97221],[-122.56451,37.97143],[-122.56394,37.97065],[-122.5628,37.97064],[-122.56223,37.97142]]],"type":"Polygon"},"properties":{"bbox":{"roads":{"area":2650.14,"pct":10.2}},"city_same":1,"id":"hex:3589:24264"},"type":"Feature"},{"geometry":{"coordinates":[[[-122.56222,37.97298],[-122.56279,37.97377],[-122.56392,37.97377],[-122.5645,37.97299],[-122.56393,37.97221],[-122.5628,37.97221],[-122.56222,37.97298]]],"type":"Polygon"},"properties":{"bbox":{"roads":{"area":3220.72,"pct":12.4}},"city_same":1,"id":"hex:3589:24265"},"type":"Feature"},{"geometry":{"coordinates":[[[-122.56221,37.97454],[-122.56278,37.97533],[-122.56392,37.97533],[-122.56449,37.97455],[-122.56392,37.97377],[-122.56279,37.97377],[-122.56221,37.97454]]],"type":"Polygon"},"properties":{"bbox":{"parking":{"area":1828.96,"pct":7.04},"roads":{"area":3937.91,"pct":15.16}},"city_same":1,"id":"hex:3589:24266"},"type":"Feature"},{"geometry":{"coordinates":[[[-122.5622,37.97611],[-122.56277,37.97689],[-122.56391,37.97689],[-122.56448,37.97611],[-122.56392,37.97533],[-122.56278,37.97533],[-122.5622,37.97611]]],"type":"Polygon"},"properties":{"bbox":{"parking":{"area":448.01,"pct":1.72},"roads":{"area":3974.58,"pct":15.3},"sidewalks":{"area":358.56,"pct":1.38}},"city":{"parking":{"area":448.01,"pct":1.72},"roads":{"area":3241.47,"pct":12.48},"sidewalks":{"area":358.56,"pct":1.38}},"id":"hex:3589:24267"},"type":"Feature"},{"geometry":{"coordinates":[[[-122.56219,37.97767],[-122.56276,37.97845],[-122.5639,37.97845],[-122.56447,37.97768],[-122.56391,37.97689],[-122.56277,37.97689],[-122.56219,37.97767]]],"type":"Polygon"},"properties":{"bbox":{"parking":{"area":627.84,"pct":2.42},"roads":{"area":5295.43,"pct":20.38},"sidewalks":{"area":638.4,"pct":2.46}},"city":{"parking":{"area":627.84,"pct":2.42},"roads":{"area":4901.26,"pct":18.86},"sidewalks":{"area":638.4,"pct":2.46}},"id":"hex:3589:24268"},"type":"Feature"},{"geometry":{"coordinates":[[[-122.56218,37.97923],[-122.56275,37.98001],[-122.56389,37.98001],[-122.56446,37.97924],[-122.5639,37.97845],[-122.56276,37.97845],[-122.56218,37.97923]]],"type":"Polygon"},"properties":{"bbox":{"roads":{"area":1858.72,"pct":7.15},"sidewalks":{"area":57.72,"pct":0.22}},"city_same":1,"id":"hex:3589:24269"},"type":"Feature"},{"geometry":{"coordinates":[[[-122.56217,37.98079],[-122.56274,37.98157],[-122.56388,37.98158],[-122.56445,37.9808],[-122.56389,37.98001],[-122.56275,37.98001],[-122.56217,37.98079]]],"type":"Polygon"},"properties":{"bbox":{"roads":{"area":1598.01,"pct":6.15}},"city_same":1,"id":"hex:3589:24270"},"type":"Feature"},{"geometry":{"coordinates":[[[-122.56217,37.98235],[-122.56273,37.98313],[-122.56387,37.98314],[-122.56444,37.98236],[-122.56388,37.98158],[-122.56274,37.98157],[-122.56217,37.98235]]],"type":"Polygon"},"properties":{"bbox":{"roads":{"area":915.39,"pct":3.52}},"city_same":1,"id":"hex:3589:24271"},"type":"Feature"},{"geometry":{"coordinates":[[[-122.56216,37.98391],[-122.56272,37.98469],[-122.56386,37.9847],[-122.56443,37.98392],[-122.56387,37.98314],[-122.56273,37.98313],[-122.56216,37.98391]]],"type":"Polygon"},"properties":{"bbox":{"roads":{"area":668.25,"pct":2.57}},"city_same":1,"id":"hex:3589:24272"},"type":"Feature"},{"geometry":{"coordinates":[[[-122.56215,37.98547],[-122.56271,37.98625],[-122.56385,37.98626],[-122.56442,37.98548],[-122.56386,37.9847],[-122.56272,37.98469],[-122.56215,37.98547]]],"type":"Polygon"},"properties":{"bbox":{"roads":{"area":1911.84,"pct":7.36}},"city_same":1,"id":"hex:3589:24273"},"type":"Feature"},{"geometry":{"coordinates":[[[-122.56271,37.98625],[-122.56385,37.98626],[-122.56442,37.98704],[-122.56403,37.98756],[-122.56247,37.98658],[-122.56271,37.98625]]],"type":"Polygon"},"properties":{"bbox":{"roads":{"area":914.32,"pct":6.65}},"city_same":1,"id":"hex:3589:24274"},"type":"Feature"},{"geometry":{"coordinates":[[[-122.56281,37.96908],[-122.56224,37.96986],[-122.5611,37.96986],[-122.56081,37.96945],[-122.56267,37.96888],[-122.56281,37.96908]]],"type":"Polygon"},"properties":{"bbox":{"roads":{"area":1749.38,"pct":15.75}},"city_same":1,"id":"hex:3590:24263"},"type":"Feature"},{"geometry":{"coordinates":[[[-122.56053,37.97064],[-122.56109,37.97142],[-122.56223,37.97142],[-122.5628,37.97064],[-122.56224,37.96986],[-122.5611,37.96986],[-122.56053,37.97064]]],"type":"Polygon"},"properties":{"bbox":{"roads":{"area":5165.76,"pct":19.88}},"city_same":1,"id":"hex:3590:24264"},"type":"Feature"},{"geometry":{"coordinates":[[[-122.56052,37.9722],[-122.56108,37.97298],[-122.56222,37.97298],[-122.5628,37.97221],[-122.56223,37.97142],[-122.56109,37.97142],[-122.56052,37.9722]]],"type":"Polygon"},"properties":{"bbox":{"roads":{"area":5799.55,"pct":22.32}},"city_same":1,"id":"hex:3590:24265"},"type":"Feature"},{"geometry":{"coordinates":[[[-122.56051,37.97376],[-122.56107,37.97454],[-122.56221,37.97454],[-122.56279,37.97377],[-122.56222,37.97298],[-122.56108,37.97298],[-122.56051,37.97376]]],"type":"Polygon"},"properties":{"bbox":{"roads":{"area":5771.03,"pct":22.21},"sidewalks":{"area":112.54,"pct":0.43}},"city":{"roads":{"area":5199.09,"pct":20.01},"sidewalks":{"area":112.54,"pct":0.43}},"id":"hex:3590:24266"},"type":"Feature"},{"geometry":{"coordinates":[[[-122.5605,37.97532],[-122.56106,37.9761],[-122.5622,37.97611],[-122.56278,37.97533],[-122.56221,37.97454],[-122.56107,37.97454],[-122.5605,37.97532]]],"type":"Polygon"},"properties":{"bbox":{"roads":{"area":5275.95,"pct":20.31},"sidewalks":{"area":504.41,"pct":1.94}},"city_same":1,"id":"hex:3590:24267"},"type":"Feature"},{"geometry":{"coordinates":[[[-122.56049,37.97688],[-122.56105,37.97766],[-122.56219,37.97767],[-122.56277,37.97689],[-122.5622,37.97611],[-122.56106,37.9761],[-122.56049,37.97688]]],"type":"Polygon"},"properties":{"bbox":{"parking":{"area":752.21,"pct":2.9},"roads":{"area":8496.09,"pct":32.7},"sidewalks":{"area":698.93,"pct":2.69}},"city":{"parking":{"area":752.21,"pct":2.9},"roads":{"area":7708.51,"pct":29.67},"sidewalks":{"area":698.93,"pct":2.69}},"id":"hex:3590:24268"},"type":"Feature"},{"geometry":{"coordinates":[[[-122.56046,37.98156],[-122.56103,37.98235],[-122.56217,37.98235],[-122.56274,37.98157],[-122.56217,37.98079],[-122.56104,37.98078],[-122.56046,37.98156]]],"type":"Polygon"},"properties":{"bbox":{"roads":{"area":1509.06,"pct":5.81}},"city_same":1,"id":"hex:3590:24271"},"type":"Feature"},{"geometry":{"coordinates":[[[-122.56045,37.98312],[-122.56102,37.98391],[-122.56216,37.98391],[-122.56273,37.98313],[-122.56217,37.98235],[-122.56103,37.98235],[-122.56045,37.98312]]],"type":"Polygon"},"properties":{"bbox":{"roads":{"area":1618.38,"pct":6.23}},"city_same":1,"id":"hex:3590:24272"},"type":"Feature"},{"geometry":{"coordinates":[[[[-122.56098,37.99015],[-122.56042,37.98937],[-122.56064,37.98906],[-122.56081,37.98892],[-122.56124,37.9896],[-122.5614,37.98954],[-122.56144,37.9896],[-122.56138,37.98982],[-122.56126,37.99009],[-122.56118,37.99015],[-122.56098,37.99015]]],[[[-122.56212,37.99016],[-122.56185,37.99015],[-122.56242,37.98975],[-122.56212,37.99016]]],[[[-122.5626,37.9895],[-122.56233,37.9895],[-122.56198,37.98932],[-122.56214,37.98926],[-122.56235,37.98939],[-122.56245,37.9893],[-122.56267,37.98941],[-122.5626,37.9895]]]],"type":"MultiPolygon"},"properties":{"bbox":{"roads":{"area":767.9,"pct":10.21}},"city_same":1,"id":"hex:3590:24276"},"type":"Feature"},{"geometry":{"coordinates":[[[-122.5611,37.96986],[-122.56053,37.97064],[-122.55939,37.97063],[-122.5593,37.9705],[-122.55952,37.97048],[-122.56064,37.97029],[-122.56039,37.96958],[-122.56081,37.96945],[-122.5611,37.96986]]],"type":"Polygon"},"properties":{"bbox":{"roads":{"area":1589.55,"pct":24.63}},"city_same":1,"id":"hex:3591:24263"},"type":"Feature"},{"geometry":{"coordinates":[[[-122.55881,37.97141],[-122.55938,37.97219],[-122.56052,37.9722],[-122.56109,37.97142],[-122.56053,37.97064],[-122.55939,37.97063],[-122.55881,37.97141]]],"type":"Polygon"},"properties":{"bbox":{"roads":{"area":1319.23,"pct":5.08}},"city_same":1,"id":"hex:3591:24264"},"type":"Feature"},{"geometry":{"coordinates":[[[-122.55881,37.97297],[-122.55937,37.97375],[-122.56051,37.97376],[-122.56108,37.97298],[-122.56052,37.9722],[-122.55938,37.97219],[-122.55881,37.97297]]],"type":"Polygon"},"properties":{"bbox":{"roads":{"area":2540.61,"pct":9.78}},"city_same":1,"id":"hex:3591:24265"},"type":"Feature"},{"geometry":{"coordinates":[[[-122.5588,37.97453],[-122.55936,37.97531],[-122.5605,37.97532],[-122.56107,37.97454],[-122.56051,37.97376],[-122.55937,37.97375],[-122.5588,37.97453]]],"type":"Polygon"},"properties":{"bbox":{"roads":{"area":2331.67,"pct":8.97}},"city_same":1,"id":"hex:3591:24266"},"type":"Feature"},{"geometry":{"coordinates":[[[-122.55879,37.97609],[-122.55935,37.97688],[-122.56049,37.97688],[-122.56106,37.9761],[-122.5605,37.97532],[-122.55936,37.97531],[-122.55879,37.97609]]],"type":"Polygon"},"properties":{"bbox":{"parking":{"area":482.89,"pct":1.86},"roads":{"area":5387.63,"pct":20.74},"sidewalks":{"area":454.48,"pct":1.75}},"city_same":1,"id":"hex:3591:24267"},"type":"Feature"},{"geometry":{"coordinates":[[[-122.55878,37.97765],[-122.55934,37.97844],[-122.56048,37.97844],[-122.56105,37.97766],[-122.56049,37.97688],[-122.55935,37.97688],[-122.55878,37.97765]]],"type":"Polygon"},"properties":{"bbox":{"roads":{"area":1737.45,"pct":6.69}},"city_same":1,"id":"hex:3591:24268"},"type":"Feature"},{"geometry":{"coordinates":[[[-122.55933,37.98],[-122.55877,37.97922],[-122.55934,37.97844],[-122.56048,37.97844],[-122.56105,37.97922],[-122.56082,37.97953],[-122.56088,37.97927],[-122.56021,37.98],[-122.55933,37.98]]],"type":"Polygon"},"properties":{"bbox":{"roads":{"area":1791,"pct":7.23}},"city_same":1,"id":"hex:3591:24269"},"type":"Feature"},{"geometry":{"coordinates":[[[[-122.55876,37.98078],[-122.55933,37.98],[-122.56021,37.98],[-122.55908,37.98123],[-122.55876,37.98078]]],[[[-122.56104,37.98078],[-122.56046,37.98156],[-122.56031,37.98156],[-122.56049,37.98091],[-122.5605,37.98086],[-122.56065,37.98025],[-122.56104,37.98078]]]],"type":"MultiPolygon"},"properties":{"bbox":{"roads":{"area":956.9,"pct":8.22}},"city_same":1,"id":"hex:3591:24270"},"type":"Feature"},{"geometry":{"coordinates":[[[-122.56042,37.98937],[-122.55943,37.98936],[-122.55979,37.9893],[-122.56022,37.989],[-122.56045,37.98922],[-122.56064,37.98906],[-122.56042,37.98937]]],"type":"Polygon"},"properties":{"bbox":{"roads":{"area":173.38,"pct":10.21}},"city_same":1,"id":"hex:3591:24275"},"type":"Feature"},{"geometry":{"coordinates":[[[-122.56042,37.98937],[-122.56098,37.99015],[-122.56041,37.99093],[-122.55927,37.99092],[-122.5587,37.99014],[-122.55925,37.9894],[-122.55943,37.98936],[-122.56042,37.98937]]],"type":"Polygon"},"properties":{"bbox":{"roads":{"area":64.41,"pct":0.25}},"city_same":1,"id":"hex:3591:24276"},"type":"Feature"},{"geometry":{"coordinates":[[[-122.55939,37.97063],[-122.55881,37.97141],[-122.55768,37.97141],[-122.55715,37.97067],[-122.5576,37.97059],[-122.55764,37.97071],[-122.55818,37.97062],[-122.5593,37.9705],[-122.55939,37.97063]]],"type":"Polygon"},"properties":{"bbox":{"roads":{"area":1052.24,"pct":7.76}},"city_same":1,"id":"hex:3592:24264"},"type":"Feature"},{"geometry":{"coordinates":[[[-122.5571,37.97218],[-122.55767,37.97297],[-122.55881,37.97297],[-122.55938,37.97219],[-122.55881,37.97141],[-122.55768,37.97141],[-122.5571,37.97218]]],"type":"Polygon"},"properties":{"bbox":{"roads":{"area":2771.29,"pct":10.67}},"city_same":1,"id":"hex:3592:24265"},"type":"Feature"},{"geometry":{"coordinates":[[[-122.55709,37.97374],[-122.55766,37.97453],[-122.5588,37.97453],[-122.55937,37.97375],[-122.55881,37.97297],[-122.55767,37.97297],[-122.55709,37.97374]]],"type":"Polygon"},"properties":{"bbox":{"roads":{"area":2090.22,"pct":8.05}},"city_same":1,"id":"hex:3592:24266"},"type":"Feature"},{"geometry":{"coordinates":[[[-122.55708,37.97531],[-122.55765,37.97609],[-122.55879,37.97609],[-122.55936,37.97531],[-122.5588,37.97453],[-122.55766,37.97453],[-122.55708,37.97531]]],"type":"Polygon"},"properties":{"bbox":{"roads":{"area":816.95,"pct":3.14}},"city_same":1,"id":"hex:3592:24267"},"type":"Feature"},{"geometry":{"coordinates":[[[-122.55707,37.97687],[-122.55764,37.97765],[-122.55878,37.97765],[-122.55935,37.97688],[-122.55879,37.97609],[-122.55765,37.97609],[-122.55707,37.97687]]],"type":"Polygon"},"properties":{"bbox":{"roads":{"area":6743.71,"pct":25.96},"sidewalks":{"area":424.53,"pct":1.63}},"city_same":1,"id":"hex:3592:24268"},"type":"Feature"},{"geometry":{"coordinates":[[[-122.55706,37.97843],[-122.55763,37.97921],[-122.55877,37.97922],[-122.55934,37.97844],[-122.55878,37.97765],[-122.55764,37.97765],[-122.55706,37.97843]]],"type":"Polygon"},"properties":{"bbox":{"roads":{"area":1938.67,"pct":7.46}},"city_same":1,"id":"hex:3592:24269"},"type":"Feature"},{"geometry":{"coordinates":[[[-122.55706,37.97999],[-122.55762,37.98077],[-122.55876,37.98078],[-122.55933,37.98],[-122.55877,37.97922],[-122.55763,37.97921],[-122.55706,37.97999]]],"type":"Polygon"},"properties":{"bbox":{"roads":{"area":3836.72,"pct":14.77}},"city_same":1,"id":"hex:3592:24270"},"type":"Feature"},{"geometry":{"coordinates":[[[-122.55761,37.98233],[-122.55705,37.98155],[-122.55762,37.98077],[-122.55876,37.98078],[-122.55908,37.98123],[-122.55806,37.98233],[-122.55761,37.98233]]],"type":"Polygon"},"properties":{"bbox":{"roads":{"area":3594.49,"pct":17.62}},"city_same":1,"id":"hex:3592:24271"},"type":"Feature"},{"geometry":{"coordinates":[[[-122.55761,37.98233],[-122.55806,37.98233],[-122.55755,37.98288],[-122.55724,37.98283],[-122.55761,37.98233]]],"type":"Polygon"},"properties":{"bbox":{"roads":{"area":397.31,"pct":19.33}},"city_same":1,"id":"hex:3592:24272"},"type":"Feature"},{"geometry":{"coordinates":[[[-122.55768,37.97141],[-122.5571,37.97218],[-122.55596,37.97218],[-122.55566,37.97176],[-122.55571,37.97172],[-122.55608,37.97108],[-122.55647,37.97084],[-122.5568,37.97088],[-122.5571,37.97068],[-122.55715,37.97067],[-122.55768,37.97141]]],"type":"Polygon"},"properties":{"bbox":{"roads":{"area":1186.39,"pct":5.99}},"city_same":1,"id":"hex:3593:24264"},"type":"Feature"},{"geometry":{"coordinates":[[[-122.55539,37.97296],[-122.55595,37.97374],[-122.55709,37.97374],[-122.55767,37.97297],[-122.5571,37.97218],[-122.55596,37.97218],[-122.55539,37.97296]]],"type":"Polygon"},"properties":{"bbox":{"roads":{"area":1757.06,"pct":6.76}},"city_same":1,"id":"hex:3593:24265"},"type":"Feature"},{"geometry":{"coordinates":[[[-122.55538,37.97452],[-122.55595,37.9753],[-122.55708,37.97531],[-122.55766,37.97453],[-122.55709,37.97374],[-122.55595,37.97374],[-122.55538,37.97452]]],"type":"Polygon"},"properties":{"bbox":{"roads":{"area":556.6,"pct":2.14}},"city_same":1,"id":"hex:3593:24266"},"type":"Feature"},{"geometry":{"coordinates":[[[-122.55537,37.97608],[-122.55594,37.97686],[-122.55707,37.97687],[-122.55765,37.97609],[-122.55708,37.97531],[-122.55595,37.9753],[-122.55537,37.97608]]],"type":"Polygon"},"properties":{"bbox":{"roads":{"area":5745.94,"pct":22.12},"sidewalks":{"area":489.85,"pct":1.89}},"city_same":1,"id":"hex:3593:24267"},"type":"Feature"},{"geometry":{"coordinates":[[[-122.55536,37.97764],[-122.55593,37.97842],[-122.55706,37.97843],[-122.55764,37.97765],[-122.55707,37.97687],[-122.55594,37.97686],[-122.55536,37.97764]]],"type":"Polygon"},"properties":{"bbox":{"roads":{"area":2620.58,"pct":10.09},"sidewalks":{"area":408.42,"pct":1.57}},"city_same":1,"id":"hex:3593:24268"},"type":"Feature"},{"geometry":{"coordinates":[[[-122.55535,37.9792],[-122.55592,37.97998],[-122.55706,37.97999],[-122.55763,37.97921],[-122.55706,37.97843],[-122.55593,37.97842],[-122.55535,37.9792]]],"type":"Polygon"},"properties":{"bbox":{"roads":{"area":2873.44,"pct":11.06}},"city_same":1,"id":"hex:3593:24269"},"type":"Feature"},{"geometry":{"coordinates":[[[-122.55534,37.98076],[-122.55591,37.98155],[-122.55705,37.98155],[-122.55762,37.98077],[-122.55706,37.97999],[-122.55592,37.97998],[-122.55534,37.98076]]],"type":"Polygon"},"properties":{"bbox":{"roads":{"area":3550.83,"pct":13.67}},"city_same":1,"id":"hex:3593:24270"},"type":"Feature"},{"geometry":{"coordinates":[[[-122.55533,37.98232],[-122.55591,37.98155],[-122.55705,37.98155],[-122.55761,37.98233],[-122.55724,37.98283],[-122.55585,37.98261],[-122.55549,37.98255],[-122.55533,37.98232]]],"type":"Polygon"},"properties":{"bbox":{"roads":{"area":2713.64,"pct":13.42}},"city_same":1,"id":"hex:3593:24271"},"type":"Feature"},{"geometry":{"coordinates":[[[-122.55539,37.97296],[-122.55595,37.97374],[-122.55538,37.97452],[-122.55424,37.97451],[-122.55368,37.97373],[-122.5542,37.97302],[-122.55432,37.97304],[-122.55493,37.97306],[-122.55494,37.97296],[-122.55539,37.97296]]],"type":"Polygon"},"properties":{"bbox":{"roads":{"area":1942.98,"pct":7.66}},"city_same":1,"id":"hex:3594:24266"},"type":"Feature"},{"geometry":{"coordinates":[[[-122.55367,37.97529],[-122.55423,37.97608],[-122.55537,37.97608],[-122.55595,37.9753],[-122.55538,37.97452],[-122.55424,37.97451],[-122.55367,37.97529]]],"type":"Polygon"},"properties":{"bbox":{"roads":{"area":1799.33,"pct":6.93}},"city_same":1,"id":"hex:3594:24267"},"type":"Feature"},{"geometry":{"coordinates":[[[-122.55366,37.97685],[-122.55422,37.97764],[-122.55536,37.97764],[-122.55594,37.97686],[-122.55537,37.97608],[-122.55423,37.97608],[-122.55366,37.97685]]],"type":"Polygon"},"properties":{"bbox":{"roads":{"area":6624.48,"pct":25.5},"sidewalks":{"area":793.95,"pct":3.06}},"city_same":1,"id":"hex:3594:24268"},"type":"Feature"},{"geometry":{"coordinates":[[[-122.55365,37.97842],[-122.55421,37.9792],[-122.55535,37.9792],[-122.55593,37.97842],[-122.55536,37.97764],[-122.55422,37.97764],[-122.55365,37.97842]]],"type":"Polygon"},"properties":{"bbox":{"roads":{"area":2330.57,"pct":8.97}},"city_same":1,"id":"hex:3594:24269"},"type":"Feature"},{"geometry":{"coordinates":[[[-122.55364,37.97998],[-122.5542,37.98076],[-122.55534,37.98076],[-122.55592,37.97998],[-122.55535,37.9792],[-122.55421,37.9792],[-122.55364,37.97998]]],"type":"Polygon"},"properties":{"bbox":{"roads":{"area":2468.97,"pct":9.5}},"city_same":1,"id":"hex:3594:24270"},"type":"Feature"},{"geometry":{"coordinates":[[[-122.55363,37.98154],[-122.55419,37.98232],[-122.55533,37.98232],[-122.55591,37.98155],[-122.55534,37.98076],[-122.5542,37.98076],[-122.55363,37.98154]]],"type":"Polygon"},"properties":{"bbox":{"roads":{"area":1381.25,"pct":5.32}},"city_same":1,"id":"hex:3594:24271"},"type":"Feature"},{"geometry":{"coordinates":[[[-122.55419,37.98232],[-122.55533,37.98232],[-122.55549,37.98255],[-122.55418,37.98233],[-122.55419,37.98232]]],"type":"Polygon"},"properties":{"bbox":{"roads":{"area":71.75,"pct":5.39}},"city_same":1,"id":"hex:3594:24272"},"type":"Feature"},{"geometry":{"coordinates":[[[-122.55368,37.97373],[-122.55254,37.97373],[-122.55197,37.97295],[-122.55216,37.9727],[-122.55239,37.97288],[-122.55261,37.97245],[-122.55252,37.97221],[-122.55255,37.97217],[-122.55262,37.97217],[-122.55311,37.97247],[-122.55349,37.97286],[-122.55363,37.97293],[-122.5542,37.97302],[-122.55368,37.97373]]],"type":"Polygon"},"properties":{"bbox":{"roads":{"area":718.85,"pct":3.9}},"city_same":1,"id":"hex:3595:24265"},"type":"Feature"},{"geometry":{"coordinates":[[[-122.55196,37.97451],[-122.55253,37.97529],[-122.55367,37.97529],[-122.55424,37.97451],[-122.55368,37.97373],[-122.55254,37.97373],[-122.55196,37.97451]]],"type":"Polygon"},"properties":{"bbox":{"roads":{"area":1387.25,"pct":5.34}},"city_same":1,"id":"hex:3595:24266"},"type":"Feature"},{"geometry":{"coordinates":[[[-122.55196,37.97607],[-122.55252,37.97685],[-122.55366,37.97685],[-122.55423,37.97608],[-122.55367,37.97529],[-122.55253,37.97529],[-122.55196,37.97607]]],"type":"Polygon"},"properties":{"bbox":{"roads":{"area":3569.62,"pct":13.74},"sidewalks":{"area":154.99,"pct":0.6}},"city_same":1,"id":"hex:3595:24267"},"type":"Feature"},{"geometry":{"coordinates":[[[-122.55195,37.97763],[-122.55251,37.97841],[-122.55365,37.97842],[-122.55422,37.97764],[-122.55366,37.97685],[-122.55252,37.97685],[-122.55195,37.97763]]],"type":"Polygon"},"properties":{"bbox":{"roads":{"area":2898.86,"pct":11.16}},"city_same":1,"id":"hex:3595:24268"},"type":"Feature"},{"geometry":{"coordinates":[[[-122.55194,37.97919],[-122.5525,37.97997],[-122.55364,37.97998],[-122.55421,37.9792],[-122.55365,37.97842],[-122.55251,37.97841],[-122.55194,37.97919]]],"type":"Polygon"},"properties":{"bbox":{"roads":{"area":1854.4,"pct":7.14}},"city_same":1,"id":"hex:3595:24269"},"type":"Feature"},{"geometry":{"coordinates":[[[-122.55193,37.98075],[-122.55249,37.98153],[-122.55363,37.98154],[-122.5542,37.98076],[-122.55364,37.97998],[-122.5525,37.97997],[-122.55193,37.98075]]],"type":"Polygon"},"properties":{"bbox":{"roads":{"area":713.54,"pct":2.75}},"city_same":1,"id":"hex:3595:24270"},"type":"Feature"},{"geometry":{"coordinates":[[[-122.55249,37.98153],[-122.55363,37.98154],[-122.55419,37.98232],[-122.55418,37.98233],[-122.55215,37.982],[-122.55249,37.98153]]],"type":"Polygon"},"properties":{"bbox":{"roads":{"area":435.01,"pct":4.49}},"city_same":1,"id":"hex:3595:24271"},"type":"Feature"},{"geometry":{"coordinates":[[[-122.55197,37.97295],[-122.55254,37.97373],[-122.55196,37.97451],[-122.55106,37.9745],[-122.55147,37.97294],[-122.55197,37.97295]]],"type":"Polygon"},"properties":{"bbox":{"roads":{"area":622.57,"pct":4.13}},"city_same":1,"id":"hex:3596:24266"},"type":"Feature"},{"geometry":{"coordinates":[[[-122.55196,37.97451],[-122.55253,37.97529],[-122.55196,37.97607],[-122.55082,37.97606],[-122.55069,37.97589],[-122.55106,37.9745],[-122.55196,37.97451]]],"type":"Polygon"},"properties":{"bbox":{"roads":{"area":1852.39,"pct":8.82}},"city_same":1,"id":"hex:3596:24267"},"type":"Feature"},{"geometry":{"coordinates":[[[-122.55082,37.97606],[-122.55196,37.97607],[-122.55252,37.97685],[-122.55195,37.97763],[-122.5511,37.97762],[-122.55122,37.97717],[-122.55126,37.97718],[-122.55133,37.97691],[-122.55046,37.97677],[-122.55056,37.97641],[-122.55082,37.97606]]],"type":"Polygon"},"properties":{"bbox":{"roads":{"area":3367.26,"pct":16.63},"sidewalks":{"area":253.15,"pct":1.25}},"city_same":1,"id":"hex:3596:24268"},"type":"Feature"},{"geometry":{"coordinates":[[[-122.55195,37.97763],[-122.55251,37.97841],[-122.55194,37.97919],[-122.5508,37.97918],[-122.55072,37.97907],[-122.5511,37.97762],[-122.55195,37.97763]]],"type":"Polygon"},"properties":{"bbox":{"roads":{"area":1698.4,"pct":8.4}},"city_same":1,"id":"hex:3596:24269"},"type":"Feature"},{"geometry":{"coordinates":[[[-122.5508,37.97918],[-122.55194,37.97919],[-122.5525,37.97997],[-122.55193,37.98075],[-122.55079,37.98075],[-122.55041,37.98023],[-122.55063,37.97942],[-122.5508,37.97918]]],"type":"Polygon"},"properties":{"bbox":{"roads":{"area":1392.61,"pct":5.58}},"city_same":1,"id":"hex:3596:24270"},"type":"Feature"},{"geometry":{"coordinates":[[[-122.55021,37.98152],[-122.55079,37.98075],[-122.55193,37.98075],[-122.55249,37.98153],[-122.55215,37.982],[-122.55035,37.98171],[-122.55021,37.98152]]],"type":"Polygon"},"properties":{"bbox":{"parking":{"area":265.88,"pct":1.35},"roads":{"area":1017.03,"pct":5.18}},"city_same":1,"id":"hex:3596:24271"},"type":"Feature"},{"geometry":{"coordinates":[[[-122.55082,37.97606],[-122.55056,37.97641],[-122.55059,37.97629],[-122.55069,37.97589],[-122.55082,37.97606]]],"type":"Polygon"},"properties":{"bbox":{"roads":{"area":76.13,"pct":17.92}},"city_same":1,"id":"hex:3597:24267"},"type":"Feature"},{"geometry":{"coordinates":[[[-122.5508,37.97918],[-122.55063,37.97942],[-122.55068,37.9792],[-122.55072,37.97907],[-122.5508,37.97918]]],"type":"Polygon"},"properties":{"bbox":{"roads":{"area":144.7,"pct":78.39}},"city_same":1,"id":"hex:3597:24269"},"type":"Feature"},{"geometry":{"coordinates":[[[-122.55079,37.98075],[-122.55021,37.98152],[-122.55007,37.98152],[-122.5504,37.98028],[-122.55041,37.98023],[-122.55079,37.98075]]],"type":"Polygon"},"properties":{"bbox":{"roads":{"area":64.52,"pct":1.72}},"city_same":1,"id":"hex:3597:24270"},"type":"Feature"}],"type":"FeatureCollection","v":2}