{"features":[{"geometry":{"coordinates":[[[-122.51531,37.59854],[-122.51468,37.5987],[-122.51183,37.59798],[-122.50802,37.5962],[-122.50742,37.59611],[-122.50643,37.59627],[-122.50466,37.59698],[-122.50326,37.59802],[-122.50126,37.60029],[-122.5006,37.60133],[-122.49985,37.6031],[-122.50013,37.60436],[-122.50182,37.60547],[-122.50206,37.60597],[-122.50206,37.60673],[-122.50182,37.60748],[-122.50157,37.60773],[-122.50046,37.608],[-122.49911,37.60784],[-122.4985,37.60825],[-122.49774,37.60949],[-122.49694,37.61219],[-122.49713,37.61256],[-122.49774,37.61288],[-122.49791,37.61362],[-122.49826,37.61407],[-122.49789,37.6146],[-122.49784,37.61535],[-122.49803,37.61617],[-122.49737,37.61657],[-122.49735,37.61879],[-122.49819,37.61964],[-122.49885,37.6196],[-122.49899,37.61976],[-122.49893,37.62035],[-122.49808,37.62086],[-122.49751,37.62107],[-122.49718,37.62103],[-122.49661,37.62176],[-122.49607,37.62327],[-122.49581,37.62537],[-122.49543,37.62637],[-122.49485,37.63153],[-122.49492,37.63306],[-122.49436,37.6374],[-122.49452,37.63878],[-122.49414,37.64023],[-122.49428,37.64135],[-122.49391,37.64259],[-122.49412,37.64431],[-122.49384,37.64562],[-122.4941,37.64732],[-122.49376,37.64966],[-122.49403,37.65182],[-122.49353,37.65447],[-122.49395,37.65585],[-122.49415,37.66176],[-122.49456,37.66358],[-122.49479,37.66378],[-122.49519,37.66382],[-122.49494,37.66395],[-122.4949,37.6644],[-122.49399,37.66438],[-122.49259,37.66311],[-122.49224,37.66333],[-122.4917,37.66268],[-122.49144,37.66201],[-122.4904,37.66118],[-122.48956,37.66094],[-122.48753,37.66094],[-122.48562,37.66159],[-122.48474,37.66249],[-122.48557,37.66341],[-122.48601,37.66425],[-122.48473,37.66423],[-122.48511,37.66514],[-122.48493,37.66607],[-122.48458,37.66639],[-122.48353,37.66663],[-122.48284,37.66658],[-122.48188,37.6661],[-122.48069,37.66507],[-122.48028,37.66532],[-122.47654,37.66174],[-122.47141,37.65339],[-122.47124,37.65204],[-122.47189,37.64919],[-122.46908,37.6445],[-122.4692,37.64442],[-122.46412,37.63895],[-122.46809,37.63761],[-122.46879,37.63852],[-122.46968,37.63779],[-122.47062,37.63616],[-122.47174,37.6352],[-122.4713,37.63442],[-122.47232,37.63377],[-122.47292,37.63358],[-122.47289,37.63138],[-122.47161,37.63082],[-122.46308,37.61968],[-122.4556,37.619],[-122.45429,37.61949],[-122.45073,37.61602],[-122.44393,37.59361],[-122.46308,37.5846],[-122.46295,37.58445],[-122.45977,37.58449],[-122.45963,37.57734],[-122.46135,37.57734],[-122.46134,37.5737],[-122.45956,37.5737],[-122.45942,37.56638],[-122.46398,37.56634],[-122.46405,37.5701],[-122.46847,37.57003],[-122.46857,37.57365],[-122.47709,37.57351],[-122.47156,37.57791],[-122.47204,37.57836],[-122.47223,37.57917],[-122.47292,37.57922],[-122.47366,37.57959],[-122.48099,37.57609],[-122.48237,37.57519],[-122.48719,37.57912],[-122.48696,37.57618],[-122.48906,37.57528],[-122.49182,37.57739],[-122.49332,37.57569],[-122.49838,37.57848],[-122.49836,37.57881],[-122.49939,37.57904],[-122.50055,37.57968],[-122.49738,37.57982],[-122.49656,37.57949],[-122.49411,37.58226],[-122.49545,37.58269],[-122.49662,37.58236],[-122.49716,37.58202],[-122.4971,37.58289],[-122.4985,37.58349],[-122.49974,37.58207],[-122.49919,37.58176],[-122.49978,37.5811],[-122.50208,37.58242],[-122.50004,37.58404],[-122.49965,37.5842],[-122.49996,37.58739],[-122.49948,37.58825],[-122.50047,37.5889],[-122.50155,37.58907],[-122.5028,37.59006],[-122.50338,37.59072],[-122.50459,37.59103],[-122.50771,37.58748],[-122.51243,37.59017],[-122.51093,37.59187],[-122.51095,37.5922],[-122.51142,37.59296],[-122.51536,37.59569],[-122.51467,37.5964],[-122.51435,37.59781],[-122.51455,37.59805],[-122.51535,37.59834],[-122.51531,37.59854]],[[-122.49509,37.60504],[-122.49504,37.60516],[-122.4953,37.60511],[-122.49509,37.60504]],[[-122.49516,37.62152],[-122.49513,37.62131],[-122.49486,37.6216],[-122.49516,37.62152]],[[-122.47306,37.62457],[-122.47301,37.6248],[-122.47344,37.62507],[-122.47362,37.62494],[-122.4737,37.62448],[-122.4734,37.62442],[-122.47306,37.62457]],[[-122.49328,37.6244],[-122.49315,37.62423],[-122.49333,37.62397],[-122.49297,37.62418],[-122.49272,37.6246],[-122.49293,37.62521],[-122.49272,37.62542],[-122.49289,37.62616],[-122.49273,37.62656],[-122.49291,37.62743],[-122.49359,37.62694],[-122.49336,37.62675],[-122.49343,37.62652],[-122.49319,37.62659],[-122.49314,37.62623],[-122.49353,37.6261],[-122.49335,37.626],[-122.49342,37.62567],[-122.49374,37.62555],[-122.49329,37.62531],[-122.49349,37.62506],[-122.49365,37.6253],[-122.49379,37.62476],[-122.49351,37.62476],[-122.49328,37.6244]],[[-122.476,37.62749],[-122.47606,37.62766],[-122.4763,37.6275],[-122.47616,37.62734],[-122.476,37.62749]],[[-122.47473,37.62911],[-122.47499,37.62913],[-122.47525,37.62882],[-122.47449,37.62868],[-122.47454,37.62908],[-122.47473,37.62911]],[[-122.4721,37.63879],[-122.47186,37.63902],[-122.47208,37.63918],[-122.47232,37.63892],[-122.4721,37.63879]]],"type":"Polygon"},"properties":{"type":"boundary"},"type":"Feature"}],"type":"FeatureCollection"}