{"features":[{"geometry":{"coordinates":[[[-118.32874,33.78906],[-118.32775,33.78905],[-118.32775,33.78855],[-118.32626,33.78852],[-118.32626,33.7896],[-118.32646,33.78961],[-118.32644,33.79027],[-118.32816,33.79027],[-118.32828,33.80045],[-118.32818,33.80104],[-118.32612,33.80115],[-118.32598,33.80357],[-118.32807,33.80348],[-118.32814,33.80687],[-118.31984,33.80686],[-118.31986,33.80768],[-118.31167,33.80765],[-118.31167,33.80223],[-118.30879,33.80228],[-118.30876,33.78223],[-118.30902,33.78222],[-118.30902,33.78195],[-118.30995,33.78195],[-118.30951,33.779],[-118.30782,33.77944],[-118.30643,33.77496],[-118.30884,33.77496],[-118.30905,33.77651],[-118.31049,33.77642],[-118.31094,33.77729],[-118.31343,33.77668],[-118.31294,33.77551],[-118.31658,33.7755],[-118.31658,33.77498],[-118.3183,33.77498],[-118.31829,33.77574],[-118.31677,33.77742],[-118.31603,33.77697],[-118.3157,33.7771],[-118.31621,33.77802],[-118.31541,33.77864],[-118.31693,33.77873],[-118.3157,33.77957],[-118.31659,33.78018],[-118.31654,33.78092],[-118.31771,33.78072],[-118.31804,33.78169],[-118.319,33.78171],[-118.31666,33.78375],[-118.32215,33.78587],[-118.32545,33.78591],[-118.32546,33.78621],[-118.32779,33.78623],[-118.32786,33.78725],[-118.32871,33.78724],[-118.32874,33.78906]]],"type":"Polygon"},"properties":{"type":"boundary"},"type":"Feature"}],"type":"FeatureCollection"}