{"features":[{"geometry":{"coordinates":[[[-118.32721,33.78655],[-118.32697,33.78622],[-118.32777,33.78623],[-118.32779,33.78623],[-118.32781,33.78655],[-118.32721,33.78655]]],"type":"Polygon"},"properties":{"bbox":{"roads":{"area":81.35,"pct":3.44}},"city_same":1,"id":"hex:2011:17270"},"type":"Feature"},{"geometry":{"coordinates":[[[-118.32859,33.78849],[-118.32724,33.7885],[-118.32655,33.78754],[-118.32721,33.78655],[-118.32781,33.78655],[-118.32786,33.78725],[-118.32871,33.78724],[-118.32873,33.78829],[-118.32859,33.78849]]],"type":"Polygon"},"properties":{"bbox":{"roads":{"area":2993.1,"pct":9.92}},"city_same":1,"id":"hex:2011:17271"},"type":"Feature"},{"geometry":{"coordinates":[[[[-118.32727,33.79046],[-118.32714,33.79027],[-118.32775,33.79026],[-118.32816,33.79027],[-118.32816,33.79045],[-118.32727,33.79046]]],[[[-118.32724,33.7885],[-118.32859,33.78849],[-118.32873,33.78869],[-118.32874,33.78906],[-118.32827,33.78906],[-118.32794,33.78906],[-118.32775,33.78905],[-118.32775,33.78855],[-118.32734,33.78854],[-118.32722,33.78854],[-118.32724,33.7885]]]],"type":"MultiPolygon"},"properties":{"bbox":{"roads":{"area":463.24,"pct":6.08}},"city_same":1,"id":"hex:2011:17272"},"type":"Feature"},{"geometry":{"coordinates":[[[-118.3273,33.79241],[-118.32661,33.79144],[-118.32727,33.79046],[-118.32816,33.79045],[-118.32816,33.79103],[-118.32816,33.79125],[-118.32816,33.79152],[-118.32816,33.79169],[-118.32819,33.79231],[-118.32819,33.7924],[-118.3273,33.79241]]],"type":"Polygon"},"properties":{"bbox":{"roads":{"area":1376.94,"pct":5.64}},"city_same":1,"id":"hex:2011:17273"},"type":"Feature"},{"geometry":{"coordinates":[[[-118.32733,33.79436],[-118.32664,33.79339],[-118.3273,33.79241],[-118.32819,33.7924],[-118.32817,33.79395],[-118.32817,33.79435],[-118.32733,33.79436]]],"type":"Polygon"},"properties":{"bbox":{"parking":{"area":25.87,"pct":0.11},"roads":{"area":2025.21,"pct":8.44}},"city_same":1,"id":"hex:2011:17274"},"type":"Feature"},{"geometry":{"coordinates":[[[-118.32736,33.79631],[-118.32667,33.79534],[-118.32733,33.79436],[-118.32817,33.79435],[-118.32817,33.79541],[-118.32817,33.7963],[-118.32736,33.79631]]],"type":"Polygon"},"properties":{"bbox":{"roads":{"area":1267.81,"pct":5.47}},"city_same":1,"id":"hex:2011:17275"},"type":"Feature"},{"geometry":{"coordinates":[[[-118.32739,33.79827],[-118.3267,33.7973],[-118.32736,33.79631],[-118.32817,33.7963],[-118.32817,33.79683],[-118.32832,33.79826],[-118.32739,33.79827]]],"type":"Polygon"},"properties":{"bbox":{"roads":{"area":2215.31,"pct":9.34}},"city_same":1,"id":"hex:2011:17276"},"type":"Feature"},{"geometry":{"coordinates":[[[-118.32742,33.80022],[-118.32673,33.79925],[-118.32739,33.79827],[-118.32832,33.79826],[-118.32832,33.7983],[-118.32832,33.79865],[-118.32832,33.79921],[-118.32832,33.79983],[-118.32831,33.8001],[-118.32831,33.80018],[-118.32831,33.80021],[-118.32742,33.80022]]],"type":"Polygon"},"properties":{"bbox":{"roads":{"area":3073.15,"pct":12.29}},"city_same":1,"id":"hex:2011:17277"},"type":"Feature"},{"geometry":{"coordinates":[[[-118.32742,33.80022],[-118.32831,33.80021],[-118.3283,33.80028],[-118.32828,33.80045],[-118.32824,33.80065],[-118.32819,33.80094],[-118.32818,33.80104],[-118.32682,33.80111],[-118.32742,33.80022]]],"type":"Polygon"},"properties":{"bbox":{"roads":{"area":1498.01,"pct":15.32}},"city_same":1,"id":"hex:2011:17278"},"type":"Feature"},{"geometry":{"coordinates":[[[-118.32748,33.80412],[-118.32706,33.80352],[-118.32807,33.80348],[-118.32809,33.80412],[-118.32748,33.80412]]],"type":"Polygon"},"properties":{"bbox":{"parking":{"area":385.87,"pct":7.47},"roads":{"area":2007.05,"pct":38.85},"sidewalks":{"area":104.07,"pct":2.01}},"city_same":1,"id":"hex:2011:17279"},"type":"Feature"},{"geometry":{"coordinates":[[[-118.32751,33.80607],[-118.32682,33.80511],[-118.32748,33.80412],[-118.32809,33.80412],[-118.32812,33.80607],[-118.32751,33.80607]]],"type":"Polygon"},"properties":{"bbox":{"parking":{"area":2357.59,"pct":12.45},"roads":{"area":8206.75,"pct":43.34},"sidewalks":{"area":259.33,"pct":1.37}},"city":{"parking":{"area":2357.59,"pct":12.45},"roads":{"area":6523.37,"pct":34.45},"sidewalks":{"area":259.33,"pct":1.37}},"id":"hex:2011:17280"},"type":"Feature"},{"geometry":{"coordinates":[[[-118.32751,33.80607],[-118.32812,33.80607],[-118.32814,33.80687],[-118.32698,33.80687],[-118.32751,33.80607]]],"type":"Polygon"},"properties":{"bbox":{"parking":{"area":158.95,"pct":2.2},"roads":{"area":2653.26,"pct":36.81}},"city_same":1,"id":"hex:2011:17281"},"type":"Feature"},{"geometry":{"coordinates":[[[-118.32721,33.78655],[-118.32655,33.78754],[-118.3252,33.78755],[-118.32451,33.78658],[-118.32496,33.78591],[-118.32545,33.78591],[-118.32546,33.78621],[-118.32697,33.78622],[-118.32721,33.78655]]],"type":"Polygon"},"properties":{"bbox":{"roads":{"area":3047.31,"pct":9.82}},"city_same":1,"id":"hex:2012:17271"},"type":"Feature"},{"geometry":{"coordinates":[[[-118.32523,33.7895],[-118.32454,33.78853],[-118.3252,33.78755],[-118.32655,33.78754],[-118.32724,33.7885],[-118.32722,33.78854],[-118.32689,33.78853],[-118.32626,33.78852],[-118.32626,33.78949],[-118.32523,33.7895]]],"type":"Polygon"},"properties":{"bbox":{"roads":{"area":5505.91,"pct":16.08}},"city":{"roads":{"area":4989.81,"pct":14.57}},"id":"hex:2012:17272"},"type":"Feature"},{"geometry":{"coordinates":[[[-118.32727,33.79046],[-118.32661,33.79144],[-118.32526,33.79145],[-118.32457,33.79049],[-118.32523,33.7895],[-118.32626,33.78949],[-118.32626,33.7896],[-118.32639,33.7896],[-118.32646,33.78961],[-118.32644,33.79027],[-118.3268,33.79028],[-118.32714,33.79027],[-118.32727,33.79046]]],"type":"Polygon"},"properties":{"bbox":{"parking":{"area":813.7,"pct":2.2},"roads":{"area":5859.66,"pct":15.83},"sidewalks":{"area":70.3,"pct":0.19}},"city":{"parking":{"area":813.7,"pct":2.2},"roads":{"area":4189.53,"pct":11.32},"sidewalks":{"area":70.3,"pct":0.19}},"id":"hex:2012:17273"},"type":"Feature"},{"geometry":{"coordinates":[[[-118.3246,33.79244],[-118.32529,33.79341],[-118.32664,33.79339],[-118.3273,33.79241],[-118.32661,33.79144],[-118.32526,33.79145],[-118.3246,33.79244]]],"type":"Polygon"},"properties":{"bbox":{"roads":{"area":3692.65,"pct":9.1}},"city_same":1,"id":"hex:2012:17274"},"type":"Feature"},{"geometry":{"coordinates":[[[-118.32463,33.79439],[-118.32532,33.79536],[-118.32667,33.79534],[-118.32733,33.79436],[-118.32664,33.79339],[-118.32529,33.79341],[-118.32463,33.79439]]],"type":"Polygon"},"properties":{"bbox":{"roads":{"area":4269.75,"pct":10.52}},"city_same":1,"id":"hex:2012:17275"},"type":"Feature"},{"geometry":{"coordinates":[[[-118.32466,33.79634],[-118.32535,33.79731],[-118.3267,33.7973],[-118.32736,33.79631],[-118.32667,33.79534],[-118.32532,33.79536],[-118.32466,33.79634]]],"type":"Polygon"},"properties":{"bbox":{"roads":{"area":3981.06,"pct":9.81}},"city_same":1,"id":"hex:2012:17276"},"type":"Feature"},{"geometry":{"coordinates":[[[-118.32469,33.79829],[-118.32538,33.79926],[-118.32673,33.79925],[-118.32739,33.79827],[-118.3267,33.7973],[-118.32535,33.79731],[-118.32469,33.79829]]],"type":"Polygon"},"properties":{"bbox":{"roads":{"area":4598.19,"pct":11.33}},"city_same":1,"id":"hex:2012:17277"},"type":"Feature"},{"geometry":{"coordinates":[[[-118.32541,33.80122],[-118.32472,33.80025],[-118.32538,33.79926],[-118.32673,33.79925],[-118.32742,33.80022],[-118.32682,33.80111],[-118.32612,33.80115],[-118.32612,33.80121],[-118.32541,33.80122]]],"type":"Polygon"},"properties":{"bbox":{"roads":{"area":4185.95,"pct":10.44}},"city_same":1,"id":"hex:2012:17278"},"type":"Feature"},{"geometry":{"coordinates":[[[-118.32544,33.80317],[-118.32475,33.8022],[-118.32541,33.80122],[-118.32612,33.80121],[-118.32601,33.80316],[-118.32544,33.80317]]],"type":"Polygon"},"properties":{"bbox":{"roads":{"area":2707.67,"pct":13.89}},"city_same":1,"id":"hex:2012:17279"},"type":"Feature"},{"geometry":{"coordinates":[[[-118.32748,33.80412],[-118.32682,33.80511],[-118.32547,33.80512],[-118.32478,33.80415],[-118.32544,33.80317],[-118.32601,33.80316],[-118.32598,33.80357],[-118.32706,33.80352],[-118.32748,33.80412]]],"type":"Polygon"},"properties":{"bbox":{"parking":{"area":288.33,"pct":0.78},"roads":{"area":6240.91,"pct":16.94}},"city":{"parking":{"area":288.33,"pct":0.78},"roads":{"area":4482.89,"pct":12.16}},"id":"hex:2012:17280"},"type":"Feature"},{"geometry":{"coordinates":[[[-118.32481,33.8061],[-118.32547,33.80512],[-118.32682,33.80511],[-118.32751,33.80607],[-118.32698,33.80687],[-118.32535,33.80686],[-118.32481,33.8061]]],"type":"Polygon"},"properties":{"bbox":{"parking":{"area":129.75,"pct":0.35},"roads":{"area":4738.78,"pct":12.62}},"city":{"parking":{"area":129.75,"pct":0.35},"roads":{"area":3440.81,"pct":9.17}},"id":"hex:2012:17281"},"type":"Feature"},{"geometry":{"coordinates":[[[-118.32451,33.78658],[-118.32316,33.7866],[-118.32265,33.78588],[-118.32408,33.78589],[-118.32496,33.78591],[-118.32451,33.78658]]],"type":"Polygon"},"properties":{"bbox":{"roads":{"area":1298.47,"pct":9.9},"sidewalks":{"area":27.57,"pct":0.21}},"city_same":1,"id":"hex:2013:17270"},"type":"Feature"},{"geometry":{"coordinates":[[[-118.3225,33.78758],[-118.32319,33.78855],[-118.32454,33.78853],[-118.3252,33.78755],[-118.32451,33.78658],[-118.32316,33.7866],[-118.3225,33.78758]]],"type":"Polygon"},"properties":{"bbox":{"roads":{"area":2329.35,"pct":5.74},"sidewalks":{"area":775.94,"pct":1.91}},"city_same":1,"id":"hex:2013:17271"},"type":"Feature"},{"geometry":{"coordinates":[[[-118.32253,33.78953],[-118.32322,33.7905],[-118.32457,33.79049],[-118.32523,33.7895],[-118.32454,33.78853],[-118.32319,33.78855],[-118.32253,33.78953]]],"type":"Polygon"},"properties":{"bbox":{"parking":{"area":2552.47,"pct":6.29},"roads":{"area":9988.11,"pct":24.6},"sidewalks":{"area":422.09,"pct":1.04}},"city":{"parking":{"area":2552.47,"pct":6.29},"roads":{"area":4840.43,"pct":11.92},"sidewalks":{"area":422.09,"pct":1.04}},"id":"hex:2013:17272"},"type":"Feature"},{"geometry":{"coordinates":[[[-118.32256,33.79148],[-118.32325,33.79245],[-118.3246,33.79244],[-118.32526,33.79145],[-118.32457,33.79049],[-118.32322,33.7905],[-118.32256,33.79148]]],"type":"Polygon"},"properties":{"bbox":{"roads":{"area":3026.54,"pct":7.46}},"city_same":1,"id":"hex:2013:17273"},"type":"Feature"},{"geometry":{"coordinates":[[[-118.32259,33.79344],[-118.32328,33.7944],[-118.32463,33.79439],[-118.32529,33.79341],[-118.3246,33.79244],[-118.32325,33.79245],[-118.32259,33.79344]]],"type":"Polygon"},"properties":{"bbox":{"roads":{"area":3981.36,"pct":9.81}},"city_same":1,"id":"hex:2013:17274"},"type":"Feature"},{"geometry":{"coordinates":[[[-118.32262,33.79539],[-118.32331,33.79636],[-118.32466,33.79634],[-118.32532,33.79536],[-118.32463,33.79439],[-118.32328,33.7944],[-118.32262,33.79539]]],"type":"Polygon"},"properties":{"bbox":{"roads":{"area":2088.09,"pct":5.14}},"city_same":1,"id":"hex:2013:17275"},"type":"Feature"},{"geometry":{"coordinates":[[[-118.32265,33.79734],[-118.32334,33.79831],[-118.32469,33.79829],[-118.32535,33.79731],[-118.32466,33.79634],[-118.32331,33.79636],[-118.32265,33.79734]]],"type":"Polygon"},"properties":{"bbox":{"roads":{"area":3268.55,"pct":8.05}},"city_same":1,"id":"hex:2013:17276"},"type":"Feature"},{"geometry":{"coordinates":[[[-118.32268,33.79929],[-118.32337,33.80026],[-118.32472,33.80025],[-118.32538,33.79926],[-118.32469,33.79829],[-118.32334,33.79831],[-118.32268,33.79929]]],"type":"Polygon"},"properties":{"bbox":{"roads":{"area":2340.84,"pct":5.77}},"city_same":1,"id":"hex:2013:17277"},"type":"Feature"},{"geometry":{"coordinates":[[[-118.32271,33.80124],[-118.3234,33.80221],[-118.32475,33.8022],[-118.32541,33.80122],[-118.32472,33.80025],[-118.32337,33.80026],[-118.32271,33.80124]]],"type":"Polygon"},"properties":{"bbox":{"roads":{"area":2305.3,"pct":5.68}},"city_same":1,"id":"hex:2013:17278"},"type":"Feature"},{"geometry":{"coordinates":[[[-118.32274,33.8032],[-118.32343,33.80417],[-118.32478,33.80415],[-118.32544,33.80317],[-118.32475,33.8022],[-118.3234,33.80221],[-118.32274,33.8032]]],"type":"Polygon"},"properties":{"bbox":{"parking":{"area":35.19,"pct":0.09},"roads":{"area":4165.66,"pct":10.26}},"city":{"parking":{"area":35.19,"pct":0.09},"roads":{"area":2947.03,"pct":7.26}},"id":"hex:2013:17279"},"type":"Feature"},{"geometry":{"coordinates":[[[-118.32277,33.80515],[-118.32346,33.80612],[-118.32481,33.8061],[-118.32547,33.80512],[-118.32478,33.80415],[-118.32343,33.80417],[-118.32277,33.80515]]],"type":"Polygon"},"properties":{"bbox":{"parking":{"area":2150.68,"pct":5.3},"roads":{"area":5936.36,"pct":14.62}},"city":{"parking":{"area":2150.68,"pct":5.3},"roads":{"area":4303.95,"pct":10.6}},"id":"hex:2013:17280"},"type":"Feature"},{"geometry":{"coordinates":[[[-118.32346,33.80612],[-118.32481,33.8061],[-118.32535,33.80686],[-118.32296,33.80686],[-118.32346,33.80612]]],"type":"Polygon"},"properties":{"bbox":{"roads":{"area":1172.54,"pct":8.11}},"city_same":1,"id":"hex:2013:17281"},"type":"Feature"},{"geometry":{"coordinates":[[[-118.32112,33.78564],[-118.32096,33.78541],[-118.32155,33.78564],[-118.32112,33.78564]]],"type":"Polygon"},"properties":{"bbox":{"roads":{"area":140.06,"pct":27.34}},"city_same":1,"id":"hex:2014:17270"},"type":"Feature"},{"geometry":{"coordinates":[[[-118.32316,33.7866],[-118.3225,33.78758],[-118.32115,33.78759],[-118.32046,33.78662],[-118.32112,33.78564],[-118.32155,33.78564],[-118.32215,33.78587],[-118.32265,33.78588],[-118.32316,33.7866]]],"type":"Polygon"},"properties":{"bbox":{"roads":{"area":3276.43,"pct":8.44},"sidewalks":{"area":367.41,"pct":0.95}},"city_same":1,"id":"hex:2014:17271"},"type":"Feature"},{"geometry":{"coordinates":[[[-118.32049,33.78858],[-118.32118,33.78955],[-118.32253,33.78953],[-118.32319,33.78855],[-118.3225,33.78758],[-118.32115,33.78759],[-118.32049,33.78858]]],"type":"Polygon"},"properties":{"bbox":{"roads":{"area":5688.48,"pct":14.01},"sidewalks":{"area":656.96,"pct":1.62}},"city":{"roads":{"area":4169.1,"pct":10.27},"sidewalks":{"area":656.96,"pct":1.62}},"id":"hex:2014:17272"},"type":"Feature"},{"geometry":{"coordinates":[[[-118.32052,33.79053],[-118.32121,33.7915],[-118.32256,33.79148],[-118.32322,33.7905],[-118.32253,33.78953],[-118.32118,33.78955],[-118.32052,33.79053]]],"type":"Polygon"},"properties":{"bbox":{"parking":{"area":32.66,"pct":0.08},"roads":{"area":5360.11,"pct":13.2},"sidewalks":{"area":393.06,"pct":0.97}},"city":{"parking":{"area":32.66,"pct":0.08},"roads":{"area":4086.24,"pct":10.07},"sidewalks":{"area":393.06,"pct":0.97}},"id":"hex:2014:17273"},"type":"Feature"},{"geometry":{"coordinates":[[[-118.32055,33.79248],[-118.32124,33.79345],[-118.32259,33.79344],[-118.32325,33.79245],[-118.32256,33.79148],[-118.32121,33.7915],[-118.32055,33.79248]]],"type":"Polygon"},"properties":{"bbox":{"roads":{"area":4645.6,"pct":11.44},"sidewalks":{"area":60.81,"pct":0.15}},"city_same":1,"id":"hex:2014:17274"},"type":"Feature"},{"geometry":{"coordinates":[[[-118.32058,33.79443],[-118.32127,33.7954],[-118.32262,33.79539],[-118.32328,33.7944],[-118.32259,33.79344],[-118.32124,33.79345],[-118.32058,33.79443]]],"type":"Polygon"},"properties":{"bbox":{"roads":{"area":4345.23,"pct":10.7}},"city_same":1,"id":"hex:2014:17275"},"type":"Feature"},{"geometry":{"coordinates":[[[-118.32061,33.79639],[-118.3213,33.79735],[-118.32265,33.79734],[-118.32331,33.79636],[-118.32262,33.79539],[-118.32127,33.7954],[-118.32061,33.79639]]],"type":"Polygon"},"properties":{"bbox":{"roads":{"area":3207.87,"pct":7.9}},"city_same":1,"id":"hex:2014:17276"},"type":"Feature"},{"geometry":{"coordinates":[[[-118.32064,33.79834],[-118.32133,33.79931],[-118.32268,33.79929],[-118.32334,33.79831],[-118.32265,33.79734],[-118.3213,33.79735],[-118.32064,33.79834]]],"type":"Polygon"},"properties":{"bbox":{"roads":{"area":4828.19,"pct":11.89}},"city_same":1,"id":"hex:2014:17277"},"type":"Feature"},{"geometry":{"coordinates":[[[-118.32067,33.80029],[-118.32136,33.80126],[-118.32271,33.80124],[-118.32337,33.80026],[-118.32268,33.79929],[-118.32133,33.79931],[-118.32067,33.80029]]],"type":"Polygon"},"properties":{"bbox":{"roads":{"area":4595.77,"pct":11.32}},"city_same":1,"id":"hex:2014:17278"},"type":"Feature"},{"geometry":{"coordinates":[[[-118.3207,33.80224],[-118.32139,33.80321],[-118.32274,33.8032],[-118.3234,33.80221],[-118.32271,33.80124],[-118.32136,33.80126],[-118.3207,33.80224]]],"type":"Polygon"},"properties":{"bbox":{"roads":{"area":4423.8,"pct":10.9}},"city":{"roads":{"area":3593.92,"pct":8.85}},"id":"hex:2014:17279"},"type":"Feature"},{"geometry":{"coordinates":[[[-118.32073,33.80419],[-118.32142,33.80516],[-118.32277,33.80515],[-118.32343,33.80417],[-118.32274,33.8032],[-118.32139,33.80321],[-118.32073,33.80419]]],"type":"Polygon"},"properties":{"bbox":{"parking":{"area":764.12,"pct":1.88},"roads":{"area":5112.26,"pct":12.59}},"city":{"parking":{"area":764.12,"pct":1.88},"roads":{"area":3097.58,"pct":7.63}},"id":"hex:2014:17280"},"type":"Feature"},{"geometry":{"coordinates":[[[-118.32076,33.80615],[-118.32142,33.80516],[-118.32277,33.80515],[-118.32346,33.80612],[-118.32296,33.80686],[-118.32127,33.80686],[-118.32076,33.80615]]],"type":"Polygon"},"properties":{"bbox":{"roads":{"area":4331.99,"pct":11.79}},"city_same":1,"id":"hex:2014:17281"},"type":"Feature"},{"geometry":{"coordinates":[[[-118.32112,33.78564],[-118.32046,33.78662],[-118.31911,33.78664],[-118.31842,33.78567],[-118.31908,33.78469],[-118.31909,33.78469],[-118.32096,33.78541],[-118.32112,33.78564]]],"type":"Polygon"},"properties":{"bbox":{"roads":{"area":5364.68,"pct":15.12}},"city":{"roads":{"area":3013.73,"pct":8.5}},"id":"hex:2015:17270"},"type":"Feature"},{"geometry":{"coordinates":[[[-118.31845,33.78762],[-118.31914,33.78859],[-118.32049,33.78858],[-118.32115,33.78759],[-118.32046,33.78662],[-118.31911,33.78664],[-118.31845,33.78762]]],"type":"Polygon"},"properties":{"bbox":{"roads":{"area":6081.35,"pct":14.98}},"city":{"roads":{"area":3106.6,"pct":7.65}},"id":"hex:2015:17271"},"type":"Feature"},{"geometry":{"coordinates":[[[-118.31848,33.78957],[-118.31917,33.79054],[-118.32052,33.79053],[-118.32118,33.78955],[-118.32049,33.78858],[-118.31914,33.78859],[-118.31848,33.78957]]],"type":"Polygon"},"properties":{"bbox":{"parking":{"area":5672.12,"pct":13.97},"roads":{"area":14319.42,"pct":35.27},"sidewalks":{"area":786.61,"pct":1.94}},"city":{"parking":{"area":5672.12,"pct":13.97},"roads":{"area":6013.94,"pct":14.81},"sidewalks":{"area":786.61,"pct":1.94}},"id":"hex:2015:17272"},"type":"Feature"},{"geometry":{"coordinates":[[[-118.31851,33.79153],[-118.3192,33.7925],[-118.32055,33.79248],[-118.32121,33.7915],[-118.32052,33.79053],[-118.31917,33.79054],[-118.31851,33.79153]]],"type":"Polygon"},"properties":{"bbox":{"roads":{"area":6590.19,"pct":16.23},"sidewalks":{"area":269.72,"pct":0.66}},"city":{"roads":{"area":3655.29,"pct":9},"sidewalks":{"area":269.72,"pct":0.66}},"id":"hex:2015:17273"},"type":"Feature"},{"geometry":{"coordinates":[[[-118.31854,33.79348],[-118.31923,33.79445],[-118.32058,33.79443],[-118.32124,33.79345],[-118.32055,33.79248],[-118.3192,33.7925],[-118.31854,33.79348]]],"type":"Polygon"},"properties":{"bbox":{"roads":{"area":5873.64,"pct":14.47}},"city":{"roads":{"area":2823.32,"pct":6.95}},"id":"hex:2015:17274"},"type":"Feature"},{"geometry":{"coordinates":[[[-118.31857,33.79543],[-118.31926,33.7964],[-118.32061,33.79639],[-118.32127,33.7954],[-118.32058,33.79443],[-118.31923,33.79445],[-118.31857,33.79543]]],"type":"Polygon"},"properties":{"bbox":{"roads":{"area":4484.9,"pct":11.05}},"city":{"roads":{"area":1451.85,"pct":3.58}},"id":"hex:2015:17275"},"type":"Feature"},{"geometry":{"coordinates":[[[-118.3186,33.79738],[-118.31929,33.79835],[-118.32064,33.79834],[-118.3213,33.79735],[-118.32061,33.79639],[-118.31926,33.7964],[-118.3186,33.79738]]],"type":"Polygon"},"properties":{"bbox":{"parking":{"area":945.4,"pct":2.33},"roads":{"area":6433.76,"pct":15.85}},"city":{"parking":{"area":945.4,"pct":2.33},"roads":{"area":3607.56,"pct":8.89}},"id":"hex:2015:17276"},"type":"Feature"},{"geometry":{"coordinates":[[[-118.31863,33.79934],[-118.31932,33.8003],[-118.32067,33.80029],[-118.32133,33.79931],[-118.32064,33.79834],[-118.31929,33.79835],[-118.31863,33.79934]]],"type":"Polygon"},"properties":{"bbox":{"parking":{"area":2973.17,"pct":7.32},"roads":{"area":6687.09,"pct":16.47}},"city":{"parking":{"area":2973.17,"pct":7.32},"roads":{"area":3664.12,"pct":9.03}},"id":"hex:2015:17277"},"type":"Feature"},{"geometry":{"coordinates":[[[-118.31866,33.80129],[-118.31935,33.80226],[-118.3207,33.80224],[-118.32136,33.80126],[-118.32067,33.80029],[-118.31932,33.8003],[-118.31866,33.80129]]],"type":"Polygon"},"properties":{"bbox":{"parking":{"area":3834.54,"pct":9.45},"roads":{"area":6574.29,"pct":16.19}},"city":{"parking":{"area":3834.54,"pct":9.45},"roads":{"area":3229.4,"pct":7.96}},"id":"hex:2015:17278"},"type":"Feature"},{"geometry":{"coordinates":[[[-118.31869,33.80324],[-118.31938,33.80421],[-118.32073,33.80419],[-118.32139,33.80321],[-118.3207,33.80224],[-118.31935,33.80226],[-118.31869,33.80324]]],"type":"Polygon"},"properties":{"bbox":{"parking":{"area":3184.07,"pct":7.84},"roads":{"area":8343.75,"pct":20.55},"sidewalks":{"area":17.81,"pct":0.04}},"city":{"parking":{"area":3184.07,"pct":7.84},"roads":{"area":3783.33,"pct":9.32},"sidewalks":{"area":17.81,"pct":0.04}},"id":"hex:2015:17279"},"type":"Feature"},{"geometry":{"coordinates":[[[-118.31872,33.80519],[-118.31941,33.80616],[-118.32076,33.80615],[-118.32142,33.80516],[-118.32073,33.80419],[-118.31938,33.80421],[-118.31872,33.80519]]],"type":"Polygon"},"properties":{"bbox":{"parking":{"area":3171.27,"pct":7.81},"roads":{"area":4763.51,"pct":11.73},"sidewalks":{"area":421.55,"pct":1.04}},"city":{"parking":{"area":3171.27,"pct":7.81},"roads":{"area":3253.48,"pct":8.01},"sidewalks":{"area":421.55,"pct":1.04}},"id":"hex:2015:17280"},"type":"Feature"},{"geometry":{"coordinates":[[[-118.31875,33.80714],[-118.31941,33.80616],[-118.32076,33.80615],[-118.32127,33.80686],[-118.31984,33.80686],[-118.31986,33.80768],[-118.31913,33.80767],[-118.31875,33.80714]]],"type":"Polygon"},"properties":{"bbox":{"parking":{"area":658.48,"pct":3.1},"roads":{"area":2588.37,"pct":12.19}},"city":{"parking":{"area":658.48,"pct":3.1},"roads":{"area":1634.79,"pct":7.7}},"id":"hex:2015:17281"},"type":"Feature"},{"geometry":{"coordinates":[[[-118.31692,33.77592],[-118.31658,33.77544],[-118.31658,33.77498],[-118.3183,33.77498],[-118.31829,33.77557],[-118.31824,33.77559],[-118.31829,33.77574],[-118.31814,33.77591],[-118.31692,33.77592]]],"type":"Polygon"},"properties":{"bbox":{"roads":{"area":3150.62,"pct":20.3},"sidewalks":{"area":69.51,"pct":0.45}},"city_same":1,"id":"hex:2016:17265"},"type":"Feature"},{"geometry":{"coordinates":[[[-118.31626,33.77691],[-118.31692,33.77592],[-118.31814,33.77591],[-118.31677,33.77742],[-118.31652,33.77727],[-118.31626,33.77691]]],"type":"Polygon"},"properties":{"bbox":{"roads":{"area":1616.52,"pct":11.61},"sidewalks":{"area":15.01,"pct":0.11}},"city_same":1,"id":"hex:2016:17266"},"type":"Feature"},{"geometry":{"coordinates":[[[-118.31836,33.78177],[-118.31701,33.78178],[-118.31632,33.78081],[-118.31657,33.78044],[-118.31654,33.78092],[-118.31771,33.78072],[-118.31804,33.78169],[-118.31841,33.78169],[-118.31836,33.78177]]],"type":"Polygon"},"properties":{"bbox":{"roads":{"area":342.99,"pct":2.65}},"city_same":1,"id":"hex:2016:17268"},"type":"Feature"},{"geometry":{"coordinates":[[[-118.31635,33.78276],[-118.31701,33.78178],[-118.31836,33.78177],[-118.31858,33.78208],[-118.31691,33.78354],[-118.31635,33.78276]]],"type":"Polygon"},"properties":{"bbox":{"roads":{"area":1829.08,"pct":8.34}},"city_same":1,"id":"hex:2016:17269"},"type":"Feature"},{"geometry":{"coordinates":[[[-118.31908,33.78469],[-118.31842,33.78567],[-118.31707,33.78568],[-118.31638,33.78472],[-118.31695,33.78386],[-118.31908,33.78468],[-118.31908,33.78469]]],"type":"Polygon"},"properties":{"bbox":{"roads":{"area":3241.65,"pct":10.11},"sidewalks":{"area":460.94,"pct":1.44}},"city_same":1,"id":"hex:2016:17270"},"type":"Feature"},{"geometry":{"coordinates":[[[-118.31641,33.78667],[-118.3171,33.78764],[-118.31845,33.78762],[-118.31911,33.78664],[-118.31842,33.78567],[-118.31707,33.78568],[-118.31641,33.78667]]],"type":"Polygon"},"properties":{"bbox":{"roads":{"area":4351.09,"pct":10.72},"sidewalks":{"area":703.95,"pct":1.73}},"city_same":1,"id":"hex:2016:17271"},"type":"Feature"},{"geometry":{"coordinates":[[[-118.31644,33.78862],[-118.31713,33.78959],[-118.31848,33.78957],[-118.31914,33.78859],[-118.31845,33.78762],[-118.3171,33.78764],[-118.31644,33.78862]]],"type":"Polygon"},"properties":{"bbox":{"roads":{"area":7289.7,"pct":17.96},"sidewalks":{"area":759.13,"pct":1.87}},"city":{"roads":{"area":5149.71,"pct":12.69},"sidewalks":{"area":759.13,"pct":1.87}},"id":"hex:2016:17272"},"type":"Feature"},{"geometry":{"coordinates":[[[-118.31647,33.79057],[-118.31716,33.79154],[-118.31851,33.79153],[-118.31917,33.79054],[-118.31848,33.78957],[-118.31713,33.78959],[-118.31647,33.79057]]],"type":"Polygon"},"properties":{"bbox":{"parking":{"area":3676.85,"pct":9.06},"roads":{"area":6389.83,"pct":15.74},"sidewalks":{"area":593.71,"pct":1.46}},"city":{"parking":{"area":3676.85,"pct":9.06},"roads":{"area":5603.12,"pct":13.8},"sidewalks":{"area":593.71,"pct":1.46}},"id":"hex:2016:17273"},"type":"Feature"},{"geometry":{"coordinates":[[[-118.3165,33.79252],[-118.31719,33.79349],[-118.31854,33.79348],[-118.3192,33.7925],[-118.31851,33.79153],[-118.31716,33.79154],[-118.3165,33.79252]]],"type":"Polygon"},"properties":{"bbox":{"roads":{"area":5862.06,"pct":14.44}},"city_same":1,"id":"hex:2016:17274"},"type":"Feature"},{"geometry":{"coordinates":[[[-118.31653,33.79448],[-118.31722,33.79545],[-118.31857,33.79543],[-118.31923,33.79445],[-118.31854,33.79348],[-118.31719,33.79349],[-118.31653,33.79448]]],"type":"Polygon"},"properties":{"bbox":{"roads":{"area":4202.46,"pct":10.35}},"city_same":1,"id":"hex:2016:17275"},"type":"Feature"},{"geometry":{"coordinates":[[[-118.31656,33.79643],[-118.31725,33.7974],[-118.3186,33.79738],[-118.31926,33.7964],[-118.31857,33.79543],[-118.31722,33.79545],[-118.31656,33.79643]]],"type":"Polygon"},"properties":{"bbox":{"roads":{"area":4072.89,"pct":10.03}},"city_same":1,"id":"hex:2016:17276"},"type":"Feature"},{"geometry":{"coordinates":[[[-118.31659,33.79838],[-118.31728,33.79935],[-118.31863,33.79934],[-118.31929,33.79835],[-118.3186,33.79738],[-118.31725,33.7974],[-118.31659,33.79838]]],"type":"Polygon"},"properties":{"bbox":{"parking":{"area":715.54,"pct":1.76},"roads":{"area":5103,"pct":12.57},"sidewalks":{"area":45.48,"pct":0.11}},"city_same":1,"id":"hex:2016:17277"},"type":"Feature"},{"geometry":{"coordinates":[[[-118.31662,33.80033],[-118.31731,33.8013],[-118.31866,33.80129],[-118.31932,33.8003],[-118.31863,33.79934],[-118.31728,33.79935],[-118.31662,33.80033]]],"type":"Polygon"},"properties":{"bbox":{"parking":{"area":1071.29,"pct":2.64},"roads":{"area":4786.22,"pct":11.79}},"city":{"parking":{"area":1071.29,"pct":2.64},"roads":{"area":4636.54,"pct":11.42}},"id":"hex:2016:17278"},"type":"Feature"},{"geometry":{"coordinates":[[[-118.31665,33.80229],[-118.31734,33.80325],[-118.31869,33.80324],[-118.31935,33.80226],[-118.31866,33.80129],[-118.31731,33.8013],[-118.31665,33.80229]]],"type":"Polygon"},"properties":{"bbox":{"parking":{"area":430.55,"pct":1.06},"roads":{"area":6354,"pct":15.65}},"city":{"parking":{"area":430.55,"pct":1.06},"roads":{"area":3401.37,"pct":8.38}},"id":"hex:2016:17279"},"type":"Feature"},{"geometry":{"coordinates":[[[-118.31668,33.80424],[-118.31737,33.80521],[-118.31872,33.80519],[-118.31938,33.80421],[-118.31869,33.80324],[-118.31734,33.80325],[-118.31668,33.80424]]],"type":"Polygon"},"properties":{"bbox":{"parking":{"area":5925.88,"pct":14.6},"roads":{"area":3219.14,"pct":7.93},"sidewalks":{"area":93.84,"pct":0.23}},"city_same":1,"id":"hex:2016:17280"},"type":"Feature"},{"geometry":{"coordinates":[[[-118.31671,33.80619],[-118.3174,33.80716],[-118.31875,33.80714],[-118.31941,33.80616],[-118.31872,33.80519],[-118.31737,33.80521],[-118.31671,33.80619]]],"type":"Polygon"},"properties":{"bbox":{"parking":{"area":1165.93,"pct":2.87},"roads":{"area":3815.09,"pct":9.4},"sidewalks":{"area":47.97,"pct":0.12}},"city_same":1,"id":"hex:2016:17281"},"type":"Feature"},{"geometry":{"coordinates":[[[-118.3174,33.80716],[-118.31875,33.80714],[-118.31913,33.80767],[-118.31706,33.80767],[-118.3174,33.80716]]],"type":"Polygon"},"properties":{"bbox":{"roads":{"area":408.75,"pct":4.49}},"city_same":1,"id":"hex:2016:17282"},"type":"Feature"},{"geometry":{"coordinates":[[[-118.31692,33.77592],[-118.31626,33.77691],[-118.31491,33.77692],[-118.31422,33.77595],[-118.31452,33.77551],[-118.31658,33.7755],[-118.31658,33.77544],[-118.31692,33.77592]]],"type":"Polygon"},"properties":{"bbox":{"roads":{"area":8335.84,"pct":26.89},"sidewalks":{"area":283.07,"pct":0.91}},"city_same":1,"id":"hex:2017:17265"},"type":"Feature"},{"geometry":{"coordinates":[[[-118.31629,33.77886],[-118.31494,33.77887],[-118.31425,33.7779],[-118.31491,33.77692],[-118.31626,33.77691],[-118.31652,33.77727],[-118.31603,33.77697],[-118.3157,33.7771],[-118.31621,33.77802],[-118.31541,33.77864],[-118.31548,33.7787],[-118.31638,33.77872],[-118.31629,33.77886]]],"type":"Polygon"},"properties":{"bbox":{"roads":{"area":2407.37,"pct":8.85}},"city_same":1,"id":"hex:2017:17266"},"type":"Feature"},{"geometry":{"coordinates":[[[-118.31632,33.78081],[-118.31497,33.78083],[-118.31428,33.77986],[-118.31494,33.77887],[-118.31629,33.77886],[-118.31644,33.77907],[-118.3157,33.77957],[-118.31659,33.78018],[-118.31657,33.78044],[-118.31632,33.78081]]],"type":"Polygon"},"properties":{"bbox":{"roads":{"area":2801.92,"pct":8.51}},"city_same":1,"id":"hex:2017:17267"},"type":"Feature"},{"geometry":{"coordinates":[[[-118.31431,33.78181],[-118.315,33.78278],[-118.31635,33.78276],[-118.31701,33.78178],[-118.31632,33.78081],[-118.31497,33.78083],[-118.31431,33.78181]]],"type":"Polygon"},"properties":{"bbox":{"roads":{"area":3749,"pct":9.24}},"city_same":1,"id":"hex:2017:17268"},"type":"Feature"},{"geometry":{"coordinates":[[[-118.31638,33.78472],[-118.31503,33.78473],[-118.31434,33.78376],[-118.315,33.78278],[-118.31635,33.78276],[-118.31691,33.78354],[-118.31666,33.78375],[-118.31695,33.78386],[-118.31638,33.78472]]],"type":"Polygon"},"properties":{"bbox":{"roads":{"area":4169.3,"pct":10.43}},"city_same":1,"id":"hex:2017:17269"},"type":"Feature"},{"geometry":{"coordinates":[[[-118.31437,33.78571],[-118.31506,33.78668],[-118.31641,33.78667],[-118.31707,33.78568],[-118.31638,33.78472],[-118.31503,33.78473],[-118.31437,33.78571]]],"type":"Polygon"},"properties":{"bbox":{"roads":{"area":3540.03,"pct":8.72}},"city_same":1,"id":"hex:2017:17270"},"type":"Feature"},{"geometry":{"coordinates":[[[-118.3144,33.78767],[-118.31509,33.78863],[-118.31644,33.78862],[-118.3171,33.78764],[-118.31641,33.78667],[-118.31506,33.78668],[-118.3144,33.78767]]],"type":"Polygon"},"properties":{"bbox":{"roads":{"area":4468.57,"pct":11.01}},"city_same":1,"id":"hex:2017:17271"},"type":"Feature"},{"geometry":{"coordinates":[[[-118.31443,33.78962],[-118.31512,33.79059],[-118.31647,33.79057],[-118.31713,33.78959],[-118.31644,33.78862],[-118.31509,33.78863],[-118.31443,33.78962]]],"type":"Polygon"},"properties":{"bbox":{"parking":{"area":62.9,"pct":0.15},"roads":{"area":10044.11,"pct":24.74}},"city":{"parking":{"area":62.9,"pct":0.15},"roads":{"area":5047.41,"pct":12.43}},"id":"hex:2017:17272"},"type":"Feature"},{"geometry":{"coordinates":[[[-118.31446,33.79157],[-118.31515,33.79254],[-118.3165,33.79252],[-118.31716,33.79154],[-118.31647,33.79057],[-118.31512,33.79059],[-118.31446,33.79157]]],"type":"Polygon"},"properties":{"bbox":{"roads":{"area":4978.88,"pct":12.26}},"city_same":1,"id":"hex:2017:17273"},"type":"Feature"},{"geometry":{"coordinates":[[[-118.31449,33.79352],[-118.31518,33.79449],[-118.31653,33.79448],[-118.31719,33.79349],[-118.3165,33.79252],[-118.31515,33.79254],[-118.31449,33.79352]]],"type":"Polygon"},"properties":{"bbox":{"roads":{"area":2561.97,"pct":6.31},"sidewalks":{"area":431.92,"pct":1.06}},"city_same":1,"id":"hex:2017:17274"},"type":"Feature"},{"geometry":{"coordinates":[[[-118.31452,33.79547],[-118.31521,33.79644],[-118.31656,33.79643],[-118.31722,33.79545],[-118.31653,33.79448],[-118.31518,33.79449],[-118.31452,33.79547]]],"type":"Polygon"},"properties":{"bbox":{"roads":{"area":2843.03,"pct":7}},"city_same":1,"id":"hex:2017:17275"},"type":"Feature"},{"geometry":{"coordinates":[[[-118.31455,33.79743],[-118.31524,33.7984],[-118.31659,33.79838],[-118.31725,33.7974],[-118.31656,33.79643],[-118.31521,33.79644],[-118.31455,33.79743]]],"type":"Polygon"},"properties":{"bbox":{"roads":{"area":3632.37,"pct":8.95}},"city_same":1,"id":"hex:2017:17276"},"type":"Feature"},{"geometry":{"coordinates":[[[-118.31458,33.79938],[-118.31527,33.80035],[-118.31662,33.80033],[-118.31728,33.79935],[-118.31659,33.79838],[-118.31524,33.7984],[-118.31458,33.79938]]],"type":"Polygon"},"properties":{"bbox":{"roads":{"area":3809.2,"pct":9.38}},"city":{"roads":{"area":3793.45,"pct":9.34}},"id":"hex:2017:17277"},"type":"Feature"},{"geometry":{"coordinates":[[[-118.31461,33.80133],[-118.3153,33.8023],[-118.31665,33.80229],[-118.31731,33.8013],[-118.31662,33.80033],[-118.31527,33.80035],[-118.31461,33.80133]]],"type":"Polygon"},"properties":{"bbox":{"roads":{"area":5713.18,"pct":14.07}},"city":{"roads":{"area":2929.27,"pct":7.22}},"id":"hex:2017:17278"},"type":"Feature"},{"geometry":{"coordinates":[[[-118.31464,33.80328],[-118.31533,33.80425],[-118.31668,33.80424],[-118.31734,33.80325],[-118.31665,33.80229],[-118.3153,33.8023],[-118.31464,33.80328]]],"type":"Polygon"},"properties":{"bbox":{"roads":{"area":1853.79,"pct":4.57}},"city_same":1,"id":"hex:2017:17279"},"type":"Feature"},{"geometry":{"coordinates":[[[-118.31467,33.80524],[-118.31536,33.8062],[-118.31671,33.80619],[-118.31737,33.80521],[-118.31668,33.80424],[-118.31533,33.80425],[-118.31467,33.80524]]],"type":"Polygon"},"properties":{"bbox":{"roads":{"area":3173.42,"pct":7.82}},"city_same":1,"id":"hex:2017:17280"},"type":"Feature"},{"geometry":{"coordinates":[[[-118.3147,33.80719],[-118.31536,33.8062],[-118.31671,33.80619],[-118.3174,33.80716],[-118.31706,33.80767],[-118.31504,33.80766],[-118.3147,33.80719]]],"type":"Polygon"},"properties":{"bbox":{"roads":{"area":2434.3,"pct":7.57}},"city_same":1,"id":"hex:2017:17281"},"type":"Feature"},{"geometry":{"coordinates":[[[-118.31422,33.77595],[-118.31313,33.77596],[-118.31294,33.77551],[-118.31452,33.77551],[-118.31422,33.77595]]],"type":"Polygon"},"properties":{"bbox":{"roads":{"area":1158.05,"pct":18.69}},"city_same":1,"id":"hex:2018:17265"},"type":"Feature"},{"geometry":{"coordinates":[[[-118.31422,33.77595],[-118.31491,33.77692],[-118.31425,33.7779],[-118.3129,33.77792],[-118.31223,33.77698],[-118.31343,33.77668],[-118.31313,33.77596],[-118.31422,33.77595]]],"type":"Polygon"},"properties":{"bbox":{"roads":{"area":6193.13,"pct":18.11}},"city_same":1,"id":"hex:2018:17266"},"type":"Feature"},{"geometry":{"coordinates":[[[-118.31224,33.7789],[-118.31293,33.77987],[-118.31428,33.77986],[-118.31494,33.77887],[-118.31425,33.7779],[-118.3129,33.77792],[-118.31224,33.7789]]],"type":"Polygon"},"properties":{"bbox":{"roads":{"area":2936.69,"pct":7.23}},"city_same":1,"id":"hex:2018:17267"},"type":"Feature"},{"geometry":{"coordinates":[[[-118.31227,33.78085],[-118.31296,33.78182],[-118.31431,33.78181],[-118.31497,33.78083],[-118.31428,33.77986],[-118.31293,33.77987],[-118.31227,33.78085]]],"type":"Polygon"},"properties":{"bbox":{"roads":{"area":2981.42,"pct":7.34}},"city_same":1,"id":"hex:2018:17268"},"type":"Feature"},{"geometry":{"coordinates":[[[-118.3123,33.78281],[-118.31299,33.78378],[-118.31434,33.78376],[-118.315,33.78278],[-118.31431,33.78181],[-118.31296,33.78182],[-118.3123,33.78281]]],"type":"Polygon"},"properties":{"bbox":{"roads":{"area":3976.42,"pct":9.8}},"city_same":1,"id":"hex:2018:17269"},"type":"Feature"},{"geometry":{"coordinates":[[[-118.31233,33.78476],[-118.31302,33.78573],[-118.31437,33.78571],[-118.31503,33.78473],[-118.31434,33.78376],[-118.31299,33.78378],[-118.31233,33.78476]]],"type":"Polygon"},"properties":{"bbox":{"roads":{"area":4873.35,"pct":12}},"city_same":1,"id":"hex:2018:17270"},"type":"Feature"},{"geometry":{"coordinates":[[[-118.31236,33.78671],[-118.31305,33.78768],[-118.3144,33.78767],[-118.31506,33.78668],[-118.31437,33.78571],[-118.31302,33.78573],[-118.31236,33.78671]]],"type":"Polygon"},"properties":{"bbox":{"roads":{"area":5970,"pct":14.71}},"city_same":1,"id":"hex:2018:17271"},"type":"Feature"},{"geometry":{"coordinates":[[[-118.31239,33.78866],[-118.31308,33.78963],[-118.31443,33.78962],[-118.31509,33.78863],[-118.3144,33.78767],[-118.31305,33.78768],[-118.31239,33.78866]]],"type":"Polygon"},"properties":{"bbox":{"roads":{"area":6720.06,"pct":16.55}},"city":{"roads":{"area":3736.39,"pct":9.2}},"id":"hex:2018:17272"},"type":"Feature"},{"geometry":{"coordinates":[[[-118.31242,33.79062],[-118.31311,33.79158],[-118.31446,33.79157],[-118.31512,33.79059],[-118.31443,33.78962],[-118.31308,33.78963],[-118.31242,33.79062]]],"type":"Polygon"},"properties":{"bbox":{"parking":{"area":4640.29,"pct":11.43},"roads":{"area":4088.75,"pct":10.07},"sidewalks":{"area":406.34,"pct":1}},"city":{"parking":{"area":4640.29,"pct":11.43},"roads":{"area":3969.29,"pct":9.78},"sidewalks":{"area":406.34,"pct":1}},"id":"hex:2018:17273"},"type":"Feature"},{"geometry":{"coordinates":[[[-118.31245,33.79257],[-118.31314,33.79354],[-118.31449,33.79352],[-118.31515,33.79254],[-118.31446,33.79157],[-118.31311,33.79158],[-118.31245,33.79257]]],"type":"Polygon"},"properties":{"bbox":{"roads":{"area":2533.08,"pct":6.24},"sidewalks":{"area":626.25,"pct":1.54}},"city_same":1,"id":"hex:2018:17274"},"type":"Feature"},{"geometry":{"coordinates":[[[-118.31248,33.79452],[-118.31317,33.79549],[-118.31452,33.79547],[-118.31518,33.79449],[-118.31449,33.79352],[-118.31314,33.79354],[-118.31248,33.79452]]],"type":"Polygon"},"properties":{"bbox":{"roads":{"area":3782.62,"pct":9.32},"sidewalks":{"area":98.72,"pct":0.24}},"city_same":1,"id":"hex:2018:17275"},"type":"Feature"},{"geometry":{"coordinates":[[[-118.31251,33.79647],[-118.3132,33.79744],[-118.31455,33.79743],[-118.31521,33.79644],[-118.31452,33.79547],[-118.31317,33.79549],[-118.31251,33.79647]]],"type":"Polygon"},"properties":{"bbox":{"roads":{"area":3785.25,"pct":9.32}},"city_same":1,"id":"hex:2018:17276"},"type":"Feature"},{"geometry":{"coordinates":[[[-118.31254,33.79842],[-118.31323,33.79939],[-118.31458,33.79938],[-118.31524,33.7984],[-118.31455,33.79743],[-118.3132,33.79744],[-118.31254,33.79842]]],"type":"Polygon"},"properties":{"bbox":{"roads":{"area":4222.63,"pct":10.4}},"city_same":1,"id":"hex:2018:17277"},"type":"Feature"},{"geometry":{"coordinates":[[[-118.31257,33.80038],[-118.31326,33.80135],[-118.31461,33.80133],[-118.31527,33.80035],[-118.31458,33.79938],[-118.31323,33.79939],[-118.31257,33.80038]]],"type":"Polygon"},"properties":{"bbox":{"roads":{"area":7646.34,"pct":18.84}},"city":{"roads":{"area":4404.6,"pct":10.85}},"id":"hex:2018:17278"},"type":"Feature"},{"geometry":{"coordinates":[[[-118.3126,33.80233],[-118.31329,33.8033],[-118.31464,33.80328],[-118.3153,33.8023],[-118.31461,33.80133],[-118.31326,33.80135],[-118.3126,33.80233]]],"type":"Polygon"},"properties":{"bbox":{"roads":{"area":3536.93,"pct":8.71}},"city_same":1,"id":"hex:2018:17279"},"type":"Feature"},{"geometry":{"coordinates":[[[-118.31263,33.80428],[-118.31332,33.80525],[-118.31467,33.80524],[-118.31533,33.80425],[-118.31464,33.80328],[-118.31329,33.8033],[-118.31263,33.80428]]],"type":"Polygon"},"properties":{"bbox":{"parking":{"area":1014,"pct":2.5},"roads":{"area":3655.63,"pct":9.01},"sidewalks":{"area":4.32,"pct":0.01}},"city_same":1,"id":"hex:2018:17280"},"type":"Feature"},{"geometry":{"coordinates":[[[-118.31266,33.80623],[-118.31335,33.8072],[-118.3147,33.80719],[-118.31536,33.8062],[-118.31467,33.80524],[-118.31332,33.80525],[-118.31266,33.80623]]],"type":"Polygon"},"properties":{"bbox":{"roads":{"area":4126.67,"pct":10.17}},"city_same":1,"id":"hex:2018:17281"},"type":"Feature"},{"geometry":{"coordinates":[[[-118.31335,33.8072],[-118.3147,33.80719],[-118.31504,33.80766],[-118.31305,33.80765],[-118.31335,33.8072]]],"type":"Polygon"},"properties":{"bbox":{"roads":{"area":659.35,"pct":8.37}},"city_same":1,"id":"hex:2018:17282"},"type":"Feature"},{"geometry":{"coordinates":[[[-118.3129,33.77792],[-118.31224,33.7789],[-118.31089,33.77892],[-118.3102,33.77795],[-118.31081,33.77705],[-118.31094,33.77729],[-118.31223,33.77698],[-118.3129,33.77792]]],"type":"Polygon"},"properties":{"bbox":{"parking":{"area":1947.12,"pct":5.12},"roads":{"area":6646.5,"pct":17.49},"sidewalks":{"area":38.24,"pct":0.1}},"city_same":1,"id":"hex:2019:17266"},"type":"Feature"},{"geometry":{"coordinates":[[[-118.31023,33.7799],[-118.31092,33.78087],[-118.31227,33.78085],[-118.31293,33.77987],[-118.31224,33.7789],[-118.31089,33.77892],[-118.31023,33.7799]]],"type":"Polygon"},"properties":{"bbox":{"parking":{"area":2456.81,"pct":6.05},"roads":{"area":1681.7,"pct":4.14}},"city_same":1,"id":"hex:2019:17267"},"type":"Feature"},{"geometry":{"coordinates":[[[-118.31026,33.78185],[-118.31095,33.78282],[-118.3123,33.78281],[-118.31296,33.78182],[-118.31227,33.78085],[-118.31092,33.78087],[-118.31026,33.78185]]],"type":"Polygon"},"properties":{"bbox":{"roads":{"area":2372.16,"pct":5.84}},"city_same":1,"id":"hex:2019:17268"},"type":"Feature"},{"geometry":{"coordinates":[[[-118.31029,33.7838],[-118.31098,33.78477],[-118.31233,33.78476],[-118.31299,33.78378],[-118.3123,33.78281],[-118.31095,33.78282],[-118.31029,33.7838]]],"type":"Polygon"},"properties":{"bbox":{"roads":{"area":3059.04,"pct":7.54}},"city_same":1,"id":"hex:2019:17269"},"type":"Feature"},{"geometry":{"coordinates":[[[-118.31032,33.78576],[-118.31101,33.78673],[-118.31236,33.78671],[-118.31302,33.78573],[-118.31233,33.78476],[-118.31098,33.78477],[-118.31032,33.78576]]],"type":"Polygon"},"properties":{"bbox":{"roads":{"area":5268.36,"pct":12.98}},"city_same":1,"id":"hex:2019:17270"},"type":"Feature"},{"geometry":{"coordinates":[[[-118.31035,33.78771],[-118.31104,33.78868],[-118.31239,33.78866],[-118.31305,33.78768],[-118.31236,33.78671],[-118.31101,33.78673],[-118.31035,33.78771]]],"type":"Polygon"},"properties":{"bbox":{"roads":{"area":5487.57,"pct":13.52}},"city_same":1,"id":"hex:2019:17271"},"type":"Feature"},{"geometry":{"coordinates":[[[-118.31038,33.78966],[-118.31107,33.79063],[-118.31242,33.79062],[-118.31308,33.78963],[-118.31239,33.78866],[-118.31104,33.78868],[-118.31038,33.78966]]],"type":"Polygon"},"properties":{"bbox":{"parking":{"area":912.5,"pct":2.25},"roads":{"area":10836.22,"pct":26.69},"sidewalks":{"area":140.12,"pct":0.35}},"city":{"parking":{"area":912.5,"pct":2.25},"roads":{"area":6027.06,"pct":14.85},"sidewalks":{"area":140.12,"pct":0.35}},"id":"hex:2019:17272"},"type":"Feature"},{"geometry":{"coordinates":[[[-118.31041,33.79161],[-118.3111,33.79258],[-118.31245,33.79257],[-118.31311,33.79158],[-118.31242,33.79062],[-118.31107,33.79063],[-118.31041,33.79161]]],"type":"Polygon"},"properties":{"bbox":{"parking":{"area":1607.38,"pct":3.96},"roads":{"area":4420.22,"pct":10.89},"sidewalks":{"area":1078.58,"pct":2.66}},"city_same":1,"id":"hex:2019:17273"},"type":"Feature"},{"geometry":{"coordinates":[[[-118.31044,33.79356],[-118.31113,33.79453],[-118.31248,33.79452],[-118.31314,33.79354],[-118.31245,33.79257],[-118.3111,33.79258],[-118.31044,33.79356]]],"type":"Polygon"},"properties":{"bbox":{"roads":{"area":4637.16,"pct":11.42},"sidewalks":{"area":253.17,"pct":0.62}},"city_same":1,"id":"hex:2019:17274"},"type":"Feature"},{"geometry":{"coordinates":[[[-118.31047,33.79552],[-118.31116,33.79649],[-118.31251,33.79647],[-118.31317,33.79549],[-118.31248,33.79452],[-118.31113,33.79453],[-118.31047,33.79552]]],"type":"Polygon"},"properties":{"bbox":{"roads":{"area":4972.36,"pct":12.25}},"city_same":1,"id":"hex:2019:17275"},"type":"Feature"},{"geometry":{"coordinates":[[[-118.3105,33.79747],[-118.31119,33.79844],[-118.31254,33.79842],[-118.3132,33.79744],[-118.31251,33.79647],[-118.31116,33.79649],[-118.3105,33.79747]]],"type":"Polygon"},"properties":{"bbox":{"roads":{"area":3842.39,"pct":9.47},"sidewalks":{"area":37.32,"pct":0.09}},"city":{"roads":{"area":3842.07,"pct":9.46},"sidewalks":{"area":37.32,"pct":0.09}},"id":"hex:2019:17276"},"type":"Feature"},{"geometry":{"coordinates":[[[-118.31053,33.79942],[-118.31122,33.80039],[-118.31257,33.80038],[-118.31323,33.79939],[-118.31254,33.79842],[-118.31119,33.79844],[-118.31053,33.79942]]],"type":"Polygon"},"properties":{"bbox":{"roads":{"area":7793.16,"pct":19.2},"sidewalks":{"area":261.97,"pct":0.65}},"city":{"roads":{"area":4578.85,"pct":11.28},"sidewalks":{"area":261.97,"pct":0.65}},"id":"hex:2019:17277"},"type":"Feature"},{"geometry":{"coordinates":[[[-118.31056,33.80137],[-118.31122,33.80039],[-118.31257,33.80038],[-118.31326,33.80135],[-118.3126,33.80233],[-118.31167,33.80234],[-118.31167,33.80223],[-118.31118,33.80224],[-118.31056,33.80137]]],"type":"Polygon"},"properties":{"bbox":{"roads":{"area":4353.7,"pct":10.86}},"city_same":1,"id":"hex:2019:17278"},"type":"Feature"},{"geometry":{"coordinates":[[[-118.3126,33.80233],[-118.31329,33.8033],[-118.31263,33.80428],[-118.31167,33.80429],[-118.31167,33.80234],[-118.3126,33.80233]]],"type":"Polygon"},"properties":{"bbox":{"roads":{"area":2086.44,"pct":8.12}},"city_same":1,"id":"hex:2019:17279"},"type":"Feature"},{"geometry":{"coordinates":[[[-118.31263,33.80428],[-118.31332,33.80525],[-118.31266,33.80623],[-118.31167,33.80624],[-118.31167,33.80429],[-118.31263,33.80428]]],"type":"Polygon"},"properties":{"bbox":{"roads":{"area":2611.64,"pct":9.93}},"city_same":1,"id":"hex:2019:17280"},"type":"Feature"},{"geometry":{"coordinates":[[[-118.31266,33.80623],[-118.31335,33.8072],[-118.31305,33.80765],[-118.31167,33.80765],[-118.31167,33.80624],[-118.31266,33.80623]]],"type":"Polygon"},"properties":{"bbox":{"roads":{"area":2393.12,"pct":11.82}},"city_same":1,"id":"hex:2019:17281"},"type":"Feature"},{"geometry":{"coordinates":[[[-118.30882,33.77601],[-118.30814,33.77504],[-118.30819,33.77496],[-118.30884,33.77496],[-118.30898,33.77601],[-118.30882,33.77601]]],"type":"Polygon"},"properties":{"bbox":{"roads":{"area":523.62,"pct":10.74},"sidewalks":{"area":174.82,"pct":3.59}},"city":{"roads":{"area":401.62,"pct":8.24},"sidewalks":{"area":174.82,"pct":3.59}},"id":"hex:2020:17265"},"type":"Feature"},{"geometry":{"coordinates":[[[-118.3102,33.77795],[-118.30885,33.77796],[-118.30816,33.77699],[-118.30882,33.77601],[-118.30898,33.77601],[-118.30905,33.77651],[-118.31048,33.77642],[-118.31053,33.77649],[-118.31081,33.77705],[-118.3102,33.77795]]],"type":"Polygon"},"properties":{"bbox":{"parking":{"area":4780.16,"pct":14.05},"roads":{"area":4308.45,"pct":12.66},"sidewalks":{"area":572.04,"pct":1.68}},"city":{"parking":{"area":4780.16,"pct":14.05},"roads":{"area":1531.41,"pct":4.5},"sidewalks":{"area":572.04,"pct":1.68}},"id":"hex:2020:17266"},"type":"Feature"},{"geometry":{"coordinates":[[[-118.30819,33.77894],[-118.30885,33.77796],[-118.3102,33.77795],[-118.31089,33.77892],[-118.31023,33.7799],[-118.30965,33.77991],[-118.30951,33.779],[-118.30843,33.77928],[-118.30819,33.77894]]],"type":"Polygon"},"properties":{"bbox":{"parking":{"area":1488.78,"pct":4.53},"roads":{"area":9899.23,"pct":30.1},"sidewalks":{"area":575.17,"pct":1.75}},"city":{"parking":{"area":1488.78,"pct":4.53},"roads":{"area":5429.87,"pct":16.51},"sidewalks":{"area":575.17,"pct":1.75}},"id":"hex:2020:17267"},"type":"Feature"},{"geometry":{"coordinates":[[[-118.31023,33.7799],[-118.31092,33.78087],[-118.31026,33.78185],[-118.30994,33.78186],[-118.30965,33.77991],[-118.31023,33.7799]]],"type":"Polygon"},"properties":{"bbox":{"parking":{"area":1173.42,"pct":7.38},"roads":{"area":2314.21,"pct":14.55}},"city":{"parking":{"area":1173.42,"pct":7.38},"roads":{"area":567.3,"pct":3.57}},"id":"hex:2020:17268"},"type":"Feature"},{"geometry":{"coordinates":[[[-118.31026,33.78185],[-118.31095,33.78282],[-118.31029,33.7838],[-118.30894,33.78382],[-118.30876,33.78356],[-118.30876,33.78223],[-118.30902,33.78222],[-118.30902,33.78195],[-118.30995,33.78195],[-118.30994,33.78186],[-118.31026,33.78185]]],"type":"Polygon"},"properties":{"bbox":{"roads":{"area":6420.2,"pct":18.25},"sidewalks":{"area":25.86,"pct":0.07}},"city":{"roads":{"area":3060.9,"pct":8.7},"sidewalks":{"area":25.86,"pct":0.07}},"id":"hex:2020:17269"},"type":"Feature"},{"geometry":{"coordinates":[[[-118.30894,33.78382],[-118.31029,33.7838],[-118.31098,33.78477],[-118.31032,33.78576],[-118.30897,33.78577],[-118.30876,33.78548],[-118.30876,33.78409],[-118.30894,33.78382]]],"type":"Polygon"},"properties":{"bbox":{"roads":{"area":7200.31,"pct":19.36},"sidewalks":{"area":423.9,"pct":1.14}},"city":{"roads":{"area":3268.91,"pct":8.79},"sidewalks":{"area":423.9,"pct":1.14}},"id":"hex:2020:17270"},"type":"Feature"},{"geometry":{"coordinates":[[[-118.30897,33.78577],[-118.31032,33.78576],[-118.31101,33.78673],[-118.31035,33.78771],[-118.309,33.78772],[-118.30877,33.78739],[-118.30876,33.78608],[-118.30897,33.78577]]],"type":"Polygon"},"properties":{"bbox":{"roads":{"area":5885.84,"pct":15.67},"sidewalks":{"area":218.51,"pct":0.58}},"city_same":1,"id":"hex:2020:17271"},"type":"Feature"},{"geometry":{"coordinates":[[[-118.309,33.78772],[-118.31035,33.78771],[-118.31104,33.78868],[-118.31038,33.78966],[-118.30903,33.78967],[-118.30877,33.7893],[-118.30877,33.78807],[-118.309,33.78772]]],"type":"Polygon"},"properties":{"bbox":{"parking":{"area":1705.05,"pct":4.5},"roads":{"area":8777.39,"pct":23.15}},"city":{"parking":{"area":1705.05,"pct":4.5},"roads":{"area":5719.75,"pct":15.09}},"id":"hex:2020:17272"},"type":"Feature"},{"geometry":{"coordinates":[[[-118.30903,33.78967],[-118.31038,33.78966],[-118.31107,33.79063],[-118.31041,33.79161],[-118.30906,33.79163],[-118.30877,33.79122],[-118.30877,33.79007],[-118.30903,33.78967]]],"type":"Polygon"},"properties":{"bbox":{"parking":{"area":592.57,"pct":1.55},"roads":{"area":4596.95,"pct":12.02},"sidewalks":{"area":726.76,"pct":1.9}},"city_same":1,"id":"hex:2020:17273"},"type":"Feature"},{"geometry":{"coordinates":[[[-118.30906,33.79163],[-118.31041,33.79161],[-118.3111,33.79258],[-118.31044,33.79356],[-118.30909,33.79358],[-118.30878,33.79313],[-118.30877,33.79206],[-118.30906,33.79163]]],"type":"Polygon"},"properties":{"bbox":{"roads":{"area":2649.54,"pct":6.88},"sidewalks":{"area":318.75,"pct":0.83}},"city_same":1,"id":"hex:2020:17274"},"type":"Feature"},{"geometry":{"coordinates":[[[-118.30909,33.79358],[-118.31044,33.79356],[-118.31113,33.79453],[-118.31047,33.79552],[-118.30912,33.79553],[-118.30878,33.79505],[-118.30878,33.79405],[-118.30909,33.79358]]],"type":"Polygon"},"properties":{"bbox":{"roads":{"area":3146.93,"pct":8.11}},"city_same":1,"id":"hex:2020:17275"},"type":"Feature"},{"geometry":{"coordinates":[[[-118.30912,33.79553],[-118.31047,33.79552],[-118.31116,33.79649],[-118.3105,33.79747],[-118.30915,33.79748],[-118.30878,33.79696],[-118.30878,33.79604],[-118.30912,33.79553]]],"type":"Polygon"},"properties":{"bbox":{"roads":{"area":4939.75,"pct":12.64},"sidewalks":{"area":291.57,"pct":0.75}},"city_same":1,"id":"hex:2020:17276"},"type":"Feature"},{"geometry":{"coordinates":[[[-118.30915,33.79748],[-118.3105,33.79747],[-118.31119,33.79844],[-118.31053,33.79942],[-118.30918,33.79944],[-118.30878,33.79888],[-118.30878,33.79803],[-118.30915,33.79748]]],"type":"Polygon"},"properties":{"bbox":{"roads":{"area":7566.06,"pct":19.24},"sidewalks":{"area":623.95,"pct":1.59}},"city":{"roads":{"area":4409.65,"pct":11.21},"sidewalks":{"area":623.95,"pct":1.59}},"id":"hex:2020:17277"},"type":"Feature"},{"geometry":{"coordinates":[[[-118.30918,33.79944],[-118.31053,33.79942],[-118.31122,33.80039],[-118.31056,33.80137],[-118.30921,33.80139],[-118.30879,33.80079],[-118.30879,33.80002],[-118.30918,33.79944]]],"type":"Polygon"},"properties":{"bbox":{"roads":{"area":3407.97,"pct":8.62}},"city_same":1,"id":"hex:2020:17278"},"type":"Feature"},{"geometry":{"coordinates":[[[-118.30921,33.80139],[-118.31056,33.80137],[-118.31118,33.80224],[-118.30879,33.80228],[-118.30879,33.80202],[-118.30921,33.80139]]],"type":"Polygon"},"properties":{"bbox":{"roads":{"area":1143.49,"pct":6.54}},"city_same":1,"id":"hex:2020:17279"},"type":"Feature"},{"geometry":{"coordinates":[[[-118.30814,33.77504],[-118.30679,33.77505],[-118.30672,33.77496],[-118.30819,33.77496],[-118.30814,33.77504]]],"type":"Polygon"},"properties":{"bbox":{"roads":{"area":38.46,"pct":3.05}},"city_same":1,"id":"hex:2021:17264"},"type":"Feature"},{"geometry":{"coordinates":[[[-118.30679,33.77505],[-118.30814,33.77504],[-118.30882,33.77601],[-118.30816,33.77699],[-118.30707,33.777],[-118.30656,33.77539],[-118.30679,33.77505]]],"type":"Polygon"},"properties":{"bbox":{"parking":{"area":1294.69,"pct":3.81},"roads":{"area":1703.21,"pct":5.01}},"city_same":1,"id":"hex:2021:17265"},"type":"Feature"},{"geometry":{"coordinates":[[[-118.30816,33.77699],[-118.30885,33.77796],[-118.30819,33.77894],[-118.30768,33.77895],[-118.30765,33.77884],[-118.30707,33.777],[-118.30816,33.77699]]],"type":"Polygon"},"properties":{"bbox":{"roads":{"area":1161.08,"pct":5.09}},"city_same":1,"id":"hex:2021:17266"},"type":"Feature"},{"geometry":{"coordinates":[[[-118.30819,33.77894],[-118.30843,33.77928],[-118.30782,33.77944],[-118.30768,33.77895],[-118.30819,33.77894]]],"type":"Polygon"},"properties":{"bbox":{"roads":{"area":932.84,"pct":36.49},"sidewalks":{"area":80.68,"pct":3.16}},"city":{"roads":{"area":136.14,"pct":5.32},"sidewalks":{"area":80.68,"pct":3.16}},"id":"hex:2021:17267"},"type":"Feature"},{"geometry":{"coordinates":[[[-118.30894,33.78382],[-118.30876,33.78409],[-118.30876,33.78356],[-118.30894,33.78382]]],"type":"Polygon"},"properties":{"bbox":{"roads":{"area":43.63,"pct":8.75}},"city_same":1,"id":"hex:2021:17269"},"type":"Feature"},{"geometry":{"coordinates":[[[-118.30897,33.78577],[-118.30876,33.78608],[-118.30876,33.78548],[-118.30897,33.78577]]],"type":"Polygon"},"properties":{"bbox":{"roads":{"area":339.91,"pct":51.98},"sidewalks":{"area":16.03,"pct":2.45}},"city":{"roads":{"area":23.52,"pct":3.6},"sidewalks":{"area":16.03,"pct":2.45}},"id":"hex:2021:17270"},"type":"Feature"},{"geometry":{"coordinates":[[[-118.309,33.78772],[-118.30877,33.78807],[-118.30877,33.78739],[-118.309,33.78772]]],"type":"Polygon"},"properties":{"bbox":{"roads":{"area":78.65,"pct":9.48}},"city_same":1,"id":"hex:2021:17271"},"type":"Feature"},{"geometry":{"coordinates":[[[-118.30903,33.78967],[-118.30877,33.79007],[-118.30877,33.7893],[-118.30903,33.78967]]],"type":"Polygon"},"properties":{"bbox":{"parking":{"area":358.13,"pct":34.87},"roads":{"area":397.73,"pct":38.72}},"city":{"parking":{"area":358.13,"pct":34.87},"roads":{"area":196.72,"pct":19.15}},"id":"hex:2021:17272"},"type":"Feature"},{"geometry":{"coordinates":[[[-118.30906,33.79163],[-118.30877,33.79206],[-118.30877,33.79122],[-118.30906,33.79163]]],"type":"Polygon"},"properties":{"bbox":{"roads":{"area":116.71,"pct":9.37},"sidewalks":{"area":55.54,"pct":4.46}},"city_same":1,"id":"hex:2021:17273"},"type":"Feature"},{"geometry":{"coordinates":[[[-118.30909,33.79358],[-118.30878,33.79405],[-118.30878,33.79313],[-118.30909,33.79358]]],"type":"Polygon"},"properties":{"bbox":{"roads":{"area":124.79,"pct":8.41}},"city_same":1,"id":"hex:2021:17274"},"type":"Feature"},{"geometry":{"coordinates":[[[-118.30912,33.79553],[-118.30878,33.79604],[-118.30878,33.79505],[-118.30912,33.79553]]],"type":"Polygon"},"properties":{"bbox":{"roads":{"area":84.78,"pct":4.86}},"city_same":1,"id":"hex:2021:17275"},"type":"Feature"},{"geometry":{"coordinates":[[[-118.30915,33.79748],[-118.30878,33.79803],[-118.30878,33.79696],[-118.30915,33.79748]]],"type":"Polygon"},"properties":{"bbox":{"roads":{"area":618.9,"pct":30.56},"sidewalks":{"area":76.2,"pct":3.76}},"city":{"roads":{"area":493.27,"pct":24.36},"sidewalks":{"area":76.2,"pct":3.76}},"id":"hex:2021:17276"},"type":"Feature"},{"geometry":{"coordinates":[[[-118.30918,33.79944],[-118.30879,33.80002],[-118.30878,33.79888],[-118.30918,33.79944]]],"type":"Polygon"},"properties":{"bbox":{"roads":{"area":220.99,"pct":9.5}},"city_same":1,"id":"hex:2021:17277"},"type":"Feature"},{"geometry":{"coordinates":[[[-118.30921,33.80139],[-118.30879,33.80202],[-118.30879,33.80079],[-118.30921,33.80139]]],"type":"Polygon"},"properties":{"bbox":{"roads":{"area":144.72,"pct":5.46}},"city_same":1,"id":"hex:2021:17278"},"type":"Feature"}],"type":"FeatureCollection","v":2}