{"features":[{"geometry":{"coordinates":[[[[-118.53782,33.99984],[-118.55347,33.98434],[-118.54842,33.97997],[-118.55347,33.98433],[-118.53782,33.99984]]],[[[-118.51696,34.02551],[-118.51524,34.02694],[-118.51486,34.02789],[-118.51274,34.02995],[-118.51082,34.03144],[-118.50955,34.03281],[-118.50865,34.03308],[-118.50884,34.03346],[-118.50772,34.03628],[-118.50809,34.0381],[-118.50822,34.03809],[-118.50812,34.03908],[-118.50832,34.0392],[-118.5081,34.03913],[-118.50754,34.04005],[-118.50453,34.04129],[-118.50396,34.04072],[-118.49602,34.04817],[-118.49491,34.05034],[-118.49466,34.05014],[-118.49441,34.05058],[-118.48381,34.04157],[-118.48007,34.04461],[-118.47998,34.04453],[-118.47977,34.04469],[-118.47967,34.04512],[-118.47916,34.0452],[-118.47904,34.04569],[-118.47845,34.04563],[-118.47837,34.04616],[-118.4772,34.04665],[-118.47441,34.04422],[-118.47429,34.04432],[-118.47372,34.04404],[-118.47129,34.04195],[-118.47153,34.04176],[-118.45931,34.03133],[-118.4577,34.03164],[-118.45708,34.02972],[-118.45297,34.02791],[-118.44353,34.01657],[-118.48001,33.99732],[-118.48147,33.99635],[-118.48171,33.99661],[-118.48402,33.99528],[-118.48885,34.00047],[-118.49359,34.00518],[-118.49257,34.00568],[-118.49252,34.00589],[-118.49188,34.00635],[-118.49198,34.00644],[-118.49262,34.00599],[-118.49291,34.006],[-118.49359,34.00519],[-118.50054,34.01089],[-118.50435,34.0145],[-118.50689,34.01668],[-118.51762,34.0249],[-118.51696,34.02551]],[[-118.47033,34.02831],[-118.47023,34.02819],[-118.47013,34.02834],[-118.47033,34.02831]],[[-118.47137,34.02867],[-118.47094,34.02872],[-118.47036,34.02838],[-118.47034,34.02853],[-118.47063,34.02855],[-118.47084,34.02878],[-118.47137,34.02867]],[[-118.47325,34.03023],[-118.47329,34.03024],[-118.47334,34.03016],[-118.4733,34.03015],[-118.47325,34.03023]],[[-118.47875,34.03552],[-118.47875,34.03554],[-118.47877,34.03558],[-118.47881,34.03561],[-118.47883,34.03562],[-118.47885,34.03562],[-118.47886,34.03561],[-118.47887,34.0356],[-118.47887,34.03558],[-118.47884,34.03555],[-118.47884,34.03552],[-118.47883,34.0355],[-118.4788,34.0355],[-118.47878,34.03551],[-118.47875,34.03552]],[[-118.47947,34.03561],[-118.47943,34.03552],[-118.47926,34.03568],[-118.47956,34.0358],[-118.47947,34.03561]],[[-118.47944,34.03516],[-118.47942,34.03516],[-118.4794,34.03517],[-118.47937,34.03516],[-118.47934,34.03513],[-118.47931,34.03514],[-118.47931,34.03515],[-118.47932,34.03519],[-118.47935,34.03523],[-118.47937,34.03524],[-118.4794,34.03524],[-118.47941,34.03523],[-118.47944,34.03521],[-118.47944,34.0352],[-118.47944,34.03519],[-118.47945,34.03517],[-118.47944,34.03516]],[[-118.49243,34.01122],[-118.49244,34.0112],[-118.49238,34.01123],[-118.49236,34.01122],[-118.49232,34.01125],[-118.49228,34.01128],[-118.49231,34.01128],[-118.49234,34.01128],[-118.49238,34.01127],[-118.49242,34.01124],[-118.49243,34.01122]],[[-118.49417,34.01105],[-118.49417,34.01104],[-118.49416,34.01104],[-118.49416,34.01103],[-118.49414,34.01104],[-118.49411,34.01104],[-118.49392,34.01107],[-118.49383,34.01108],[-118.49374,34.01108],[-118.49369,34.01107],[-118.49364,34.01106],[-118.49361,34.01106],[-118.4936,34.01105],[-118.4936,34.01106],[-118.49362,34.01107],[-118.49365,34.01108],[-118.49368,34.01109],[-118.49372,34.0111],[-118.49377,34.01111],[-118.49382,34.01111],[-118.49387,34.01111],[-118.49392,34.01111],[-118.49397,34.01111],[-118.49403,34.0111],[-118.49408,34.01109],[-118.49413,34.01107],[-118.49416,34.01106],[-118.49417,34.01105]]],[[[-118.53752,33.96666],[-118.54842,33.97997],[-118.53752,33.96666],[-118.53751,33.96666],[-118.53752,33.96666]]]],"type":"MultiPolygon"},"properties":{"type":"boundary"},"type":"Feature"}],"type":"FeatureCollection"}