{"features":[{"geometry":{"coordinates":[[[[-71.13462,42.40436],[-71.13462,42.40446],[-71.13461,42.40454],[-71.13461,42.40468],[-71.13461,42.40466],[-71.1346,42.40458],[-71.13458,42.40443],[-71.13457,42.40435],[-71.13459,42.40424],[-71.13459,42.40423],[-71.13464,42.40426],[-71.13462,42.40436]]],[[[-71.1346,42.40527],[-71.1346,42.40538],[-71.1346,42.40518],[-71.1346,42.40527]]],[[[-71.13453,42.40581],[-71.13447,42.406],[-71.13441,42.40613],[-71.13442,42.40611],[-71.13444,42.40604],[-71.13445,42.40601],[-71.13446,42.40597],[-71.13451,42.40585],[-71.13454,42.40574],[-71.13453,42.40581]]],[[[-71.12597,42.41781],[-71.12992,42.41333],[-71.12698,42.41231],[-71.12804,42.41071],[-71.12617,42.40929],[-71.1257,42.40999],[-71.12329,42.40917],[-71.12388,42.40823],[-71.12156,42.40744],[-71.12175,42.40712],[-71.11946,42.40633],[-71.11933,42.40652],[-71.11546,42.40512],[-71.11549,42.4029],[-71.11394,42.40102],[-71.11238,42.40023],[-71.10039,42.39622],[-71.09669,42.40045],[-71.09233,42.39907],[-71.09114,42.39842],[-71.09039,42.39848],[-71.08788,42.39928],[-71.08654,42.3995],[-71.08454,42.39869],[-71.0841,42.39893],[-71.08366,42.39883],[-71.08347,42.39784],[-71.08258,42.39727],[-71.08048,42.39658],[-71.07886,42.39625],[-71.07792,42.39588],[-71.07789,42.39571],[-71.07781,42.396],[-71.07689,42.39574],[-71.07632,42.39465],[-71.07589,42.39482],[-71.07574,42.39454],[-71.07623,42.3944],[-71.07494,42.39208],[-71.075,42.39178],[-71.07444,42.39079],[-71.07419,42.39066],[-71.07971,42.38292],[-71.08097,42.38232],[-71.0807,42.38104],[-71.07566,42.3802],[-71.07269,42.37322],[-71.0742,42.37253],[-71.0749,42.37288],[-71.07598,42.37403],[-71.07681,42.37365],[-71.07792,42.37359],[-71.0787,42.3741],[-71.07922,42.37417],[-71.07986,42.37382],[-71.08036,42.37412],[-71.08159,42.37399],[-71.082,42.37355],[-71.0827,42.37337],[-71.08465,42.37333],[-71.085,42.3735],[-71.08544,42.37405],[-71.08609,42.37306],[-71.08978,42.37395],[-71.09746,42.37443],[-71.10314,42.37433],[-71.10846,42.37911],[-71.10785,42.37937],[-71.1107,42.38169],[-71.11169,42.38177],[-71.11549,42.38505],[-71.1182,42.38802],[-71.11745,42.38838],[-71.11799,42.38908],[-71.11706,42.38957],[-71.12021,42.39264],[-71.12097,42.39371],[-71.12284,42.39224],[-71.12431,42.39358],[-71.1313,42.40158],[-71.13452,42.40417],[-71.13451,42.40554],[-71.13392,42.40688],[-71.13261,42.40847],[-71.13211,42.40967],[-71.13217,42.41036],[-71.13278,42.41181],[-71.13231,42.4148],[-71.13142,42.41535],[-71.13126,42.41665],[-71.13034,42.41729],[-71.12888,42.41757],[-71.12843,42.41789],[-71.12785,42.41785],[-71.12692,42.4181],[-71.12597,42.41781]]],[[[-71.07436,42.395],[-71.07516,42.39473],[-71.07552,42.39537],[-71.07539,42.3954],[-71.07527,42.39503],[-71.07472,42.3952],[-71.07436,42.395]]],[[[-71.07533,42.39468],[-71.07544,42.39464],[-71.07581,42.39528],[-71.07568,42.39532],[-71.07533,42.39468]]],[[[-71.07553,42.39461],[-71.07565,42.39457],[-71.07585,42.39491],[-71.07571,42.39495],[-71.07553,42.39461]]]],"type":"MultiPolygon"},"properties":{"type":"boundary"},"type":"Feature"}],"type":"FeatureCollection"}