{"features":[{"geometry":{"coordinates":[[[[-122.50989,37.8582],[-122.50986,37.85927],[-122.50482,37.86226],[-122.50573,37.86308],[-122.5065,37.86473],[-122.50611,37.86505],[-122.50673,37.86523],[-122.50658,37.86599],[-122.5068,37.86656],[-122.50659,37.86668],[-122.50685,37.86826],[-122.50669,37.87013],[-122.50681,37.87136],[-122.50592,37.87178],[-122.50601,37.87207],[-122.50572,37.87221],[-122.50599,37.87248],[-122.50561,37.87273],[-122.50461,37.87216],[-122.50422,37.8717],[-122.50388,37.87193],[-122.50304,37.87123],[-122.50221,37.87177],[-122.50154,37.87113],[-122.50076,37.87163],[-122.50043,37.87166],[-122.49977,37.87083],[-122.49999,37.87057],[-122.49837,37.87158],[-122.49761,37.87182],[-122.49886,37.87062],[-122.49889,37.87043],[-122.49845,37.87],[-122.49809,37.87],[-122.4968,37.87089],[-122.49624,37.87102],[-122.49636,37.87087],[-122.49612,37.87083],[-122.49686,37.87035],[-122.49711,37.86966],[-122.49767,37.8689],[-122.49752,37.86807],[-122.49801,37.86769],[-122.49781,37.86751],[-122.49756,37.86754],[-122.49721,37.86713],[-122.49697,37.86732],[-122.49683,37.86721],[-122.49708,37.86701],[-122.49689,37.86686],[-122.49675,37.86696],[-122.49661,37.86685],[-122.49673,37.86675],[-122.49636,37.86663],[-122.49651,37.86646],[-122.49625,37.86626],[-122.49601,37.8664],[-122.49588,37.86622],[-122.49548,37.86636],[-122.49501,37.86599],[-122.49552,37.86541],[-122.49539,37.86531],[-122.49504,37.86557],[-122.49462,37.86523],[-122.49492,37.86491],[-122.49478,37.86464],[-122.49293,37.86327],[-122.49088,37.86404],[-122.49079,37.86384],[-122.48989,37.86395],[-122.48887,37.86361],[-122.48853,37.86364],[-122.4897,37.86287],[-122.49027,37.86212],[-122.49023,37.86195],[-122.48961,37.86222],[-122.48885,37.86176],[-122.48832,37.86218],[-122.48843,37.86185],[-122.48743,37.86124],[-122.48736,37.86062],[-122.48708,37.86093],[-122.48714,37.86107],[-122.4866,37.86148],[-122.48577,37.86102],[-122.48586,37.86077],[-122.48556,37.86062],[-122.48584,37.86029],[-122.48551,37.86011],[-122.48562,37.85998],[-122.4848,37.85986],[-122.48463,37.85965],[-122.48473,37.8594],[-122.4841,37.8591],[-122.48386,37.85933],[-122.48402,37.85959],[-122.48364,37.86004],[-122.48301,37.85962],[-122.4833,37.85926],[-122.48023,37.85752],[-122.47898,37.85893],[-122.47833,37.85932],[-122.4779,37.85843],[-122.47818,37.85867],[-122.47858,37.85848],[-122.4788,37.8577],[-122.4786,37.85674],[-122.47829,37.8565],[-122.47855,37.85646],[-122.47843,37.85557],[-122.47881,37.85466],[-122.47875,37.85153],[-122.4798,37.84973],[-122.47995,37.84797],[-122.47977,37.84743],[-122.47868,37.84738],[-122.47818,37.84717],[-122.47739,37.84629],[-122.47724,37.84558],[-122.47999,37.84531],[-122.48141,37.84382],[-122.48286,37.84425],[-122.48375,37.845],[-122.48762,37.84508],[-122.49095,37.84702],[-122.4916,37.84877],[-122.4925,37.84934],[-122.49302,37.84994],[-122.49487,37.85048],[-122.4952,37.85038],[-122.49552,37.85058],[-122.49508,37.85087],[-122.49389,37.85128],[-122.51028,37.8569],[-122.50989,37.8582]]],[[[-122.4743717,37.8458569],[-122.4743717,37.8458569],[-122.4743717,37.8458569],[-122.477475,37.8490256],[-122.4743717,37.8458569]]]],"type":"MultiPolygon"},"properties":{"type":"boundary"},"type":"Feature"}],"type":"FeatureCollection"}