{"features":[{"geometry":{"coordinates":[[[-122.50656,37.86895],[-122.50682,37.86859],[-122.50677,37.86924],[-122.50656,37.86895]]],"type":"Polygon"},"properties":{"bbox":{"roads":{"area":251.11,"pct":33.94}},"city_same":1,"id":"hex:3622:24199"},"type":"Feature"},{"geometry":{"coordinates":[[[-122.50655,37.87051],[-122.5067,37.87031],[-122.5067,37.87067],[-122.50672,37.87075],[-122.50655,37.87051]]],"type":"Polygon"},"properties":{"bbox":{"roads":{"area":8.95,"pct":2.84}},"city_same":1,"id":"hex:3622:24200"},"type":"Feature"},{"geometry":{"coordinates":[[[-122.5049,37.86192],[-122.50547,37.86114],[-122.50661,37.86115],[-122.50664,37.86119],[-122.50505,37.86213],[-122.5049,37.86192]]],"type":"Polygon"},"properties":{"bbox":{"roads":{"area":670.91,"pct":9.45}},"id":"hex:3623:24194"},"type":"Feature"},{"geometry":{"coordinates":[[[-122.50545,37.86426],[-122.50489,37.86348],[-122.50542,37.86276],[-122.50547,37.8628],[-122.50573,37.86308],[-122.50618,37.86381],[-122.50637,37.86426],[-122.50637,37.86427],[-122.50545,37.86426]]],"type":"Polygon"},"properties":{"bbox":{"roads":{"area":1132.87,"pct":9.51}},"city_same":1,"id":"hex:3623:24195"},"type":"Feature"},{"geometry":{"coordinates":[[[-122.50658,37.86583],[-122.50544,37.86582],[-122.50488,37.86504],[-122.50545,37.86426],[-122.50637,37.86427],[-122.5065,37.86473],[-122.50611,37.86505],[-122.50651,37.86518],[-122.50673,37.86523],[-122.50662,37.86577],[-122.50658,37.86583]]],"type":"Polygon"},"properties":{"bbox":{"roads":{"area":1243.6,"pct":6.14}},"city_same":1,"id":"hex:3623:24196"},"type":"Feature"},{"geometry":{"coordinates":[[[-122.50657,37.86739],[-122.50543,37.86739],[-122.50487,37.8666],[-122.50544,37.86582],[-122.50658,37.86583],[-122.50661,37.86587],[-122.50658,37.86599],[-122.5068,37.86656],[-122.50659,37.86668],[-122.50671,37.86694],[-122.50671,37.86714],[-122.5066,37.86732],[-122.50661,37.86734],[-122.50657,37.86739]]],"type":"Polygon"},"properties":{"bbox":{"roads":{"area":3264.73,"pct":14.13}},"city_same":1,"id":"hex:3623:24197"},"type":"Feature"},{"geometry":{"coordinates":[[[-122.50656,37.86895],[-122.50542,37.86895],[-122.50486,37.86816],[-122.50543,37.86739],[-122.50657,37.86739],[-122.50662,37.86747],[-122.50667,37.86777],[-122.50676,37.86792],[-122.50685,37.86826],[-122.50682,37.86859],[-122.50656,37.86895]]],"type":"Polygon"},"properties":{"bbox":{"roads":{"area":1887.82,"pct":7.78}},"city_same":1,"id":"hex:3623:24198"},"type":"Feature"},{"geometry":{"coordinates":[[[-122.50655,37.87051],[-122.50541,37.87051],[-122.50485,37.86972],[-122.50542,37.86895],[-122.50656,37.86895],[-122.50677,37.86924],[-122.50669,37.87013],[-122.5067,37.87031],[-122.50655,37.87051]]],"type":"Polygon"},"properties":{"bbox":{"roads":{"area":2269.55,"pct":9.5}},"city_same":1,"id":"hex:3623:24199"},"type":"Feature"},{"geometry":{"coordinates":[[[-122.5054,37.87207],[-122.50484,37.87129],[-122.50541,37.87051],[-122.50655,37.87051],[-122.50672,37.87075],[-122.50681,37.87136],[-122.50673,37.87147],[-122.50632,37.87155],[-122.50609,37.87175],[-122.50592,37.87178],[-122.50601,37.87207],[-122.5054,37.87207]]],"type":"Polygon"},"properties":{"bbox":{"roads":{"area":2296.53,"pct":10.96}},"city_same":1,"id":"hex:3623:24200"},"type":"Feature"},{"geometry":{"coordinates":[[[-122.5054,37.87207],[-122.50601,37.87207],[-122.50601,37.87207],[-122.50572,37.87221],[-122.50599,37.87248],[-122.50561,37.87273],[-122.50512,37.87245],[-122.5054,37.87207]]],"type":"Polygon"},"properties":{"bbox":{"parking":{"area":46.91,"pct":1.36},"roads":{"area":1631.53,"pct":47.29},"sidewalks":{"area":39.96,"pct":1.16}},"city":{"parking":{"area":46.91,"pct":1.36},"roads":{"area":133.6,"pct":3.87},"sidewalks":{"area":39.96,"pct":1.16}},"id":"hex:3623:24201"},"type":"Feature"},{"geometry":{"coordinates":[[[-122.50321,37.85957],[-122.50377,37.86035],[-122.50491,37.86036],[-122.50548,37.85958],[-122.50492,37.8588],[-122.50378,37.85879],[-122.50321,37.85957]]],"type":"Polygon"},"properties":{"bbox":{"roads":{"area":16.04,"pct":0.06}},"city_same":1,"id":"hex:3624:24193"},"type":"Feature"},{"geometry":{"coordinates":[[[-122.5032,37.86113],[-122.50376,37.86191],[-122.5049,37.86192],[-122.50547,37.86114],[-122.50491,37.86036],[-122.50377,37.86035],[-122.5032,37.86113]]],"type":"Polygon"},"properties":{"bbox":{"roads":{"area":5875.51,"pct":22.61}},"id":"hex:3624:24194"},"type":"Feature"},{"geometry":{"coordinates":[[[-122.50489,37.86348],[-122.50375,37.86348],[-122.50319,37.86269],[-122.50376,37.86191],[-122.5049,37.86192],[-122.50505,37.86213],[-122.50482,37.86226],[-122.50542,37.86276],[-122.50489,37.86348]]],"type":"Polygon"},"properties":{"bbox":{"roads":{"area":1441.87,"pct":5.81}},"city":{"roads":{"area":1168.09,"pct":4.71}},"id":"hex:3624:24195"},"type":"Feature"},{"geometry":{"coordinates":[[[-122.50318,37.86425],[-122.50374,37.86504],[-122.50488,37.86504],[-122.50545,37.86426],[-122.50489,37.86348],[-122.50375,37.86348],[-122.50318,37.86425]]],"type":"Polygon"},"properties":{"bbox":{"roads":{"area":1377.19,"pct":5.3}},"city_same":1,"id":"hex:3624:24196"},"type":"Feature"},{"geometry":{"coordinates":[[[-122.50317,37.86581],[-122.50373,37.8666],[-122.50487,37.8666],[-122.50544,37.86582],[-122.50488,37.86504],[-122.50374,37.86504],[-122.50317,37.86581]]],"type":"Polygon"},"properties":{"bbox":{"roads":{"area":4345.14,"pct":16.72}},"city_same":1,"id":"hex:3624:24197"},"type":"Feature"},{"geometry":{"coordinates":[[[-122.50316,37.86738],[-122.50372,37.86816],[-122.50486,37.86816],[-122.50543,37.86739],[-122.50487,37.8666],[-122.50373,37.8666],[-122.50316,37.86738]]],"type":"Polygon"},"properties":{"bbox":{"roads":{"area":2135.57,"pct":8.22}},"city_same":1,"id":"hex:3624:24198"},"type":"Feature"},{"geometry":{"coordinates":[[[-122.50315,37.86894],[-122.50371,37.86972],[-122.50485,37.86972],[-122.50542,37.86895],[-122.50486,37.86816],[-122.50372,37.86816],[-122.50315,37.86894]]],"type":"Polygon"},"properties":{"bbox":{"roads":{"area":484.63,"pct":1.87}},"city_same":1,"id":"hex:3624:24199"},"type":"Feature"},{"geometry":{"coordinates":[[[-122.50314,37.8705],[-122.5037,37.87128],[-122.50484,37.87129],[-122.50541,37.87051],[-122.50485,37.86972],[-122.50371,37.86972],[-122.50314,37.8705]]],"type":"Polygon"},"properties":{"bbox":{"roads":{"area":5263.07,"pct":20.26}},"city":{"roads":{"area":2713.83,"pct":10.45}},"id":"hex:3624:24200"},"type":"Feature"},{"geometry":{"coordinates":[[[-122.5037,37.87128],[-122.50484,37.87129],[-122.5054,37.87207],[-122.50512,37.87245],[-122.50487,37.87231],[-122.50461,37.87216],[-122.50432,37.87189],[-122.50438,37.87192],[-122.50449,37.87196],[-122.50442,37.87189],[-122.50424,37.87171],[-122.50422,37.8717],[-122.50388,37.87193],[-122.50347,37.87159],[-122.5037,37.87128]]],"type":"Polygon"},"properties":{"bbox":{"parking":{"area":162.05,"pct":1.42},"roads":{"area":2954.5,"pct":25.86}},"city":{"parking":{"area":162.05,"pct":1.42},"roads":{"area":350.32,"pct":3.07}},"id":"hex:3624:24201"},"type":"Feature"},{"geometry":{"coordinates":[[[-122.5015,37.86034],[-122.50206,37.86113],[-122.5032,37.86113],[-122.50377,37.86035],[-122.50321,37.85957],[-122.50207,37.85957],[-122.5015,37.86034]]],"type":"Polygon"},"properties":{"bbox":{"roads":{"area":6088.68,"pct":23.44}},"city":{"roads":{"area":199.94,"pct":0.77}},"id":"hex:3625:24193"},"type":"Feature"},{"geometry":{"coordinates":[[[-122.50149,37.8619],[-122.50205,37.86269],[-122.50319,37.86269],[-122.50376,37.86191],[-122.5032,37.86113],[-122.50206,37.86113],[-122.50149,37.8619]]],"type":"Polygon"},"properties":{"bbox":{"roads":{"area":2101.01,"pct":8.09}},"city_same":1,"id":"hex:3625:24194"},"type":"Feature"},{"geometry":{"coordinates":[[[-122.50148,37.86347],[-122.50204,37.86425],[-122.50318,37.86425],[-122.50375,37.86348],[-122.50319,37.86269],[-122.50205,37.86269],[-122.50148,37.86347]]],"type":"Polygon"},"properties":{"bbox":{"roads":{"area":1061.87,"pct":4.09}},"city_same":1,"id":"hex:3625:24195"},"type":"Feature"},{"geometry":{"coordinates":[[[-122.50147,37.86503],[-122.50203,37.86581],[-122.50317,37.86581],[-122.50374,37.86504],[-122.50318,37.86425],[-122.50204,37.86425],[-122.50147,37.86503]]],"type":"Polygon"},"properties":{"bbox":{"roads":{"area":1630.41,"pct":6.28}},"city_same":1,"id":"hex:3625:24196"},"type":"Feature"},{"geometry":{"coordinates":[[[-122.50146,37.86659],[-122.50202,37.86737],[-122.50316,37.86738],[-122.50373,37.8666],[-122.50317,37.86581],[-122.50203,37.86581],[-122.50146,37.86659]]],"type":"Polygon"},"properties":{"bbox":{"roads":{"area":3433.66,"pct":13.22}},"city_same":1,"id":"hex:3625:24197"},"type":"Feature"},{"geometry":{"coordinates":[[[-122.50145,37.86815],[-122.50201,37.86893],[-122.50315,37.86894],[-122.50372,37.86816],[-122.50316,37.86738],[-122.50202,37.86737],[-122.50145,37.86815]]],"type":"Polygon"},"properties":{"bbox":{"roads":{"area":5526.5,"pct":21.27},"sidewalks":{"area":73.6,"pct":0.28}},"city":{"roads":{"area":2795.3,"pct":10.76},"sidewalks":{"area":73.6,"pct":0.28}},"id":"hex:3625:24198"},"type":"Feature"},{"geometry":{"coordinates":[[[-122.50144,37.86971],[-122.502,37.87049],[-122.50314,37.8705],[-122.50371,37.86972],[-122.50315,37.86894],[-122.50201,37.86893],[-122.50144,37.86971]]],"type":"Polygon"},"properties":{"bbox":{"parking":{"area":86.56,"pct":0.33},"roads":{"area":4024.19,"pct":15.49}},"city":{"parking":{"area":86.56,"pct":0.33},"roads":{"area":2131.83,"pct":8.21}},"id":"hex:3625:24199"},"type":"Feature"},{"geometry":{"coordinates":[[[-122.502,37.87049],[-122.50314,37.8705],[-122.5037,37.87128],[-122.50347,37.87159],[-122.50304,37.87123],[-122.50254,37.87155],[-122.50221,37.87177],[-122.50166,37.87124],[-122.50154,37.87113],[-122.50152,37.87114],[-122.502,37.87049]]],"type":"Polygon"},"properties":{"bbox":{"roads":{"area":2404.85,"pct":14.38}},"city_same":1,"id":"hex:3625:24200"},"type":"Feature"},{"geometry":{"coordinates":[[[-122.4998,37.85956],[-122.50036,37.86034],[-122.5015,37.86034],[-122.50207,37.85957],[-122.50151,37.85878],[-122.50037,37.85878],[-122.4998,37.85956]]],"type":"Polygon"},"properties":{"bbox":{"roads":{"area":6021.17,"pct":23.18}},"id":"hex:3626:24193"},"type":"Feature"},{"geometry":{"coordinates":[[[-122.49979,37.86112],[-122.50035,37.8619],[-122.50149,37.8619],[-122.50206,37.86113],[-122.5015,37.86034],[-122.50036,37.86034],[-122.49979,37.86112]]],"type":"Polygon"},"properties":{"bbox":{"roads":{"area":1938.59,"pct":7.46}},"city":{"roads":{"area":1865.77,"pct":7.18}},"id":"hex:3626:24194"},"type":"Feature"},{"geometry":{"coordinates":[[[-122.49978,37.86268],[-122.50034,37.86346],[-122.50148,37.86347],[-122.50205,37.86269],[-122.50149,37.8619],[-122.50035,37.8619],[-122.49978,37.86268]]],"type":"Polygon"},"properties":{"bbox":{"roads":{"area":3412.22,"pct":13.13}},"city_same":1,"id":"hex:3626:24195"},"type":"Feature"},{"geometry":{"coordinates":[[[-122.49977,37.86424],[-122.50033,37.86502],[-122.50147,37.86503],[-122.50204,37.86425],[-122.50148,37.86347],[-122.50034,37.86346],[-122.49977,37.86424]]],"type":"Polygon"},"properties":{"bbox":{"roads":{"area":3989.34,"pct":15.35}},"city_same":1,"id":"hex:3626:24196"},"type":"Feature"},{"geometry":{"coordinates":[[[-122.49976,37.8658],[-122.50032,37.86658],[-122.50146,37.86659],[-122.50203,37.86581],[-122.50147,37.86503],[-122.50033,37.86502],[-122.49976,37.8658]]],"type":"Polygon"},"properties":{"bbox":{"roads":{"area":4035.34,"pct":15.53}},"city":{"roads":{"area":2606.16,"pct":10.03}},"id":"hex:3626:24197"},"type":"Feature"},{"geometry":{"coordinates":[[[-122.49975,37.86736],[-122.50031,37.86814],[-122.50145,37.86815],[-122.50202,37.86737],[-122.50146,37.86659],[-122.50032,37.86658],[-122.49975,37.86736]]],"type":"Polygon"},"properties":{"bbox":{"parking":{"area":2431.91,"pct":9.36},"roads":{"area":6704.96,"pct":25.81},"sidewalks":{"area":168.89,"pct":0.65}},"city":{"parking":{"area":2431.91,"pct":9.36},"roads":{"area":3883.36,"pct":14.95},"sidewalks":{"area":168.89,"pct":0.65}},"id":"hex:3626:24198"},"type":"Feature"},{"geometry":{"coordinates":[[[-122.49974,37.86892],[-122.5003,37.86971],[-122.50144,37.86971],[-122.50201,37.86893],[-122.50145,37.86815],[-122.50031,37.86814],[-122.49974,37.86892]]],"type":"Polygon"},"properties":{"bbox":{"parking":{"area":446.75,"pct":1.72},"roads":{"area":3746.21,"pct":14.42}},"city_same":1,"id":"hex:3626:24199"},"type":"Feature"},{"geometry":{"coordinates":[[[-122.49973,37.87048],[-122.5003,37.86971],[-122.50144,37.86971],[-122.502,37.87049],[-122.50152,37.87114],[-122.50132,37.87127],[-122.50029,37.87127],[-122.49988,37.8707],[-122.49996,37.87064],[-122.50001,37.8706],[-122.50002,37.8706],[-122.49999,37.87057],[-122.49986,37.87067],[-122.49973,37.87048]]],"type":"Polygon"},"properties":{"bbox":{"parking":{"area":4141.54,"pct":16.02},"roads":{"area":3820.84,"pct":14.78}},"city_same":1,"id":"hex:3626:24200"},"type":"Feature"},{"geometry":{"coordinates":[[[-122.50029,37.87127],[-122.50132,37.87127],[-122.50076,37.87163],[-122.50078,37.87162],[-122.50069,37.87156],[-122.50062,37.87158],[-122.50057,37.87164],[-122.5005,37.87168],[-122.50043,37.87166],[-122.50042,37.87158],[-122.50044,37.87151],[-122.50031,37.87141],[-122.50029,37.87137],[-122.50025,37.87133],[-122.50029,37.87127]]],"type":"Polygon"},"properties":{"bbox":{"roads":{"area":135.29,"pct":5.66}},"city_same":1,"id":"hex:3626:24201"},"type":"Feature"},{"geometry":{"coordinates":[[[-122.49811,37.85721],[-122.49867,37.85799],[-122.49981,37.85799],[-122.50038,37.85722],[-122.49982,37.85643],[-122.49868,37.85643],[-122.49811,37.85721]]],"type":"Polygon"},"properties":{"bbox":{"roads":{"area":4001.88,"pct":15.4}},"id":"hex:3627:24191"},"type":"Feature"},{"geometry":{"coordinates":[[[-122.4981,37.85877],[-122.49866,37.85955],[-122.4998,37.85956],[-122.50037,37.85878],[-122.49981,37.85799],[-122.49867,37.85799],[-122.4981,37.85877]]],"type":"Polygon"},"properties":{"bbox":{"roads":{"area":3927.78,"pct":15.12}},"id":"hex:3627:24192"},"type":"Feature"},{"geometry":{"coordinates":[[[-122.49809,37.86033],[-122.49865,37.86111],[-122.49979,37.86112],[-122.50036,37.86034],[-122.4998,37.85956],[-122.49866,37.85955],[-122.49809,37.86033]]],"type":"Polygon"},"properties":{"bbox":{"roads":{"area":747.62,"pct":2.88}},"city_same":1,"id":"hex:3627:24193"},"type":"Feature"},{"geometry":{"coordinates":[[[-122.49808,37.86189],[-122.49864,37.86267],[-122.49978,37.86268],[-122.50035,37.8619],[-122.49979,37.86112],[-122.49865,37.86111],[-122.49808,37.86189]]],"type":"Polygon"},"properties":{"bbox":{"roads":{"area":2543.56,"pct":9.79}},"city_same":1,"id":"hex:3627:24194"},"type":"Feature"},{"geometry":{"coordinates":[[[-122.49807,37.86345],[-122.49863,37.86423],[-122.49977,37.86424],[-122.50034,37.86346],[-122.49978,37.86268],[-122.49864,37.86267],[-122.49807,37.86345]]],"type":"Polygon"},"properties":{"bbox":{"roads":{"area":2425.88,"pct":9.34}},"city_same":1,"id":"hex:3627:24195"},"type":"Feature"},{"geometry":{"coordinates":[[[-122.49806,37.86501],[-122.49862,37.8658],[-122.49976,37.8658],[-122.50033,37.86502],[-122.49977,37.86424],[-122.49863,37.86423],[-122.49806,37.86501]]],"type":"Polygon"},"properties":{"bbox":{"parking":{"area":336.43,"pct":1.29},"roads":{"area":4709.55,"pct":18.13}},"city":{"parking":{"area":336.43,"pct":1.29},"roads":{"area":1990.75,"pct":7.66}},"id":"hex:3627:24196"},"type":"Feature"},{"geometry":{"coordinates":[[[-122.49805,37.86657],[-122.49861,37.86736],[-122.49975,37.86736],[-122.50032,37.86658],[-122.49976,37.8658],[-122.49862,37.8658],[-122.49805,37.86657]]],"type":"Polygon"},"properties":{"bbox":{"parking":{"area":2024.45,"pct":7.79},"roads":{"area":3655.08,"pct":14.07}},"city":{"parking":{"area":2024.45,"pct":7.79},"roads":{"area":3352.32,"pct":12.9}},"id":"hex:3627:24197"},"type":"Feature"},{"geometry":{"coordinates":[[[-122.49804,37.86813],[-122.4986,37.86892],[-122.49974,37.86892],[-122.50031,37.86814],[-122.49975,37.86736],[-122.49861,37.86736],[-122.49804,37.86813]]],"type":"Polygon"},"properties":{"bbox":{"parking":{"area":2701.29,"pct":10.4},"roads":{"area":4000.67,"pct":15.4}},"city_same":1,"id":"hex:3627:24198"},"type":"Feature"},{"geometry":{"coordinates":[[[-122.49803,37.8697],[-122.4986,37.86892],[-122.49974,37.86892],[-122.5003,37.86971],[-122.49973,37.87048],[-122.49889,37.87048],[-122.49889,37.87043],[-122.49875,37.87031],[-122.49875,37.87029],[-122.49874,37.87022],[-122.49858,37.87009],[-122.49845,37.87],[-122.49837,37.87004],[-122.49826,37.86998],[-122.49823,37.86998],[-122.49803,37.8697]]],"type":"Polygon"},"properties":{"bbox":{"parking":{"area":10790.33,"pct":43.84},"roads":{"area":3028.97,"pct":12.31}},"city_same":1,"id":"hex:3627:24199"},"type":"Feature"},{"geometry":{"coordinates":[[[[-122.49809,37.87136],[-122.49842,37.87109],[-122.4985,37.87103],[-122.49857,37.87096],[-122.49869,37.87084],[-122.49882,37.8707],[-122.49876,37.87066],[-122.49879,37.87064],[-122.49881,37.87066],[-122.49886,37.87062],[-122.49887,37.87058],[-122.49887,37.87057],[-122.49888,37.87052],[-122.49889,37.87048],[-122.49973,37.87048],[-122.49986,37.87067],[-122.49975,37.87076],[-122.4997,37.87074],[-122.49961,37.87074],[-122.49954,37.87076],[-122.49935,37.87097],[-122.49931,37.87099],[-122.4989,37.87124],[-122.49884,37.87128],[-122.49878,37.87131],[-122.49877,37.87132],[-122.4987,37.87137],[-122.49837,37.87158],[-122.49828,37.87162],[-122.49809,37.87136]]],[[[-122.50029,37.87127],[-122.50025,37.87133],[-122.50024,37.87132],[-122.50021,37.87132],[-122.50019,37.87132],[-122.50016,37.87133],[-122.50014,37.87133],[-122.5001,37.87128],[-122.5001,37.87126],[-122.50016,37.87122],[-122.50008,37.87116],[-122.50003,37.87117],[-122.50001,37.87118],[-122.49999,37.87117],[-122.49997,37.87116],[-122.49996,37.87112],[-122.49996,37.87105],[-122.4999,37.87099],[-122.49985,37.87094],[-122.49982,37.87089],[-122.49979,37.87084],[-122.49977,37.87083],[-122.49976,37.8708],[-122.49988,37.8707],[-122.50029,37.87127]]]],"type":"MultiPolygon"},"properties":{"bbox":{"parking":{"area":4098.35,"pct":47.25},"roads":{"area":1223.47,"pct":14.11}},"city_same":1,"id":"hex:3627:24200"},"type":"Feature"},{"geometry":{"coordinates":[[[-122.49641,37.85642],[-122.49697,37.8572],[-122.49811,37.85721],[-122.49868,37.85643],[-122.49812,37.85565],[-122.49698,37.85564],[-122.49641,37.85642]]],"type":"Polygon"},"properties":{"bbox":{"roads":{"area":3829.59,"pct":14.74}},"id":"hex:3628:24191"},"type":"Feature"},{"geometry":{"coordinates":[[[-122.4964,37.85798],[-122.49696,37.85876],[-122.4981,37.85877],[-122.49867,37.85799],[-122.49811,37.85721],[-122.49697,37.8572],[-122.4964,37.85798]]],"type":"Polygon"},"properties":{"bbox":{"roads":{"area":1151.86,"pct":4.43}},"city":{"roads":{"area":799.77,"pct":3.08}},"id":"hex:3628:24192"},"type":"Feature"},{"geometry":{"coordinates":[[[-122.49639,37.85954],[-122.49695,37.86032],[-122.49809,37.86033],[-122.49866,37.85955],[-122.4981,37.85877],[-122.49696,37.85876],[-122.49639,37.85954]]],"type":"Polygon"},"properties":{"bbox":{"roads":{"area":2146.02,"pct":8.26}},"city_same":1,"id":"hex:3628:24193"},"type":"Feature"},{"geometry":{"coordinates":[[[-122.49638,37.8611],[-122.49694,37.86189],[-122.49808,37.86189],[-122.49865,37.86111],[-122.49809,37.86033],[-122.49695,37.86032],[-122.49638,37.8611]]],"type":"Polygon"},"properties":{"bbox":{"roads":{"area":1868.96,"pct":7.19}},"city_same":1,"id":"hex:3628:24194"},"type":"Feature"},{"geometry":{"coordinates":[[[-122.49637,37.86266],[-122.49693,37.86345],[-122.49807,37.86345],[-122.49864,37.86267],[-122.49808,37.86189],[-122.49694,37.86189],[-122.49637,37.86266]]],"type":"Polygon"},"properties":{"bbox":{"roads":{"area":3779.06,"pct":14.55}},"city":{"roads":{"area":3353.66,"pct":12.91}},"id":"hex:3628:24195"},"type":"Feature"},{"geometry":{"coordinates":[[[-122.49636,37.86422],[-122.49692,37.86501],[-122.49806,37.86501],[-122.49863,37.86423],[-122.49807,37.86345],[-122.49693,37.86345],[-122.49636,37.86422]]],"type":"Polygon"},"properties":{"bbox":{"parking":{"area":3512.71,"pct":13.52},"roads":{"area":5102.23,"pct":19.64}},"city":{"parking":{"area":3512.71,"pct":13.52},"roads":{"area":2603.62,"pct":10.02}},"id":"hex:3628:24196"},"type":"Feature"},{"geometry":{"coordinates":[[[-122.49635,37.86579],[-122.49691,37.86657],[-122.49805,37.86657],[-122.49862,37.8658],[-122.49806,37.86501],[-122.49692,37.86501],[-122.49635,37.86579]]],"type":"Polygon"},"properties":{"bbox":{"parking":{"area":6745.41,"pct":25.96},"roads":{"area":3062.23,"pct":11.79}},"city_same":1,"id":"hex:3628:24197"},"type":"Feature"},{"geometry":{"coordinates":[[[-122.49691,37.86657],[-122.49805,37.86657],[-122.49861,37.86736],[-122.49804,37.86813],[-122.49759,37.86813],[-122.49759,37.86813],[-122.49752,37.86807],[-122.49772,37.86792],[-122.49777,37.86788],[-122.4978,37.86785],[-122.49783,37.86783],[-122.49801,37.8677],[-122.49801,37.86769],[-122.49791,37.86761],[-122.49787,37.86758],[-122.49788,37.86757],[-122.49788,37.86756],[-122.49784,37.86753],[-122.49783,37.86752],[-122.49781,37.86751],[-122.49777,37.8675],[-122.49772,37.86754],[-122.49768,37.86755],[-122.49763,37.86757],[-122.49759,37.86754],[-122.49758,37.86753],[-122.49758,37.86753],[-122.49756,37.86754],[-122.49749,37.86748],[-122.49744,37.86744],[-122.49733,37.86736],[-122.49737,37.86732],[-122.49738,37.86731],[-122.49732,37.86726],[-122.49735,37.86724],[-122.49721,37.86713],[-122.49697,37.86732],[-122.49684,37.86721],[-122.49683,37.86721],[-122.49697,37.8671],[-122.49708,37.86701],[-122.49689,37.86686],[-122.49675,37.86696],[-122.49672,37.86693],[-122.49668,37.8669],[-122.49667,37.86689],[-122.49691,37.86657]]],"type":"Polygon"},"properties":{"bbox":{"parking":{"area":2319.52,"pct":15.29},"roads":{"area":2210.45,"pct":14.57}},"city_same":1,"id":"hex:3628:24198"},"type":"Feature"},{"geometry":{"coordinates":[[[-122.49804,37.86813],[-122.4986,37.86892],[-122.49803,37.8697],[-122.4971,37.86969],[-122.49711,37.86966],[-122.49736,37.86931],[-122.49736,37.8693],[-122.49745,37.86918],[-122.49749,37.86914],[-122.49754,37.86906],[-122.49764,37.86891],[-122.49767,37.8689],[-122.49767,37.86882],[-122.49767,37.86881],[-122.49768,37.8688],[-122.49768,37.86875],[-122.49764,37.86872],[-122.49761,37.86869],[-122.49756,37.86869],[-122.49756,37.8686],[-122.49759,37.8686],[-122.49764,37.86858],[-122.49765,37.86854],[-122.49766,37.86848],[-122.49765,37.86847],[-122.49758,37.86826],[-122.49758,37.86825],[-122.49759,37.86825],[-122.49759,37.86825],[-122.49758,37.86822],[-122.49763,37.86819],[-122.49758,37.86814],[-122.49759,37.86813],[-122.49804,37.86813]]],"type":"Polygon"},"properties":{"bbox":{"parking":{"area":8632.41,"pct":69.02},"roads":{"area":2210.12,"pct":17.67}},"city_same":1,"id":"hex:3628:24199"},"type":"Feature"},{"geometry":{"coordinates":[[[-122.49647,37.87069],[-122.49651,37.87066],[-122.49661,37.87056],[-122.49663,37.87054],[-122.49679,37.87043],[-122.49686,37.87035],[-122.49689,37.87025],[-122.49695,37.87015],[-122.49702,37.87004],[-122.49702,37.87003],[-122.49704,37.86996],[-122.49705,37.86992],[-122.4971,37.86969],[-122.49803,37.8697],[-122.49823,37.86998],[-122.49809,37.87],[-122.49779,37.87014],[-122.49772,37.87019],[-122.49766,37.87022],[-122.49702,37.87065],[-122.49689,37.87075],[-122.4968,37.87089],[-122.49665,37.87094],[-122.49647,37.87069]]],"type":"Polygon"},"properties":{"bbox":{"parking":{"area":4091.48,"pct":48.2},"roads":{"area":723.85,"pct":8.53}},"city_same":1,"id":"hex:3628:24200"},"type":"Feature"},{"geometry":{"coordinates":[[[-122.49828,37.87162],[-122.49794,37.87178],[-122.49767,37.87185],[-122.49761,37.87182],[-122.49762,37.87179],[-122.49766,37.87173],[-122.49775,37.87161],[-122.49792,37.87151],[-122.49803,37.8714],[-122.49809,37.87136],[-122.49828,37.87162]]],"type":"Polygon"},"properties":{"bbox":{"parking":{"area":600.39,"pct":42.03},"roads":{"area":117.59,"pct":8.23}},"city_same":1,"id":"hex:3628:24201"},"type":"Feature"},{"geometry":{"coordinates":[[[-122.49474,37.85095],[-122.49516,37.85038],[-122.4952,37.85038],[-122.49552,37.85058],[-122.4954,37.85072],[-122.49508,37.85087],[-122.49475,37.85095],[-122.49474,37.85095]]],"type":"Polygon"},"properties":{"bbox":{"roads":{"area":571.38,"pct":30.38}},"city_same":1,"id":"hex:3629:24187"},"type":"Feature"},{"geometry":{"coordinates":[[[-122.49471,37.85563],[-122.49527,37.85641],[-122.49641,37.85642],[-122.49698,37.85564],[-122.49642,37.85486],[-122.49528,37.85485],[-122.49471,37.85563]]],"type":"Polygon"},"properties":{"bbox":{"roads":{"area":375.33,"pct":1.44}},"id":"hex:3629:24190"},"type":"Feature"},{"geometry":{"coordinates":[[[-122.4947,37.85719],[-122.49526,37.85798],[-122.4964,37.85798],[-122.49697,37.8572],[-122.49641,37.85642],[-122.49527,37.85641],[-122.4947,37.85719]]],"type":"Polygon"},"properties":{"bbox":{"roads":{"area":5075.22,"pct":19.53}},"city":{"roads":{"area":1422.78,"pct":5.48}},"id":"hex:3629:24191"},"type":"Feature"},{"geometry":{"coordinates":[[[-122.49469,37.85875],[-122.49525,37.85954],[-122.49639,37.85954],[-122.49696,37.85876],[-122.4964,37.85798],[-122.49526,37.85798],[-122.49469,37.85875]]],"type":"Polygon"},"properties":{"bbox":{"roads":{"area":1590.49,"pct":6.12}},"city_same":1,"id":"hex:3629:24192"},"type":"Feature"},{"geometry":{"coordinates":[[[-122.49468,37.86031],[-122.49524,37.8611],[-122.49638,37.8611],[-122.49695,37.86032],[-122.49639,37.85954],[-122.49525,37.85954],[-122.49468,37.86031]]],"type":"Polygon"},"properties":{"bbox":{"roads":{"area":2796.31,"pct":10.76}},"city_same":1,"id":"hex:3629:24193"},"type":"Feature"},{"geometry":{"coordinates":[[[-122.49467,37.86188],[-122.49523,37.86266],[-122.49637,37.86266],[-122.49694,37.86189],[-122.49638,37.8611],[-122.49524,37.8611],[-122.49467,37.86188]]],"type":"Polygon"},"properties":{"bbox":{"roads":{"area":4003.96,"pct":15.41}},"city":{"roads":{"area":2728.04,"pct":10.5}},"id":"hex:3629:24194"},"type":"Feature"},{"geometry":{"coordinates":[[[-122.49466,37.86344],[-122.49522,37.86422],[-122.49636,37.86422],[-122.49693,37.86345],[-122.49637,37.86266],[-122.49523,37.86266],[-122.49466,37.86344]]],"type":"Polygon"},"properties":{"bbox":{"parking":{"area":1182.24,"pct":4.55},"roads":{"area":4046.7,"pct":15.58}},"city":{"parking":{"area":1182.24,"pct":4.55},"roads":{"area":2273.78,"pct":8.75}},"id":"hex:3629:24195"},"type":"Feature"},{"geometry":{"coordinates":[[[-122.49472,37.8651],[-122.49485,37.86492],[-122.49486,37.86493],[-122.49491,37.86495],[-122.49492,37.86491],[-122.4949,37.86486],[-122.49486,37.86476],[-122.49484,37.86473],[-122.49522,37.86422],[-122.49636,37.86422],[-122.49692,37.86501],[-122.49635,37.86579],[-122.49521,37.86578],[-122.49521,37.86578],[-122.49527,37.86573],[-122.49552,37.86541],[-122.49539,37.86531],[-122.49505,37.86556],[-122.49472,37.8651]]],"type":"Polygon"},"properties":{"bbox":{"parking":{"area":3200.98,"pct":13},"roads":{"area":2148.99,"pct":8.73}},"city_same":1,"id":"hex:3629:24196"},"type":"Feature"},{"geometry":{"coordinates":[[[-122.49521,37.86578],[-122.49635,37.86579],[-122.49691,37.86657],[-122.49667,37.86689],[-122.49664,37.86687],[-122.49661,37.86685],[-122.49673,37.86675],[-122.49653,37.86659],[-122.49642,37.86668],[-122.4964,37.86667],[-122.49636,37.86663],[-122.4964,37.86659],[-122.49642,37.86656],[-122.4965,37.8665],[-122.49651,37.86646],[-122.49639,37.86632],[-122.49634,37.8663],[-122.49627,37.86627],[-122.49625,37.86626],[-122.49601,37.8664],[-122.49595,37.86639],[-122.49594,37.86636],[-122.49595,37.86632],[-122.49593,37.86625],[-122.49592,37.86624],[-122.49588,37.86622],[-122.49574,37.8663],[-122.4956,37.86635],[-122.49555,37.86636],[-122.49548,37.86636],[-122.49508,37.86605],[-122.49504,37.86601],[-122.49521,37.86578]]],"type":"Polygon"},"properties":{"bbox":{"parking":{"area":957.51,"pct":11.26},"roads":{"area":336.36,"pct":3.95}},"city_same":1,"id":"hex:3629:24197"},"type":"Feature"},{"geometry":{"coordinates":[[[-122.49474,37.85095],[-122.49361,37.85094],[-122.49304,37.85016],[-122.49317,37.84999],[-122.49405,37.85024],[-122.49487,37.85048],[-122.49504,37.85037],[-122.49516,37.85038],[-122.49474,37.85095]]],"type":"Polygon"},"properties":{"bbox":{"roads":{"area":1319.21,"pct":11.91}},"city_same":1,"id":"hex:3630:24187"},"type":"Feature"},{"geometry":{"coordinates":[[[-122.49473,37.85251],[-122.4936,37.8525],[-122.49303,37.85172],[-122.49361,37.85094],[-122.49474,37.85095],[-122.49475,37.85095],[-122.49421,37.85109],[-122.49389,37.85128],[-122.49529,37.85175],[-122.49473,37.85251]]],"type":"Polygon"},"properties":{"bbox":{"roads":{"area":987.95,"pct":4.63}},"city_same":1,"id":"hex:3630:24188"},"type":"Feature"},{"geometry":{"coordinates":[[[-122.49302,37.85328],[-122.49358,37.85407],[-122.49472,37.85407],[-122.4953,37.85329],[-122.49473,37.85251],[-122.4936,37.8525],[-122.49302,37.85328]]],"type":"Polygon"},"properties":{"bbox":{"parking":{"area":568.31,"pct":2.19},"roads":{"area":1174.38,"pct":4.52},"sidewalks":{"area":31.58,"pct":0.12}},"city":{"roads":{"area":340.72,"pct":1.31},"sidewalks":{"area":31.58,"pct":0.12}},"id":"hex:3630:24189"},"type":"Feature"},{"geometry":{"coordinates":[[[-122.49301,37.85484],[-122.49357,37.85563],[-122.49471,37.85563],[-122.49528,37.85485],[-122.49472,37.85407],[-122.49358,37.85407],[-122.49301,37.85484]]],"type":"Polygon"},"properties":{"bbox":{"roads":{"area":4963.04,"pct":19.1}},"id":"hex:3630:24190"},"type":"Feature"},{"geometry":{"coordinates":[[[-122.493,37.8564],[-122.49356,37.85719],[-122.4947,37.85719],[-122.49527,37.85641],[-122.49471,37.85563],[-122.49357,37.85563],[-122.493,37.8564]]],"type":"Polygon"},"properties":{"bbox":{"roads":{"area":5529,"pct":21.28}},"city":{"roads":{"area":1529.32,"pct":5.89}},"id":"hex:3630:24191"},"type":"Feature"},{"geometry":{"coordinates":[[[-122.49299,37.85797],[-122.49355,37.85875],[-122.49469,37.85875],[-122.49526,37.85798],[-122.4947,37.85719],[-122.49356,37.85719],[-122.49299,37.85797]]],"type":"Polygon"},"properties":{"bbox":{"roads":{"area":1396.96,"pct":5.38}},"city_same":1,"id":"hex:3630:24192"},"type":"Feature"},{"geometry":{"coordinates":[[[-122.49298,37.85953],[-122.49354,37.86031],[-122.49468,37.86031],[-122.49525,37.85954],[-122.49469,37.85875],[-122.49355,37.85875],[-122.49298,37.85953]]],"type":"Polygon"},"properties":{"bbox":{"roads":{"area":2021.14,"pct":7.78}},"city_same":1,"id":"hex:3630:24193"},"type":"Feature"},{"geometry":{"coordinates":[[[-122.49297,37.86109],[-122.49353,37.86187],[-122.49467,37.86188],[-122.49524,37.8611],[-122.49468,37.86031],[-122.49354,37.86031],[-122.49297,37.86109]]],"type":"Polygon"},"properties":{"bbox":{"parking":{"area":732,"pct":2.82},"roads":{"area":2969.22,"pct":11.43},"sidewalks":{"area":72.46,"pct":0.28}},"city":{"parking":{"area":732,"pct":2.82},"roads":{"area":2638.8,"pct":10.16},"sidewalks":{"area":72.46,"pct":0.28}},"id":"hex:3630:24194"},"type":"Feature"},{"geometry":{"coordinates":[[[-122.49296,37.86265],[-122.49352,37.86343],[-122.49466,37.86344],[-122.49523,37.86266],[-122.49467,37.86188],[-122.49353,37.86187],[-122.49296,37.86265]]],"type":"Polygon"},"properties":{"bbox":{"parking":{"area":1442.39,"pct":5.55},"roads":{"area":4637.11,"pct":17.85},"sidewalks":{"area":123.71,"pct":0.48}},"city":{"parking":{"area":1442.39,"pct":5.55},"roads":{"area":2889.67,"pct":11.12},"sidewalks":{"area":123.71,"pct":0.48}},"id":"hex:3630:24195"},"type":"Feature"},{"geometry":{"coordinates":[[[-122.49352,37.86343],[-122.49466,37.86344],[-122.49522,37.86422],[-122.49484,37.86473],[-122.49478,37.86464],[-122.49456,37.86447],[-122.49454,37.86445],[-122.49447,37.8644],[-122.49445,37.86439],[-122.49397,37.86398],[-122.49391,37.86393],[-122.49362,37.86369],[-122.49358,37.86366],[-122.4935,37.8636],[-122.49344,37.86355],[-122.49352,37.86343]]],"type":"Polygon"},"properties":{"bbox":{"parking":{"area":1072.13,"pct":9.67},"roads":{"area":627.99,"pct":5.67}},"city_same":1,"id":"hex:3630:24196"},"type":"Feature"},{"geometry":{"coordinates":[[[-122.49304,37.85016],[-122.49191,37.85016],[-122.49134,37.84937],[-122.49172,37.84887],[-122.49196,37.84907],[-122.4925,37.84934],[-122.49279,37.84973],[-122.49302,37.84994],[-122.49317,37.84999],[-122.49304,37.85016]]],"type":"Polygon"},"properties":{"bbox":{"roads":{"area":212.74,"pct":1.76}},"city_same":1,"id":"hex:3631:24186"},"type":"Feature"},{"geometry":{"coordinates":[[[-122.49133,37.85093],[-122.4919,37.85172],[-122.49303,37.85172],[-122.49361,37.85094],[-122.49304,37.85016],[-122.49191,37.85016],[-122.49133,37.85093]]],"type":"Polygon"},"properties":{"bbox":{"roads":{"area":1852.33,"pct":7.13}},"city_same":1,"id":"hex:3631:24187"},"type":"Feature"},{"geometry":{"coordinates":[[[-122.49132,37.85249],[-122.49189,37.85328],[-122.49302,37.85328],[-122.4936,37.8525],[-122.49303,37.85172],[-122.4919,37.85172],[-122.49132,37.85249]]],"type":"Polygon"},"properties":{"bbox":{"parking":{"area":364.03,"pct":1.4},"roads":{"area":6723.2,"pct":25.88},"sidewalks":{"area":162.39,"pct":0.63}},"city":{"roads":{"area":1887.48,"pct":7.26},"sidewalks":{"area":162.39,"pct":0.63}},"id":"hex:3631:24188"},"type":"Feature"},{"geometry":{"coordinates":[[[-122.49131,37.85406],[-122.49187,37.85484],[-122.49301,37.85484],[-122.49358,37.85407],[-122.49302,37.85328],[-122.49189,37.85328],[-122.49131,37.85406]]],"type":"Polygon"},"properties":{"bbox":{"roads":{"area":5605.73,"pct":21.58}},"city":{"roads":{"area":1417,"pct":5.45}},"id":"hex:3631:24189"},"type":"Feature"},{"geometry":{"coordinates":[[[-122.4913,37.85562],[-122.49186,37.8564],[-122.493,37.8564],[-122.49357,37.85563],[-122.49301,37.85484],[-122.49187,37.85484],[-122.4913,37.85562]]],"type":"Polygon"},"properties":{"bbox":{"roads":{"area":1984.53,"pct":7.64}},"city_same":1,"id":"hex:3631:24190"},"type":"Feature"},{"geometry":{"coordinates":[[[-122.49129,37.85718],[-122.49185,37.85796],[-122.49299,37.85797],[-122.49356,37.85719],[-122.493,37.8564],[-122.49186,37.8564],[-122.49129,37.85718]]],"type":"Polygon"},"properties":{"bbox":{"roads":{"area":3031.2,"pct":11.67}},"city_same":1,"id":"hex:3631:24191"},"type":"Feature"},{"geometry":{"coordinates":[[[-122.49128,37.85874],[-122.49184,37.85952],[-122.49298,37.85953],[-122.49355,37.85875],[-122.49299,37.85797],[-122.49185,37.85796],[-122.49128,37.85874]]],"type":"Polygon"},"properties":{"bbox":{"roads":{"area":2164.22,"pct":8.33}},"city_same":1,"id":"hex:3631:24192"},"type":"Feature"},{"geometry":{"coordinates":[[[-122.49127,37.8603],[-122.49183,37.86108],[-122.49297,37.86109],[-122.49354,37.86031],[-122.49298,37.85953],[-122.49184,37.85952],[-122.49127,37.8603]]],"type":"Polygon"},"properties":{"bbox":{"roads":{"area":3399.33,"pct":13.08}},"city_same":1,"id":"hex:3631:24193"},"type":"Feature"},{"geometry":{"coordinates":[[[-122.49126,37.86186],[-122.49182,37.86264],[-122.49296,37.86265],[-122.49353,37.86187],[-122.49297,37.86109],[-122.49183,37.86108],[-122.49126,37.86186]]],"type":"Polygon"},"properties":{"bbox":{"parking":{"area":5112.77,"pct":19.68},"roads":{"area":4809.33,"pct":18.51},"sidewalks":{"area":687.75,"pct":2.65}},"city":{"parking":{"area":5112.77,"pct":19.68},"roads":{"area":1879.24,"pct":7.23},"sidewalks":{"area":687.75,"pct":2.65}},"id":"hex:3631:24194"},"type":"Feature"},{"geometry":{"coordinates":[[[-122.49125,37.86342],[-122.49182,37.86264],[-122.49296,37.86265],[-122.49352,37.86343],[-122.49344,37.86355],[-122.4933,37.86344],[-122.49316,37.86338],[-122.493,37.8633],[-122.49293,37.86327],[-122.4926,37.86332],[-122.49241,37.86344],[-122.49224,37.86356],[-122.4922,37.86357],[-122.49198,37.86364],[-122.49184,37.86369],[-122.49174,37.86371],[-122.49167,37.86379],[-122.4916,37.86385],[-122.49156,37.86386],[-122.49125,37.86342]]],"type":"Polygon"},"properties":{"bbox":{"parking":{"area":1654.38,"pct":11.15},"roads":{"area":2651.76,"pct":17.87}},"city_same":1,"id":"hex:3631:24195"},"type":"Feature"},{"geometry":{"coordinates":[[[-122.49022,37.84781],[-122.48965,37.84702],[-122.49005,37.84648],[-122.49095,37.84702],[-122.49125,37.84781],[-122.49022,37.84781]]],"type":"Polygon"},"properties":{"bbox":{"roads":{"area":1584.19,"pct":12.81}},"city_same":1,"id":"hex:3632:24185"},"type":"Feature"},{"geometry":{"coordinates":[[[-122.49134,37.84937],[-122.49021,37.84937],[-122.48964,37.84858],[-122.49022,37.84781],[-122.49125,37.84781],[-122.4916,37.84877],[-122.49172,37.84887],[-122.49134,37.84937]]],"type":"Polygon"},"properties":{"bbox":{"roads":{"area":2294.58,"pct":9.75}},"city_same":1,"id":"hex:3632:24186"},"type":"Feature"},{"geometry":{"coordinates":[[[-122.48963,37.85015],[-122.4902,37.85093],[-122.49133,37.85093],[-122.49191,37.85016],[-122.49134,37.84937],[-122.49021,37.84937],[-122.48963,37.85015]]],"type":"Polygon"},"properties":{"bbox":{"roads":{"area":3172.91,"pct":12.21}},"city":{"roads":{"area":1476.04,"pct":5.68}},"id":"hex:3632:24187"},"type":"Feature"},{"geometry":{"coordinates":[[[-122.48962,37.85171],[-122.49019,37.85249],[-122.49132,37.85249],[-122.4919,37.85172],[-122.49133,37.85093],[-122.4902,37.85093],[-122.48962,37.85171]]],"type":"Polygon"},"properties":{"bbox":{"parking":{"area":1110.14,"pct":4.27},"roads":{"area":7712.52,"pct":29.69}},"city":{"parking":{"area":1110.14,"pct":4.27},"roads":{"area":2579.38,"pct":9.93}},"id":"hex:3632:24188"},"type":"Feature"},{"geometry":{"coordinates":[[[-122.48961,37.85327],[-122.49017,37.85405],[-122.49131,37.85406],[-122.49189,37.85328],[-122.49132,37.85249],[-122.49019,37.85249],[-122.48961,37.85327]]],"type":"Polygon"},"properties":{"bbox":{"roads":{"area":706.57,"pct":2.72}},"city_same":1,"id":"hex:3632:24189"},"type":"Feature"},{"geometry":{"coordinates":[[[-122.4896,37.85483],[-122.49016,37.85561],[-122.4913,37.85562],[-122.49187,37.85484],[-122.49131,37.85406],[-122.49017,37.85405],[-122.4896,37.85483]]],"type":"Polygon"},"properties":{"bbox":{"roads":{"area":1745.41,"pct":6.72}},"city_same":1,"id":"hex:3632:24190"},"type":"Feature"},{"geometry":{"coordinates":[[[-122.48959,37.85639],[-122.49015,37.85717],[-122.49129,37.85718],[-122.49186,37.8564],[-122.4913,37.85562],[-122.49016,37.85561],[-122.48959,37.85639]]],"type":"Polygon"},"properties":{"bbox":{"roads":{"area":2476.84,"pct":9.53}},"city_same":1,"id":"hex:3632:24191"},"type":"Feature"},{"geometry":{"coordinates":[[[-122.48958,37.85795],[-122.49014,37.85873],[-122.49128,37.85874],[-122.49185,37.85796],[-122.49129,37.85718],[-122.49015,37.85717],[-122.48958,37.85795]]],"type":"Polygon"},"properties":{"bbox":{"roads":{"area":2498.86,"pct":9.62}},"city_same":1,"id":"hex:3632:24192"},"type":"Feature"},{"geometry":{"coordinates":[[[-122.48957,37.85951],[-122.49013,37.86029],[-122.49127,37.8603],[-122.49184,37.85952],[-122.49128,37.85874],[-122.49014,37.85873],[-122.48957,37.85951]]],"type":"Polygon"},"properties":{"bbox":{"roads":{"area":3619.14,"pct":13.93},"sidewalks":{"area":4.04,"pct":0.02}},"city_same":1,"id":"hex:3632:24193"},"type":"Feature"},{"geometry":{"coordinates":[[[-122.48956,37.86107],[-122.49012,37.86186],[-122.49126,37.86186],[-122.49183,37.86108],[-122.49127,37.8603],[-122.49013,37.86029],[-122.48956,37.86107]]],"type":"Polygon"},"properties":{"bbox":{"parking":{"area":842.53,"pct":3.24},"roads":{"area":4199.77,"pct":16.16},"sidewalks":{"area":450.74,"pct":1.73}},"city":{"parking":{"area":842.53,"pct":3.24},"roads":{"area":2363.07,"pct":9.1},"sidewalks":{"area":450.74,"pct":1.73}},"id":"hex:3632:24194"},"type":"Feature"},{"geometry":{"coordinates":[[[-122.49012,37.86186],[-122.49126,37.86186],[-122.49182,37.86264],[-122.49125,37.86342],[-122.49011,37.86342],[-122.48971,37.86286],[-122.48978,37.86278],[-122.48993,37.86257],[-122.49001,37.86246],[-122.49013,37.8623],[-122.49023,37.86218],[-122.49027,37.86212],[-122.49029,37.86203],[-122.49023,37.86195],[-122.49007,37.86195],[-122.49004,37.86196],[-122.49012,37.86186]]],"type":"Polygon"},"properties":{"bbox":{"parking":{"area":12704.39,"pct":54.23},"roads":{"area":2753.83,"pct":11.75},"sidewalks":{"area":27.28,"pct":0.12}},"city":{"parking":{"area":12704.39,"pct":54.23},"roads":{"area":2752.6,"pct":11.75},"sidewalks":{"area":27.28,"pct":0.12}},"id":"hex:3632:24195"},"type":"Feature"},{"geometry":{"coordinates":[[[-122.49011,37.86342],[-122.49125,37.86342],[-122.49156,37.86386],[-122.49088,37.86404],[-122.49079,37.86384],[-122.49039,37.86385],[-122.49011,37.86385],[-122.48999,37.86385],[-122.48998,37.86385],[-122.48998,37.86388],[-122.48989,37.86395],[-122.48976,37.86389],[-122.49011,37.86342]]],"type":"Polygon"},"properties":{"bbox":{"parking":{"area":3505.49,"pct":50.51},"roads":{"area":815.26,"pct":11.75}},"city_same":1,"id":"hex:3632:24196"},"type":"Feature"},{"geometry":{"coordinates":[[[-122.48965,37.84702],[-122.48852,37.84702],[-122.48796,37.84624],[-122.48847,37.84554],[-122.49005,37.84648],[-122.48965,37.84702]]],"type":"Polygon"},"properties":{"bbox":{"roads":{"area":1054.06,"pct":5.82}},"city_same":1,"id":"hex:3633:24184"},"type":"Feature"},{"geometry":{"coordinates":[[[-122.48794,37.8478],[-122.48851,37.84858],[-122.48964,37.84858],[-122.49022,37.84781],[-122.48965,37.84702],[-122.48852,37.84702],[-122.48794,37.8478]]],"type":"Polygon"},"properties":{"bbox":{"roads":{"area":5492.93,"pct":21.14}},"city":{"roads":{"area":1534.99,"pct":5.91}},"id":"hex:3633:24185"},"type":"Feature"},{"geometry":{"coordinates":[[[-122.48793,37.84936],[-122.4885,37.85014],[-122.48963,37.85015],[-122.49021,37.84937],[-122.48964,37.84858],[-122.48851,37.84858],[-122.48793,37.84936]]],"type":"Polygon"},"properties":{"bbox":{"roads":{"area":5642.99,"pct":21.72}},"city":{"roads":{"area":253.14,"pct":0.97}},"id":"hex:3633:24186"},"type":"Feature"},{"geometry":{"coordinates":[[[-122.48792,37.85092],[-122.48849,37.8517],[-122.48962,37.85171],[-122.4902,37.85093],[-122.48963,37.85015],[-122.4885,37.85014],[-122.48792,37.85092]]],"type":"Polygon"},"properties":{"bbox":{"roads":{"area":4414.67,"pct":16.99}},"city":{"roads":{"area":2041.19,"pct":7.86}},"id":"hex:3633:24187"},"type":"Feature"},{"geometry":{"coordinates":[[[-122.48791,37.85248],[-122.48848,37.85326],[-122.48961,37.85327],[-122.49019,37.85249],[-122.48962,37.85171],[-122.48849,37.8517],[-122.48791,37.85248]]],"type":"Polygon"},"properties":{"bbox":{"roads":{"area":1666.29,"pct":6.41}},"city_same":1,"id":"hex:3633:24188"},"type":"Feature"},{"geometry":{"coordinates":[[[-122.4879,37.85404],[-122.48846,37.85482],[-122.4896,37.85483],[-122.49017,37.85405],[-122.48961,37.85327],[-122.48848,37.85326],[-122.4879,37.85404]]],"type":"Polygon"},"properties":{"bbox":{"roads":{"area":2514.72,"pct":9.68}},"city_same":1,"id":"hex:3633:24189"},"type":"Feature"},{"geometry":{"coordinates":[[[-122.48789,37.8556],[-122.48845,37.85638],[-122.48959,37.85639],[-122.49016,37.85561],[-122.4896,37.85483],[-122.48846,37.85482],[-122.48789,37.8556]]],"type":"Polygon"},"properties":{"bbox":{"roads":{"area":2068.11,"pct":7.96}},"city_same":1,"id":"hex:3633:24190"},"type":"Feature"},{"geometry":{"coordinates":[[[-122.48788,37.85716],[-122.48844,37.85795],[-122.48958,37.85795],[-122.49015,37.85717],[-122.48959,37.85639],[-122.48845,37.85638],[-122.48788,37.85716]]],"type":"Polygon"},"properties":{"bbox":{"roads":{"area":2867.11,"pct":11.04}},"city_same":1,"id":"hex:3633:24191"},"type":"Feature"},{"geometry":{"coordinates":[[[-122.48787,37.85872],[-122.48843,37.85951],[-122.48957,37.85951],[-122.49014,37.85873],[-122.48958,37.85795],[-122.48844,37.85795],[-122.48787,37.85872]]],"type":"Polygon"},"properties":{"bbox":{"parking":{"area":1963.99,"pct":7.56},"roads":{"area":3798.06,"pct":14.62},"sidewalks":{"area":221.6,"pct":0.85}},"city_same":1,"id":"hex:3633:24192"},"type":"Feature"},{"geometry":{"coordinates":[[[-122.48786,37.86029],[-122.48842,37.86107],[-122.48956,37.86107],[-122.49013,37.86029],[-122.48957,37.85951],[-122.48843,37.85951],[-122.48786,37.86029]]],"type":"Polygon"},"properties":{"bbox":{"parking":{"area":829.05,"pct":3.19},"roads":{"area":3414.68,"pct":13.14},"sidewalks":{"area":716.62,"pct":2.76}},"city":{"parking":{"area":829.05,"pct":3.19},"roads":{"area":2614.52,"pct":10.06},"sidewalks":{"area":716.62,"pct":2.76}},"id":"hex:3633:24193"},"type":"Feature"},{"geometry":{"coordinates":[[[-122.48842,37.86107],[-122.48956,37.86107],[-122.49012,37.86186],[-122.49004,37.86196],[-122.48986,37.86207],[-122.48967,37.86221],[-122.48961,37.86222],[-122.48954,37.8622],[-122.48938,37.86215],[-122.48928,37.86213],[-122.48916,37.86205],[-122.48908,37.862],[-122.48902,37.86191],[-122.48901,37.86188],[-122.48885,37.86176],[-122.48881,37.86181],[-122.48867,37.86195],[-122.48862,37.862],[-122.48849,37.86209],[-122.48843,37.86215],[-122.48838,37.8622],[-122.48832,37.86218],[-122.48834,37.86213],[-122.48837,37.86202],[-122.48839,37.86197],[-122.4884,37.86193],[-122.4884,37.86192],[-122.48843,37.86185],[-122.48841,37.86184],[-122.48839,37.86182],[-122.48834,37.86179],[-122.48823,37.86177],[-122.48815,37.86173],[-122.48809,37.8617],[-122.48802,37.86162],[-122.48842,37.86107]]],"type":"Polygon"},"properties":{"bbox":{"parking":{"area":3352.9,"pct":21.47},"roads":{"area":2369.25,"pct":15.17},"sidewalks":{"area":127.46,"pct":0.82}},"city":{"parking":{"area":3352.9,"pct":21.47},"roads":{"area":1517.14,"pct":9.71},"sidewalks":{"area":127.46,"pct":0.82}},"id":"hex:3633:24194"},"type":"Feature"},{"geometry":{"coordinates":[[[-122.49011,37.86342],[-122.48976,37.86389],[-122.48938,37.86374],[-122.48887,37.86361],[-122.4888,37.86362],[-122.48866,37.86368],[-122.48854,37.86365],[-122.48853,37.86364],[-122.48867,37.8635],[-122.48877,37.86349],[-122.48883,37.86343],[-122.48901,37.86326],[-122.48908,37.86319],[-122.48932,37.86314],[-122.48939,37.86309],[-122.48958,37.86297],[-122.4897,37.86287],[-122.48971,37.86286],[-122.49011,37.86342]]],"type":"Polygon"},"properties":{"bbox":{"parking":{"area":398.71,"pct":5.27},"roads":{"area":57.84,"pct":0.76}},"city_same":1,"id":"hex:3633:24195"},"type":"Feature"},{"geometry":{"coordinates":[[[-122.48796,37.84624],[-122.48682,37.84623],[-122.48626,37.84545],[-122.48653,37.84508],[-122.48661,37.84508],[-122.48762,37.84508],[-122.48793,37.8452],[-122.48841,37.84551],[-122.48847,37.84554],[-122.48796,37.84624]]],"type":"Polygon"},"properties":{"bbox":{"roads":{"area":1369.87,"pct":7.3}},"id":"hex:3634:24184"},"type":"Feature"},{"geometry":{"coordinates":[[[-122.48625,37.84701],[-122.48681,37.84779],[-122.48794,37.8478],[-122.48852,37.84702],[-122.48796,37.84624],[-122.48682,37.84623],[-122.48625,37.84701]]],"type":"Polygon"},"properties":{"bbox":{"roads":{"area":5942.11,"pct":22.87}},"city":{"roads":{"area":459.36,"pct":1.77}},"id":"hex:3634:24185"},"type":"Feature"},{"geometry":{"coordinates":[[[-122.48623,37.84857],[-122.4868,37.84935],[-122.48793,37.84936],[-122.48851,37.84858],[-122.48794,37.8478],[-122.48681,37.84779],[-122.48623,37.84857]]],"type":"Polygon"},"properties":{"bbox":{"roads":{"area":1289.75,"pct":4.96}},"city":{"roads":{"area":1175.08,"pct":4.52}},"id":"hex:3634:24186"},"type":"Feature"},{"geometry":{"coordinates":[[[-122.48622,37.85013],[-122.48679,37.85091],[-122.48792,37.85092],[-122.4885,37.85014],[-122.48793,37.84936],[-122.4868,37.84935],[-122.48622,37.85013]]],"type":"Polygon"},"properties":{"bbox":{"roads":{"area":2899.56,"pct":11.16}},"city_same":1,"id":"hex:3634:24187"},"type":"Feature"},{"geometry":{"coordinates":[[[-122.48621,37.85169],[-122.48678,37.85247],[-122.48791,37.85248],[-122.48849,37.8517],[-122.48792,37.85092],[-122.48679,37.85091],[-122.48621,37.85169]]],"type":"Polygon"},"properties":{"bbox":{"roads":{"area":2004.87,"pct":7.72}},"city_same":1,"id":"hex:3634:24188"},"type":"Feature"},{"geometry":{"coordinates":[[[-122.4862,37.85325],[-122.48676,37.85404],[-122.4879,37.85404],[-122.48848,37.85326],[-122.48791,37.85248],[-122.48678,37.85247],[-122.4862,37.85325]]],"type":"Polygon"},"properties":{"bbox":{"roads":{"area":3143.8,"pct":12.1}},"city_same":1,"id":"hex:3634:24189"},"type":"Feature"},{"geometry":{"coordinates":[[[-122.48619,37.85481],[-122.48675,37.8556],[-122.48789,37.8556],[-122.48846,37.85482],[-122.4879,37.85404],[-122.48676,37.85404],[-122.48619,37.85481]]],"type":"Polygon"},"properties":{"bbox":{"roads":{"area":2109.46,"pct":8.12}},"city_same":1,"id":"hex:3634:24190"},"type":"Feature"},{"geometry":{"coordinates":[[[-122.48618,37.85638],[-122.48674,37.85716],[-122.48788,37.85716],[-122.48845,37.85638],[-122.48789,37.8556],[-122.48675,37.8556],[-122.48618,37.85638]]],"type":"Polygon"},"properties":{"bbox":{"roads":{"area":2209.33,"pct":8.5}},"city_same":1,"id":"hex:3634:24191"},"type":"Feature"},{"geometry":{"coordinates":[[[-122.48617,37.85794],[-122.48673,37.85872],[-122.48787,37.85872],[-122.48844,37.85795],[-122.48788,37.85716],[-122.48674,37.85716],[-122.48617,37.85794]]],"type":"Polygon"},"properties":{"bbox":{"roads":{"area":3401.51,"pct":13.09},"sidewalks":{"area":262.96,"pct":1.01}},"city_same":1,"id":"hex:3634:24192"},"type":"Feature"},{"geometry":{"coordinates":[[[-122.48616,37.8595],[-122.48672,37.86028],[-122.48786,37.86029],[-122.48843,37.85951],[-122.48787,37.85872],[-122.48673,37.85872],[-122.48616,37.8595]]],"type":"Polygon"},"properties":{"bbox":{"parking":{"area":48.36,"pct":0.19},"roads":{"area":4093.06,"pct":15.75},"sidewalks":{"area":243.93,"pct":0.94}},"city":{"parking":{"area":48.36,"pct":0.19},"roads":{"area":3230.73,"pct":12.44},"sidewalks":{"area":243.93,"pct":0.94}},"id":"hex:3634:24193"},"type":"Feature"},{"geometry":{"coordinates":[[[-122.48615,37.86106],[-122.48672,37.86028],[-122.48786,37.86029],[-122.48842,37.86107],[-122.48802,37.86162],[-122.48801,37.86161],[-122.48794,37.86157],[-122.48791,37.86156],[-122.48789,37.86155],[-122.48779,37.86147],[-122.48758,37.86135],[-122.48743,37.86124],[-122.48741,37.86122],[-122.48743,37.86117],[-122.48742,37.86109],[-122.48746,37.86095],[-122.48743,37.86087],[-122.4874,37.86076],[-122.48741,37.8607],[-122.48742,37.86064],[-122.4874,37.86062],[-122.48736,37.86062],[-122.48729,37.86069],[-122.48723,37.86074],[-122.48708,37.86093],[-122.4871,37.86105],[-122.48714,37.86107],[-122.48719,37.86102],[-122.48721,37.86097],[-122.48726,37.86097],[-122.4873,37.86098],[-122.4873,37.86102],[-122.48716,37.86112],[-122.48703,37.86122],[-122.48688,37.86135],[-122.48679,37.86139],[-122.4866,37.86148],[-122.48639,37.86139],[-122.48615,37.86106]]],"type":"Polygon"},"properties":{"bbox":{"parking":{"area":472.82,"pct":2.65},"roads":{"area":778.95,"pct":4.37}},"city":{"parking":{"area":472.82,"pct":2.65},"roads":{"area":185.92,"pct":1.04}},"id":"hex:3634:24194"},"type":"Feature"},{"geometry":{"coordinates":[[[-122.48626,37.84545],[-122.48512,37.84544],[-122.48483,37.84504],[-122.48586,37.84508],[-122.48653,37.84508],[-122.48626,37.84545]]],"type":"Polygon"},"properties":{"bbox":{"roads":{"area":808.04,"pct":15.43}},"id":"hex:3635:24183"},"type":"Feature"},{"geometry":{"coordinates":[[[-122.48455,37.84622],[-122.48511,37.847],[-122.48625,37.84701],[-122.48682,37.84623],[-122.48626,37.84545],[-122.48512,37.84544],[-122.48455,37.84622]]],"type":"Polygon"},"properties":{"bbox":{"roads":{"area":2505.36,"pct":9.64}},"id":"hex:3635:24184"},"type":"Feature"},{"geometry":{"coordinates":[[[-122.48453,37.84778],[-122.4851,37.84856],[-122.48623,37.84857],[-122.48681,37.84779],[-122.48625,37.84701],[-122.48511,37.847],[-122.48453,37.84778]]],"type":"Polygon"},"properties":{"bbox":{"roads":{"area":1497.02,"pct":5.76}},"city_same":1,"id":"hex:3635:24185"},"type":"Feature"},{"geometry":{"coordinates":[[[-122.48452,37.84934],[-122.48509,37.85013],[-122.48622,37.85013],[-122.4868,37.84935],[-122.48623,37.84857],[-122.4851,37.84856],[-122.48452,37.84934]]],"type":"Polygon"},"properties":{"bbox":{"roads":{"area":2935.32,"pct":11.3}},"city_same":1,"id":"hex:3635:24186"},"type":"Feature"},{"geometry":{"coordinates":[[[-122.48451,37.8509],[-122.48508,37.85169],[-122.48621,37.85169],[-122.48679,37.85091],[-122.48622,37.85013],[-122.48509,37.85013],[-122.48451,37.8509]]],"type":"Polygon"},"properties":{"bbox":{"roads":{"area":2180.13,"pct":8.39}},"city_same":1,"id":"hex:3635:24187"},"type":"Feature"},{"geometry":{"coordinates":[[[-122.4845,37.85246],[-122.48507,37.85325],[-122.4862,37.85325],[-122.48678,37.85247],[-122.48621,37.85169],[-122.48508,37.85169],[-122.4845,37.85246]]],"type":"Polygon"},"properties":{"bbox":{"roads":{"area":2072.67,"pct":7.98}},"city_same":1,"id":"hex:3635:24188"},"type":"Feature"},{"geometry":{"coordinates":[[[-122.48449,37.85403],[-122.48505,37.85481],[-122.48619,37.85481],[-122.48676,37.85404],[-122.4862,37.85325],[-122.48507,37.85325],[-122.48449,37.85403]]],"type":"Polygon"},"properties":{"bbox":{"roads":{"area":2229.35,"pct":8.58}},"city_same":1,"id":"hex:3635:24189"},"type":"Feature"},{"geometry":{"coordinates":[[[-122.48448,37.85559],[-122.48504,37.85637],[-122.48618,37.85638],[-122.48675,37.8556],[-122.48619,37.85481],[-122.48505,37.85481],[-122.48448,37.85559]]],"type":"Polygon"},"properties":{"bbox":{"roads":{"area":1994.42,"pct":7.68}},"city_same":1,"id":"hex:3635:24190"},"type":"Feature"},{"geometry":{"coordinates":[[[-122.48447,37.85715],[-122.48503,37.85793],[-122.48617,37.85794],[-122.48674,37.85716],[-122.48618,37.85638],[-122.48504,37.85637],[-122.48447,37.85715]]],"type":"Polygon"},"properties":{"bbox":{"roads":{"area":2166.87,"pct":8.34}},"city_same":1,"id":"hex:3635:24191"},"type":"Feature"},{"geometry":{"coordinates":[[[-122.48446,37.85871],[-122.48502,37.85949],[-122.48616,37.8595],[-122.48673,37.85872],[-122.48617,37.85794],[-122.48503,37.85793],[-122.48446,37.85871]]],"type":"Polygon"},"properties":{"bbox":{"parking":{"area":1019.39,"pct":3.92},"roads":{"area":4208.67,"pct":16.2},"sidewalks":{"area":284.81,"pct":1.1}},"city":{"parking":{"area":1019.39,"pct":3.92},"roads":{"area":3462.31,"pct":13.33},"sidewalks":{"area":284.81,"pct":1.1}},"id":"hex:3635:24192"},"type":"Feature"},{"geometry":{"coordinates":[[[-122.48502,37.85949],[-122.48616,37.8595],[-122.48672,37.86028],[-122.48615,37.86106],[-122.48583,37.86106],[-122.48577,37.86102],[-122.4858,37.86099],[-122.48581,37.86097],[-122.48573,37.86092],[-122.48585,37.86078],[-122.48586,37.86077],[-122.4858,37.86074],[-122.48558,37.86063],[-122.48556,37.86062],[-122.48566,37.8605],[-122.48569,37.86046],[-122.4858,37.86032],[-122.48581,37.86032],[-122.48584,37.86029],[-122.48551,37.86011],[-122.48562,37.85998],[-122.48559,37.85996],[-122.48552,37.85993],[-122.48545,37.85991],[-122.48535,37.86002],[-122.48526,37.85997],[-122.4851,37.85989],[-122.48504,37.85986],[-122.48493,37.8598],[-122.48483,37.85986],[-122.4848,37.85986],[-122.48477,37.85983],[-122.48502,37.85949]]],"type":"Polygon"},"properties":{"bbox":{"parking":{"area":4709.01,"pct":32.24},"roads":{"area":2457.91,"pct":16.83},"sidewalks":{"area":42.01,"pct":0.29}},"city":{"parking":{"area":4709.01,"pct":32.24},"roads":{"area":1732.63,"pct":11.86},"sidewalks":{"area":42.01,"pct":0.29}},"id":"hex:3635:24193"},"type":"Feature"},{"geometry":{"coordinates":[[[-122.48512,37.84544],[-122.48455,37.84622],[-122.48341,37.84622],[-122.48285,37.84543],[-122.48339,37.8447],[-122.48375,37.845],[-122.48483,37.84504],[-122.48512,37.84544]]],"type":"Polygon"},"properties":{"bbox":{"roads":{"area":82.6,"pct":0.38}},"city_same":1,"id":"hex:3636:24184"},"type":"Feature"},{"geometry":{"coordinates":[[[-122.48284,37.84699],[-122.4834,37.84778],[-122.48453,37.84778],[-122.48511,37.847],[-122.48455,37.84622],[-122.48341,37.84622],[-122.48284,37.84699]]],"type":"Polygon"},"properties":{"bbox":{"roads":{"area":1097.72,"pct":4.23}},"city_same":1,"id":"hex:3636:24185"},"type":"Feature"},{"geometry":{"coordinates":[[[-122.48282,37.84855],[-122.48339,37.84934],[-122.48452,37.84934],[-122.4851,37.84856],[-122.48453,37.84778],[-122.4834,37.84778],[-122.48282,37.84855]]],"type":"Polygon"},"properties":{"bbox":{"roads":{"area":2957.53,"pct":11.38}},"city_same":1,"id":"hex:3636:24186"},"type":"Feature"},{"geometry":{"coordinates":[[[-122.48281,37.85012],[-122.48338,37.8509],[-122.48451,37.8509],[-122.48509,37.85013],[-122.48452,37.84934],[-122.48339,37.84934],[-122.48281,37.85012]]],"type":"Polygon"},"properties":{"bbox":{"roads":{"area":2818.19,"pct":10.85}},"city_same":1,"id":"hex:3636:24187"},"type":"Feature"},{"geometry":{"coordinates":[[[-122.4828,37.85168],[-122.48337,37.85246],[-122.4845,37.85246],[-122.48508,37.85169],[-122.48451,37.8509],[-122.48338,37.8509],[-122.4828,37.85168]]],"type":"Polygon"},"properties":{"bbox":{"roads":{"area":1476.58,"pct":5.68}},"city_same":1,"id":"hex:3636:24188"},"type":"Feature"},{"geometry":{"coordinates":[[[-122.48279,37.85324],[-122.48335,37.85402],[-122.48449,37.85403],[-122.48507,37.85325],[-122.4845,37.85246],[-122.48337,37.85246],[-122.48279,37.85324]]],"type":"Polygon"},"properties":{"bbox":{"roads":{"area":3076.85,"pct":11.84}},"city_same":1,"id":"hex:3636:24189"},"type":"Feature"},{"geometry":{"coordinates":[[[-122.48278,37.8548],[-122.48334,37.85558],[-122.48448,37.85559],[-122.48505,37.85481],[-122.48449,37.85403],[-122.48335,37.85402],[-122.48278,37.8548]]],"type":"Polygon"},"properties":{"bbox":{"roads":{"area":2801.26,"pct":10.78}},"city_same":1,"id":"hex:3636:24190"},"type":"Feature"},{"geometry":{"coordinates":[[[-122.48277,37.85636],[-122.48333,37.85714],[-122.48447,37.85715],[-122.48504,37.85637],[-122.48448,37.85559],[-122.48334,37.85558],[-122.48277,37.85636]]],"type":"Polygon"},"properties":{"bbox":{"roads":{"area":2955.51,"pct":11.38}},"city_same":1,"id":"hex:3636:24191"},"type":"Feature"},{"geometry":{"coordinates":[[[-122.48276,37.85792],[-122.48332,37.8587],[-122.48446,37.85871],[-122.48503,37.85793],[-122.48447,37.85715],[-122.48333,37.85714],[-122.48276,37.85792]]],"type":"Polygon"},"properties":{"bbox":{"roads":{"area":3683.95,"pct":14.18}},"city":{"roads":{"area":3108.77,"pct":11.97}},"id":"hex:3636:24192"},"type":"Feature"},{"geometry":{"coordinates":[[[-122.48332,37.8587],[-122.48446,37.85871],[-122.48502,37.85949],[-122.48477,37.85983],[-122.48475,37.8598],[-122.48469,37.85978],[-122.48463,37.85965],[-122.4847,37.85948],[-122.48473,37.8594],[-122.48465,37.85935],[-122.48464,37.85935],[-122.48458,37.85932],[-122.48455,37.85931],[-122.48449,37.85928],[-122.4841,37.8591],[-122.48409,37.85912],[-122.48396,37.85927],[-122.48395,37.85926],[-122.48391,37.85929],[-122.48389,37.85928],[-122.48386,37.85933],[-122.48385,37.85941],[-122.48386,37.85944],[-122.48389,37.85946],[-122.48399,37.85953],[-122.48402,37.85959],[-122.484,37.85961],[-122.48392,37.85971],[-122.48384,37.8598],[-122.4837,37.85996],[-122.48364,37.86004],[-122.48325,37.85983],[-122.48324,37.85982],[-122.48328,37.85977],[-122.48317,37.85972],[-122.48318,37.85971],[-122.48301,37.85962],[-122.48328,37.85929],[-122.4833,37.85926],[-122.48309,37.85915],[-122.48307,37.85909],[-122.48305,37.85908],[-122.48332,37.8587]]],"type":"Polygon"},"properties":{"bbox":{"parking":{"area":5562.21,"pct":40.3},"roads":{"area":2938.93,"pct":21.3}},"city":{"parking":{"area":5562.21,"pct":40.3},"roads":{"area":2161.35,"pct":15.66}},"id":"hex:3636:24193"},"type":"Feature"},{"geometry":{"coordinates":[[[-122.48285,37.84543],[-122.48171,37.84543],[-122.48115,37.84464],[-122.48169,37.8439],[-122.48286,37.84425],[-122.48339,37.8447],[-122.48285,37.84543]]],"type":"Polygon"},"properties":{"bbox":{"roads":{"area":231.2,"pct":1.03}},"city_same":1,"id":"hex:3637:24183"},"type":"Feature"},{"geometry":{"coordinates":[[[-122.48114,37.84621],[-122.4817,37.84699],[-122.48284,37.84699],[-122.48341,37.84622],[-122.48285,37.84543],[-122.48171,37.84543],[-122.48114,37.84621]]],"type":"Polygon"},"properties":{"bbox":{"roads":{"area":2769.6,"pct":10.66}},"city_same":1,"id":"hex:3637:24184"},"type":"Feature"},{"geometry":{"coordinates":[[[-122.48113,37.84777],[-122.48169,37.84855],[-122.48282,37.84855],[-122.4834,37.84778],[-122.48284,37.84699],[-122.4817,37.84699],[-122.48113,37.84777]]],"type":"Polygon"},"properties":{"bbox":{"roads":{"area":3174.9,"pct":12.22}},"city_same":1,"id":"hex:3637:24185"},"type":"Feature"},{"geometry":{"coordinates":[[[-122.48111,37.84933],[-122.48168,37.85011],[-122.48281,37.85012],[-122.48339,37.84934],[-122.48282,37.84855],[-122.48169,37.84855],[-122.48111,37.84933]]],"type":"Polygon"},"properties":{"bbox":{"roads":{"area":3294.54,"pct":12.68}},"city_same":1,"id":"hex:3637:24186"},"type":"Feature"},{"geometry":{"coordinates":[[[-122.4811,37.85089],[-122.48167,37.85167],[-122.4828,37.85168],[-122.48338,37.8509],[-122.48281,37.85012],[-122.48168,37.85011],[-122.4811,37.85089]]],"type":"Polygon"},"properties":{"bbox":{"roads":{"area":3108.79,"pct":11.97}},"city_same":1,"id":"hex:3637:24187"},"type":"Feature"},{"geometry":{"coordinates":[[[-122.48109,37.85245],[-122.48166,37.85323],[-122.48279,37.85324],[-122.48337,37.85246],[-122.4828,37.85168],[-122.48167,37.85167],[-122.48109,37.85245]]],"type":"Polygon"},"properties":{"bbox":{"roads":{"area":2689.9,"pct":10.35}},"city_same":1,"id":"hex:3637:24188"},"type":"Feature"},{"geometry":{"coordinates":[[[-122.48108,37.85401],[-122.48164,37.85479],[-122.48278,37.8548],[-122.48335,37.85402],[-122.48279,37.85324],[-122.48166,37.85323],[-122.48108,37.85401]]],"type":"Polygon"},"properties":{"bbox":{"roads":{"area":2811.48,"pct":10.82}},"city_same":1,"id":"hex:3637:24189"},"type":"Feature"},{"geometry":{"coordinates":[[[-122.48107,37.85557],[-122.48163,37.85636],[-122.48277,37.85636],[-122.48334,37.85558],[-122.48278,37.8548],[-122.48164,37.85479],[-122.48107,37.85557]]],"type":"Polygon"},"properties":{"bbox":{"roads":{"area":3051.78,"pct":11.75}},"city_same":1,"id":"hex:3637:24190"},"type":"Feature"},{"geometry":{"coordinates":[[[-122.48106,37.85713],[-122.48162,37.85792],[-122.48276,37.85792],[-122.48333,37.85714],[-122.48277,37.85636],[-122.48163,37.85636],[-122.48106,37.85713]]],"type":"Polygon"},"properties":{"bbox":{"roads":{"area":2593.48,"pct":9.98},"sidewalks":{"area":19.07,"pct":0.07}},"city":{"roads":{"area":2148.2,"pct":8.27},"sidewalks":{"area":19.07,"pct":0.07}},"id":"hex:3637:24191"},"type":"Feature"},{"geometry":{"coordinates":[[[-122.48162,37.85792],[-122.48276,37.85792],[-122.48332,37.8587],[-122.48305,37.85908],[-122.48265,37.85887],[-122.4823,37.85868],[-122.48181,37.85842],[-122.48181,37.85841],[-122.48182,37.8584],[-122.48182,37.8584],[-122.48184,37.85836],[-122.48145,37.85816],[-122.48162,37.85792]]],"type":"Polygon"},"properties":{"bbox":{"parking":{"area":3412.99,"pct":29.81},"roads":{"area":2564.18,"pct":22.39},"sidewalks":{"area":237.79,"pct":2.08}},"city":{"parking":{"area":3412.99,"pct":29.81},"roads":{"area":1468.64,"pct":12.83},"sidewalks":{"area":237.79,"pct":2.08}},"id":"hex:3637:24192"},"type":"Feature"},{"geometry":{"coordinates":[[[-122.48115,37.84464],[-122.48171,37.84543],[-122.48114,37.84621],[-122.48,37.8462],[-122.47944,37.84542],[-122.47948,37.84536],[-122.47999,37.84531],[-122.48031,37.84499],[-122.48064,37.84464],[-122.48115,37.84464]]],"type":"Polygon"},"properties":{"bbox":{"roads":{"area":3019.31,"pct":13.59}},"city_same":1,"id":"hex:3638:24184"},"type":"Feature"},{"geometry":{"coordinates":[[[-122.47943,37.84698],[-122.48,37.8462],[-122.48114,37.84621],[-122.4817,37.84699],[-122.48113,37.84777],[-122.47999,37.84776],[-122.47979,37.84749],[-122.47977,37.84743],[-122.47975,37.84743],[-122.47943,37.84698]]],"type":"Polygon"},"properties":{"bbox":{"roads":{"area":2662.94,"pct":10.25}},"city":{"roads":{"area":1154.05,"pct":4.44}},"id":"hex:3638:24185"},"type":"Feature"},{"geometry":{"coordinates":[[[-122.47999,37.84776],[-122.48113,37.84777],[-122.48169,37.84855],[-122.48111,37.84933],[-122.47998,37.84932],[-122.47985,37.84915],[-122.47985,37.84913],[-122.47995,37.84797],[-122.47991,37.84786],[-122.47999,37.84776]]],"type":"Polygon"},"properties":{"bbox":{"roads":{"area":2690.45,"pct":11.79},"sidewalks":{"area":103.93,"pct":0.46}},"city":{"roads":{"area":1406.34,"pct":6.16},"sidewalks":{"area":103.93,"pct":0.46}},"id":"hex:3638:24186"},"type":"Feature"},{"geometry":{"coordinates":[[[-122.47998,37.84932],[-122.48111,37.84933],[-122.48168,37.85011],[-122.4811,37.85089],[-122.47997,37.85088],[-122.47953,37.85028],[-122.47971,37.84988],[-122.47976,37.84981],[-122.4798,37.84973],[-122.47983,37.84964],[-122.47984,37.84952],[-122.47984,37.8495],[-122.47998,37.84932]]],"type":"Polygon"},"properties":{"bbox":{"roads":{"area":3157.83,"pct":12.61},"sidewalks":{"area":552.43,"pct":2.21}},"city":{"roads":{"area":1703.7,"pct":6.8},"sidewalks":{"area":552.43,"pct":2.21}},"id":"hex:3638:24187"},"type":"Feature"},{"geometry":{"coordinates":[[[-122.47939,37.85166],[-122.47996,37.85244],[-122.48109,37.85245],[-122.48167,37.85167],[-122.4811,37.85089],[-122.47997,37.85088],[-122.47939,37.85166]]],"type":"Polygon"},"properties":{"bbox":{"roads":{"area":2493.47,"pct":9.6}},"city_same":1,"id":"hex:3638:24188"},"type":"Feature"},{"geometry":{"coordinates":[[[-122.47938,37.85322],[-122.47994,37.85401],[-122.48108,37.85401],[-122.48166,37.85323],[-122.48109,37.85245],[-122.47996,37.85244],[-122.47938,37.85322]]],"type":"Polygon"},"properties":{"bbox":{"roads":{"area":2473.34,"pct":9.52}},"city_same":1,"id":"hex:3638:24189"},"type":"Feature"},{"geometry":{"coordinates":[[[-122.47937,37.85478],[-122.47993,37.85557],[-122.48107,37.85557],[-122.48164,37.85479],[-122.48108,37.85401],[-122.47994,37.85401],[-122.47937,37.85478]]],"type":"Polygon"},"properties":{"bbox":{"roads":{"area":2796.7,"pct":10.76},"sidewalks":{"area":436.74,"pct":1.68}},"city_same":1,"id":"hex:3638:24190"},"type":"Feature"},{"geometry":{"coordinates":[[[-122.47936,37.85635],[-122.47992,37.85713],[-122.48106,37.85713],[-122.48163,37.85636],[-122.48107,37.85557],[-122.47993,37.85557],[-122.47936,37.85635]]],"type":"Polygon"},"properties":{"bbox":{"parking":{"area":1307.27,"pct":5.03},"roads":{"area":3218.05,"pct":12.39},"sidewalks":{"area":406.08,"pct":1.56}},"city":{"parking":{"area":1307.27,"pct":5.03},"roads":{"area":2029.41,"pct":7.81},"sidewalks":{"area":406.08,"pct":1.56}},"id":"hex:3638:24191"},"type":"Feature"},{"geometry":{"coordinates":[[[-122.47935,37.85791],[-122.47992,37.85713],[-122.48106,37.85713],[-122.48162,37.85792],[-122.48145,37.85816],[-122.48136,37.85811],[-122.4805,37.85762],[-122.48041,37.8576],[-122.48023,37.85752],[-122.48021,37.85755],[-122.48017,37.85754],[-122.47997,37.85776],[-122.47996,37.85775],[-122.47988,37.85785],[-122.47978,37.85797],[-122.47964,37.85821],[-122.4796,37.85826],[-122.47935,37.85791]]],"type":"Polygon"},"properties":{"bbox":{"parking":{"area":7222.7,"pct":59.68},"roads":{"area":2803.23,"pct":23.16},"sidewalks":{"area":219.25,"pct":1.81}},"city":{"parking":{"area":7222.7,"pct":59.68},"roads":{"area":2224.81,"pct":18.38},"sidewalks":{"area":219.25,"pct":1.81}},"id":"hex:3638:24192"},"type":"Feature"},{"geometry":{"coordinates":[[[-122.47944,37.84542],[-122.48,37.8462],[-122.47943,37.84698],[-122.47829,37.84697],[-122.47773,37.84619],[-122.47825,37.84548],[-122.47891,37.84542],[-122.47944,37.84542]]],"type":"Polygon"},"properties":{"bbox":{"roads":{"area":2600.87,"pct":10.09}},"city":{"roads":{"area":1198.55,"pct":4.65}},"id":"hex:3639:24184"},"type":"Feature"},{"geometry":{"coordinates":[[[[-122.47999,37.84776],[-122.47991,37.84786],[-122.47979,37.84749],[-122.47999,37.84776]]],[[[-122.47829,37.84697],[-122.47943,37.84698],[-122.47975,37.84743],[-122.47905,37.84742],[-122.47868,37.84738],[-122.47835,37.84728],[-122.47818,37.84717],[-122.47816,37.84715],[-122.47829,37.84697]]]],"type":"MultiPolygon"},"properties":{"bbox":{"roads":{"area":295.57,"pct":5.34}},"city":{"roads":{"area":117.36,"pct":2.12}},"id":"hex:3639:24185"},"type":"Feature"},{"geometry":{"coordinates":[[[-122.47997,37.85088],[-122.47939,37.85166],[-122.47876,37.85166],[-122.47875,37.85153],[-122.47903,37.85103],[-122.47953,37.8503],[-122.47953,37.85028],[-122.47997,37.85088]]],"type":"Polygon"},"properties":{"bbox":{"roads":{"area":1114.58,"pct":13.44},"sidewalks":{"area":451.75,"pct":5.45}},"city":{"sidewalks":{"area":451.75,"pct":5.45}},"id":"hex:3639:24187"},"type":"Feature"},{"geometry":{"coordinates":[[[-122.47939,37.85166],[-122.47996,37.85244],[-122.47938,37.85322],[-122.47881,37.85322],[-122.47879,37.85243],[-122.47876,37.85166],[-122.47939,37.85166]]],"type":"Polygon"},"properties":{"bbox":{"roads":{"area":1515.45,"pct":11.24},"sidewalks":{"area":519.63,"pct":3.85}},"city":{"roads":{"area":228.72,"pct":1.7},"sidewalks":{"area":519.63,"pct":3.85}},"id":"hex:3639:24188"},"type":"Feature"},{"geometry":{"coordinates":[[[-122.47938,37.85322],[-122.47994,37.85401],[-122.47937,37.85478],[-122.47877,37.85478],[-122.47879,37.85475],[-122.4788,37.8547],[-122.47881,37.85466],[-122.47881,37.8546],[-122.47882,37.85433],[-122.47882,37.85408],[-122.47882,37.85393],[-122.47882,37.85379],[-122.47882,37.8536],[-122.47881,37.85339],[-122.47881,37.85322],[-122.47938,37.85322]]],"type":"Polygon"},"properties":{"bbox":{"parking":{"area":935.87,"pct":7.26},"roads":{"area":1553.1,"pct":12.05},"sidewalks":{"area":519.74,"pct":4.03}},"city":{"parking":{"area":935.87,"pct":7.26},"roads":{"area":279.37,"pct":2.17},"sidewalks":{"area":519.74,"pct":4.03}},"id":"hex:3639:24189"},"type":"Feature"},{"geometry":{"coordinates":[[[-122.47937,37.85478],[-122.47993,37.85557],[-122.47936,37.85635],[-122.47856,37.85634],[-122.47851,37.85627],[-122.4785,37.85625],[-122.47849,37.85624],[-122.47849,37.85622],[-122.47849,37.8562],[-122.4785,37.85618],[-122.47851,37.85617],[-122.47852,37.85616],[-122.47853,37.85616],[-122.47855,37.85615],[-122.47857,37.85615],[-122.47857,37.85612],[-122.47857,37.85606],[-122.47856,37.85604],[-122.47856,37.85602],[-122.47856,37.85601],[-122.47856,37.85583],[-122.47843,37.85583],[-122.47843,37.85557],[-122.47846,37.85551],[-122.47854,37.85537],[-122.47855,37.85536],[-122.47861,37.85536],[-122.47866,37.85529],[-122.47869,37.8551],[-122.47871,37.85496],[-122.47866,37.85495],[-122.47866,37.85489],[-122.47875,37.85488],[-122.47875,37.85485],[-122.47876,37.85482],[-122.47877,37.85478],[-122.47877,37.85478],[-122.47937,37.85478]]],"type":"Polygon"},"properties":{"bbox":{"parking":{"area":1066.92,"pct":6.5},"roads":{"area":2171.39,"pct":13.23},"sidewalks":{"area":747.98,"pct":4.56}},"city":{"parking":{"area":1066.92,"pct":6.5},"roads":{"area":1073.92,"pct":6.54},"sidewalks":{"area":747.98,"pct":4.56}},"id":"hex:3639:24190"},"type":"Feature"},{"geometry":{"coordinates":[[[-122.47936,37.85635],[-122.47992,37.85713],[-122.47935,37.85791],[-122.47873,37.8579],[-122.4788,37.8577],[-122.47875,37.85726],[-122.47869,37.85703],[-122.4786,37.85674],[-122.47856,37.85668],[-122.47846,37.85661],[-122.47845,37.8566],[-122.4783,37.85651],[-122.47829,37.8565],[-122.47833,37.85644],[-122.47855,37.85646],[-122.47855,37.85645],[-122.47856,37.85642],[-122.47857,37.8564],[-122.47857,37.85636],[-122.47856,37.85634],[-122.47936,37.85635]]],"type":"Polygon"},"properties":{"bbox":{"parking":{"area":6896.28,"pct":46.41},"roads":{"area":2686.58,"pct":18.08},"sidewalks":{"area":78.5,"pct":0.53}},"city_same":1,"id":"hex:3639:24191"},"type":"Feature"},{"geometry":{"coordinates":[[[-122.47935,37.85791],[-122.4796,37.85826],[-122.47945,37.85845],[-122.47896,37.8589],[-122.47898,37.85893],[-122.47833,37.85932],[-122.47827,37.85927],[-122.47798,37.85878],[-122.4779,37.85843],[-122.47792,37.8584],[-122.47796,37.8584],[-122.47805,37.85857],[-122.4781,37.85862],[-122.47818,37.85867],[-122.47831,37.85868],[-122.47835,37.85867],[-122.4784,37.85864],[-122.47851,37.85857],[-122.47858,37.85848],[-122.47864,37.85826],[-122.47863,37.85818],[-122.47873,37.8579],[-122.47935,37.85791]]],"type":"Polygon"},"properties":{"bbox":{"parking":{"area":3552.42,"pct":32.16},"roads":{"area":2149.19,"pct":19.45}},"city_same":1,"id":"hex:3639:24192"},"type":"Feature"},{"geometry":{"coordinates":[[[-122.47773,37.84619],[-122.47738,37.84619],[-122.47736,37.84589],[-122.47725,37.84562],[-122.47724,37.84558],[-122.47825,37.84548],[-122.47773,37.84619]]],"type":"Polygon"},"properties":{"bbox":{"roads":{"area":258.42,"pct":6.22}},"id":"hex:3640:24184"},"type":"Feature"}],"type":"FeatureCollection","v":2}