{"features":[{"geometry":{"coordinates":[[[[-118.07163,33.99446],[-118.07128,33.99481],[-118.07085,33.99452],[-118.07018,33.99524],[-118.07111,33.99559],[-118.07072,33.99658],[-118.06868,33.99581],[-118.06767,33.9998],[-118.06695,34.00125],[-118.06529,34.00316],[-118.06219,34.00572],[-118.05658,34.0019],[-118.05633,34.00214],[-118.05623,34.00369],[-118.05398,34.00346],[-118.05062,34.00174],[-118.05049,34.00175],[-118.05048,34.00243],[-118.04902,34.00174],[-118.04647,34.00172],[-118.04657,34.00133],[-118.046,34.00085],[-118.03731,34.00078],[-118.03739,34.00384],[-118.02861,34.00379],[-118.02863,33.98996],[-118.01971,33.98968],[-118.01982,33.98611],[-118.00667,33.98604],[-118.00676,33.98241],[-117.99359,33.98244],[-117.99375,33.97519],[-117.9767,33.97509],[-117.97658,33.96482],[-117.98364,33.96501],[-117.98387,33.96404],[-117.98263,33.96208],[-117.98216,33.96077],[-117.98323,33.96081],[-117.98332,33.96017],[-117.98362,33.95976],[-117.9834,33.95936],[-117.98196,33.95879],[-117.98083,33.95782],[-117.99301,33.94992],[-117.99271,33.94958],[-117.99229,33.9497],[-117.98871,33.94973],[-117.98819,33.95057],[-117.98725,33.95009],[-117.98702,33.95029],[-117.98638,33.95006],[-117.98651,33.94966],[-117.96526,33.94971],[-117.9652,33.94895],[-117.96549,33.9487],[-117.96516,33.94859],[-117.96598,33.9475],[-117.96613,33.94701],[-117.96646,33.94692],[-117.96668,33.94606],[-117.97652,33.94605],[-117.97654,33.92803],[-117.98026,33.92807],[-117.98182,33.92831],[-117.9841,33.92907],[-117.99003,33.93193],[-118.0008,33.92945],[-118.00081,33.93519],[-118.00304,33.93519],[-118.00302,33.93616],[-118.00322,33.93616],[-118.00317,33.93816],[-118.03434,33.95292],[-118.03742,33.95395],[-118.04591,33.95538],[-118.04303,33.9534],[-118.04576,33.95062],[-118.04964,33.95329],[-118.0473,33.95562],[-118.05321,33.95665],[-118.05087,33.95897],[-118.05193,33.95966],[-118.05585,33.96154],[-118.05481,33.96178],[-118.05532,33.96595],[-118.05495,33.96602],[-118.05495,33.96823],[-118.05192,33.96755],[-118.05114,33.96992],[-118.05324,33.97167],[-118.05208,33.97229],[-118.05368,33.97434],[-118.05329,33.97473],[-118.05341,33.97482],[-118.05218,33.97606],[-118.05323,33.97757],[-118.05194,33.97894],[-118.05277,33.97949],[-118.05106,33.98123],[-118.05284,33.98244],[-118.05361,33.98164],[-118.05403,33.98192],[-118.05425,33.98171],[-118.05383,33.98143],[-118.05403,33.98121],[-118.0545,33.98153],[-118.0543,33.98166],[-118.05521,33.98228],[-118.05452,33.98234],[-118.05399,33.98199],[-118.05361,33.98297],[-118.05715,33.98537],[-118.05729,33.98522],[-118.0606,33.98749],[-118.06406,33.98396],[-118.06757,33.98637],[-118.06439,33.98958],[-118.06809,33.9921],[-118.06784,33.99236],[-118.06993,33.99384],[-118.07082,33.99293],[-118.07127,33.99324],[-118.07171,33.99281],[-118.07232,33.99323],[-118.07163,33.99446]],[[-118.01714,33.97591],[-118.01715,33.97621],[-118.01557,33.97623],[-118.01555,33.97705],[-118.01783,33.97705],[-118.01782,33.9766],[-118.01848,33.97531],[-118.01713,33.97529],[-118.01714,33.97591]],[[-118.02793,33.98734],[-118.02716,33.98734],[-118.0272,33.98691],[-118.02477,33.98725],[-118.02314,33.98846],[-118.02262,33.98841],[-118.02394,33.98882],[-118.02777,33.98818],[-118.02793,33.98734]],[[-117.98967,33.96352],[-117.98958,33.9638],[-117.98975,33.96368],[-117.98967,33.96352]],[[-117.9897,33.96379],[-117.98969,33.96394],[-117.9899,33.96371],[-117.9897,33.96379]],[[-117.99559,33.96034],[-117.99569,33.96014],[-117.99642,33.96017],[-117.99644,33.96002],[-117.99603,33.95972],[-117.99561,33.95983],[-117.99596,33.9598],[-117.9962,33.96001],[-117.99604,33.96011],[-117.99564,33.96004],[-117.99559,33.95985],[-117.99506,33.95991],[-117.99502,33.96019],[-117.99467,33.96057],[-117.99559,33.96034]],[[-117.99701,33.96386],[-117.99732,33.96406],[-117.998,33.96318],[-117.99776,33.96315],[-117.99701,33.96386]]],[[[-118.05546,34.02793],[-118.0562,34.02999],[-118.05583,34.03008],[-118.05451,34.02787],[-118.05427,34.02799],[-118.05257,34.02755],[-118.05209,34.02755],[-118.05379,34.02672],[-118.05411,34.0241],[-118.05457,34.02335],[-118.05779,34.02459],[-118.05603,34.02775],[-118.05546,34.02793]]]],"type":"MultiPolygon"},"properties":{"type":"boundary"},"type":"Feature"}],"type":"FeatureCollection"}