{"features":[{"geometry":{"coordinates":[[[-117.86259,33.99655],[-117.86187,33.99672],[-117.86082,33.99723],[-117.86065,33.99817],[-117.85988,33.99918],[-117.86141,34.00077],[-117.86001,34.00144],[-117.85865,34.00013],[-117.85728,34.00106],[-117.85789,34.00168],[-117.85595,34.00299],[-117.84435,34.00832],[-117.84245,34.0095],[-117.83822,34.00773],[-117.83984,34.00692],[-117.8403,34.00654],[-117.84175,34.00647],[-117.84029,34.00646],[-117.84116,34.00579],[-117.84169,34.0051],[-117.84129,34.0038],[-117.84025,34.00193],[-117.83569,34.00217],[-117.83531,34.00228],[-117.83396,34.00327],[-117.83174,34.00396],[-117.82818,34.00642],[-117.82657,34.00772],[-117.82458,34.00972],[-117.8249,34.01129],[-117.82463,34.01192],[-117.82397,34.01203],[-117.82361,34.0106],[-117.82026,34.01391],[-117.82021,34.02969],[-117.8215,34.03121],[-117.81825,34.03448],[-117.81074,34.02933],[-117.80563,34.03694],[-117.80573,34.037],[-117.80246,34.04103],[-117.80158,34.04291],[-117.79843,34.04085],[-117.7973,34.03959],[-117.79603,34.03852],[-117.79476,34.03779],[-117.79234,34.03703],[-117.78517,34.03243],[-117.78523,34.02615],[-117.78388,34.02579],[-117.78246,34.02603],[-117.76768,34.0194],[-117.76706,34.0112],[-117.76749,34.00471],[-117.7849,34.00489],[-117.80255,33.97555],[-117.81667,33.97539],[-117.81667,33.97402],[-117.82819,33.96465],[-117.82874,33.96464],[-117.82872,33.96424],[-117.83043,33.96283],[-117.83738,33.96286],[-117.83734,33.96103],[-117.85497,33.96067],[-117.85523,33.99022],[-117.86389,33.99651],[-117.86259,33.99655]],[[-117.82103,34.00983],[-117.8215,34.00979],[-117.82238,34.00904],[-117.82223,34.00832],[-117.82183,34.0082],[-117.82099,34.00959],[-117.82103,34.00983]],[[-117.83747,33.97495],[-117.83748,33.97495],[-117.83736,33.97487],[-117.83735,33.97488],[-117.83747,33.97495]],[[-117.83759,33.97502],[-117.83749,33.97496],[-117.83749,33.97496],[-117.83759,33.97503],[-117.83759,33.97502]],[[-117.83765,33.97506],[-117.83765,33.97505],[-117.83765,33.97505],[-117.83764,33.97505],[-117.8376,33.97502],[-117.8376,33.97502],[-117.83764,33.97505],[-117.83763,33.97506],[-117.83759,33.97503],[-117.83759,33.97504],[-117.83763,33.97506],[-117.83763,33.97506],[-117.83764,33.97506],[-117.83764,33.97506],[-117.83765,33.97506],[-117.83765,33.97506],[-117.83765,33.97506]],[[-117.83763,33.97505],[-117.83763,33.97505],[-117.8376,33.97503],[-117.83759,33.97503],[-117.83763,33.97505]],[[-117.83795,33.97525],[-117.83796,33.97525],[-117.83797,33.97525],[-117.83798,33.97525],[-117.83805,33.9753],[-117.83806,33.9753],[-117.83797,33.97524],[-117.83796,33.97524],[-117.83795,33.97524],[-117.83795,33.97524],[-117.83794,33.97524],[-117.83793,33.97524],[-117.83787,33.9752],[-117.83787,33.9752],[-117.83781,33.97516],[-117.83779,33.97515],[-117.83778,33.97514],[-117.83777,33.97514],[-117.83776,33.97515],[-117.83776,33.97516],[-117.83776,33.97516],[-117.83777,33.97517],[-117.83779,33.97518],[-117.83785,33.97522],[-117.83786,33.97521],[-117.83792,33.97525],[-117.83792,33.97525],[-117.83792,33.97526],[-117.83792,33.97527],[-117.83792,33.97527],[-117.83792,33.97527],[-117.83792,33.97528],[-117.83802,33.97534],[-117.83802,33.97534],[-117.83794,33.97529],[-117.83794,33.97528],[-117.83793,33.97527],[-117.83794,33.97526],[-117.83794,33.97525],[-117.83795,33.97525]],[[-117.84629,33.98967],[-117.84647,33.98986],[-117.84678,33.98976],[-117.84654,33.9894],[-117.84609,33.98934],[-117.84629,33.98967]],[[-117.84853,33.97893],[-117.8489,33.97902],[-117.84874,33.97863],[-117.84853,33.97893]],[[-117.85219,33.9724],[-117.85183,33.9723],[-117.8515,33.9726],[-117.85221,33.97309],[-117.85219,33.9724]],[[-117.85344,33.96562],[-117.85341,33.96542],[-117.85319,33.9655],[-117.85344,33.96562]]],"type":"Polygon"},"properties":{"type":"boundary"},"type":"Feature"}],"type":"FeatureCollection"}