{"features":[{"geometry":{"coordinates":[[[-118.39559,34.09105],[-118.38604,34.09104],[-118.38605,34.09251],[-118.38571,34.09294],[-118.38553,34.09276],[-118.38553,34.0932],[-118.38504,34.0932],[-118.38504,34.09356],[-118.38446,34.09356],[-118.38438,34.09372],[-118.38337,34.09372],[-118.38337,34.09333],[-118.38118,34.09332],[-118.38118,34.0921],[-118.3793,34.09295],[-118.37658,34.09475],[-118.3726,34.09568],[-118.37157,34.09643],[-118.3698,34.09721],[-118.36864,34.09807],[-118.36821,34.09803],[-118.36817,34.09709],[-118.36736,34.09709],[-118.36736,34.09689],[-118.36674,34.0969],[-118.36674,34.09711],[-118.36165,34.09718],[-118.36168,34.09454],[-118.34338,34.09441],[-118.34339,34.08889],[-118.3528,34.08896],[-118.3528,34.08713],[-118.36272,34.08719],[-118.36271,34.08879],[-118.36327,34.08878],[-118.36327,34.08897],[-118.36644,34.08892],[-118.36644,34.08715],[-118.37028,34.08709],[-118.37025,34.08561],[-118.37098,34.0856],[-118.37098,34.08546],[-118.37249,34.08544],[-118.3725,34.09026],[-118.37307,34.09025],[-118.37327,34.09005],[-118.37413,34.08996],[-118.37433,34.08971],[-118.37476,34.0897],[-118.37476,34.08942],[-118.37519,34.08942],[-118.37538,34.08914],[-118.37628,34.08899],[-118.37695,34.08863],[-118.37703,34.08304],[-118.3703,34.08315],[-118.37029,34.08017],[-118.37423,34.08015],[-118.37423,34.08202],[-118.37528,34.08201],[-118.37528,34.08016],[-118.37725,34.08021],[-118.3769,34.07899],[-118.37757,34.07874],[-118.37722,34.07817],[-118.37717,34.07656],[-118.37868,34.07658],[-118.37882,34.07639],[-118.37975,34.07639],[-118.38062,34.07671],[-118.38169,34.07671],[-118.38169,34.0764],[-118.38973,34.0765],[-118.38979,34.08852],[-118.39362,34.08966],[-118.39453,34.09062],[-118.39578,34.09061],[-118.39588,34.09108],[-118.39559,34.09105]],[[-118.38299,34.09045],[-118.38307,34.09045],[-118.38307,34.09039],[-118.383,34.09039],[-118.38299,34.09045]]],"type":"Polygon"},"properties":{"type":"boundary"},"type":"Feature"}],"type":"FeatureCollection"}