{"features":[{"geometry":{"coordinates":[[[-118.39426,34.0904],[-118.39428,34.09036],[-118.39453,34.09062],[-118.39519,34.09061],[-118.39545,34.09061],[-118.39578,34.09061],[-118.39588,34.09108],[-118.39559,34.09105],[-118.39473,34.09105],[-118.39426,34.0904]]],"type":"Polygon"},"properties":{"bbox":{"roads":{"area":813.64,"pct":13.84},"sidewalks":{"area":19.1,"pct":0.32}},"city_same":1,"id":"hex:1980:17427"},"type":"Feature"},{"geometry":{"coordinates":[[[-118.39426,34.0904],[-118.3929,34.09041],[-118.39221,34.08944],[-118.39234,34.08924],[-118.39362,34.08966],[-118.39372,34.08975],[-118.39428,34.09036],[-118.39426,34.0904]]],"type":"Polygon"},"properties":{"bbox":{"roads":{"area":1970.95,"pct":14.92},"sidewalks":{"area":310,"pct":2.35}},"city":{"roads":{"area":567.81,"pct":4.3},"sidewalks":{"area":310,"pct":2.35}},"id":"hex:1981:17426"},"type":"Feature"},{"geometry":{"coordinates":[[[-118.3929,34.09041],[-118.39426,34.0904],[-118.39473,34.09105],[-118.39248,34.09105],[-118.3929,34.09041]]],"type":"Polygon"},"properties":{"bbox":{"parking":{"area":266.5,"pct":2.23},"roads":{"area":1871.97,"pct":15.63},"sidewalks":{"area":560.72,"pct":4.68}},"city_same":1,"id":"hex:1981:17427"},"type":"Feature"},{"geometry":{"coordinates":[[[-118.39221,34.08944],[-118.39086,34.08946],[-118.39027,34.08864],[-118.39043,34.08869],[-118.39068,34.08876],[-118.39108,34.08888],[-118.39146,34.08899],[-118.39221,34.0892],[-118.39231,34.08923],[-118.39234,34.08924],[-118.39221,34.08944]]],"type":"Polygon"},"properties":{"bbox":{"roads":{"area":1028.39,"pct":12.51},"sidewalks":{"area":234.67,"pct":2.85}},"city_same":1,"id":"hex:1982:17426"},"type":"Feature"},{"geometry":{"coordinates":[[[-118.3902,34.09044],[-118.39086,34.08946],[-118.39221,34.08944],[-118.3929,34.09041],[-118.39248,34.09105],[-118.39063,34.09105],[-118.3902,34.09044]]],"type":"Polygon"},"properties":{"bbox":{"parking":{"area":2675.36,"pct":7.69},"roads":{"area":7777.66,"pct":22.36},"sidewalks":{"area":1447.27,"pct":4.16}},"city":{"parking":{"area":2675.36,"pct":7.69},"roads":{"area":3711.62,"pct":10.67},"sidewalks":{"area":1447.27,"pct":4.16}},"id":"hex:1982:17427"},"type":"Feature"},{"geometry":{"coordinates":[[[-118.38862,34.07679],[-118.38839,34.07647],[-118.38873,34.07647],[-118.3896,34.07647],[-118.38973,34.0765],[-118.38973,34.07652],[-118.38974,34.07678],[-118.38862,34.07679]]],"type":"Polygon"},"properties":{"bbox":{"roads":{"area":506.79,"pct":12.88},"sidewalks":{"area":155.51,"pct":3.95}},"city_same":1,"id":"hex:1983:17419"},"type":"Feature"},{"geometry":{"coordinates":[[[-118.38865,34.07874],[-118.38796,34.07778],[-118.38862,34.07679],[-118.38974,34.07678],[-118.38974,34.07681],[-118.38973,34.07706],[-118.38973,34.07718],[-118.38973,34.0773],[-118.38974,34.07778],[-118.38974,34.07797],[-118.38974,34.07865],[-118.38974,34.07868],[-118.38974,34.07873],[-118.38865,34.07874]]],"type":"Polygon"},"properties":{"bbox":{"roads":{"area":6505.9,"pct":22.57},"sidewalks":{"area":1390.37,"pct":4.82}},"city":{"roads":{"area":4041.57,"pct":14.02},"sidewalks":{"area":1390.37,"pct":4.82}},"id":"hex:1983:17420"},"type":"Feature"},{"geometry":{"coordinates":[[[-118.38868,34.0807],[-118.38799,34.07973],[-118.38865,34.07874],[-118.38974,34.07873],[-118.38974,34.07933],[-118.38975,34.08003],[-118.38975,34.08031],[-118.38976,34.0806],[-118.38976,34.08062],[-118.38976,34.08063],[-118.38976,34.08068],[-118.38868,34.0807]]],"type":"Polygon"},"properties":{"bbox":{"roads":{"area":4262.72,"pct":15.02},"sidewalks":{"area":1070.69,"pct":3.77}},"city":{"roads":{"area":3468.84,"pct":12.23},"sidewalks":{"area":1070.69,"pct":3.77}},"id":"hex:1983:17421"},"type":"Feature"},{"geometry":{"coordinates":[[[-118.38871,34.08265],[-118.38802,34.08168],[-118.38868,34.0807],[-118.38976,34.08068],[-118.38976,34.08075],[-118.38976,34.08079],[-118.38976,34.08085],[-118.38976,34.08087],[-118.38975,34.08098],[-118.38977,34.08114],[-118.38976,34.0813],[-118.38977,34.0815],[-118.38977,34.08153],[-118.38977,34.08166],[-118.38977,34.0817],[-118.38978,34.08223],[-118.38978,34.08227],[-118.38977,34.08236],[-118.38978,34.08264],[-118.38871,34.08265]]],"type":"Polygon"},"properties":{"bbox":{"roads":{"area":6450.51,"pct":22.87},"sidewalks":{"area":1336.91,"pct":4.74}},"city":{"roads":{"area":2591.45,"pct":9.19},"sidewalks":{"area":1336.91,"pct":4.74}},"id":"hex:1983:17422"},"type":"Feature"},{"geometry":{"coordinates":[[[-118.38874,34.0846],[-118.38805,34.08363],[-118.38871,34.08265],[-118.38978,34.08264],[-118.38979,34.08289],[-118.38979,34.08351],[-118.38979,34.08425],[-118.38979,34.08445],[-118.38979,34.08459],[-118.38874,34.0846]]],"type":"Polygon"},"properties":{"bbox":{"roads":{"area":3700.78,"pct":13.23},"sidewalks":{"area":1383.57,"pct":4.95}},"city":{"roads":{"area":2585.75,"pct":9.24},"sidewalks":{"area":1383.57,"pct":4.95}},"id":"hex:1983:17423"},"type":"Feature"},{"geometry":{"coordinates":[[[-118.38878,34.08655],[-118.38808,34.08558],[-118.38874,34.0846],[-118.38979,34.08459],[-118.38979,34.0849],[-118.38979,34.08555],[-118.38979,34.08612],[-118.3898,34.08654],[-118.38878,34.08655]]],"type":"Polygon"},"properties":{"bbox":{"roads":{"area":3456.33,"pct":12.62},"sidewalks":{"area":1373.36,"pct":5.02}},"city":{"roads":{"area":2160.74,"pct":7.89},"sidewalks":{"area":1373.36,"pct":5.02}},"id":"hex:1983:17424"},"type":"Feature"},{"geometry":{"coordinates":[[[-118.38881,34.0885],[-118.38812,34.08754],[-118.38878,34.08655],[-118.3898,34.08654],[-118.3898,34.08669],[-118.3898,34.08731],[-118.38979,34.08758],[-118.38979,34.08849],[-118.38881,34.0885]]],"type":"Polygon"},"properties":{"bbox":{"parking":{"area":374.81,"pct":1.4},"roads":{"area":3412.19,"pct":12.74},"sidewalks":{"area":1307.52,"pct":4.88}},"city":{"parking":{"area":374.81,"pct":1.4},"roads":{"area":2144.33,"pct":8.01},"sidewalks":{"area":1307.52,"pct":4.88}},"id":"hex:1983:17425"},"type":"Feature"},{"geometry":{"coordinates":[[[-118.39086,34.08946],[-118.3902,34.09044],[-118.38884,34.09046],[-118.38815,34.08949],[-118.38881,34.0885],[-118.38979,34.08849],[-118.38979,34.08852],[-118.38981,34.0885],[-118.39013,34.0886],[-118.39027,34.08864],[-118.39086,34.08946]]],"type":"Polygon"},"properties":{"bbox":{"parking":{"area":788.13,"pct":1.96},"roads":{"area":5451.78,"pct":13.53},"sidewalks":{"area":1243.72,"pct":3.09}},"city":{"parking":{"area":788.13,"pct":1.96},"roads":{"area":2333.31,"pct":5.79},"sidewalks":{"area":1243.72,"pct":3.09}},"id":"hex:1983:17426"},"type":"Feature"},{"geometry":{"coordinates":[[[-118.38884,34.09046],[-118.3902,34.09044],[-118.39063,34.09105],[-118.38845,34.09104],[-118.38884,34.09046]]],"type":"Polygon"},"properties":{"bbox":{"roads":{"area":3713.86,"pct":34.56},"sidewalks":{"area":578.31,"pct":5.38}},"city":{"roads":{"area":990.38,"pct":9.22},"sidewalks":{"area":578.31,"pct":5.38}},"id":"hex:1983:17427"},"type":"Feature"},{"geometry":{"coordinates":[[[-118.38862,34.07679],[-118.38796,34.07778],[-118.3866,34.07779],[-118.38591,34.07682],[-118.38615,34.07647],[-118.3867,34.07647],[-118.3868,34.07647],[-118.38688,34.07647],[-118.38772,34.07647],[-118.38839,34.07647],[-118.38862,34.07679]]],"type":"Polygon"},"properties":{"bbox":{"roads":{"area":4358.58,"pct":15.1},"sidewalks":{"area":1101.17,"pct":3.81}},"city":{"roads":{"area":1809.98,"pct":6.27},"sidewalks":{"area":1101.17,"pct":3.81}},"id":"hex:1984:17420"},"type":"Feature"},{"geometry":{"coordinates":[[[-118.38594,34.07877],[-118.38663,34.07974],[-118.38799,34.07973],[-118.38865,34.07874],[-118.38796,34.07778],[-118.3866,34.07779],[-118.38594,34.07877]]],"type":"Polygon"},"properties":{"bbox":{"roads":{"area":5250.83,"pct":12.93},"sidewalks":{"area":2078.18,"pct":5.12}},"city_same":1,"id":"hex:1984:17421"},"type":"Feature"},{"geometry":{"coordinates":[[[-118.38597,34.08073],[-118.38667,34.0817],[-118.38802,34.08168],[-118.38868,34.0807],[-118.38799,34.07973],[-118.38663,34.07974],[-118.38597,34.08073]]],"type":"Polygon"},"properties":{"bbox":{"roads":{"area":5614.88,"pct":13.83},"sidewalks":{"area":1897.39,"pct":4.67}},"city_same":1,"id":"hex:1984:17422"},"type":"Feature"},{"geometry":{"coordinates":[[[-118.386,34.08268],[-118.3867,34.08365],[-118.38805,34.08363],[-118.38871,34.08265],[-118.38802,34.08168],[-118.38667,34.0817],[-118.386,34.08268]]],"type":"Polygon"},"properties":{"bbox":{"parking":{"area":631.07,"pct":1.55},"roads":{"area":8905.3,"pct":21.94},"sidewalks":{"area":1642.2,"pct":4.05}},"city":{"parking":{"area":631.07,"pct":1.55},"roads":{"area":5527.01,"pct":13.62},"sidewalks":{"area":1642.2,"pct":4.05}},"id":"hex:1984:17423"},"type":"Feature"},{"geometry":{"coordinates":[[[-118.38604,34.08463],[-118.38673,34.0856],[-118.38808,34.08558],[-118.38874,34.0846],[-118.38805,34.08363],[-118.3867,34.08365],[-118.38604,34.08463]]],"type":"Polygon"},"properties":{"bbox":{"parking":{"area":2781.69,"pct":6.85},"roads":{"area":5672.07,"pct":13.97},"sidewalks":{"area":1753.31,"pct":4.32}},"city_same":1,"id":"hex:1984:17424"},"type":"Feature"},{"geometry":{"coordinates":[[[-118.38607,34.08658],[-118.38676,34.08755],[-118.38812,34.08754],[-118.38878,34.08655],[-118.38808,34.08558],[-118.38673,34.0856],[-118.38607,34.08658]]],"type":"Polygon"},"properties":{"bbox":{"roads":{"area":4607.67,"pct":11.35},"sidewalks":{"area":2360.58,"pct":5.81}},"city_same":1,"id":"hex:1984:17425"},"type":"Feature"},{"geometry":{"coordinates":[[[-118.3861,34.08854],[-118.38679,34.0895],[-118.38815,34.08949],[-118.38881,34.0885],[-118.38812,34.08754],[-118.38676,34.08755],[-118.3861,34.08854]]],"type":"Polygon"},"properties":{"bbox":{"parking":{"area":90.04,"pct":0.22},"roads":{"area":3457.8,"pct":8.52},"sidewalks":{"area":1452.46,"pct":3.58}},"city_same":1,"id":"hex:1984:17426"},"type":"Feature"},{"geometry":{"coordinates":[[[-118.38613,34.09049],[-118.38679,34.0895],[-118.38815,34.08949],[-118.38884,34.09046],[-118.38845,34.09104],[-118.38652,34.09104],[-118.38613,34.09049]]],"type":"Polygon"},"properties":{"bbox":{"parking":{"area":4433.56,"pct":13.14},"roads":{"area":6341.04,"pct":18.8},"sidewalks":{"area":1518.96,"pct":4.5}},"city":{"parking":{"area":4433.56,"pct":13.14},"roads":{"area":2796.08,"pct":8.29},"sidewalks":{"area":1518.96,"pct":4.5}},"id":"hex:1984:17427"},"type":"Feature"},{"geometry":{"coordinates":[[[-118.38591,34.07682],[-118.38455,34.07684],[-118.38429,34.07646],[-118.38436,34.07646],[-118.38469,34.07646],[-118.38484,34.07646],[-118.38582,34.07646],[-118.38615,34.07647],[-118.38591,34.07682]]],"type":"Polygon"},"properties":{"bbox":{"roads":{"area":599.32,"pct":9.94},"sidewalks":{"area":240.9,"pct":4}},"city_same":1,"id":"hex:1985:17419"},"type":"Feature"},{"geometry":{"coordinates":[[[-118.38389,34.07782],[-118.38459,34.07879],[-118.38594,34.07877],[-118.3866,34.07779],[-118.38591,34.07682],[-118.38455,34.07684],[-118.38389,34.07782]]],"type":"Polygon"},"properties":{"bbox":{"roads":{"area":5797.59,"pct":14.28},"sidewalks":{"area":1738.06,"pct":4.28}},"city":{"roads":{"area":3216.08,"pct":7.92},"sidewalks":{"area":1738.06,"pct":4.28}},"id":"hex:1985:17420"},"type":"Feature"},{"geometry":{"coordinates":[[[-118.38392,34.07977],[-118.38462,34.08074],[-118.38597,34.08073],[-118.38663,34.07974],[-118.38594,34.07877],[-118.38459,34.07879],[-118.38392,34.07977]]],"type":"Polygon"},"properties":{"bbox":{"parking":{"area":327.32,"pct":0.81},"roads":{"area":5382.31,"pct":13.26},"sidewalks":{"area":1734.81,"pct":4.27}},"city_same":1,"id":"hex:1985:17421"},"type":"Feature"},{"geometry":{"coordinates":[[[-118.38396,34.08173],[-118.38465,34.08269],[-118.386,34.08268],[-118.38667,34.0817],[-118.38597,34.08073],[-118.38462,34.08074],[-118.38396,34.08173]]],"type":"Polygon"},"properties":{"bbox":{"parking":{"area":3659.77,"pct":9.02},"roads":{"area":4976.56,"pct":12.26},"sidewalks":{"area":938.14,"pct":2.31}},"city_same":1,"id":"hex:1985:17422"},"type":"Feature"},{"geometry":{"coordinates":[[[-118.38399,34.08368],[-118.38468,34.08465],[-118.38604,34.08463],[-118.3867,34.08365],[-118.386,34.08268],[-118.38465,34.08269],[-118.38399,34.08368]]],"type":"Polygon"},"properties":{"bbox":{"parking":{"area":5014.44,"pct":12.35},"roads":{"area":7128.23,"pct":17.56},"sidewalks":{"area":1181.66,"pct":2.91}},"city":{"parking":{"area":5014.44,"pct":12.35},"roads":{"area":3599.69,"pct":8.87},"sidewalks":{"area":1181.66,"pct":2.91}},"id":"hex:1985:17423"},"type":"Feature"},{"geometry":{"coordinates":[[[-118.38402,34.08563],[-118.38471,34.0866],[-118.38607,34.08658],[-118.38673,34.0856],[-118.38604,34.08463],[-118.38468,34.08465],[-118.38402,34.08563]]],"type":"Polygon"},"properties":{"bbox":{"parking":{"area":3461.4,"pct":8.53},"roads":{"area":6327.37,"pct":15.59},"sidewalks":{"area":1852.73,"pct":4.56}},"city":{"parking":{"area":3461.4,"pct":8.53},"roads":{"area":3883.16,"pct":9.57},"sidewalks":{"area":1852.73,"pct":4.56}},"id":"hex:1985:17424"},"type":"Feature"},{"geometry":{"coordinates":[[[-118.38405,34.08758],[-118.38474,34.08855],[-118.3861,34.08854],[-118.38676,34.08755],[-118.38607,34.08658],[-118.38471,34.0866],[-118.38405,34.08758]]],"type":"Polygon"},"properties":{"bbox":{"roads":{"area":5774.22,"pct":14.22},"sidewalks":{"area":1561,"pct":3.85}},"city":{"roads":{"area":2685.14,"pct":6.61},"sidewalks":{"area":1561,"pct":3.85}},"id":"hex:1985:17425"},"type":"Feature"},{"geometry":{"coordinates":[[[-118.38408,34.08953],[-118.38478,34.0905],[-118.38613,34.09049],[-118.38679,34.0895],[-118.3861,34.08854],[-118.38474,34.08855],[-118.38408,34.08953]]],"type":"Polygon"},"properties":{"bbox":{"parking":{"area":1201.49,"pct":2.96},"roads":{"area":6128.7,"pct":15.1},"sidewalks":{"area":1388.94,"pct":3.42}},"city":{"parking":{"area":1201.49,"pct":2.96},"roads":{"area":3002,"pct":7.4},"sidewalks":{"area":1388.94,"pct":3.42}},"id":"hex:1985:17426"},"type":"Feature"},{"geometry":{"coordinates":[[[-118.38481,34.09245],[-118.38412,34.09149],[-118.38478,34.0905],[-118.38613,34.09049],[-118.38652,34.09104],[-118.38604,34.09104],[-118.38605,34.09244],[-118.38481,34.09245]]],"type":"Polygon"},"properties":{"bbox":{"roads":{"area":5184.02,"pct":15.53},"sidewalks":{"area":1297,"pct":3.89}},"city":{"roads":{"area":2618.18,"pct":7.84},"sidewalks":{"area":1297,"pct":3.89}},"id":"hex:1985:17427"},"type":"Feature"},{"geometry":{"coordinates":[[[-118.38415,34.09344],[-118.38481,34.09245],[-118.38605,34.09244],[-118.38605,34.09251],[-118.38594,34.09277],[-118.38576,34.0929],[-118.38571,34.09294],[-118.38553,34.09276],[-118.38553,34.0932],[-118.38504,34.0932],[-118.38504,34.09356],[-118.38446,34.09356],[-118.38438,34.09372],[-118.38435,34.09372],[-118.38415,34.09344]]],"type":"Polygon"},"properties":{"bbox":{"roads":{"area":1221.94,"pct":9.68},"sidewalks":{"area":424.1,"pct":3.36}},"city_same":1,"id":"hex:1985:17428"},"type":"Feature"},{"geometry":{"coordinates":[[[-118.38455,34.07684],[-118.38389,34.07782],[-118.38254,34.07784],[-118.38185,34.07687],[-118.38216,34.07639],[-118.38227,34.07639],[-118.38233,34.07639],[-118.38266,34.0764],[-118.38281,34.0764],[-118.38324,34.0764],[-118.38359,34.0764],[-118.38361,34.0764],[-118.38372,34.07643],[-118.38384,34.07646],[-118.38422,34.07646],[-118.38428,34.07646],[-118.38429,34.07646],[-118.38455,34.07684]]],"type":"Polygon"},"properties":{"bbox":{"parking":{"area":1570.08,"pct":5.05},"roads":{"area":5902.85,"pct":18.98},"sidewalks":{"area":1275.27,"pct":4.1}},"city":{"parking":{"area":1570.08,"pct":5.05},"roads":{"area":3156.18,"pct":10.15},"sidewalks":{"area":1275.27,"pct":4.1}},"id":"hex:1986:17420"},"type":"Feature"},{"geometry":{"coordinates":[[[-118.38188,34.07882],[-118.38257,34.07979],[-118.38392,34.07977],[-118.38459,34.07879],[-118.38389,34.07782],[-118.38254,34.07784],[-118.38188,34.07882]]],"type":"Polygon"},"properties":{"bbox":{"parking":{"area":808.35,"pct":1.99},"roads":{"area":4963.3,"pct":12.23},"sidewalks":{"area":1802.52,"pct":4.44}},"city_same":1,"id":"hex:1986:17421"},"type":"Feature"},{"geometry":{"coordinates":[[[-118.38191,34.08077],[-118.3826,34.08174],[-118.38396,34.08173],[-118.38462,34.08074],[-118.38392,34.07977],[-118.38257,34.07979],[-118.38191,34.08077]]],"type":"Polygon"},"properties":{"bbox":{"parking":{"area":141,"pct":0.35},"roads":{"area":8187.41,"pct":20.17},"sidewalks":{"area":1536.13,"pct":3.78}},"city":{"parking":{"area":141,"pct":0.35},"roads":{"area":4418,"pct":10.88},"sidewalks":{"area":1536.13,"pct":3.78}},"id":"hex:1986:17422"},"type":"Feature"},{"geometry":{"coordinates":[[[-118.38194,34.08272],[-118.38263,34.08369],[-118.38399,34.08368],[-118.38465,34.08269],[-118.38396,34.08173],[-118.3826,34.08174],[-118.38194,34.08272]]],"type":"Polygon"},"properties":{"bbox":{"parking":{"area":181.4,"pct":0.45},"roads":{"area":4151.3,"pct":10.23},"sidewalks":{"area":681.05,"pct":1.68}},"city":{"parking":{"area":181.4,"pct":0.45},"roads":{"area":823.68,"pct":2.03},"sidewalks":{"area":681.05,"pct":1.68}},"id":"hex:1986:17423"},"type":"Feature"},{"geometry":{"coordinates":[[[-118.38197,34.08468],[-118.38267,34.08565],[-118.38402,34.08563],[-118.38468,34.08465],[-118.38399,34.08368],[-118.38263,34.08369],[-118.38197,34.08468]]],"type":"Polygon"},"properties":{"bbox":{"parking":{"area":3811.85,"pct":9.39},"roads":{"area":9898.55,"pct":24.38},"sidewalks":{"area":995.61,"pct":2.45}},"city":{"parking":{"area":3811.85,"pct":9.39},"roads":{"area":2921.26,"pct":7.2},"sidewalks":{"area":995.61,"pct":2.45}},"id":"hex:1986:17424"},"type":"Feature"},{"geometry":{"coordinates":[[[-118.382,34.08663],[-118.3827,34.0876],[-118.38405,34.08758],[-118.38471,34.0866],[-118.38402,34.08563],[-118.38267,34.08565],[-118.382,34.08663]]],"type":"Polygon"},"properties":{"bbox":{"parking":{"area":3614.4,"pct":8.9},"roads":{"area":5068.72,"pct":12.49},"sidewalks":{"area":1657.29,"pct":4.08}},"city":{"parking":{"area":3614.4,"pct":8.9},"roads":{"area":3978.54,"pct":9.8},"sidewalks":{"area":1657.29,"pct":4.08}},"id":"hex:1986:17425"},"type":"Feature"},{"geometry":{"coordinates":[[[-118.38204,34.08858],[-118.38273,34.08955],[-118.38408,34.08953],[-118.38474,34.08855],[-118.38405,34.08758],[-118.3827,34.0876],[-118.38204,34.08858]]],"type":"Polygon"},"properties":{"bbox":{"roads":{"area":2461.86,"pct":6.06},"sidewalks":{"area":940.76,"pct":2.32}},"city_same":1,"id":"hex:1986:17426"},"type":"Feature"},{"geometry":{"coordinates":[[[-118.38273,34.08955],[-118.38408,34.08953],[-118.38478,34.0905],[-118.38412,34.09149],[-118.38276,34.0915],[-118.38207,34.09053],[-118.38273,34.08955]],[[-118.38307,34.09045],[-118.38307,34.09039],[-118.383,34.09039],[-118.38299,34.09045],[-118.38307,34.09045]]],"type":"Polygon"},"properties":{"bbox":{"parking":{"area":2368.24,"pct":5.84},"roads":{"area":8988.38,"pct":22.17},"sidewalks":{"area":1808.04,"pct":4.46}},"city":{"parking":{"area":2368.24,"pct":5.84},"roads":{"area":5698.52,"pct":14.05},"sidewalks":{"area":1808.04,"pct":4.46}},"id":"hex:1986:17427"},"type":"Feature"},{"geometry":{"coordinates":[[[-118.3821,34.09248],[-118.38276,34.0915],[-118.38412,34.09149],[-118.38481,34.09245],[-118.38415,34.09344],[-118.38337,34.09345],[-118.38337,34.09333],[-118.3827,34.09333],[-118.3821,34.09248]]],"type":"Polygon"},"properties":{"bbox":{"parking":{"area":346.8,"pct":0.87},"roads":{"area":2465.58,"pct":6.19},"sidewalks":{"area":1185.66,"pct":2.98}},"city_same":1,"id":"hex:1986:17428"},"type":"Feature"},{"geometry":{"coordinates":[[[-118.38415,34.09344],[-118.38435,34.09372],[-118.38337,34.09372],[-118.38337,34.09345],[-118.38415,34.09344]]],"type":"Polygon"},"properties":{"bbox":{"roads":{"area":1.17,"pct":0.05}},"city_same":1,"id":"hex:1986:17429"},"type":"Feature"},{"geometry":{"coordinates":[[[-118.38185,34.07687],[-118.38049,34.07688],[-118.38029,34.07661],[-118.38033,34.07663],[-118.38042,34.07667],[-118.38052,34.07669],[-118.38062,34.07671],[-118.38169,34.07671],[-118.38169,34.0764],[-118.38171,34.0764],[-118.38189,34.07639],[-118.38216,34.07639],[-118.38185,34.07687]]],"type":"Polygon"},"properties":{"bbox":{"roads":{"area":1685.81,"pct":44.59},"sidewalks":{"area":261.02,"pct":6.9}},"city":{"roads":{"area":389.88,"pct":10.31},"sidewalks":{"area":261.02,"pct":6.9}},"id":"hex:1987:17419"},"type":"Feature"},{"geometry":{"coordinates":[[[-118.37983,34.07787],[-118.38052,34.07884],[-118.38188,34.07882],[-118.38254,34.07784],[-118.38185,34.07687],[-118.38049,34.07688],[-118.37983,34.07787]]],"type":"Polygon"},"properties":{"bbox":{"parking":{"area":7194.58,"pct":17.72},"roads":{"area":8118.65,"pct":20},"sidewalks":{"area":1678.27,"pct":4.13}},"city":{"parking":{"area":7194.58,"pct":17.72},"roads":{"area":5871.39,"pct":14.46},"sidewalks":{"area":1678.27,"pct":4.13}},"id":"hex:1987:17420"},"type":"Feature"},{"geometry":{"coordinates":[[[-118.37986,34.07982],[-118.38055,34.08079],[-118.38191,34.08077],[-118.38257,34.07979],[-118.38188,34.07882],[-118.38052,34.07884],[-118.37986,34.07982]]],"type":"Polygon"},"properties":{"bbox":{"roads":{"area":6847.97,"pct":16.87},"sidewalks":{"area":1760.22,"pct":4.34}},"city":{"roads":{"area":2971.59,"pct":7.32},"sidewalks":{"area":1760.22,"pct":4.34}},"id":"hex:1987:17421"},"type":"Feature"},{"geometry":{"coordinates":[[[-118.37989,34.08177],[-118.38059,34.08274],[-118.38194,34.08272],[-118.3826,34.08174],[-118.38191,34.08077],[-118.38055,34.08079],[-118.37989,34.08177]]],"type":"Polygon"},"properties":{"bbox":{"roads":{"area":5707.28,"pct":14.06},"sidewalks":{"area":1472.64,"pct":3.63}},"city_same":1,"id":"hex:1987:17422"},"type":"Feature"},{"geometry":{"coordinates":[[[-118.37992,34.08372],[-118.38062,34.08469],[-118.38197,34.08468],[-118.38263,34.08369],[-118.38194,34.08272],[-118.38059,34.08274],[-118.37992,34.08372]]],"type":"Polygon"},"properties":{"bbox":{"parking":{"area":7640.17,"pct":18.82},"roads":{"area":3122.25,"pct":7.69},"sidewalks":{"area":648.8,"pct":1.6}},"city_same":1,"id":"hex:1987:17423"},"type":"Feature"},{"geometry":{"coordinates":[[[-118.37996,34.08568],[-118.38065,34.08664],[-118.382,34.08663],[-118.38267,34.08565],[-118.38197,34.08468],[-118.38062,34.08469],[-118.37996,34.08568]]],"type":"Polygon"},"properties":{"bbox":{"parking":{"area":2990.98,"pct":7.37},"roads":{"area":5382.72,"pct":13.26},"sidewalks":{"area":935.08,"pct":2.3}},"city":{"parking":{"area":2990.98,"pct":7.37},"roads":{"area":3784.14,"pct":9.32},"sidewalks":{"area":935.08,"pct":2.3}},"id":"hex:1987:17424"},"type":"Feature"},{"geometry":{"coordinates":[[[-118.37999,34.08763],[-118.38068,34.0886],[-118.38204,34.08858],[-118.3827,34.0876],[-118.382,34.08663],[-118.38065,34.08664],[-118.37999,34.08763]]],"type":"Polygon"},"properties":{"bbox":{"roads":{"area":5094.95,"pct":12.55},"sidewalks":{"area":1421.8,"pct":3.5}},"city":{"roads":{"area":2936.99,"pct":7.23},"sidewalks":{"area":1421.8,"pct":3.5}},"id":"hex:1987:17425"},"type":"Feature"},{"geometry":{"coordinates":[[[-118.38002,34.08958],[-118.38071,34.09055],[-118.38207,34.09053],[-118.38273,34.08955],[-118.38204,34.08858],[-118.38068,34.0886],[-118.38002,34.08958]]],"type":"Polygon"},"properties":{"bbox":{"parking":{"area":2594.76,"pct":6.39},"roads":{"area":3018.72,"pct":7.44},"sidewalks":{"area":1260.82,"pct":3.11}},"city_same":1,"id":"hex:1987:17426"},"type":"Feature"},{"geometry":{"coordinates":[[[-118.38005,34.09153],[-118.38071,34.09055],[-118.38207,34.09053],[-118.38276,34.0915],[-118.3821,34.09248],[-118.38118,34.0925],[-118.38118,34.0921],[-118.38064,34.09235],[-118.38005,34.09153]]],"type":"Polygon"},"properties":{"bbox":{"parking":{"area":4745.53,"pct":12.12},"roads":{"area":6855.22,"pct":17.5},"sidewalks":{"area":1184.85,"pct":3.03}},"city":{"parking":{"area":4745.53,"pct":12.12},"roads":{"area":3651.06,"pct":9.32},"sidewalks":{"area":1184.85,"pct":3.03}},"id":"hex:1987:17427"},"type":"Feature"},{"geometry":{"coordinates":[[[-118.3821,34.09248],[-118.3827,34.09333],[-118.38118,34.09332],[-118.38118,34.0925],[-118.3821,34.09248]]],"type":"Polygon"},"properties":{"bbox":{"roads":{"area":662.9,"pct":6.37},"sidewalks":{"area":226.53,"pct":2.18}},"city_same":1,"id":"hex:1987:17428"},"type":"Feature"},{"geometry":{"coordinates":[[[-118.38049,34.07688],[-118.37983,34.07787],[-118.37848,34.07788],[-118.37778,34.07691],[-118.37801,34.07657],[-118.37868,34.07658],[-118.37882,34.07639],[-118.37975,34.07639],[-118.37994,34.07645],[-118.38004,34.07648],[-118.38016,34.07653],[-118.38029,34.07661],[-118.38049,34.07688]]],"type":"Polygon"},"properties":{"bbox":{"parking":{"area":432.25,"pct":1.4},"roads":{"area":8044.76,"pct":26.03},"sidewalks":{"area":1165.39,"pct":3.77}},"city":{"parking":{"area":432.25,"pct":1.4},"roads":{"area":2174.81,"pct":7.04},"sidewalks":{"area":1165.39,"pct":3.77}},"id":"hex:1988:17420"},"type":"Feature"},{"geometry":{"coordinates":[[[-118.37781,34.07887],[-118.37851,34.07983],[-118.37986,34.07982],[-118.38052,34.07884],[-118.37983,34.07787],[-118.37848,34.07788],[-118.37781,34.07887]]],"type":"Polygon"},"properties":{"bbox":{"roads":{"area":5744.06,"pct":14.15},"sidewalks":{"area":1767.96,"pct":4.36}},"city":{"roads":{"area":4531.37,"pct":11.16},"sidewalks":{"area":1767.96,"pct":4.36}},"id":"hex:1988:17421"},"type":"Feature"},{"geometry":{"coordinates":[[[-118.37785,34.08082],[-118.37854,34.08179],[-118.37989,34.08177],[-118.38055,34.08079],[-118.37986,34.07982],[-118.37851,34.07983],[-118.37785,34.08082]]],"type":"Polygon"},"properties":{"bbox":{"roads":{"area":3949.39,"pct":9.73},"sidewalks":{"area":1461.09,"pct":3.6}},"city_same":1,"id":"hex:1988:17422"},"type":"Feature"},{"geometry":{"coordinates":[[[-118.37788,34.08277],[-118.37857,34.08374],[-118.37992,34.08372],[-118.38059,34.08274],[-118.37989,34.08177],[-118.37854,34.08179],[-118.37788,34.08277]]],"type":"Polygon"},"properties":{"bbox":{"roads":{"area":4912.47,"pct":12.1},"sidewalks":{"area":1592.8,"pct":3.92}},"city_same":1,"id":"hex:1988:17423"},"type":"Feature"},{"geometry":{"coordinates":[[[-118.37791,34.08472],[-118.3786,34.08569],[-118.37996,34.08568],[-118.38062,34.08469],[-118.37992,34.08372],[-118.37857,34.08374],[-118.37791,34.08472]]],"type":"Polygon"},"properties":{"bbox":{"roads":{"area":4687.59,"pct":11.55},"sidewalks":{"area":1801.63,"pct":4.44}},"city_same":1,"id":"hex:1988:17424"},"type":"Feature"},{"geometry":{"coordinates":[[[-118.37794,34.08667],[-118.37863,34.08764],[-118.37999,34.08763],[-118.38065,34.08664],[-118.37996,34.08568],[-118.3786,34.08569],[-118.37794,34.08667]]],"type":"Polygon"},"properties":{"bbox":{"roads":{"area":4210.58,"pct":10.37},"sidewalks":{"area":1534.3,"pct":3.78}},"city":{"roads":{"area":3685.81,"pct":9.08},"sidewalks":{"area":1534.3,"pct":3.78}},"id":"hex:1988:17425"},"type":"Feature"},{"geometry":{"coordinates":[[[-118.37797,34.08863],[-118.37866,34.08959],[-118.38002,34.08958],[-118.38068,34.0886],[-118.37999,34.08763],[-118.37863,34.08764],[-118.37797,34.08863]]],"type":"Polygon"},"properties":{"bbox":{"parking":{"area":108.4,"pct":0.27},"roads":{"area":6045.23,"pct":14.89},"sidewalks":{"area":1489.81,"pct":3.67}},"city":{"parking":{"area":108.4,"pct":0.27},"roads":{"area":3230.97,"pct":7.96},"sidewalks":{"area":1489.81,"pct":3.67}},"id":"hex:1988:17426"},"type":"Feature"},{"geometry":{"coordinates":[[[-118.378,34.09058],[-118.3787,34.09155],[-118.38005,34.09153],[-118.38071,34.09055],[-118.38002,34.08958],[-118.37866,34.08959],[-118.378,34.09058]]],"type":"Polygon"},"properties":{"bbox":{"parking":{"area":6431.4,"pct":15.84},"roads":{"area":4721.17,"pct":11.63},"sidewalks":{"area":1016.07,"pct":2.5}},"city_same":1,"id":"hex:1988:17427"},"type":"Feature"},{"geometry":{"coordinates":[[[-118.37804,34.09253],[-118.3787,34.09155],[-118.38005,34.09153],[-118.38064,34.09235],[-118.3793,34.09295],[-118.37865,34.09338],[-118.37804,34.09253]]],"type":"Polygon"},"properties":{"bbox":{"parking":{"area":4573.3,"pct":15.66},"roads":{"area":6005.39,"pct":20.57},"sidewalks":{"area":793.59,"pct":2.72}},"city":{"parking":{"area":4573.3,"pct":15.66},"roads":{"area":2582.39,"pct":8.84},"sidewalks":{"area":793.59,"pct":2.72}},"id":"hex:1988:17428"},"type":"Feature"},{"geometry":{"coordinates":[[[-118.37778,34.07691],[-118.37716,34.07692],[-118.37717,34.07656],[-118.37801,34.07657],[-118.37778,34.07691]]],"type":"Polygon"},"properties":{"bbox":{"roads":{"area":551.22,"pct":20.74},"sidewalks":{"area":193.7,"pct":7.29}},"city_same":1,"id":"hex:1989:17419"},"type":"Feature"},{"geometry":{"coordinates":[[[-118.37778,34.07691],[-118.37848,34.07788],[-118.37781,34.07887],[-118.37728,34.07887],[-118.37757,34.07874],[-118.37722,34.07817],[-118.37715,34.0775],[-118.37716,34.07692],[-118.37778,34.07691]]],"type":"Polygon"},"properties":{"bbox":{"roads":{"area":1695.99,"pct":9.61},"sidewalks":{"area":565.12,"pct":3.2}},"city_same":1,"id":"hex:1989:17420"},"type":"Feature"},{"geometry":{"coordinates":[[[-118.37781,34.07887],[-118.37851,34.07983],[-118.37785,34.08082],[-118.37649,34.08083],[-118.37601,34.08016],[-118.37641,34.08016],[-118.37643,34.08016],[-118.37656,34.08017],[-118.37672,34.0802],[-118.37713,34.08022],[-118.37716,34.08022],[-118.37725,34.08021],[-118.3769,34.07899],[-118.37705,34.07891],[-118.37707,34.07896],[-118.37728,34.07887],[-118.37781,34.07887]]],"type":"Polygon"},"properties":{"bbox":{"roads":{"area":4435.39,"pct":16.25},"sidewalks":{"area":1236.72,"pct":4.53}},"city_same":1,"id":"hex:1989:17421"},"type":"Feature"},{"geometry":{"coordinates":[[[-118.37583,34.08182],[-118.37652,34.08279],[-118.37788,34.08277],[-118.37854,34.08179],[-118.37785,34.08082],[-118.37649,34.08083],[-118.37583,34.08182]]],"type":"Polygon"},"properties":{"bbox":{"parking":{"area":683.69,"pct":1.68},"roads":{"area":9342.65,"pct":23.01},"sidewalks":{"area":1653.38,"pct":4.07}},"city":{"parking":{"area":683.69,"pct":1.68},"roads":{"area":8560.05,"pct":21.09},"sidewalks":{"area":1653.38,"pct":4.07}},"id":"hex:1989:17422"},"type":"Feature"},{"geometry":{"coordinates":[[[-118.37652,34.08279],[-118.37788,34.08277],[-118.37857,34.08374],[-118.37791,34.08472],[-118.37701,34.08473],[-118.37703,34.08304],[-118.37662,34.08303],[-118.3765,34.08306],[-118.3765,34.08306],[-118.37634,34.08307],[-118.37633,34.08307],[-118.37652,34.08279]]],"type":"Polygon"},"properties":{"bbox":{"parking":{"area":359.69,"pct":1.4},"roads":{"area":2166.02,"pct":8.41},"sidewalks":{"area":703.22,"pct":2.73}},"city_same":1,"id":"hex:1989:17423"},"type":"Feature"},{"geometry":{"coordinates":[[[-118.37791,34.08472],[-118.3786,34.08569],[-118.37794,34.08667],[-118.37698,34.08669],[-118.37701,34.08485],[-118.37701,34.08473],[-118.37791,34.08472]]],"type":"Polygon"},"properties":{"bbox":{"roads":{"area":2107.04,"pct":8.31},"sidewalks":{"area":860.79,"pct":3.39}},"city_same":1,"id":"hex:1989:17424"},"type":"Feature"},{"geometry":{"coordinates":[[[-118.37794,34.08667],[-118.37863,34.08764],[-118.37797,34.08863],[-118.37694,34.08864],[-118.37695,34.08863],[-118.37698,34.08669],[-118.37794,34.08667]]],"type":"Polygon"},"properties":{"bbox":{"parking":{"area":528.02,"pct":1.99},"roads":{"area":2721.07,"pct":10.24},"sidewalks":{"area":958.24,"pct":3.61}},"city":{"parking":{"area":528.02,"pct":1.99},"roads":{"area":2435.07,"pct":9.17},"sidewalks":{"area":958.24,"pct":3.61}},"id":"hex:1989:17425"},"type":"Feature"},{"geometry":{"coordinates":[[[-118.37797,34.08863],[-118.37866,34.08959],[-118.378,34.09058],[-118.37665,34.09059],[-118.37596,34.08963],[-118.37644,34.08891],[-118.37694,34.08864],[-118.37797,34.08863]]],"type":"Polygon"},"properties":{"bbox":{"parking":{"area":2864.06,"pct":7.13},"roads":{"area":8062.15,"pct":20.07},"sidewalks":{"area":1331.54,"pct":3.31}},"city":{"parking":{"area":2864.06,"pct":7.13},"roads":{"area":3559.8,"pct":8.86},"sidewalks":{"area":1331.54,"pct":3.31}},"id":"hex:1989:17426"},"type":"Feature"},{"geometry":{"coordinates":[[[-118.37599,34.09158],[-118.37668,34.09255],[-118.37804,34.09253],[-118.3787,34.09155],[-118.378,34.09058],[-118.37665,34.09059],[-118.37599,34.09158]]],"type":"Polygon"},"properties":{"bbox":{"roads":{"area":5126.7,"pct":12.63},"sidewalks":{"area":1097.41,"pct":2.7}},"city":{"roads":{"area":3567.54,"pct":8.79},"sidewalks":{"area":1097.41,"pct":2.7}},"id":"hex:1989:17427"},"type":"Feature"},{"geometry":{"coordinates":[[[-118.37671,34.0945],[-118.37602,34.09353],[-118.37668,34.09255],[-118.37804,34.09253],[-118.37865,34.09338],[-118.37696,34.0945],[-118.37671,34.0945]]],"type":"Polygon"},"properties":{"bbox":{"parking":{"area":360.36,"pct":1.07},"roads":{"area":6944.68,"pct":20.65},"sidewalks":{"area":1308.98,"pct":3.89}},"city":{"parking":{"area":360.36,"pct":1.07},"roads":{"area":1525.56,"pct":4.54},"sidewalks":{"area":1308.98,"pct":3.89}},"id":"hex:1989:17428"},"type":"Feature"},{"geometry":{"coordinates":[[[[-118.37378,34.08086],[-118.37423,34.0802],[-118.37422,34.08148],[-118.37378,34.08086]]],[[[-118.37649,34.08083],[-118.37583,34.08182],[-118.37528,34.08182],[-118.37528,34.08053],[-118.37528,34.08023],[-118.37528,34.08016],[-118.37601,34.08016],[-118.37649,34.08083]]]],"type":"MultiPolygon"},"properties":{"bbox":{"roads":{"area":1529.79,"pct":8.29},"sidewalks":{"area":559.24,"pct":3.03}},"city_same":1,"id":"hex:1990:17422"},"type":"Feature"},{"geometry":{"coordinates":[[[-118.37381,34.08282],[-118.37435,34.08202],[-118.37519,34.08201],[-118.37528,34.08201],[-118.37528,34.08195],[-118.37528,34.08192],[-118.37528,34.08182],[-118.37583,34.08182],[-118.37652,34.08279],[-118.37633,34.08307],[-118.37425,34.0831],[-118.3741,34.0831],[-118.37402,34.0831],[-118.37381,34.08282]]],"type":"Polygon"},"properties":{"bbox":{"parking":{"area":1877.13,"pct":7.24},"roads":{"area":6454.65,"pct":24.89},"sidewalks":{"area":1049.24,"pct":4.05}},"city":{"parking":{"area":1877.13,"pct":7.24},"roads":{"area":2939.09,"pct":11.34},"sidewalks":{"area":1049.24,"pct":4.05}},"id":"hex:1990:17423"},"type":"Feature"},{"geometry":{"coordinates":[[[-118.37596,34.08963],[-118.37476,34.08964],[-118.37476,34.08942],[-118.37519,34.08942],[-118.37521,34.08938],[-118.37528,34.08929],[-118.37538,34.08914],[-118.37541,34.08914],[-118.37576,34.08913],[-118.37576,34.089],[-118.37628,34.08899],[-118.37641,34.08892],[-118.37644,34.08891],[-118.37596,34.08963]]],"type":"Polygon"},"properties":{"bbox":{"roads":{"area":824.78,"pct":13.2},"sidewalks":{"area":209.12,"pct":3.35}},"city":{"roads":{"area":767.65,"pct":12.28},"sidewalks":{"area":209.12,"pct":3.35}},"id":"hex:1990:17426"},"type":"Feature"},{"geometry":{"coordinates":[[[-118.37596,34.08963],[-118.37665,34.09059],[-118.37599,34.09158],[-118.37463,34.09159],[-118.37394,34.09062],[-118.37456,34.0897],[-118.37476,34.0897],[-118.37476,34.08964],[-118.37596,34.08963]]],"type":"Polygon"},"properties":{"bbox":{"parking":{"area":1647.36,"pct":4.07},"roads":{"area":9733.25,"pct":24.04},"sidewalks":{"area":1728.29,"pct":4.27}},"city":{"parking":{"area":1647.36,"pct":4.07},"roads":{"area":4119.48,"pct":10.18},"sidewalks":{"area":1728.29,"pct":4.27}},"id":"hex:1990:17427"},"type":"Feature"},{"geometry":{"coordinates":[[[-118.37397,34.09258],[-118.37466,34.09354],[-118.37602,34.09353],[-118.37668,34.09255],[-118.37599,34.09158],[-118.37463,34.09159],[-118.37397,34.09258]]],"type":"Polygon"},"properties":{"bbox":{"roads":{"area":5543.22,"pct":13.65},"sidewalks":{"area":1264.7,"pct":3.12}},"city":{"roads":{"area":1769.5,"pct":4.36},"sidewalks":{"area":1264.7,"pct":3.12}},"id":"hex:1990:17428"},"type":"Feature"},{"geometry":{"coordinates":[[[-118.374,34.09453],[-118.37466,34.09354],[-118.37602,34.09353],[-118.37671,34.0945],[-118.37654,34.09476],[-118.3745,34.09522],[-118.374,34.09453]]],"type":"Polygon"},"properties":{"bbox":{"parking":{"area":2221.96,"pct":6.89},"roads":{"area":6713.9,"pct":20.82},"sidewalks":{"area":690.62,"pct":2.14}},"city":{"parking":{"area":2221.96,"pct":6.89},"roads":{"area":2381.6,"pct":7.38},"sidewalks":{"area":690.62,"pct":2.14}},"id":"hex:1990:17429"},"type":"Feature"},{"geometry":{"coordinates":[[[-118.37378,34.08086],[-118.37243,34.08088],[-118.37192,34.08017],[-118.37212,34.08017],[-118.37216,34.08017],[-118.37311,34.08016],[-118.37316,34.08016],[-118.37323,34.08016],[-118.37415,34.08015],[-118.37423,34.08015],[-118.37423,34.0802],[-118.37378,34.08086]]],"type":"Polygon"},"properties":{"bbox":{"roads":{"area":1449.62,"pct":10.8},"sidewalks":{"area":613.95,"pct":4.58}},"city_same":1,"id":"hex:1991:17421"},"type":"Feature"},{"geometry":{"coordinates":[[[-118.37381,34.08282],[-118.37246,34.08283],[-118.37177,34.08186],[-118.37243,34.08088],[-118.37378,34.08086],[-118.37422,34.08148],[-118.37422,34.08152],[-118.37423,34.08197],[-118.37423,34.08202],[-118.3743,34.08202],[-118.37435,34.08202],[-118.37381,34.08282]]],"type":"Polygon"},"properties":{"bbox":{"roads":{"area":3623.16,"pct":9.1},"sidewalks":{"area":1686.14,"pct":4.24}},"city_same":1,"id":"hex:1991:17422"},"type":"Feature"},{"geometry":{"coordinates":[[[-118.37246,34.08283],[-118.37381,34.08282],[-118.37402,34.0831],[-118.37316,34.08311],[-118.37226,34.08313],[-118.37246,34.08283]]],"type":"Polygon"},"properties":{"bbox":{"roads":{"area":377.45,"pct":8.14},"sidewalks":{"area":125.95,"pct":2.72}},"city":{"roads":{"area":351.92,"pct":7.59},"sidewalks":{"area":125.95,"pct":2.72}},"id":"hex:1991:17423"},"type":"Feature"},{"geometry":{"coordinates":[[[-118.37183,34.08577],[-118.37205,34.08544],[-118.37249,34.08544],[-118.37249,34.08575],[-118.37249,34.08669],[-118.37183,34.08577]]],"type":"Polygon"},"properties":{"bbox":{"roads":{"area":162.02,"pct":3.29},"sidewalks":{"area":0.85,"pct":0.02}},"city_same":1,"id":"hex:1991:17424"},"type":"Feature"},{"geometry":{"coordinates":[[[-118.37186,34.08772],[-118.37249,34.08679],[-118.37249,34.08705],[-118.37249,34.08712],[-118.37249,34.0886],[-118.37186,34.08772]]],"type":"Polygon"},"properties":{"bbox":{"roads":{"area":94.16,"pct":1.61},"sidewalks":{"area":50.58,"pct":0.86}},"city_same":1,"id":"hex:1991:17425"},"type":"Feature"},{"geometry":{"coordinates":[[[-118.37394,34.09062],[-118.37258,34.09064],[-118.37189,34.08967],[-118.37249,34.08878],[-118.37249,34.08878],[-118.3725,34.09026],[-118.37307,34.09025],[-118.37312,34.0902],[-118.37317,34.09015],[-118.37327,34.09005],[-118.37329,34.09005],[-118.3737,34.09005],[-118.3737,34.08996],[-118.37413,34.08996],[-118.37423,34.08983],[-118.37433,34.08971],[-118.37435,34.08971],[-118.37456,34.0897],[-118.37394,34.09062]]],"type":"Polygon"},"properties":{"bbox":{"roads":{"area":2089.5,"pct":14.02},"sidewalks":{"area":470.83,"pct":3.16}},"city":{"roads":{"area":1404.04,"pct":9.42},"sidewalks":{"area":470.83,"pct":3.16}},"id":"hex:1991:17426"},"type":"Feature"},{"geometry":{"coordinates":[[[-118.37192,34.09162],[-118.37262,34.09259],[-118.37397,34.09258],[-118.37463,34.09159],[-118.37394,34.09062],[-118.37258,34.09064],[-118.37192,34.09162]]],"type":"Polygon"},"properties":{"bbox":{"parking":{"area":1464.02,"pct":3.61},"roads":{"area":5135.67,"pct":12.65},"sidewalks":{"area":1374.03,"pct":3.38}},"city":{"parking":{"area":1464.02,"pct":3.61},"roads":{"area":4007.86,"pct":9.87},"sidewalks":{"area":1374.03,"pct":3.38}},"id":"hex:1991:17427"},"type":"Feature"},{"geometry":{"coordinates":[[[-118.37195,34.09357],[-118.37265,34.09454],[-118.374,34.09453],[-118.37466,34.09354],[-118.37397,34.09258],[-118.37262,34.09259],[-118.37195,34.09357]]],"type":"Polygon"},"properties":{"bbox":{"roads":{"area":6589,"pct":16.23},"sidewalks":{"area":1810.68,"pct":4.46}},"city":{"roads":{"area":3555.94,"pct":8.76},"sidewalks":{"area":1810.68,"pct":4.46}},"id":"hex:1991:17428"},"type":"Feature"},{"geometry":{"coordinates":[[[-118.37199,34.09553],[-118.37265,34.09454],[-118.374,34.09453],[-118.3745,34.09522],[-118.37285,34.09559],[-118.37282,34.0956],[-118.37271,34.09564],[-118.3726,34.09568],[-118.37235,34.09581],[-118.37225,34.0959],[-118.37199,34.09553]]],"type":"Polygon"},"properties":{"bbox":{"parking":{"area":630.77,"pct":3.16},"roads":{"area":5555.04,"pct":27.83},"sidewalks":{"area":886.24,"pct":4.44}},"city":{"parking":{"area":630.77,"pct":3.16},"roads":{"area":2024.65,"pct":10.14},"sidewalks":{"area":886.24,"pct":4.44}},"id":"hex:1991:17429"},"type":"Feature"},{"geometry":{"coordinates":[[[-118.37243,34.08088],[-118.37177,34.08186],[-118.37041,34.08188],[-118.37031,34.08174],[-118.37032,34.08151],[-118.37029,34.08017],[-118.37192,34.08017],[-118.37243,34.08088]]],"type":"Polygon"},"properties":{"bbox":{"roads":{"area":2780.32,"pct":8.8},"sidewalks":{"area":1220.48,"pct":3.86}},"city_same":1,"id":"hex:1992:17422"},"type":"Feature"},{"geometry":{"coordinates":[[[-118.37041,34.08188],[-118.37177,34.08186],[-118.37246,34.08283],[-118.37226,34.08313],[-118.3722,34.08313],[-118.37124,34.08314],[-118.3703,34.08315],[-118.37031,34.08204],[-118.37031,34.08203],[-118.37041,34.08188]]],"type":"Polygon"},"properties":{"bbox":{"roads":{"area":2387.66,"pct":9.86},"sidewalks":{"area":1143.77,"pct":4.72}},"city_same":1,"id":"hex:1992:17423"},"type":"Feature"},{"geometry":{"coordinates":[[[-118.37183,34.08577],[-118.37047,34.08578],[-118.37035,34.08561],[-118.37098,34.0856],[-118.37098,34.08546],[-118.37172,34.08545],[-118.37205,34.08544],[-118.37183,34.08577]]],"type":"Polygon"},"properties":{"bbox":{"roads":{"area":194.53,"pct":4.7},"sidewalks":{"area":120.53,"pct":2.91}},"city_same":1,"id":"hex:1992:17424"},"type":"Feature"},{"geometry":{"coordinates":[[[-118.37186,34.08772],[-118.37051,34.08773],[-118.37005,34.08709],[-118.37019,34.08709],[-118.37028,34.08709],[-118.37027,34.08698],[-118.37027,34.08645],[-118.37026,34.08619],[-118.37026,34.0861],[-118.37047,34.08578],[-118.37183,34.08577],[-118.37249,34.08669],[-118.37249,34.08679],[-118.37186,34.08772]]],"type":"Polygon"},"properties":{"bbox":{"roads":{"area":3165.18,"pct":8.35},"sidewalks":{"area":1368.48,"pct":3.61}},"city_same":1,"id":"hex:1992:17425"},"type":"Feature"},{"geometry":{"coordinates":[[[-118.37189,34.08967],[-118.37054,34.08969],[-118.36984,34.08872],[-118.37051,34.08773],[-118.37186,34.08772],[-118.37249,34.0886],[-118.37249,34.08878],[-118.37189,34.08967]]],"type":"Polygon"},"properties":{"bbox":{"roads":{"area":3579.23,"pct":8.83},"sidewalks":{"area":1282.33,"pct":3.16}},"city_same":1,"id":"hex:1992:17426"},"type":"Feature"},{"geometry":{"coordinates":[[[-118.36988,34.09067],[-118.37057,34.09164],[-118.37192,34.09162],[-118.37258,34.09064],[-118.37189,34.08967],[-118.37054,34.08969],[-118.36988,34.09067]]],"type":"Polygon"},"properties":{"bbox":{"parking":{"area":889.42,"pct":2.19},"roads":{"area":8129.34,"pct":20.03},"sidewalks":{"area":1566.21,"pct":3.86}},"city":{"parking":{"area":889.42,"pct":2.19},"roads":{"area":4004.04,"pct":9.86},"sidewalks":{"area":1566.21,"pct":3.86}},"id":"hex:1992:17427"},"type":"Feature"},{"geometry":{"coordinates":[[[-118.36991,34.09262],[-118.3706,34.09359],[-118.37195,34.09357],[-118.37262,34.09259],[-118.37192,34.09162],[-118.37057,34.09164],[-118.36991,34.09262]]],"type":"Polygon"},"properties":{"bbox":{"roads":{"area":2618.16,"pct":6.45},"sidewalks":{"area":1063.58,"pct":2.62}},"city_same":1,"id":"hex:1992:17428"},"type":"Feature"},{"geometry":{"coordinates":[[[-118.36994,34.09457],[-118.37063,34.09554],[-118.37199,34.09553],[-118.37265,34.09454],[-118.37195,34.09357],[-118.3706,34.09359],[-118.36994,34.09457]]],"type":"Polygon"},"properties":{"bbox":{"roads":{"area":6569.57,"pct":16.18},"sidewalks":{"area":1777.21,"pct":4.38}},"city":{"roads":{"area":3846.53,"pct":9.48},"sidewalks":{"area":1777.21,"pct":4.38}},"id":"hex:1992:17429"},"type":"Feature"},{"geometry":{"coordinates":[[[-118.36997,34.09653],[-118.37063,34.09554],[-118.37199,34.09553],[-118.37225,34.0959],[-118.37189,34.09622],[-118.37157,34.09643],[-118.3703,34.09699],[-118.36997,34.09653]]],"type":"Polygon"},"properties":{"bbox":{"parking":{"area":3199.84,"pct":15.93},"roads":{"area":6385.46,"pct":31.79},"sidewalks":{"area":913.75,"pct":4.55}},"city":{"parking":{"area":3199.84,"pct":15.93},"roads":{"area":2763.51,"pct":13.76},"sidewalks":{"area":913.75,"pct":4.55}},"id":"hex:1992:17430"},"type":"Feature"},{"geometry":{"coordinates":[[[-118.37041,34.08188],[-118.37031,34.08203],[-118.37031,34.08174],[-118.37041,34.08188]]],"type":"Polygon"},"properties":{"bbox":{"roads":{"area":95.07,"pct":64.01},"sidewalks":{"area":3.12,"pct":2.1}},"city_same":1,"id":"hex:1993:17422"},"type":"Feature"},{"geometry":{"coordinates":[[[-118.37047,34.08578],[-118.37026,34.0861],[-118.37025,34.08561],[-118.37035,34.08561],[-118.37047,34.08578]]],"type":"Polygon"},"properties":{"bbox":{"roads":{"area":191.56,"pct":28.98},"sidewalks":{"area":60.94,"pct":9.22}},"city_same":1,"id":"hex:1993:17424"},"type":"Feature"},{"geometry":{"coordinates":[[[-118.37051,34.08773],[-118.36984,34.08872],[-118.36849,34.08873],[-118.3678,34.08776],[-118.36823,34.08712],[-118.36905,34.08711],[-118.36911,34.08711],[-118.36917,34.08711],[-118.37005,34.08709],[-118.37051,34.08773]]],"type":"Polygon"},"properties":{"bbox":{"roads":{"area":3282.44,"pct":9.33},"sidewalks":{"area":1379.38,"pct":3.92}},"city_same":1,"id":"hex:1993:17425"},"type":"Feature"},{"geometry":{"coordinates":[[[-118.36783,34.08972],[-118.36852,34.09068],[-118.36988,34.09067],[-118.37054,34.08969],[-118.36984,34.08872],[-118.36849,34.08873],[-118.36783,34.08972]]],"type":"Polygon"},"properties":{"bbox":{"roads":{"area":3204.62,"pct":7.89},"sidewalks":{"area":1449.63,"pct":3.57}},"city":{"roads":{"area":3011.26,"pct":7.42},"sidewalks":{"area":1449.63,"pct":3.57}},"id":"hex:1993:17426"},"type":"Feature"},{"geometry":{"coordinates":[[[-118.36786,34.09167],[-118.36855,34.09264],[-118.36991,34.09262],[-118.37057,34.09164],[-118.36988,34.09067],[-118.36852,34.09068],[-118.36786,34.09167]]],"type":"Polygon"},"properties":{"bbox":{"roads":{"area":5763.11,"pct":14.2},"sidewalks":{"area":1549.63,"pct":3.82}},"city":{"roads":{"area":4151.74,"pct":10.23},"sidewalks":{"area":1549.63,"pct":3.82}},"id":"hex:1993:17427"},"type":"Feature"},{"geometry":{"coordinates":[[[-118.36789,34.09362],[-118.36858,34.09459],[-118.36994,34.09457],[-118.3706,34.09359],[-118.36991,34.09262],[-118.36855,34.09264],[-118.36789,34.09362]]],"type":"Polygon"},"properties":{"bbox":{"roads":{"area":4910.67,"pct":12.1},"sidewalks":{"area":1251.74,"pct":3.08}},"city":{"roads":{"area":2732.78,"pct":6.73},"sidewalks":{"area":1251.74,"pct":3.08}},"id":"hex:1993:17428"},"type":"Feature"},{"geometry":{"coordinates":[[[-118.36792,34.09557],[-118.36862,34.09654],[-118.36997,34.09653],[-118.37063,34.09554],[-118.36994,34.09457],[-118.36858,34.09459],[-118.36792,34.09557]]],"type":"Polygon"},"properties":{"bbox":{"roads":{"area":3461.84,"pct":8.53},"sidewalks":{"area":1223.31,"pct":3.01}},"city_same":1,"id":"hex:1993:17429"},"type":"Feature"},{"geometry":{"coordinates":[[[-118.3682,34.09787],[-118.3682,34.09774],[-118.36817,34.0972],[-118.36862,34.09654],[-118.36997,34.09653],[-118.3703,34.09699],[-118.3698,34.09721],[-118.36864,34.09807],[-118.36853,34.09803],[-118.36832,34.09803],[-118.3682,34.09787]]],"type":"Polygon"},"properties":{"bbox":{"parking":{"area":2695.96,"pct":12.99},"roads":{"area":5666.65,"pct":27.31},"sidewalks":{"area":846.35,"pct":4.08}},"city":{"parking":{"area":2695.96,"pct":12.99},"roads":{"area":1897.15,"pct":9.14},"sidewalks":{"area":846.35,"pct":4.08}},"id":"hex:1993:17430"},"type":"Feature"},{"geometry":{"coordinates":[[[-118.3678,34.08776],[-118.36644,34.08778],[-118.36644,34.08777],[-118.36644,34.08715],[-118.36691,34.08714],[-118.36698,34.08714],[-118.36706,34.08714],[-118.36798,34.08713],[-118.36805,34.08713],[-118.36811,34.08712],[-118.36823,34.08712],[-118.3678,34.08776]]],"type":"Polygon"},"properties":{"bbox":{"roads":{"area":965.81,"pct":9.48},"sidewalks":{"area":469.82,"pct":4.61}},"city_same":1,"id":"hex:1994:17425"},"type":"Feature"},{"geometry":{"coordinates":[[[-118.36644,34.08778],[-118.3678,34.08776],[-118.36849,34.08873],[-118.36783,34.08972],[-118.36647,34.08973],[-118.3659,34.08893],[-118.3659,34.08893],[-118.36644,34.08892],[-118.36644,34.08872],[-118.36644,34.08778],[-118.36644,34.08778]]],"type":"Polygon"},"properties":{"bbox":{"roads":{"area":3323.57,"pct":9.16},"sidewalks":{"area":1472.71,"pct":4.06}},"city_same":1,"id":"hex:1994:17426"},"type":"Feature"},{"geometry":{"coordinates":[[[-118.36581,34.09071],[-118.3665,34.09168],[-118.36786,34.09167],[-118.36852,34.09068],[-118.36783,34.08972],[-118.36647,34.08973],[-118.36581,34.09071]]],"type":"Polygon"},"properties":{"bbox":{"parking":{"area":5104.08,"pct":12.57},"roads":{"area":8372.69,"pct":20.62},"sidewalks":{"area":1556.23,"pct":3.83}},"city":{"parking":{"area":5104.08,"pct":12.57},"roads":{"area":4618.04,"pct":11.38},"sidewalks":{"area":1556.23,"pct":3.83}},"id":"hex:1994:17427"},"type":"Feature"},{"geometry":{"coordinates":[[[-118.36584,34.09267],[-118.36654,34.09364],[-118.36789,34.09362],[-118.36855,34.09264],[-118.36786,34.09167],[-118.3665,34.09168],[-118.36584,34.09267]]],"type":"Polygon"},"properties":{"bbox":{"roads":{"area":3837.19,"pct":9.45},"sidewalks":{"area":1078.1,"pct":2.66}},"city_same":1,"id":"hex:1994:17428"},"type":"Feature"},{"geometry":{"coordinates":[[[-118.36587,34.09462],[-118.36657,34.09559],[-118.36792,34.09557],[-118.36858,34.09459],[-118.36789,34.09362],[-118.36654,34.09364],[-118.36587,34.09462]]],"type":"Polygon"},"properties":{"bbox":{"roads":{"area":5582.83,"pct":13.75},"sidewalks":{"area":1259.91,"pct":3.1}},"city":{"roads":{"area":2368.26,"pct":5.83},"sidewalks":{"area":1259.91,"pct":3.1}},"id":"hex:1994:17429"},"type":"Feature"},{"geometry":{"coordinates":[[[-118.36591,34.09657],[-118.36657,34.09559],[-118.36792,34.09557],[-118.36862,34.09654],[-118.36817,34.0972],[-118.36817,34.09709],[-118.36736,34.09709],[-118.36736,34.09689],[-118.36674,34.0969],[-118.36674,34.09711],[-118.3663,34.09712],[-118.36591,34.09657]]],"type":"Polygon"},"properties":{"bbox":{"parking":{"area":2836.89,"pct":8.87},"roads":{"area":2610.96,"pct":8.17},"sidewalks":{"area":593.79,"pct":1.86}},"city_same":1,"id":"hex:1994:17430"},"type":"Feature"},{"geometry":{"coordinates":[[[-118.36647,34.08973],[-118.36581,34.09071],[-118.36446,34.09073],[-118.36376,34.08976],[-118.36431,34.08896],[-118.36484,34.08895],[-118.36585,34.08893],[-118.3659,34.08893],[-118.36647,34.08973]]],"type":"Polygon"},"properties":{"bbox":{"parking":{"area":8.57,"pct":0.02},"roads":{"area":4316.88,"pct":11.37},"sidewalks":{"area":1329.64,"pct":3.5}},"city":{"parking":{"area":8.57,"pct":0.02},"roads":{"area":4315.74,"pct":11.37},"sidewalks":{"area":1329.64,"pct":3.5}},"id":"hex:1995:17426"},"type":"Feature"},{"geometry":{"coordinates":[[[-118.3638,34.09171],[-118.36449,34.09268],[-118.36584,34.09267],[-118.3665,34.09168],[-118.36581,34.09071],[-118.36446,34.09073],[-118.3638,34.09171]]],"type":"Polygon"},"properties":{"bbox":{"roads":{"area":8078.81,"pct":19.9},"sidewalks":{"area":1809.35,"pct":4.46}},"city":{"roads":{"area":6571.25,"pct":16.19},"sidewalks":{"area":1809.35,"pct":4.46}},"id":"hex:1995:17427"},"type":"Feature"},{"geometry":{"coordinates":[[[-118.36383,34.09367],[-118.36452,34.09463],[-118.36587,34.09462],[-118.36654,34.09364],[-118.36584,34.09267],[-118.36449,34.09268],[-118.36383,34.09367]]],"type":"Polygon"},"properties":{"bbox":{"parking":{"area":548.35,"pct":1.35},"roads":{"area":6867.02,"pct":16.92},"sidewalks":{"area":1404.83,"pct":3.46}},"city":{"parking":{"area":548.35,"pct":1.35},"roads":{"area":4856.02,"pct":11.96},"sidewalks":{"area":1404.83,"pct":3.46}},"id":"hex:1995:17428"},"type":"Feature"},{"geometry":{"coordinates":[[[-118.36386,34.09562],[-118.36455,34.09659],[-118.36591,34.09657],[-118.36657,34.09559],[-118.36587,34.09462],[-118.36452,34.09463],[-118.36386,34.09562]]],"type":"Polygon"},"properties":{"bbox":{"parking":{"area":1332.8,"pct":3.28},"roads":{"area":5293.87,"pct":13.04},"sidewalks":{"area":1132.79,"pct":2.79}},"city_same":1,"id":"hex:1995:17429"},"type":"Feature"},{"geometry":{"coordinates":[[[-118.36455,34.09659],[-118.36591,34.09657],[-118.3663,34.09712],[-118.36446,34.09714],[-118.36418,34.09714],[-118.36455,34.09659]]],"type":"Polygon"},"properties":{"bbox":{"roads":{"area":1274.44,"pct":12.99},"sidewalks":{"area":284.77,"pct":2.9}},"city_same":1,"id":"hex:1995:17430"},"type":"Feature"},{"geometry":{"coordinates":[[[-118.36238,34.08782],[-118.36194,34.08721],[-118.3621,34.0872],[-118.36264,34.08719],[-118.36272,34.08719],[-118.36272,34.08782],[-118.36238,34.08782]]],"type":"Polygon"},"properties":{"bbox":{"roads":{"area":377.99,"pct":10.47},"sidewalks":{"area":186.55,"pct":5.17}},"city_same":1,"id":"hex:1996:17425"},"type":"Feature"},{"geometry":{"coordinates":[[[-118.36376,34.08976],[-118.36241,34.08978],[-118.36172,34.08881],[-118.36238,34.08782],[-118.36272,34.08782],[-118.36271,34.08879],[-118.36327,34.08878],[-118.36327,34.08897],[-118.36379,34.08896],[-118.36431,34.08896],[-118.36376,34.08976]]],"type":"Polygon"},"properties":{"bbox":{"roads":{"area":2362.21,"pct":9.44},"sidewalks":{"area":1003.64,"pct":4.01}},"city_same":1,"id":"hex:1996:17426"},"type":"Feature"},{"geometry":{"coordinates":[[[-118.36175,34.09076],[-118.36244,34.09173],[-118.3638,34.09171],[-118.36446,34.09073],[-118.36376,34.08976],[-118.36241,34.08978],[-118.36175,34.09076]]],"type":"Polygon"},"properties":{"bbox":{"roads":{"area":7382.56,"pct":18.19},"sidewalks":{"area":1524.25,"pct":3.75}},"city":{"roads":{"area":3776.71,"pct":9.3},"sidewalks":{"area":1524.25,"pct":3.75}},"id":"hex:1996:17427"},"type":"Feature"},{"geometry":{"coordinates":[[[-118.36178,34.09271],[-118.36247,34.09368],[-118.36383,34.09367],[-118.36449,34.09268],[-118.3638,34.09171],[-118.36244,34.09173],[-118.36178,34.09271]]],"type":"Polygon"},"properties":{"bbox":{"roads":{"area":2554.05,"pct":6.29},"sidewalks":{"area":1026.87,"pct":2.53}},"city_same":1,"id":"hex:1996:17428"},"type":"Feature"},{"geometry":{"coordinates":[[[-118.36181,34.09466],[-118.3625,34.09563],[-118.36386,34.09562],[-118.36452,34.09463],[-118.36383,34.09367],[-118.36247,34.09368],[-118.36181,34.09466]]],"type":"Polygon"},"properties":{"bbox":{"roads":{"area":4732.38,"pct":11.66},"sidewalks":{"area":1263.68,"pct":3.11}},"city":{"roads":{"area":1503.18,"pct":3.7},"sidewalks":{"area":1263.68,"pct":3.11}},"id":"hex:1996:17429"},"type":"Feature"},{"geometry":{"coordinates":[[[-118.36184,34.09662],[-118.3625,34.09563],[-118.36386,34.09562],[-118.36455,34.09659],[-118.36418,34.09714],[-118.36224,34.09717],[-118.36184,34.09662]]],"type":"Polygon"},"properties":{"bbox":{"roads":{"area":2012.49,"pct":6.01},"sidewalks":{"area":587.14,"pct":1.75}},"city_same":1,"id":"hex:1996:17430"},"type":"Feature"},{"geometry":{"coordinates":[[[-118.36238,34.08782],[-118.36172,34.08881],[-118.36036,34.08882],[-118.35967,34.08785],[-118.36011,34.0872],[-118.36047,34.0872],[-118.36053,34.0872],[-118.36063,34.08721],[-118.36125,34.08721],[-118.36128,34.08721],[-118.3614,34.08721],[-118.36153,34.08721],[-118.36166,34.08721],[-118.36168,34.08721],[-118.36194,34.08721],[-118.36238,34.08782]]],"type":"Polygon"},"properties":{"bbox":{"roads":{"area":5360.06,"pct":15.33},"sidewalks":{"area":1322.07,"pct":3.78}},"city":{"roads":{"area":2356.23,"pct":6.74},"sidewalks":{"area":1322.07,"pct":3.78}},"id":"hex:1997:17425"},"type":"Feature"},{"geometry":{"coordinates":[[[-118.3597,34.08981],[-118.36039,34.09077],[-118.36175,34.09076],[-118.36241,34.08978],[-118.36172,34.08881],[-118.36036,34.08882],[-118.3597,34.08981]]],"type":"Polygon"},"properties":{"bbox":{"roads":{"area":7110.26,"pct":17.52},"sidewalks":{"area":1475.12,"pct":3.63}},"city":{"roads":{"area":2323.23,"pct":5.72},"sidewalks":{"area":1475.12,"pct":3.63}},"id":"hex:1997:17426"},"type":"Feature"},{"geometry":{"coordinates":[[[-118.35973,34.09176],[-118.36042,34.09273],[-118.36178,34.09271],[-118.36244,34.09173],[-118.36175,34.09076],[-118.36039,34.09077],[-118.35973,34.09176]]],"type":"Polygon"},"properties":{"bbox":{"parking":{"area":3295.3,"pct":8.12},"roads":{"area":8944.2,"pct":22.03},"sidewalks":{"area":1482.57,"pct":3.65}},"city":{"parking":{"area":3295.3,"pct":8.12},"roads":{"area":3696.73,"pct":9.11},"sidewalks":{"area":1482.57,"pct":3.65}},"id":"hex:1997:17427"},"type":"Feature"},{"geometry":{"coordinates":[[[-118.35976,34.09371],[-118.36042,34.09273],[-118.36178,34.09271],[-118.36247,34.09368],[-118.36181,34.09466],[-118.36167,34.09467],[-118.36168,34.09454],[-118.36035,34.09453],[-118.35976,34.09371]]],"type":"Polygon"},"properties":{"bbox":{"roads":{"area":7245.08,"pct":18.65},"sidewalks":{"area":1286.85,"pct":3.31}},"city":{"roads":{"area":2121.37,"pct":5.46},"sidewalks":{"area":1286.85,"pct":3.31}},"id":"hex:1997:17428"},"type":"Feature"},{"geometry":{"coordinates":[[[-118.36181,34.09466],[-118.3625,34.09563],[-118.36184,34.09662],[-118.36166,34.09662],[-118.36167,34.09467],[-118.36181,34.09466]]],"type":"Polygon"},"properties":{"bbox":{"roads":{"area":379.73,"pct":3.81},"sidewalks":{"area":324.85,"pct":3.26}},"city_same":1,"id":"hex:1997:17429"},"type":"Feature"},{"geometry":{"coordinates":[[[-118.36184,34.09662],[-118.36224,34.09717],[-118.36165,34.09718],[-118.36166,34.09662],[-118.36184,34.09662]]],"type":"Polygon"},"properties":{"bbox":{"roads":{"area":351.93,"pct":15.95},"sidewalks":{"area":93.23,"pct":4.23}},"city_same":1,"id":"hex:1997:17430"},"type":"Feature"},{"geometry":{"coordinates":[[[-118.35967,34.08785],[-118.35831,34.08787],[-118.35782,34.08717],[-118.35837,34.08718],[-118.35847,34.08718],[-118.35852,34.08718],[-118.35942,34.0872],[-118.35949,34.0872],[-118.35957,34.0872],[-118.36011,34.0872],[-118.35967,34.08785]]],"type":"Polygon"},"properties":{"bbox":{"roads":{"area":1367.94,"pct":10.9},"sidewalks":{"area":677.05,"pct":5.39}},"city_same":1,"id":"hex:1998:17425"},"type":"Feature"},{"geometry":{"coordinates":[[[-118.35765,34.08885],[-118.35835,34.08982],[-118.3597,34.08981],[-118.36036,34.08882],[-118.35967,34.08785],[-118.35831,34.08787],[-118.35765,34.08885]]],"type":"Polygon"},"properties":{"bbox":{"roads":{"area":3635.09,"pct":8.95},"sidewalks":{"area":1850.68,"pct":4.56}},"city_same":1,"id":"hex:1998:17426"},"type":"Feature"},{"geometry":{"coordinates":[[[-118.35768,34.0908],[-118.35838,34.09177],[-118.35973,34.09176],[-118.36039,34.09077],[-118.3597,34.08981],[-118.35835,34.08982],[-118.35768,34.0908]]],"type":"Polygon"},"properties":{"bbox":{"parking":{"area":3674.08,"pct":9.05},"roads":{"area":7058.63,"pct":17.39},"sidewalks":{"area":1675.39,"pct":4.13}},"city":{"parking":{"area":3674.08,"pct":9.05},"roads":{"area":3543.02,"pct":8.73},"sidewalks":{"area":1675.39,"pct":4.13}},"id":"hex:1998:17427"},"type":"Feature"},{"geometry":{"coordinates":[[[-118.35772,34.09276],[-118.35841,34.09373],[-118.35976,34.09371],[-118.36042,34.09273],[-118.35973,34.09176],[-118.35838,34.09177],[-118.35772,34.09276]]],"type":"Polygon"},"properties":{"bbox":{"roads":{"area":2252.32,"pct":5.55},"sidewalks":{"area":1081.28,"pct":2.66}},"city_same":1,"id":"hex:1998:17428"},"type":"Feature"},{"geometry":{"coordinates":[[[-118.35841,34.09373],[-118.35976,34.09371],[-118.36035,34.09453],[-118.35938,34.09453],[-118.35936,34.09453],[-118.35787,34.09452],[-118.35841,34.09373]]],"type":"Polygon"},"properties":{"bbox":{"roads":{"area":3842.95,"pct":24.21},"sidewalks":{"area":556.62,"pct":3.51}},"city":{"roads":{"area":773.11,"pct":4.87},"sidewalks":{"area":556.62,"pct":3.51}},"id":"hex:1998:17429"},"type":"Feature"},{"geometry":{"coordinates":[[[-118.35831,34.08787],[-118.35765,34.08885],[-118.3563,34.08887],[-118.35561,34.0879],[-118.35611,34.08715],[-118.35638,34.08716],[-118.35643,34.08716],[-118.35735,34.08717],[-118.35741,34.08717],[-118.35747,34.08717],[-118.35782,34.08717],[-118.35831,34.08787]]],"type":"Polygon"},"properties":{"bbox":{"roads":{"area":3880.82,"pct":10.6},"sidewalks":{"area":1568.45,"pct":4.29}},"city_same":1,"id":"hex:1999:17425"},"type":"Feature"},{"geometry":{"coordinates":[[[-118.35564,34.08985],[-118.35633,34.09082],[-118.35768,34.0908],[-118.35835,34.08982],[-118.35765,34.08885],[-118.3563,34.08887],[-118.35564,34.08985]]],"type":"Polygon"},"properties":{"bbox":{"parking":{"area":719.13,"pct":1.77},"roads":{"area":4888.85,"pct":12.04},"sidewalks":{"area":1395.27,"pct":3.44}},"city":{"parking":{"area":719.13,"pct":1.77},"roads":{"area":3941.76,"pct":9.71},"sidewalks":{"area":1395.27,"pct":3.44}},"id":"hex:1999:17426"},"type":"Feature"},{"geometry":{"coordinates":[[[-118.35567,34.0918],[-118.35636,34.09277],[-118.35772,34.09276],[-118.35838,34.09177],[-118.35768,34.0908],[-118.35633,34.09082],[-118.35567,34.0918]]],"type":"Polygon"},"properties":{"bbox":{"roads":{"area":5318.48,"pct":13.1},"sidewalks":{"area":1976.11,"pct":4.87}},"city":{"roads":{"area":4543.66,"pct":11.19},"sidewalks":{"area":1976.11,"pct":4.87}},"id":"hex:1999:17427"},"type":"Feature"},{"geometry":{"coordinates":[[[-118.3557,34.09376],[-118.35636,34.09277],[-118.35772,34.09276],[-118.35841,34.09373],[-118.35787,34.09452],[-118.35624,34.09451],[-118.3557,34.09376]]],"type":"Polygon"},"properties":{"bbox":{"roads":{"area":5162.41,"pct":13.75},"sidewalks":{"area":1688.5,"pct":4.5}},"city":{"roads":{"area":2867.04,"pct":7.64},"sidewalks":{"area":1688.5,"pct":4.5}},"id":"hex:1999:17428"},"type":"Feature"},{"geometry":{"coordinates":[[[-118.35561,34.0879],[-118.35425,34.08791],[-118.35369,34.08714],[-118.35429,34.08714],[-118.35436,34.08714],[-118.35526,34.08715],[-118.35531,34.08715],[-118.35533,34.08715],[-118.35611,34.08715],[-118.35561,34.0879]]],"type":"Polygon"},"properties":{"bbox":{"roads":{"area":1514.79,"pct":10.33},"sidewalks":{"area":746.51,"pct":5.09}},"city_same":1,"id":"hex:2000:17425"},"type":"Feature"},{"geometry":{"coordinates":[[[-118.35359,34.0889],[-118.35428,34.08987],[-118.35564,34.08985],[-118.3563,34.08887],[-118.35561,34.0879],[-118.35425,34.08791],[-118.35359,34.0889]]],"type":"Polygon"},"properties":{"bbox":{"roads":{"area":3594.07,"pct":8.85},"sidewalks":{"area":1828.6,"pct":4.5}},"city_same":1,"id":"hex:2000:17426"},"type":"Feature"},{"geometry":{"coordinates":[[[-118.35362,34.09085],[-118.35431,34.09182],[-118.35567,34.0918],[-118.35633,34.09082],[-118.35564,34.08985],[-118.35428,34.08987],[-118.35362,34.09085]]],"type":"Polygon"},"properties":{"bbox":{"roads":{"area":7935.49,"pct":19.55},"sidewalks":{"area":1842.85,"pct":4.54}},"city":{"roads":{"area":4425.07,"pct":10.9},"sidewalks":{"area":1842.85,"pct":4.54}},"id":"hex:2000:17427"},"type":"Feature"},{"geometry":{"coordinates":[[[-118.35365,34.0928],[-118.35434,34.09377],[-118.3557,34.09376],[-118.35636,34.09277],[-118.35567,34.0918],[-118.35431,34.09182],[-118.35365,34.0928]]],"type":"Polygon"},"properties":{"bbox":{"roads":{"area":3851.22,"pct":9.49},"sidewalks":{"area":1634.82,"pct":4.03}},"city_same":1,"id":"hex:2000:17428"},"type":"Feature"},{"geometry":{"coordinates":[[[-118.35434,34.09377],[-118.3557,34.09376],[-118.35624,34.09451],[-118.35385,34.0945],[-118.35434,34.09377]]],"type":"Polygon"},"properties":{"bbox":{"roads":{"area":3636.49,"pct":25.56},"sidewalks":{"area":747.23,"pct":5.25}},"city":{"roads":{"area":782.98,"pct":5.5},"sidewalks":{"area":747.23,"pct":5.25}},"id":"hex:2000:17429"},"type":"Feature"},{"geometry":{"coordinates":[[[-118.35425,34.08791],[-118.35359,34.0889],[-118.3528,34.08891],[-118.3528,34.08871],[-118.3528,34.08713],[-118.35323,34.08713],[-118.35369,34.08714],[-118.35425,34.08791]]],"type":"Polygon"},"properties":{"bbox":{"roads":{"area":1716.95,"pct":8.31},"sidewalks":{"area":874.55,"pct":4.23}},"city_same":1,"id":"hex:2001:17425"},"type":"Feature"},{"geometry":{"coordinates":[[[-118.35359,34.0889],[-118.35428,34.08987],[-118.35362,34.09085],[-118.35227,34.09086],[-118.35157,34.0899],[-118.3522,34.08896],[-118.35224,34.08896],[-118.3528,34.08896],[-118.3528,34.08891],[-118.35359,34.0889]]],"type":"Polygon"},"properties":{"bbox":{"roads":{"area":5587.03,"pct":13.87},"sidewalks":{"area":1429.91,"pct":3.55}},"city":{"roads":{"area":3470.99,"pct":8.61},"sidewalks":{"area":1429.91,"pct":3.55}},"id":"hex:2001:17426"},"type":"Feature"},{"geometry":{"coordinates":[[[-118.3516,34.09185],[-118.3523,34.09282],[-118.35365,34.0928],[-118.35431,34.09182],[-118.35362,34.09085],[-118.35227,34.09086],[-118.3516,34.09185]]],"type":"Polygon"},"properties":{"bbox":{"roads":{"area":4286.18,"pct":10.56},"sidewalks":{"area":1600.1,"pct":3.94}},"city":{"roads":{"area":4285.83,"pct":10.56},"sidewalks":{"area":1600.1,"pct":3.94}},"id":"hex:2001:17427"},"type":"Feature"},{"geometry":{"coordinates":[[[-118.35163,34.0938],[-118.3523,34.09282],[-118.35365,34.0928],[-118.35434,34.09377],[-118.35385,34.0945],[-118.35293,34.09449],[-118.35213,34.09449],[-118.35163,34.0938]]],"type":"Polygon"},"properties":{"bbox":{"roads":{"area":5068.38,"pct":13.93},"sidewalks":{"area":1351.08,"pct":3.71}},"city":{"roads":{"area":2465.91,"pct":6.78},"sidewalks":{"area":1351.08,"pct":3.71}},"id":"hex:2001:17428"},"type":"Feature"},{"geometry":{"coordinates":[[[-118.35157,34.0899],[-118.35022,34.08991],[-118.34953,34.08894],[-118.34953,34.08894],[-118.34964,34.08894],[-118.34981,34.08894],[-118.34983,34.08894],[-118.35113,34.08895],[-118.3522,34.08896],[-118.35157,34.0899]]],"type":"Polygon"},"properties":{"bbox":{"parking":{"area":1070.57,"pct":5.42},"roads":{"area":1499.22,"pct":7.6},"sidewalks":{"area":635.46,"pct":3.22}},"city_same":1,"id":"hex:2002:17426"},"type":"Feature"},{"geometry":{"coordinates":[[[-118.34956,34.09089],[-118.35025,34.09186],[-118.3516,34.09185],[-118.35227,34.09086],[-118.35157,34.0899],[-118.35022,34.08991],[-118.34956,34.09089]]],"type":"Polygon"},"properties":{"bbox":{"parking":{"area":5219.75,"pct":12.86},"roads":{"area":7344.83,"pct":18.09},"sidewalks":{"area":1441.25,"pct":3.55}},"city":{"parking":{"area":5219.75,"pct":12.86},"roads":{"area":3670.33,"pct":9.04},"sidewalks":{"area":1441.25,"pct":3.55}},"id":"hex:2002:17427"},"type":"Feature"},{"geometry":{"coordinates":[[[-118.34959,34.09285],[-118.35028,34.09382],[-118.35163,34.0938],[-118.3523,34.09282],[-118.3516,34.09185],[-118.35025,34.09186],[-118.34959,34.09285]]],"type":"Polygon"},"properties":{"bbox":{"parking":{"area":568.72,"pct":1.4},"roads":{"area":2310.66,"pct":5.69},"sidewalks":{"area":1061.71,"pct":2.62}},"city_same":1,"id":"hex:2002:17428"},"type":"Feature"},{"geometry":{"coordinates":[[[-118.35028,34.09382],[-118.35163,34.0938],[-118.35213,34.09449],[-118.34984,34.09447],[-118.35028,34.09382]]],"type":"Polygon"},"properties":{"bbox":{"parking":{"area":3200.83,"pct":25.65},"roads":{"area":4109.4,"pct":32.93},"sidewalks":{"area":706.92,"pct":5.66}},"city":{"parking":{"area":3200.83,"pct":25.65},"roads":{"area":1356.03,"pct":10.87},"sidewalks":{"area":706.92,"pct":5.66}},"id":"hex:2002:17429"},"type":"Feature"},{"geometry":{"coordinates":[[[-118.34953,34.08894],[-118.34817,34.08896],[-118.34815,34.08893],[-118.34866,34.08893],[-118.3487,34.08893],[-118.34953,34.08894],[-118.34953,34.08894]]],"type":"Polygon"},"properties":{"bbox":{"parking":{"area":57.51,"pct":22.25},"roads":{"area":124.07,"pct":48},"sidewalks":{"area":3.83,"pct":1.48}},"city_same":1,"id":"hex:2003:17425"},"type":"Feature"},{"geometry":{"coordinates":[[[-118.34751,34.08994],[-118.3482,34.09091],[-118.34956,34.09089],[-118.35022,34.08991],[-118.34953,34.08894],[-118.34817,34.08896],[-118.34751,34.08994]]],"type":"Polygon"},"properties":{"bbox":{"parking":{"area":4115.68,"pct":10.14},"roads":{"area":6066.88,"pct":14.94},"sidewalks":{"area":1459.57,"pct":3.6}},"city":{"parking":{"area":4115.68,"pct":10.14},"roads":{"area":3845.49,"pct":9.47},"sidewalks":{"area":1459.57,"pct":3.6}},"id":"hex:2003:17426"},"type":"Feature"},{"geometry":{"coordinates":[[[-118.34754,34.09189],[-118.34823,34.09286],[-118.34959,34.09285],[-118.35025,34.09186],[-118.34956,34.09089],[-118.3482,34.09091],[-118.34754,34.09189]]],"type":"Polygon"},"properties":{"bbox":{"roads":{"area":3252.13,"pct":8.01},"sidewalks":{"area":1412.19,"pct":3.48}},"city_same":1,"id":"hex:2003:17427"},"type":"Feature"},{"geometry":{"coordinates":[[[-118.34757,34.09384],[-118.34823,34.09286],[-118.34959,34.09285],[-118.35028,34.09382],[-118.34984,34.09447],[-118.348,34.09445],[-118.34757,34.09384]]],"type":"Polygon"},"properties":{"bbox":{"roads":{"area":5356.81,"pct":15.33},"sidewalks":{"area":1400.36,"pct":4.01}},"city":{"roads":{"area":2887.56,"pct":8.26},"sidewalks":{"area":1400.36,"pct":4.01}},"id":"hex:2003:17428"},"type":"Feature"},{"geometry":{"coordinates":[[[-118.34817,34.08896],[-118.34751,34.08994],[-118.34615,34.08996],[-118.34546,34.08899],[-118.34552,34.08891],[-118.34554,34.08891],[-118.34617,34.08891],[-118.34624,34.08891],[-118.34815,34.08893],[-118.34817,34.08896]]],"type":"Polygon"},"properties":{"bbox":{"parking":{"area":3064.16,"pct":14.02},"roads":{"area":2881,"pct":13.19},"sidewalks":{"area":431.6,"pct":1.98}},"city_same":1,"id":"hex:2004:17426"},"type":"Feature"},{"geometry":{"coordinates":[[[-118.34549,34.09094],[-118.34618,34.09191],[-118.34754,34.09189],[-118.3482,34.09091],[-118.34751,34.08994],[-118.34615,34.08996],[-118.34549,34.09094]]],"type":"Polygon"},"properties":{"bbox":{"parking":{"area":237.38,"pct":0.58},"roads":{"area":7383.37,"pct":18.19},"sidewalks":{"area":1590.49,"pct":3.92}},"city":{"parking":{"area":237.38,"pct":0.58},"roads":{"area":3980.09,"pct":9.8},"sidewalks":{"area":1590.49,"pct":3.92}},"id":"hex:2004:17427"},"type":"Feature"},{"geometry":{"coordinates":[[[-118.34552,34.09289],[-118.34622,34.09386],[-118.34757,34.09384],[-118.34823,34.09286],[-118.34754,34.09189],[-118.34618,34.09191],[-118.34552,34.09289]]],"type":"Polygon"},"properties":{"bbox":{"roads":{"area":3433.65,"pct":8.46},"sidewalks":{"area":1463.95,"pct":3.61}},"city_same":1,"id":"hex:2004:17428"},"type":"Feature"},{"geometry":{"coordinates":[[[-118.34622,34.09386],[-118.34757,34.09384],[-118.348,34.09445],[-118.34583,34.09443],[-118.34622,34.09386]]],"type":"Polygon"},"properties":{"bbox":{"roads":{"area":3341.45,"pct":31.4},"sidewalks":{"area":547.07,"pct":5.14}},"city":{"roads":{"area":751.41,"pct":7.06},"sidewalks":{"area":547.07,"pct":5.14}},"id":"hex:2004:17429"},"type":"Feature"},{"geometry":{"coordinates":[[[-118.34546,34.08899],[-118.34411,34.089],[-118.34403,34.0889],[-118.34407,34.0889],[-118.34504,34.0889],[-118.34508,34.0889],[-118.34516,34.0889],[-118.34536,34.08891],[-118.34552,34.08891],[-118.34546,34.08899]]],"type":"Polygon"},"properties":{"bbox":{"roads":{"area":497.7,"pct":37.33},"sidewalks":{"area":168.29,"pct":12.62}},"city_same":1,"id":"hex:2005:17425"},"type":"Feature"},{"geometry":{"coordinates":[[[-118.34344,34.08999],[-118.34414,34.09095],[-118.34549,34.09094],[-118.34615,34.08996],[-118.34546,34.08899],[-118.34411,34.089],[-118.34344,34.08999]]],"type":"Polygon"},"properties":{"bbox":{"parking":{"area":17223.16,"pct":42.43},"roads":{"area":9040.8,"pct":22.27},"sidewalks":{"area":947.31,"pct":2.33}},"city":{"parking":{"area":17223.16,"pct":42.43},"roads":{"area":6711.38,"pct":16.53},"sidewalks":{"area":947.31,"pct":2.33}},"id":"hex:2005:17426"},"type":"Feature"},{"geometry":{"coordinates":[[[-118.34348,34.09194],[-118.34417,34.09291],[-118.34552,34.09289],[-118.34618,34.09191],[-118.34549,34.09094],[-118.34414,34.09095],[-118.34348,34.09194]]],"type":"Polygon"},"properties":{"bbox":{"parking":{"area":1131.7,"pct":2.79},"roads":{"area":8426.26,"pct":20.76},"sidewalks":{"area":1524.01,"pct":3.75}},"city_same":1,"id":"hex:2005:17427"},"type":"Feature"},{"geometry":{"coordinates":[[[-118.34351,34.09389],[-118.34417,34.09291],[-118.34552,34.09289],[-118.34622,34.09386],[-118.34583,34.09443],[-118.34388,34.09441],[-118.34351,34.09389]]],"type":"Polygon"},"properties":{"bbox":{"parking":{"area":1813.56,"pct":5.43},"roads":{"area":7837.91,"pct":23.48},"sidewalks":{"area":1231.88,"pct":3.69}},"city":{"parking":{"area":1813.56,"pct":5.43},"roads":{"area":5756.04,"pct":17.25},"sidewalks":{"area":1231.88,"pct":3.69}},"id":"hex:2005:17428"},"type":"Feature"},{"geometry":{"coordinates":[[[-118.34411,34.089],[-118.34344,34.08999],[-118.34339,34.08999],[-118.34339,34.08889],[-118.34392,34.0889],[-118.34403,34.0889],[-118.34411,34.089]]],"type":"Polygon"},"properties":{"bbox":{"roads":{"area":593.17,"pct":12.89},"sidewalks":{"area":125.94,"pct":2.74}},"city_same":1,"id":"hex:2006:17426"},"type":"Feature"},{"geometry":{"coordinates":[[[-118.34344,34.08999],[-118.34414,34.09095],[-118.34348,34.09194],[-118.34338,34.09194],[-118.34338,34.0907],[-118.34339,34.0902],[-118.34339,34.08999],[-118.34344,34.08999]]],"type":"Polygon"},"properties":{"bbox":{"parking":{"area":2684.17,"pct":32.43},"roads":{"area":2296.32,"pct":27.74},"sidewalks":{"area":220.18,"pct":2.66}},"city":{"parking":{"area":2684.17,"pct":32.43},"roads":{"area":1406.7,"pct":16.99},"sidewalks":{"area":220.18,"pct":2.66}},"id":"hex:2006:17427"},"type":"Feature"},{"geometry":{"coordinates":[[[-118.34348,34.09194],[-118.34417,34.09291],[-118.34351,34.09389],[-118.34338,34.09389],[-118.34338,34.09257],[-118.34338,34.09194],[-118.34348,34.09194]]],"type":"Polygon"},"properties":{"bbox":{"roads":{"area":1207.88,"pct":13.49},"sidewalks":{"area":244.75,"pct":2.73}},"city_same":1,"id":"hex:2006:17428"},"type":"Feature"},{"geometry":{"coordinates":[[[-118.34351,34.09389],[-118.34388,34.09441],[-118.34338,34.09441],[-118.34338,34.09389],[-118.34351,34.09389]]],"type":"Polygon"},"properties":{"bbox":{"roads":{"area":302.41,"pct":18.14},"sidewalks":{"area":65.73,"pct":3.94}},"city_same":1,"id":"hex:2006:17429"},"type":"Feature"}],"type":"FeatureCollection","v":2}