{"features":[{"geometry":{"coordinates":[[[-117.98474,34.15638],[-117.9827,34.1563],[-117.98256,34.15652],[-117.98192,34.15663],[-117.98109,34.15643],[-117.9809,34.15683],[-117.98011,34.15651],[-117.98002,34.1567],[-117.97745,34.15587],[-117.97754,34.16511],[-117.95957,34.16517],[-117.95963,34.15206],[-117.95128,34.15075],[-117.95131,34.14369],[-117.9666,34.14369],[-117.96671,34.14561],[-117.96704,34.14617],[-117.96684,34.14742],[-117.96728,34.14782],[-117.96807,34.14717],[-117.96833,34.14636],[-117.96903,34.14608],[-117.96901,34.14367],[-117.97537,34.14362],[-117.97535,34.1469],[-117.97975,34.14687],[-117.97976,34.1478],[-117.98199,34.14778],[-117.98208,34.15042],[-117.98339,34.15059],[-117.98356,34.15118],[-117.98388,34.15156],[-117.98508,34.15156],[-117.98523,34.15356],[-117.98585,34.15512],[-117.98474,34.15638]],[[-117.96171,34.15218],[-117.96268,34.15281],[-117.96265,34.1522],[-117.96287,34.15179],[-117.96208,34.15171],[-117.96171,34.15218]],[[-117.96657,34.15561],[-117.96635,34.15562],[-117.96644,34.1558],[-117.96657,34.15561]],[[-117.96794,34.15721],[-117.96859,34.15617],[-117.96718,34.15612],[-117.96708,34.15655],[-117.96751,34.15743],[-117.9678,34.15754],[-117.96794,34.15721]],[[-117.97744,34.14742],[-117.97739,34.14705],[-117.97679,34.147],[-117.97675,34.14773],[-117.97735,34.1477],[-117.97744,34.14742]]],"type":"Polygon"},"properties":{"type":"boundary"},"type":"Feature"}],"type":"FeatureCollection"}