{"features":[{"geometry":{"coordinates":[[[-117.98483,34.15156],[-117.98508,34.15156],[-117.98511,34.15195],[-117.98483,34.15156]]],"type":"Polygon"},"properties":{"bbox":{"roads":{"area":24.83,"pct":5.13}},"city_same":1,"id":"hex:2182:17456"},"type":"Feature"},{"geometry":{"coordinates":[[[-117.98307,34.151],[-117.98269,34.15046],[-117.98339,34.15059],[-117.9835,34.15099],[-117.98307,34.151]]],"type":"Polygon"},"properties":{"bbox":{"roads":{"area":76.22,"pct":2.95}},"city_same":1,"id":"hex:2183:17455"},"type":"Feature"},{"geometry":{"coordinates":[[[-117.98445,34.15294],[-117.98309,34.15295],[-117.9824,34.15198],[-117.98307,34.151],[-117.9835,34.15099],[-117.98356,34.15118],[-117.98388,34.15156],[-117.98483,34.15156],[-117.98511,34.15195],[-117.98511,34.15197],[-117.98445,34.15294]]],"type":"Polygon"},"properties":{"bbox":{"roads":{"area":2618.07,"pct":7.5}},"city_same":1,"id":"hex:2183:17456"},"type":"Feature"},{"geometry":{"coordinates":[[[-117.98243,34.15393],[-117.98311,34.1549],[-117.98447,34.15489],[-117.98514,34.15391],[-117.98445,34.15294],[-117.98309,34.15295],[-117.98243,34.15393]]],"type":"Polygon"},"properties":{"bbox":{"roads":{"area":2000.16,"pct":4.93}},"city_same":1,"id":"hex:2183:17457"},"type":"Feature"},{"geometry":{"coordinates":[[[-117.98245,34.15588],[-117.98311,34.1549],[-117.98447,34.15489],[-117.98516,34.15586],[-117.98502,34.15606],[-117.98474,34.15638],[-117.98395,34.15634],[-117.9832,34.15631],[-117.98274,34.1563],[-117.98245,34.15588]]],"type":"Polygon"},"properties":{"bbox":{"roads":{"area":1264.6,"pct":4.01}},"city_same":1,"id":"hex:2183:17458"},"type":"Feature"},{"geometry":{"coordinates":[[[-117.981,34.14808],[-117.9808,34.14779],[-117.98199,34.14778],[-117.98197,34.14808],[-117.981,34.14808]]],"type":"Polygon"},"properties":{"bbox":{"roads":{"area":466.38,"pct":14.39}},"city_same":1,"id":"hex:2184:17454"},"type":"Feature"},{"geometry":{"coordinates":[[[-117.98102,34.15004],[-117.98033,34.14907],[-117.981,34.14808],[-117.98197,34.14808],[-117.98197,34.14817],[-117.98198,34.14854],[-117.98198,34.14892],[-117.98199,34.14928],[-117.98204,34.14945],[-117.98206,34.15003],[-117.98102,34.15004]]],"type":"Polygon"},"properties":{"bbox":{"roads":{"area":2227.72,"pct":8.38}},"city_same":1,"id":"hex:2184:17455"},"type":"Feature"},{"geometry":{"coordinates":[[[-117.98307,34.151],[-117.9824,34.15198],[-117.98105,34.15199],[-117.98036,34.15102],[-117.98102,34.15004],[-117.98206,34.15003],[-117.98208,34.15039],[-117.98208,34.15042],[-117.98242,34.15041],[-117.98269,34.15046],[-117.98307,34.151]]],"type":"Polygon"},"properties":{"bbox":{"roads":{"area":3850.29,"pct":9.93}},"city_same":1,"id":"hex:2184:17456"},"type":"Feature"},{"geometry":{"coordinates":[[[-117.98038,34.15297],[-117.98107,34.15394],[-117.98243,34.15393],[-117.98309,34.15295],[-117.9824,34.15198],[-117.98105,34.15199],[-117.98038,34.15297]]],"type":"Polygon"},"properties":{"bbox":{"roads":{"area":2278.18,"pct":5.61}},"city_same":1,"id":"hex:2184:17457"},"type":"Feature"},{"geometry":{"coordinates":[[[-117.9804,34.15492],[-117.98109,34.15589],[-117.98245,34.15588],[-117.98311,34.1549],[-117.98243,34.15393],[-117.98107,34.15394],[-117.9804,34.15492]]],"type":"Polygon"},"properties":{"bbox":{"roads":{"area":3748.89,"pct":9.23}},"city_same":1,"id":"hex:2184:17458"},"type":"Feature"},{"geometry":{"coordinates":[[[-117.98109,34.15589],[-117.98245,34.15588],[-117.98274,34.1563],[-117.9827,34.1563],[-117.98268,34.15633],[-117.98256,34.15652],[-117.98192,34.15663],[-117.98109,34.15643],[-117.9809,34.15683],[-117.98055,34.15669],[-117.98109,34.15589]]],"type":"Polygon"},"properties":{"bbox":{"roads":{"area":636.05,"pct":5.03}},"city_same":1,"id":"hex:2184:17459"},"type":"Feature"},{"geometry":{"coordinates":[[[-117.97896,34.14712],[-117.97878,34.14687],[-117.97922,34.14687],[-117.97961,34.14686],[-117.97975,34.14687],[-117.97975,34.14712],[-117.97896,34.14712]]],"type":"Polygon"},"properties":{"bbox":{"roads":{"area":362.09,"pct":15.89}},"city_same":1,"id":"hex:2185:17453"},"type":"Feature"},{"geometry":{"coordinates":[[[-117.981,34.14808],[-117.98033,34.14907],[-117.97898,34.14908],[-117.97829,34.14811],[-117.97896,34.14712],[-117.97975,34.14712],[-117.97976,34.1478],[-117.98055,34.1478],[-117.9808,34.14779],[-117.981,34.14808]]],"type":"Polygon"},"properties":{"bbox":{"roads":{"area":1094.25,"pct":3.12}},"city_same":1,"id":"hex:2185:17454"},"type":"Feature"},{"geometry":{"coordinates":[[[-117.97831,34.15006],[-117.979,34.15103],[-117.98036,34.15102],[-117.98102,34.15004],[-117.98033,34.14907],[-117.97898,34.14908],[-117.97831,34.15006]]],"type":"Polygon"},"properties":{"bbox":{"roads":{"area":1772.91,"pct":4.37}},"city_same":1,"id":"hex:2185:17455"},"type":"Feature"},{"geometry":{"coordinates":[[[-117.97834,34.15201],[-117.97902,34.15298],[-117.98038,34.15297],[-117.98105,34.15199],[-117.98036,34.15102],[-117.979,34.15103],[-117.97834,34.15201]]],"type":"Polygon"},"properties":{"bbox":{"roads":{"area":2391.93,"pct":5.89}},"city_same":1,"id":"hex:2185:17456"},"type":"Feature"},{"geometry":{"coordinates":[[[-117.97836,34.15396],[-117.97905,34.15493],[-117.9804,34.15492],[-117.98107,34.15394],[-117.98038,34.15297],[-117.97902,34.15298],[-117.97836,34.15396]]],"type":"Polygon"},"properties":{"bbox":{"roads":{"area":2228.14,"pct":5.49}},"city_same":1,"id":"hex:2185:17457"},"type":"Feature"},{"geometry":{"coordinates":[[[-117.97838,34.15592],[-117.97905,34.15493],[-117.9804,34.15492],[-117.98109,34.15589],[-117.98055,34.15669],[-117.98049,34.15667],[-117.98034,34.1566],[-117.98029,34.15658],[-117.98011,34.15651],[-117.98002,34.1567],[-117.97861,34.15624],[-117.97838,34.15592]]],"type":"Polygon"},"properties":{"bbox":{"roads":{"area":2086.05,"pct":6}},"city_same":1,"id":"hex:2185:17458"},"type":"Feature"},{"geometry":{"coordinates":[[[-117.97896,34.14712],[-117.97829,34.14811],[-117.97693,34.14812],[-117.97625,34.14715],[-117.97641,34.14691],[-117.977,34.1469],[-117.97756,34.1469],[-117.97765,34.1469],[-117.97814,34.14687],[-117.97878,34.14687],[-117.97896,34.14712]],[[-117.97744,34.14709],[-117.97739,34.14705],[-117.97679,34.147],[-117.97675,34.14773],[-117.97693,34.14776],[-117.97707,34.14774],[-117.97719,34.14771],[-117.97735,34.1477],[-117.97738,34.14764],[-117.97744,34.14742],[-117.97744,34.14709]]],"type":"Polygon"},"properties":{"bbox":{"roads":{"area":2019.28,"pct":9.17}},"city_same":1,"id":"hex:2186:17454"},"type":"Feature"},{"geometry":{"coordinates":[[[-117.97627,34.1491],[-117.97696,34.15007],[-117.97831,34.15006],[-117.97898,34.14908],[-117.97829,34.14811],[-117.97693,34.14812],[-117.97627,34.1491]]],"type":"Polygon"},"properties":{"bbox":{"roads":{"area":1710.82,"pct":4.21}},"city_same":1,"id":"hex:2186:17455"},"type":"Feature"},{"geometry":{"coordinates":[[[-117.97629,34.15105],[-117.97698,34.15202],[-117.97834,34.15201],[-117.979,34.15103],[-117.97831,34.15006],[-117.97696,34.15007],[-117.97629,34.15105]]],"type":"Polygon"},"properties":{"bbox":{"roads":{"area":2601.05,"pct":6.41}},"city_same":1,"id":"hex:2186:17456"},"type":"Feature"},{"geometry":{"coordinates":[[[-117.97631,34.153],[-117.977,34.15397],[-117.97836,34.15396],[-117.97902,34.15298],[-117.97834,34.15201],[-117.97698,34.15202],[-117.97631,34.153]]],"type":"Polygon"},"properties":{"bbox":{"roads":{"area":3893.1,"pct":9.59}},"city_same":1,"id":"hex:2186:17457"},"type":"Feature"},{"geometry":{"coordinates":[[[-117.97702,34.15593],[-117.97634,34.15496],[-117.977,34.15397],[-117.97836,34.15396],[-117.97905,34.15493],[-117.97838,34.15592],[-117.97761,34.15592],[-117.97745,34.15587],[-117.97745,34.15592],[-117.97702,34.15593]]],"type":"Polygon"},"properties":{"bbox":{"roads":{"area":2797.35,"pct":6.9}},"city_same":1,"id":"hex:2186:17458"},"type":"Feature"},{"geometry":{"coordinates":[[[[-117.97705,34.15788],[-117.97636,34.15691],[-117.97702,34.15593],[-117.97745,34.15592],[-117.97747,34.15788],[-117.97705,34.15788]]],[[[-117.97838,34.15592],[-117.97861,34.15624],[-117.97761,34.15592],[-117.97838,34.15592]]]],"type":"MultiPolygon"},"properties":{"bbox":{"roads":{"area":20.71,"pct":0.13}},"city_same":1,"id":"hex:2186:17459"},"type":"Feature"},{"geometry":{"coordinates":[[[-117.97707,34.15983],[-117.97638,34.15886],[-117.97705,34.15788],[-117.97747,34.15788],[-117.97748,34.15983],[-117.97707,34.15983]]],"type":"Polygon"},"properties":{"bbox":{"roads":{"area":467.37,"pct":3.1}},"city_same":1,"id":"hex:2186:17460"},"type":"Feature"},{"geometry":{"coordinates":[[[-117.97709,34.16178],[-117.9764,34.16081],[-117.97707,34.15983],[-117.97748,34.15983],[-117.9775,34.16178],[-117.97709,34.16178]]],"type":"Polygon"},"properties":{"bbox":{"roads":{"area":258.58,"pct":1.72}},"city_same":1,"id":"hex:2186:17461"},"type":"Feature"},{"geometry":{"coordinates":[[[-117.97487,34.1452],[-117.97418,34.14423],[-117.97459,34.14363],[-117.97537,34.14362],[-117.97536,34.1452],[-117.97487,34.1452]]],"type":"Polygon"},"properties":{"bbox":{"roads":{"area":854.5,"pct":5.92}},"city_same":1,"id":"hex:2187:17452"},"type":"Feature"},{"geometry":{"coordinates":[[[-117.97625,34.14715],[-117.97489,34.14716],[-117.9742,34.14619],[-117.97487,34.1452],[-117.97536,34.1452],[-117.97535,34.1469],[-117.97593,34.14691],[-117.97641,34.14691],[-117.97625,34.14715]]],"type":"Polygon"},"properties":{"bbox":{"roads":{"area":1923.04,"pct":10.29}},"city_same":1,"id":"hex:2187:17453"},"type":"Feature"},{"geometry":{"coordinates":[[[-117.97422,34.14814],[-117.97491,34.14911],[-117.97627,34.1491],[-117.97693,34.14812],[-117.97625,34.14715],[-117.97489,34.14716],[-117.97422,34.14814]]],"type":"Polygon"},"properties":{"bbox":{"roads":{"area":1557.71,"pct":3.84}},"city_same":1,"id":"hex:2187:17454"},"type":"Feature"},{"geometry":{"coordinates":[[[-117.97425,34.15009],[-117.97493,34.15106],[-117.97629,34.15105],[-117.97696,34.15007],[-117.97627,34.1491],[-117.97491,34.14911],[-117.97425,34.15009]]],"type":"Polygon"},"properties":{"bbox":{"roads":{"area":2782.8,"pct":6.86}},"city_same":1,"id":"hex:2187:17455"},"type":"Feature"},{"geometry":{"coordinates":[[[-117.97427,34.15204],[-117.97496,34.15301],[-117.97631,34.153],[-117.97698,34.15202],[-117.97629,34.15105],[-117.97493,34.15106],[-117.97427,34.15204]]],"type":"Polygon"},"properties":{"bbox":{"roads":{"area":3026.26,"pct":7.45}},"city_same":1,"id":"hex:2187:17456"},"type":"Feature"},{"geometry":{"coordinates":[[[-117.97429,34.154],[-117.97498,34.15497],[-117.97634,34.15496],[-117.977,34.15397],[-117.97631,34.153],[-117.97496,34.15301],[-117.97429,34.154]]],"type":"Polygon"},"properties":{"bbox":{"roads":{"area":2531.34,"pct":6.24}},"city_same":1,"id":"hex:2187:17457"},"type":"Feature"},{"geometry":{"coordinates":[[[-117.97431,34.15595],[-117.975,34.15692],[-117.97636,34.15691],[-117.97702,34.15593],[-117.97634,34.15496],[-117.97498,34.15497],[-117.97431,34.15595]]],"type":"Polygon"},"properties":{"bbox":{"roads":{"area":2294.9,"pct":5.65}},"city_same":1,"id":"hex:2187:17458"},"type":"Feature"},{"geometry":{"coordinates":[[[-117.97433,34.1579],[-117.97502,34.15887],[-117.97638,34.15886],[-117.97705,34.15788],[-117.97636,34.15691],[-117.975,34.15692],[-117.97433,34.1579]]],"type":"Polygon"},"properties":{"bbox":{"roads":{"area":1812.08,"pct":4.46}},"city_same":1,"id":"hex:2187:17459"},"type":"Feature"},{"geometry":{"coordinates":[[[-117.97436,34.15985],[-117.97505,34.16082],[-117.9764,34.16081],[-117.97707,34.15983],[-117.97638,34.15886],[-117.97502,34.15887],[-117.97436,34.15985]]],"type":"Polygon"},"properties":{"bbox":{"roads":{"area":1851,"pct":4.56}},"city_same":1,"id":"hex:2187:17460"},"type":"Feature"},{"geometry":{"coordinates":[[[-117.97438,34.1618],[-117.97507,34.16278],[-117.97642,34.16276],[-117.97709,34.16178],[-117.9764,34.16081],[-117.97505,34.16082],[-117.97438,34.1618]]],"type":"Polygon"},"properties":{"bbox":{"roads":{"area":90.11,"pct":0.22}},"city_same":1,"id":"hex:2187:17461"},"type":"Feature"},{"geometry":{"coordinates":[[[-117.97418,34.14423],[-117.97282,34.14424],[-117.97239,34.14364],[-117.97459,34.14363],[-117.97418,34.14423]]],"type":"Polygon"},"properties":{"bbox":{"roads":{"area":1431.46,"pct":13.02}},"city_same":1,"id":"hex:2188:17452"},"type":"Feature"},{"geometry":{"coordinates":[[[-117.97216,34.14523],[-117.97284,34.1462],[-117.9742,34.14619],[-117.97487,34.1452],[-117.97418,34.14423],[-117.97282,34.14424],[-117.97216,34.14523]]],"type":"Polygon"},"properties":{"bbox":{"roads":{"area":1314.98,"pct":3.24}},"city_same":1,"id":"hex:2188:17453"},"type":"Feature"},{"geometry":{"coordinates":[[[-117.97218,34.14718],[-117.97287,34.14815],[-117.97422,34.14814],[-117.97489,34.14716],[-117.9742,34.14619],[-117.97284,34.1462],[-117.97218,34.14718]]],"type":"Polygon"},"properties":{"bbox":{"roads":{"area":3143.83,"pct":7.74}},"city_same":1,"id":"hex:2188:17454"},"type":"Feature"},{"geometry":{"coordinates":[[[-117.9722,34.14913],[-117.97289,34.1501],[-117.97425,34.15009],[-117.97491,34.14911],[-117.97422,34.14814],[-117.97287,34.14815],[-117.9722,34.14913]]],"type":"Polygon"},"properties":{"bbox":{"roads":{"area":1615.42,"pct":3.98}},"city_same":1,"id":"hex:2188:17455"},"type":"Feature"},{"geometry":{"coordinates":[[[-117.97222,34.15108],[-117.97291,34.15205],[-117.97427,34.15204],[-117.97493,34.15106],[-117.97425,34.15009],[-117.97289,34.1501],[-117.97222,34.15108]]],"type":"Polygon"},"properties":{"bbox":{"roads":{"area":3405,"pct":8.39}},"city_same":1,"id":"hex:2188:17456"},"type":"Feature"},{"geometry":{"coordinates":[[[-117.97225,34.15304],[-117.97293,34.15401],[-117.97429,34.154],[-117.97496,34.15301],[-117.97427,34.15204],[-117.97291,34.15205],[-117.97225,34.15304]]],"type":"Polygon"},"properties":{"bbox":{"roads":{"area":2422.11,"pct":5.97}},"city_same":1,"id":"hex:2188:17457"},"type":"Feature"},{"geometry":{"coordinates":[[[-117.97227,34.15499],[-117.97296,34.15596],[-117.97431,34.15595],[-117.97498,34.15497],[-117.97429,34.154],[-117.97293,34.15401],[-117.97227,34.15499]]],"type":"Polygon"},"properties":{"bbox":{"roads":{"area":2462.38,"pct":6.07}},"city_same":1,"id":"hex:2188:17458"},"type":"Feature"},{"geometry":{"coordinates":[[[-117.97229,34.15694],[-117.97298,34.15791],[-117.97433,34.1579],[-117.975,34.15692],[-117.97431,34.15595],[-117.97296,34.15596],[-117.97229,34.15694]]],"type":"Polygon"},"properties":{"bbox":{"roads":{"area":2244.23,"pct":5.53}},"city_same":1,"id":"hex:2188:17459"},"type":"Feature"},{"geometry":{"coordinates":[[[-117.97231,34.15889],[-117.973,34.15986],[-117.97436,34.15985],[-117.97502,34.15887],[-117.97433,34.1579],[-117.97298,34.15791],[-117.97231,34.15889]]],"type":"Polygon"},"properties":{"bbox":{"roads":{"area":3109.14,"pct":7.66}},"city_same":1,"id":"hex:2188:17460"},"type":"Feature"},{"geometry":{"coordinates":[[[-117.97282,34.14424],[-117.97216,34.14523],[-117.9708,34.14524],[-117.97011,34.14427],[-117.97052,34.14366],[-117.97239,34.14364],[-117.97282,34.14424]]],"type":"Polygon"},"properties":{"bbox":{"roads":{"area":2594.34,"pct":7.52}},"city_same":1,"id":"hex:2189:17452"},"type":"Feature"},{"geometry":{"coordinates":[[[-117.97013,34.14622],[-117.97082,34.14719],[-117.97218,34.14718],[-117.97284,34.1462],[-117.97216,34.14523],[-117.9708,34.14524],[-117.97013,34.14622]]],"type":"Polygon"},"properties":{"bbox":{"roads":{"area":2780.62,"pct":6.85}},"city_same":1,"id":"hex:2189:17453"},"type":"Feature"},{"geometry":{"coordinates":[[[-117.97016,34.14817],[-117.97084,34.14914],[-117.9722,34.14913],[-117.97287,34.14815],[-117.97218,34.14718],[-117.97082,34.14719],[-117.97016,34.14817]]],"type":"Polygon"},"properties":{"bbox":{"roads":{"area":1306.04,"pct":3.22}},"city_same":1,"id":"hex:2189:17454"},"type":"Feature"},{"geometry":{"coordinates":[[[-117.97018,34.15012],[-117.97087,34.15109],[-117.97222,34.15108],[-117.97289,34.1501],[-117.9722,34.14913],[-117.97084,34.14914],[-117.97018,34.15012]]],"type":"Polygon"},"properties":{"bbox":{"roads":{"area":2971.18,"pct":7.32}},"city_same":1,"id":"hex:2189:17455"},"type":"Feature"},{"geometry":{"coordinates":[[[-117.9702,34.15208],[-117.97089,34.15305],[-117.97225,34.15304],[-117.97291,34.15205],[-117.97222,34.15108],[-117.97087,34.15109],[-117.9702,34.15208]]],"type":"Polygon"},"properties":{"bbox":{"roads":{"area":2583.82,"pct":6.36}},"city_same":1,"id":"hex:2189:17456"},"type":"Feature"},{"geometry":{"coordinates":[[[-117.97022,34.15403],[-117.97091,34.155],[-117.97227,34.15499],[-117.97293,34.15401],[-117.97225,34.15304],[-117.97089,34.15305],[-117.97022,34.15403]]],"type":"Polygon"},"properties":{"bbox":{"roads":{"area":365.81,"pct":0.9}},"city_same":1,"id":"hex:2189:17457"},"type":"Feature"},{"geometry":{"coordinates":[[[-117.97024,34.15598],[-117.97093,34.15695],[-117.97229,34.15694],[-117.97296,34.15596],[-117.97227,34.15499],[-117.97091,34.155],[-117.97024,34.15598]]],"type":"Polygon"},"properties":{"bbox":{"roads":{"area":1200.96,"pct":2.96}},"city_same":1,"id":"hex:2189:17458"},"type":"Feature"},{"geometry":{"coordinates":[[[-117.97027,34.15793],[-117.97096,34.1589],[-117.97231,34.15889],[-117.97298,34.15791],[-117.97229,34.15694],[-117.97093,34.15695],[-117.97027,34.15793]]],"type":"Polygon"},"properties":{"bbox":{"roads":{"area":58.38,"pct":0.14}},"city_same":1,"id":"hex:2189:17459"},"type":"Feature"},{"geometry":{"coordinates":[[[-117.97011,34.14427],[-117.969,34.14427],[-117.96901,34.14367],[-117.97052,34.14366],[-117.97011,34.14427]]],"type":"Polygon"},"properties":{"bbox":{"roads":{"area":1067.7,"pct":13.15}},"city_same":1,"id":"hex:2190:17452"},"type":"Feature"},{"geometry":{"coordinates":[[[-117.97011,34.14427],[-117.9708,34.14524],[-117.97013,34.14622],[-117.96878,34.14623],[-117.96875,34.14619],[-117.96903,34.14608],[-117.96903,34.14607],[-117.96898,34.14524],[-117.969,34.14427],[-117.97011,34.14427]]],"type":"Polygon"},"properties":{"bbox":{"parking":{"area":1465.39,"pct":4.98},"roads":{"area":968.08,"pct":3.29}},"city_same":1,"id":"hex:2190:17453"},"type":"Feature"},{"geometry":{"coordinates":[[[-117.96811,34.14721],[-117.9688,34.14818],[-117.97016,34.14817],[-117.97082,34.14719],[-117.97013,34.14622],[-117.96878,34.14623],[-117.96811,34.14721]]],"type":"Polygon"},"properties":{"bbox":{"roads":{"area":1847.4,"pct":4.55}},"city_same":1,"id":"hex:2190:17454"},"type":"Feature"},{"geometry":{"coordinates":[[[-117.96813,34.14916],[-117.96882,34.15013],[-117.97018,34.15012],[-117.97084,34.14914],[-117.97016,34.14817],[-117.9688,34.14818],[-117.96813,34.14916]]],"type":"Polygon"},"properties":{"bbox":{"roads":{"area":3221.94,"pct":7.94}},"city_same":1,"id":"hex:2190:17455"},"type":"Feature"},{"geometry":{"coordinates":[[[-117.96816,34.15112],[-117.96884,34.15209],[-117.9702,34.15208],[-117.97087,34.15109],[-117.97018,34.15012],[-117.96882,34.15013],[-117.96816,34.15112]]],"type":"Polygon"},"properties":{"bbox":{"roads":{"area":3192.35,"pct":7.86}},"city_same":1,"id":"hex:2190:17456"},"type":"Feature"},{"geometry":{"coordinates":[[[-117.96818,34.15307],[-117.96887,34.15404],[-117.97022,34.15403],[-117.97089,34.15305],[-117.9702,34.15208],[-117.96884,34.15209],[-117.96818,34.15307]]],"type":"Polygon"},"properties":{"bbox":{"roads":{"area":2559.71,"pct":6.31}},"city_same":1,"id":"hex:2190:17457"},"type":"Feature"},{"geometry":{"coordinates":[[[-117.9682,34.15502],[-117.96889,34.15599],[-117.97024,34.15598],[-117.97091,34.155],[-117.97022,34.15403],[-117.96887,34.15404],[-117.9682,34.15502]]],"type":"Polygon"},"properties":{"bbox":{"roads":{"area":2324.36,"pct":5.73}},"city_same":1,"id":"hex:2190:17458"},"type":"Feature"},{"geometry":{"coordinates":[[[-117.96822,34.15697],[-117.96891,34.15794],[-117.97027,34.15793],[-117.97093,34.15695],[-117.97024,34.15598],[-117.96889,34.15599],[-117.96822,34.15697]]],"type":"Polygon"},"properties":{"bbox":{"roads":{"area":1876.52,"pct":4.62}},"city_same":1,"id":"hex:2190:17459"},"type":"Feature"},{"geometry":{"coordinates":[[[-117.96604,34.1443],[-117.96645,34.1437],[-117.9666,34.14369],[-117.96659,34.14492],[-117.96663,34.14512],[-117.96604,34.1443]]],"type":"Polygon"},"properties":{"bbox":{"roads":{"area":108.09,"pct":2.46}},"city_same":1,"id":"hex:2191:17452"},"type":"Feature"},{"geometry":{"coordinates":[[[[-117.96676,34.14722],[-117.96607,34.14625],[-117.96667,34.14536],[-117.96668,34.14544],[-117.96671,34.14561],[-117.96679,34.14578],[-117.96695,34.14599],[-117.96702,34.14608],[-117.96704,34.14617],[-117.96688,34.14722],[-117.96676,34.14722]]],[[[-117.96878,34.14623],[-117.96811,34.14721],[-117.96802,34.14721],[-117.96807,34.14717],[-117.96833,34.14636],[-117.96875,34.14619],[-117.96878,34.14623]]]],"type":"MultiPolygon"},"properties":{"bbox":{"roads":{"area":612.47,"pct":5.18}},"city_same":1,"id":"hex:2191:17453"},"type":"Feature"},{"geometry":{"coordinates":[[[-117.96811,34.14721],[-117.9688,34.14818],[-117.96813,34.14916],[-117.96678,34.14917],[-117.96609,34.1482],[-117.96676,34.14722],[-117.96688,34.14722],[-117.96684,34.14742],[-117.96725,34.14768],[-117.96728,34.14771],[-117.96729,34.14774],[-117.96729,34.14778],[-117.96728,34.14782],[-117.96802,34.14721],[-117.96811,34.14721]]],"type":"Polygon"},"properties":{"bbox":{"roads":{"area":2426.59,"pct":6.59}},"city_same":1,"id":"hex:2191:17454"},"type":"Feature"},{"geometry":{"coordinates":[[[-117.96611,34.15015],[-117.9668,34.15113],[-117.96816,34.15112],[-117.96882,34.15013],[-117.96813,34.14916],[-117.96678,34.14917],[-117.96611,34.15015]]],"type":"Polygon"},"properties":{"bbox":{"roads":{"area":400.18,"pct":0.99}},"city_same":1,"id":"hex:2191:17455"},"type":"Feature"},{"geometry":{"coordinates":[[[-117.96613,34.15211],[-117.96682,34.15308],[-117.96818,34.15307],[-117.96884,34.15209],[-117.96816,34.15112],[-117.9668,34.15113],[-117.96613,34.15211]]],"type":"Polygon"},"properties":{"bbox":{"roads":{"area":3482.02,"pct":8.58}},"city_same":1,"id":"hex:2191:17456"},"type":"Feature"},{"geometry":{"coordinates":[[[-117.96616,34.15406],[-117.96684,34.15503],[-117.9682,34.15502],[-117.96887,34.15404],[-117.96818,34.15307],[-117.96682,34.15308],[-117.96616,34.15406]]],"type":"Polygon"},"properties":{"bbox":{"roads":{"area":2893,"pct":7.13}},"city_same":1,"id":"hex:2191:17457"},"type":"Feature"},{"geometry":{"coordinates":[[[-117.96687,34.15698],[-117.96618,34.15601],[-117.96634,34.15577],[-117.96635,34.15578],[-117.96639,34.15579],[-117.96644,34.1558],[-117.96646,34.15579],[-117.96648,34.15579],[-117.96651,34.15579],[-117.96655,34.15577],[-117.96657,34.15574],[-117.96658,34.15572],[-117.96661,34.1557],[-117.96662,34.15568],[-117.96661,34.15565],[-117.9666,34.15563],[-117.96657,34.15561],[-117.96654,34.15561],[-117.96649,34.15561],[-117.96645,34.15561],[-117.96645,34.15561],[-117.96684,34.15503],[-117.9682,34.15502],[-117.96889,34.15599],[-117.96822,34.15697],[-117.96806,34.15697],[-117.96809,34.15692],[-117.96837,34.15661],[-117.96848,34.15652],[-117.96859,34.15617],[-117.96792,34.15614],[-117.96718,34.15612],[-117.96708,34.15643],[-117.96708,34.15655],[-117.96719,34.15678],[-117.96725,34.15698],[-117.96687,34.15698]]],"type":"Polygon"},"properties":{"bbox":{"roads":{"area":1494.9,"pct":5.04}},"city_same":1,"id":"hex:2191:17458"},"type":"Feature"},{"geometry":{"coordinates":[[[-117.96604,34.1443],[-117.96469,34.14431],[-117.96423,34.14367],[-117.96441,34.14367],[-117.96441,34.14371],[-117.96645,34.1437],[-117.96604,34.1443]]],"type":"Polygon"},"properties":{"bbox":{"roads":{"area":1447.42,"pct":13.22}},"city_same":1,"id":"hex:2192:17452"},"type":"Feature"},{"geometry":{"coordinates":[[[-117.96607,34.14625],[-117.96471,34.14626],[-117.96402,34.14529],[-117.96469,34.14431],[-117.96604,34.1443],[-117.96663,34.14512],[-117.96667,34.14536],[-117.96607,34.14625]]],"type":"Polygon"},"properties":{"bbox":{"roads":{"area":472,"pct":1.17}},"city_same":1,"id":"hex:2192:17453"},"type":"Feature"},{"geometry":{"coordinates":[[[-117.96404,34.14724],[-117.96473,34.14821],[-117.96609,34.1482],[-117.96676,34.14722],[-117.96607,34.14625],[-117.96471,34.14626],[-117.96404,34.14724]]],"type":"Polygon"},"properties":{"bbox":{"roads":{"area":2255.33,"pct":5.56}},"city_same":1,"id":"hex:2192:17454"},"type":"Feature"},{"geometry":{"coordinates":[[[-117.96407,34.14919],[-117.96475,34.15017],[-117.96611,34.15015],[-117.96678,34.14917],[-117.96609,34.1482],[-117.96473,34.14821],[-117.96407,34.14919]]],"type":"Polygon"},"properties":{"bbox":{"roads":{"area":2524.12,"pct":6.22}},"city_same":1,"id":"hex:2192:17455"},"type":"Feature"},{"geometry":{"coordinates":[[[-117.96409,34.15115],[-117.96478,34.15212],[-117.96613,34.15211],[-117.9668,34.15113],[-117.96611,34.15015],[-117.96475,34.15017],[-117.96409,34.15115]]],"type":"Polygon"},"properties":{"bbox":{"roads":{"area":252.84,"pct":0.62}},"city_same":1,"id":"hex:2192:17456"},"type":"Feature"},{"geometry":{"coordinates":[[[-117.96411,34.1531],[-117.9648,34.15407],[-117.96616,34.15406],[-117.96682,34.15308],[-117.96613,34.15211],[-117.96478,34.15212],[-117.96411,34.1531]]],"type":"Polygon"},"properties":{"bbox":{"roads":{"area":104.92,"pct":0.26}},"city_same":1,"id":"hex:2192:17457"},"type":"Feature"},{"geometry":{"coordinates":[[[-117.96618,34.15601],[-117.96482,34.15602],[-117.96413,34.15505],[-117.9648,34.15407],[-117.96616,34.15406],[-117.96684,34.15503],[-117.96645,34.15561],[-117.96642,34.15562],[-117.9664,34.15561],[-117.96637,34.15561],[-117.96635,34.15562],[-117.96631,34.15565],[-117.96629,34.15568],[-117.96629,34.15571],[-117.9663,34.15574],[-117.96632,34.15576],[-117.96634,34.15577],[-117.96618,34.15601]]],"type":"Polygon"},"properties":{"bbox":{"roads":{"area":3731.12,"pct":9.22}},"city_same":1,"id":"hex:2192:17458"},"type":"Feature"},{"geometry":{"coordinates":[[[-117.96415,34.157],[-117.96484,34.15797],[-117.9662,34.15796],[-117.96687,34.15698],[-117.96618,34.15601],[-117.96482,34.15602],[-117.96415,34.157]]],"type":"Polygon"},"properties":{"bbox":{"roads":{"area":224.34,"pct":0.55}},"city_same":1,"id":"hex:2192:17459"},"type":"Feature"},{"geometry":{"coordinates":[[[-117.96469,34.14431],[-117.96402,34.14529],[-117.96267,34.1453],[-117.96198,34.14433],[-117.96242,34.14367],[-117.96423,34.14367],[-117.96469,34.14431]]],"type":"Polygon"},"properties":{"bbox":{"roads":{"area":506.02,"pct":1.43}},"city_same":1,"id":"hex:2193:17452"},"type":"Feature"},{"geometry":{"coordinates":[[[-117.962,34.14628],[-117.96269,34.14725],[-117.96404,34.14724],[-117.96471,34.14626],[-117.96402,34.14529],[-117.96267,34.1453],[-117.962,34.14628]]],"type":"Polygon"},"properties":{"bbox":{"roads":{"area":448.63,"pct":1.11}},"city_same":1,"id":"hex:2193:17453"},"type":"Feature"},{"geometry":{"coordinates":[[[-117.96202,34.14823],[-117.96271,34.14921],[-117.96407,34.14919],[-117.96473,34.14821],[-117.96404,34.14724],[-117.96269,34.14725],[-117.96202,34.14823]]],"type":"Polygon"},"properties":{"bbox":{"roads":{"area":2037.7,"pct":5.02}},"city_same":1,"id":"hex:2193:17454"},"type":"Feature"},{"geometry":{"coordinates":[[[-117.96204,34.15019],[-117.96273,34.15116],[-117.96409,34.15115],[-117.96475,34.15017],[-117.96407,34.14919],[-117.96271,34.14921],[-117.96204,34.15019]]],"type":"Polygon"},"properties":{"bbox":{"roads":{"area":2310.82,"pct":5.69}},"city_same":1,"id":"hex:2193:17455"},"type":"Feature"},{"geometry":{"coordinates":[[[-117.96273,34.15116],[-117.96409,34.15115],[-117.96478,34.15212],[-117.96411,34.1531],[-117.96275,34.15311],[-117.96243,34.15265],[-117.96245,34.15266],[-117.96268,34.15281],[-117.96275,34.15268],[-117.9627,34.1525],[-117.96265,34.1522],[-117.96271,34.15199],[-117.96287,34.15179],[-117.96257,34.15178],[-117.96249,34.15177],[-117.96241,34.15177],[-117.96233,34.15175],[-117.96273,34.15116]]],"type":"Polygon"},"properties":{"bbox":{"roads":{"area":411.13,"pct":1.14}},"city_same":1,"id":"hex:2193:17456"},"type":"Feature"},{"geometry":{"coordinates":[[[-117.96209,34.15409],[-117.96278,34.15506],[-117.96413,34.15505],[-117.9648,34.15407],[-117.96411,34.1531],[-117.96275,34.15311],[-117.96209,34.15409]]],"type":"Polygon"},"properties":{"bbox":{"roads":{"area":1410.38,"pct":3.47}},"city_same":1,"id":"hex:2193:17457"},"type":"Feature"},{"geometry":{"coordinates":[[[-117.95995,34.14532],[-117.96064,34.14629],[-117.962,34.14628],[-117.96267,34.1453],[-117.96198,34.14433],[-117.96062,34.14434],[-117.95995,34.14532]]],"type":"Polygon"},"properties":{"bbox":{"roads":{"area":196.75,"pct":0.48}},"city_same":1,"id":"hex:2194:17453"},"type":"Feature"},{"geometry":{"coordinates":[[[-117.95998,34.14727],[-117.96067,34.14825],[-117.96202,34.14823],[-117.96269,34.14725],[-117.962,34.14628],[-117.96064,34.14629],[-117.95998,34.14727]]],"type":"Polygon"},"properties":{"bbox":{"roads":{"area":1556.65,"pct":3.83}},"city_same":1,"id":"hex:2194:17454"},"type":"Feature"},{"geometry":{"coordinates":[[[-117.96,34.14923],[-117.96069,34.1502],[-117.96204,34.15019],[-117.96271,34.14921],[-117.96202,34.14823],[-117.96067,34.14825],[-117.96,34.14923]]],"type":"Polygon"},"properties":{"bbox":{"roads":{"area":1844.53,"pct":4.54}},"city_same":1,"id":"hex:2194:17455"},"type":"Feature"},{"geometry":{"coordinates":[[[-117.96071,34.15215],[-117.96002,34.15118],[-117.96069,34.1502],[-117.96204,34.15019],[-117.96273,34.15116],[-117.96233,34.15175],[-117.96208,34.15171],[-117.96199,34.15187],[-117.96188,34.15206],[-117.96176,34.15214],[-117.96071,34.15215]]],"type":"Polygon"},"properties":{"bbox":{"roads":{"area":926.09,"pct":2.34}},"city_same":1,"id":"hex:2194:17456"},"type":"Feature"},{"geometry":{"coordinates":[[[-117.96275,34.15311],[-117.96209,34.15409],[-117.96073,34.1541],[-117.96004,34.15313],[-117.96071,34.15215],[-117.96176,34.15214],[-117.96171,34.15218],[-117.96188,34.1523],[-117.96222,34.15251],[-117.96243,34.15265],[-117.96275,34.15311]]],"type":"Polygon"},"properties":{"bbox":{"roads":{"area":657.32,"pct":1.66}},"city_same":1,"id":"hex:2194:17457"},"type":"Feature"},{"geometry":{"coordinates":[[[-117.96062,34.14434],[-117.95995,34.14532],[-117.9586,34.14533],[-117.95791,34.14436],[-117.95837,34.14368],[-117.96015,34.14368],[-117.96062,34.14434]]],"type":"Polygon"},"properties":{"bbox":{"roads":{"area":1873.05,"pct":5.24}},"city_same":1,"id":"hex:2195:17452"},"type":"Feature"},{"geometry":{"coordinates":[[[-117.95793,34.14631],[-117.95862,34.14728],[-117.95998,34.14727],[-117.96064,34.14629],[-117.95995,34.14532],[-117.9586,34.14533],[-117.95793,34.14631]]],"type":"Polygon"},"properties":{"bbox":{"roads":{"area":724.06,"pct":1.78}},"city_same":1,"id":"hex:2195:17453"},"type":"Feature"},{"geometry":{"coordinates":[[[-117.95795,34.14827],[-117.95864,34.14924],[-117.96,34.14923],[-117.96067,34.14825],[-117.95998,34.14727],[-117.95862,34.14728],[-117.95795,34.14827]]],"type":"Polygon"},"properties":{"bbox":{"roads":{"area":3038.66,"pct":7.49}},"city_same":1,"id":"hex:2195:17454"},"type":"Feature"},{"geometry":{"coordinates":[[[-117.95798,34.15022],[-117.95866,34.15119],[-117.96002,34.15118],[-117.96069,34.1502],[-117.96,34.14923],[-117.95864,34.14924],[-117.95798,34.15022]]],"type":"Polygon"},"properties":{"bbox":{"roads":{"area":1188.34,"pct":2.93}},"city_same":1,"id":"hex:2195:17455"},"type":"Feature"},{"geometry":{"coordinates":[[[-117.95791,34.14436],[-117.95655,34.14437],[-117.95606,34.14368],[-117.95837,34.14368],[-117.95791,34.14436]]],"type":"Polygon"},"properties":{"bbox":{"roads":{"area":4.94,"pct":0.04}},"city_same":1,"id":"hex:2196:17452"},"type":"Feature"},{"geometry":{"coordinates":[[[-117.95589,34.14535],[-117.95658,34.14632],[-117.95793,34.14631],[-117.9586,34.14533],[-117.95791,34.14436],[-117.95655,34.14437],[-117.95589,34.14535]]],"type":"Polygon"},"properties":{"bbox":{"roads":{"area":2135.81,"pct":5.26}},"city_same":1,"id":"hex:2196:17453"},"type":"Feature"},{"geometry":{"coordinates":[[[-117.95591,34.14731],[-117.9566,34.14828],[-117.95795,34.14827],[-117.95862,34.14728],[-117.95793,34.14631],[-117.95658,34.14632],[-117.95591,34.14731]]],"type":"Polygon"},"properties":{"bbox":{"roads":{"area":1797.01,"pct":4.43}},"city_same":1,"id":"hex:2196:17454"},"type":"Feature"},{"geometry":{"coordinates":[[[-117.95593,34.14926],[-117.95662,34.15023],[-117.95798,34.15022],[-117.95864,34.14924],[-117.95795,34.14827],[-117.9566,34.14828],[-117.95593,34.14926]]],"type":"Polygon"},"properties":{"bbox":{"roads":{"area":2594.15,"pct":6.39}},"city_same":1,"id":"hex:2196:17455"},"type":"Feature"},{"geometry":{"coordinates":[[[-117.95595,34.15121],[-117.95662,34.15023],[-117.95798,34.15022],[-117.95866,34.15119],[-117.95822,34.15184],[-117.95617,34.15152],[-117.95595,34.15121]]],"type":"Polygon"},"properties":{"bbox":{"roads":{"area":1536.6,"pct":4.78}},"city_same":1,"id":"hex:2196:17456"},"type":"Feature"},{"geometry":{"coordinates":[[[-117.95655,34.14437],[-117.95589,34.14535],[-117.95453,34.14536],[-117.95384,34.14439],[-117.95433,34.14368],[-117.95606,34.14368],[-117.95655,34.14437]]],"type":"Polygon"},"properties":{"bbox":{"roads":{"area":3459.76,"pct":9.55}},"city_same":1,"id":"hex:2197:17452"},"type":"Feature"},{"geometry":{"coordinates":[[[-117.95386,34.14635],[-117.95455,34.14732],[-117.95591,34.14731],[-117.95658,34.14632],[-117.95589,34.14535],[-117.95453,34.14536],[-117.95386,34.14635]]],"type":"Polygon"},"properties":{"bbox":{"roads":{"area":2159.59,"pct":5.32}},"city_same":1,"id":"hex:2197:17453"},"type":"Feature"},{"geometry":{"coordinates":[[[-117.95389,34.1483],[-117.95458,34.14927],[-117.95593,34.14926],[-117.9566,34.14828],[-117.95591,34.14731],[-117.95455,34.14732],[-117.95389,34.1483]]],"type":"Polygon"},"properties":{"bbox":{"roads":{"area":2934.04,"pct":7.23}},"city_same":1,"id":"hex:2197:17454"},"type":"Feature"},{"geometry":{"coordinates":[[[-117.95391,34.15025],[-117.9546,34.15122],[-117.95595,34.15121],[-117.95662,34.15023],[-117.95593,34.14926],[-117.95458,34.14927],[-117.95391,34.15025]]],"type":"Polygon"},"properties":{"bbox":{"roads":{"area":565.33,"pct":1.39}},"city_same":1,"id":"hex:2197:17455"},"type":"Feature"},{"geometry":{"coordinates":[[[-117.95384,34.14439],[-117.95249,34.1444],[-117.95198,34.14369],[-117.95433,34.14368],[-117.95384,34.14439]]],"type":"Polygon"},"properties":{"bbox":{"roads":{"area":589.94,"pct":4.36}},"city_same":1,"id":"hex:2198:17452"},"type":"Feature"},{"geometry":{"coordinates":[[[-117.95182,34.14539],[-117.95251,34.14636],[-117.95386,34.14635],[-117.95453,34.14536],[-117.95384,34.14439],[-117.95249,34.1444],[-117.95182,34.14539]]],"type":"Polygon"},"properties":{"bbox":{"roads":{"area":497.33,"pct":1.23}},"city_same":1,"id":"hex:2198:17453"},"type":"Feature"},{"geometry":{"coordinates":[[[-117.95184,34.14734],[-117.95253,34.14831],[-117.95389,34.1483],[-117.95455,34.14732],[-117.95386,34.14635],[-117.95251,34.14636],[-117.95184,34.14734]]],"type":"Polygon"},"properties":{"bbox":{"roads":{"area":2448.26,"pct":6.03}},"city_same":1,"id":"hex:2198:17454"},"type":"Feature"},{"geometry":{"coordinates":[[[-117.95186,34.14929],[-117.95255,34.15026],[-117.95391,34.15025],[-117.95458,34.14927],[-117.95389,34.1483],[-117.95253,34.14831],[-117.95186,34.14929]]],"type":"Polygon"},"properties":{"bbox":{"roads":{"area":2330.42,"pct":5.74}},"city_same":1,"id":"hex:2198:17455"},"type":"Feature"},{"geometry":{"coordinates":[[[-117.95255,34.15026],[-117.95391,34.15025],[-117.9546,34.15122],[-117.95457,34.15127],[-117.95213,34.15089],[-117.95255,34.15026]]],"type":"Polygon"},"properties":{"bbox":{"roads":{"area":191.14,"pct":1.19}},"city_same":1,"id":"hex:2198:17456"},"type":"Feature"},{"geometry":{"coordinates":[[[-117.95249,34.1444],[-117.95182,34.14539],[-117.9513,34.14539],[-117.95131,34.14369],[-117.95198,34.14369],[-117.95249,34.1444]]],"type":"Polygon"},"properties":{"bbox":{"roads":{"area":1750.68,"pct":11.39}},"city_same":1,"id":"hex:2199:17452"},"type":"Feature"},{"geometry":{"coordinates":[[[-117.95182,34.14539],[-117.95251,34.14636],[-117.95184,34.14734],[-117.95129,34.14734],[-117.9513,34.14539],[-117.95182,34.14539]]],"type":"Polygon"},"properties":{"bbox":{"roads":{"area":223.33,"pct":1.28}},"city_same":1,"id":"hex:2199:17453"},"type":"Feature"},{"geometry":{"coordinates":[[[-117.95186,34.14929],[-117.95255,34.15026],[-117.95213,34.15089],[-117.95128,34.15075],[-117.95128,34.14929],[-117.95186,34.14929]]],"type":"Polygon"},"properties":{"bbox":{"roads":{"area":636.26,"pct":4.13}},"city_same":1,"id":"hex:2199:17455"},"type":"Feature"}],"type":"FeatureCollection","v":2}