{"features":[{"geometry":{"coordinates":[[[-117.98551,34.04664],[-117.97529,34.05723],[-117.97116,34.05461],[-117.97065,34.05412],[-117.97211,34.05277],[-117.97021,34.05061],[-117.96859,34.04936],[-117.96816,34.04975],[-117.96672,34.04868],[-117.96718,34.04834],[-117.96312,34.04532],[-117.96804,34.04067],[-117.95856,34.03369],[-117.95364,34.03836],[-117.95485,34.03924],[-117.95433,34.03993],[-117.95375,34.03923],[-117.95227,34.04059],[-117.95172,34.04015],[-117.94959,34.04216],[-117.9528,34.04454],[-117.95232,34.04491],[-117.95209,34.04475],[-117.95188,34.04494],[-117.95164,34.04479],[-117.95048,34.04581],[-117.95091,34.04625],[-117.95024,34.04675],[-117.95188,34.04798],[-117.94934,34.05035],[-117.94826,34.04955],[-117.9457,34.05189],[-117.94538,34.05155],[-117.94387,34.05297],[-117.94242,34.05189],[-117.9484,34.04646],[-117.9489,34.04581],[-117.94864,34.04522],[-117.94803,34.04523],[-117.94801,34.04561],[-117.94735,34.04556],[-117.9477,34.04198],[-117.94703,34.04193],[-117.94687,34.04246],[-117.94592,34.04246],[-117.94588,34.04295],[-117.94499,34.04287],[-117.945,34.04181],[-117.94429,34.04176],[-117.94426,34.04213],[-117.94332,34.04203],[-117.94333,34.04186],[-117.94281,34.04183],[-117.94283,34.04167],[-117.94032,34.04153],[-117.94101,34.03453],[-117.93735,34.03425],[-117.9375,34.03378],[-117.93779,34.02805],[-117.9435,34.02809],[-117.94347,34.02689],[-117.94381,34.02682],[-117.94415,34.02586],[-117.94474,34.02509],[-117.9431,34.02444],[-117.9431,34.02281],[-117.93672,34.02236],[-117.93812,34.01786],[-117.93167,34.01608],[-117.93097,34.01586],[-117.93025,34.0154],[-117.92967,34.01531],[-117.92964,34.01555],[-117.92204,34.01474],[-117.92329,34.01263],[-117.92415,34.01051],[-117.92466,34.00976],[-117.9254,34.00908],[-117.93922,34.01139],[-117.9403,34.01187],[-117.94125,34.01259],[-117.9418,34.01234],[-117.94236,34.01239],[-117.94609,34.0141],[-117.95009,34.01663],[-117.95269,34.01858],[-117.95415,34.01991],[-117.95279,34.02281],[-117.98143,34.04383],[-117.98551,34.04664]]],"type":"Polygon"},"properties":{"type":"boundary"},"type":"Feature"}],"type":"FeatureCollection"}