{"features":[{"geometry":{"coordinates":[[[-117.98525,34.04652],[-117.98527,34.04648],[-117.98551,34.04664],[-117.98541,34.04674],[-117.98525,34.04652]]],"type":"Polygon"},"properties":{"bbox":{"roads":{"area":153.27,"pct":56.82}},"city":{"roads":{"area":138.35,"pct":51.29}},"id":"hex:2181:17402"},"type":"Feature"},{"geometry":{"coordinates":[[[-117.98525,34.04652],[-117.98389,34.04653],[-117.9832,34.04556],[-117.98344,34.04522],[-117.98387,34.04552],[-117.98398,34.0456],[-117.98411,34.04569],[-117.98414,34.0457],[-117.98478,34.04614],[-117.98527,34.04648],[-117.98525,34.04652]]],"type":"Polygon"},"properties":{"bbox":{"roads":{"area":1894.78,"pct":15.82}},"city_same":1,"id":"hex:2182:17402"},"type":"Feature"},{"geometry":{"coordinates":[[[-117.98323,34.04751],[-117.98389,34.04653],[-117.98525,34.04652],[-117.98541,34.04674],[-117.98383,34.04836],[-117.98323,34.04751]]],"type":"Polygon"},"properties":{"bbox":{"roads":{"area":1404.77,"pct":6.46}},"city":{"roads":{"area":1023.01,"pct":4.7}},"id":"hex:2182:17403"},"type":"Feature"},{"geometry":{"coordinates":[[[-117.9832,34.04556],[-117.98185,34.04557],[-117.98116,34.0446],[-117.9816,34.04395],[-117.98267,34.04469],[-117.98286,34.04482],[-117.98333,34.04514],[-117.98344,34.04522],[-117.9832,34.04556]]],"type":"Polygon"},"properties":{"bbox":{"roads":{"area":3765.98,"pct":18.44}},"city_same":1,"id":"hex:2183:17401"},"type":"Feature"},{"geometry":{"coordinates":[[[-117.98118,34.04655],[-117.98187,34.04752],[-117.98323,34.04751],[-117.98389,34.04653],[-117.9832,34.04556],[-117.98185,34.04557],[-117.98118,34.04655]]],"type":"Polygon"},"properties":{"bbox":{"roads":{"area":3065.18,"pct":7.55}},"city_same":1,"id":"hex:2183:17402"},"type":"Feature"},{"geometry":{"coordinates":[[[-117.9819,34.04948],[-117.98121,34.0485],[-117.98187,34.04752],[-117.98323,34.04751],[-117.98383,34.04836],[-117.98276,34.04947],[-117.9819,34.04948]]],"type":"Polygon"},"properties":{"bbox":{"roads":{"area":3152.04,"pct":8.51}},"city":{"roads":{"area":3093.14,"pct":8.35}},"id":"hex:2183:17403"},"type":"Feature"},{"geometry":{"coordinates":[[[-117.98123,34.05046],[-117.9819,34.04948],[-117.98276,34.04947],[-117.98147,34.0508],[-117.98123,34.05046]]],"type":"Polygon"},"properties":{"bbox":{"roads":{"area":1257.72,"pct":15.3}},"city":{"roads":{"area":333.33,"pct":4.05}},"id":"hex:2183:17404"},"type":"Feature"},{"geometry":{"coordinates":[[[-117.98116,34.0446],[-117.97981,34.04461],[-117.97912,34.04364],[-117.97979,34.04266],[-117.97986,34.04266],[-117.98075,34.04332],[-117.98143,34.04383],[-117.98151,34.04388],[-117.9816,34.04395],[-117.98116,34.0446]]],"type":"Polygon"},"properties":{"bbox":{"roads":{"area":3943.3,"pct":13.28}},"city_same":1,"id":"hex:2184:17401"},"type":"Feature"},{"geometry":{"coordinates":[[[-117.97914,34.04559],[-117.97983,34.04656],[-117.98118,34.04655],[-117.98185,34.04557],[-117.98116,34.0446],[-117.97981,34.04461],[-117.97914,34.04559]]],"type":"Polygon"},"properties":{"bbox":{"roads":{"area":3495,"pct":8.61}},"city_same":1,"id":"hex:2184:17402"},"type":"Feature"},{"geometry":{"coordinates":[[[-117.97916,34.04754],[-117.97985,34.04852],[-117.98121,34.0485],[-117.98187,34.04752],[-117.98118,34.04655],[-117.97983,34.04656],[-117.97916,34.04754]]],"type":"Polygon"},"properties":{"bbox":{"roads":{"area":3976.51,"pct":9.8}},"city_same":1,"id":"hex:2184:17403"},"type":"Feature"},{"geometry":{"coordinates":[[[-117.97919,34.0495],[-117.97988,34.05047],[-117.98123,34.05046],[-117.9819,34.04948],[-117.98121,34.0485],[-117.97985,34.04852],[-117.97919,34.0495]]],"type":"Polygon"},"properties":{"bbox":{"roads":{"area":6211.2,"pct":15.3}},"city":{"roads":{"area":2964.33,"pct":7.3}},"id":"hex:2184:17404"},"type":"Feature"},{"geometry":{"coordinates":[[[-117.97774,34.0417],[-117.97706,34.04073],[-117.9771,34.04066],[-117.97716,34.04071],[-117.97762,34.04102],[-117.97787,34.04121],[-117.97855,34.04169],[-117.97774,34.0417]]],"type":"Polygon"},"properties":{"bbox":{"roads":{"area":811.33,"pct":16.94}},"city_same":1,"id":"hex:2185:17399"},"type":"Feature"},{"geometry":{"coordinates":[[[-117.97979,34.04266],[-117.97912,34.04364],[-117.97777,34.04365],[-117.97708,34.04268],[-117.97774,34.0417],[-117.97855,34.04169],[-117.97882,34.04189],[-117.97916,34.04213],[-117.97928,34.04222],[-117.9794,34.04231],[-117.9797,34.04254],[-117.97979,34.04266]]],"type":"Polygon"},"properties":{"bbox":{"roads":{"area":3850.84,"pct":10.07}},"city_same":1,"id":"hex:2185:17400"},"type":"Feature"},{"geometry":{"coordinates":[[[-117.9771,34.04463],[-117.97779,34.0456],[-117.97914,34.04559],[-117.97981,34.04461],[-117.97912,34.04364],[-117.97777,34.04365],[-117.9771,34.04463]]],"type":"Polygon"},"properties":{"bbox":{"roads":{"area":3354.6,"pct":8.26}},"city_same":1,"id":"hex:2185:17401"},"type":"Feature"},{"geometry":{"coordinates":[[[-117.97712,34.04658],[-117.97781,34.04756],[-117.97916,34.04754],[-117.97983,34.04656],[-117.97914,34.04559],[-117.97779,34.0456],[-117.97712,34.04658]]],"type":"Polygon"},"properties":{"bbox":{"roads":{"area":4175.49,"pct":10.29}},"city_same":1,"id":"hex:2185:17402"},"type":"Feature"},{"geometry":{"coordinates":[[[-117.97714,34.04854],[-117.97783,34.04951],[-117.97919,34.0495],[-117.97985,34.04852],[-117.97916,34.04754],[-117.97781,34.04756],[-117.97714,34.04854]]],"type":"Polygon"},"properties":{"bbox":{"roads":{"area":6811.86,"pct":16.78}},"city":{"roads":{"area":3220.64,"pct":7.93}},"id":"hex:2185:17403"},"type":"Feature"},{"geometry":{"coordinates":[[[-117.97717,34.05049],[-117.97786,34.05146],[-117.97921,34.05145],[-117.97988,34.05047],[-117.97919,34.0495],[-117.97783,34.04951],[-117.97717,34.05049]]],"type":"Polygon"},"properties":{"bbox":{"roads":{"area":1308.94,"pct":3.22}},"city_same":1,"id":"hex:2185:17404"},"type":"Feature"},{"geometry":{"coordinates":[[[-117.97788,34.05341],[-117.97719,34.05244],[-117.97786,34.05146],[-117.97921,34.05145],[-117.9799,34.05242],[-117.9799,34.05242],[-117.97894,34.0534],[-117.97788,34.05341]]],"type":"Polygon"},"properties":{"bbox":{"roads":{"area":482.3,"pct":1.23}},"city_same":1,"id":"hex:2185:17405"},"type":"Feature"},{"geometry":{"coordinates":[[[-117.97721,34.05439],[-117.97788,34.05341],[-117.97894,34.0534],[-117.97797,34.0544],[-117.97754,34.05486],[-117.97721,34.05439]]],"type":"Polygon"},"properties":{"bbox":{"roads":{"area":2437.1,"pct":22.01}},"city":{"roads":{"area":1218.21,"pct":11}},"id":"hex:2185:17406"},"type":"Feature"},{"geometry":{"coordinates":[[[-117.97706,34.04073],[-117.9757,34.04074],[-117.97501,34.03977],[-117.97531,34.03933],[-117.97536,34.03937],[-117.97603,34.03987],[-117.9762,34.04],[-117.97651,34.04022],[-117.97677,34.04041],[-117.9771,34.04066],[-117.97706,34.04073]]],"type":"Polygon"},"properties":{"bbox":{"roads":{"area":1613.97,"pct":11.81}},"city_same":1,"id":"hex:2186:17399"},"type":"Feature"},{"geometry":{"coordinates":[[[-117.97504,34.04172],[-117.97572,34.04269],[-117.97708,34.04268],[-117.97774,34.0417],[-117.97706,34.04073],[-117.9757,34.04074],[-117.97504,34.04172]]],"type":"Polygon"},"properties":{"bbox":{"roads":{"area":3768.54,"pct":9.28}},"city_same":1,"id":"hex:2186:17400"},"type":"Feature"},{"geometry":{"coordinates":[[[-117.97506,34.04367],[-117.97575,34.04464],[-117.9771,34.04463],[-117.97777,34.04365],[-117.97708,34.04268],[-117.97572,34.04269],[-117.97506,34.04367]]],"type":"Polygon"},"properties":{"bbox":{"roads":{"area":4156.21,"pct":10.24}},"city_same":1,"id":"hex:2186:17401"},"type":"Feature"},{"geometry":{"coordinates":[[[-117.97508,34.04562],[-117.97577,34.0466],[-117.97712,34.04658],[-117.97779,34.0456],[-117.9771,34.04463],[-117.97575,34.04464],[-117.97508,34.04562]]],"type":"Polygon"},"properties":{"bbox":{"roads":{"area":4704.3,"pct":11.59}},"city":{"roads":{"area":3493.19,"pct":8.6}},"id":"hex:2186:17402"},"type":"Feature"},{"geometry":{"coordinates":[[[-117.9751,34.04758],[-117.97579,34.04855],[-117.97714,34.04854],[-117.97781,34.04756],[-117.97712,34.04658],[-117.97577,34.0466],[-117.9751,34.04758]]],"type":"Polygon"},"properties":{"bbox":{"roads":{"area":7137.44,"pct":17.58}},"city":{"roads":{"area":4141.15,"pct":10.2}},"id":"hex:2186:17403"},"type":"Feature"},{"geometry":{"coordinates":[[[-117.97512,34.04953],[-117.97581,34.0505],[-117.97717,34.05049],[-117.97783,34.04951],[-117.97714,34.04854],[-117.97579,34.04855],[-117.97512,34.04953]]],"type":"Polygon"},"properties":{"bbox":{"roads":{"area":4927.05,"pct":12.14}},"city_same":1,"id":"hex:2186:17404"},"type":"Feature"},{"geometry":{"coordinates":[[[-117.97515,34.05148],[-117.97584,34.05245],[-117.97719,34.05244],[-117.97786,34.05146],[-117.97717,34.05049],[-117.97581,34.0505],[-117.97515,34.05148]]],"type":"Polygon"},"properties":{"bbox":{"roads":{"area":4245.64,"pct":10.46}},"city_same":1,"id":"hex:2186:17405"},"type":"Feature"},{"geometry":{"coordinates":[[[-117.97517,34.05343],[-117.97586,34.0544],[-117.97721,34.05439],[-117.97788,34.05341],[-117.97719,34.05244],[-117.97584,34.05245],[-117.97517,34.05343]]],"type":"Polygon"},"properties":{"bbox":{"roads":{"area":8015.5,"pct":19.75}},"city":{"roads":{"area":4920.67,"pct":12.12}},"id":"hex:2186:17406"},"type":"Feature"},{"geometry":{"coordinates":[[[-117.97588,34.05636],[-117.97519,34.05539],[-117.97586,34.0544],[-117.97721,34.05439],[-117.97754,34.05486],[-117.97685,34.05559],[-117.97655,34.05591],[-117.97612,34.05636],[-117.97588,34.05636]]],"type":"Polygon"},"properties":{"bbox":{"roads":{"area":2770.27,"pct":9.68}},"city_same":1,"id":"hex:2186:17407"},"type":"Feature"},{"geometry":{"coordinates":[[[-117.97588,34.05636],[-117.97612,34.05636],[-117.97602,34.05646],[-117.97549,34.05702],[-117.97529,34.05723],[-117.97529,34.05723],[-117.97588,34.05636]]],"type":"Polygon"},"properties":{"bbox":{"roads":{"area":56.77,"pct":5.4}},"city":{"roads":{"area":0.44,"pct":0.04}},"id":"hex:2186:17408"},"type":"Feature"},{"geometry":{"coordinates":[[[-117.97501,34.03977],[-117.97366,34.03978],[-117.97297,34.03881],[-117.97352,34.038],[-117.97411,34.03844],[-117.97449,34.03872],[-117.97471,34.03889],[-117.97531,34.03933],[-117.97501,34.03977]]],"type":"Polygon"},"properties":{"bbox":{"roads":{"area":1935.1,"pct":8.1}},"city_same":1,"id":"hex:2187:17398"},"type":"Feature"},{"geometry":{"coordinates":[[[-117.97299,34.04076],[-117.97368,34.04173],[-117.97504,34.04172],[-117.9757,34.04074],[-117.97501,34.03977],[-117.97366,34.03978],[-117.97299,34.04076]]],"type":"Polygon"},"properties":{"bbox":{"roads":{"area":3013.02,"pct":7.42}},"city_same":1,"id":"hex:2187:17399"},"type":"Feature"},{"geometry":{"coordinates":[[[-117.97302,34.04271],[-117.9737,34.04368],[-117.97506,34.04367],[-117.97572,34.04269],[-117.97504,34.04172],[-117.97368,34.04173],[-117.97302,34.04271]]],"type":"Polygon"},"properties":{"bbox":{"roads":{"area":4340.42,"pct":10.69}},"city_same":1,"id":"hex:2187:17400"},"type":"Feature"},{"geometry":{"coordinates":[[[-117.97304,34.04466],[-117.97373,34.04564],[-117.97508,34.04562],[-117.97575,34.04464],[-117.97506,34.04367],[-117.9737,34.04368],[-117.97304,34.04466]]],"type":"Polygon"},"properties":{"bbox":{"roads":{"area":6077.87,"pct":14.97}},"city":{"roads":{"area":3073.75,"pct":7.57}},"id":"hex:2187:17401"},"type":"Feature"},{"geometry":{"coordinates":[[[-117.97306,34.04662],[-117.97375,34.04759],[-117.9751,34.04758],[-117.97577,34.0466],[-117.97508,34.04562],[-117.97373,34.04564],[-117.97306,34.04662]]],"type":"Polygon"},"properties":{"bbox":{"roads":{"area":5081.71,"pct":12.52}},"city":{"roads":{"area":3824.77,"pct":9.42}},"id":"hex:2187:17402"},"type":"Feature"},{"geometry":{"coordinates":[[[-117.97308,34.04857],[-117.97377,34.04954],[-117.97512,34.04953],[-117.97579,34.04855],[-117.9751,34.04758],[-117.97375,34.04759],[-117.97308,34.04857]]],"type":"Polygon"},"properties":{"bbox":{"roads":{"area":4068.12,"pct":10.02}},"city_same":1,"id":"hex:2187:17403"},"type":"Feature"},{"geometry":{"coordinates":[[[-117.9731,34.05052],[-117.97379,34.05149],[-117.97515,34.05148],[-117.97581,34.0505],[-117.97512,34.04953],[-117.97377,34.04954],[-117.9731,34.05052]]],"type":"Polygon"},"properties":{"bbox":{"roads":{"area":4674.44,"pct":11.51}},"city_same":1,"id":"hex:2187:17404"},"type":"Feature"},{"geometry":{"coordinates":[[[-117.97313,34.05247],[-117.97382,34.05344],[-117.97517,34.05343],[-117.97584,34.05245],[-117.97515,34.05148],[-117.97379,34.05149],[-117.97313,34.05247]]],"type":"Polygon"},"properties":{"bbox":{"roads":{"area":4778.42,"pct":11.77}},"city":{"roads":{"area":3210.86,"pct":7.91}},"id":"hex:2187:17405"},"type":"Feature"},{"geometry":{"coordinates":[[[-117.97315,34.05443],[-117.97384,34.0554],[-117.97519,34.05539],[-117.97586,34.0544],[-117.97517,34.05343],[-117.97382,34.05344],[-117.97315,34.05443]]],"type":"Polygon"},"properties":{"bbox":{"roads":{"area":6442.15,"pct":15.87}},"city":{"roads":{"area":4843.57,"pct":11.93}},"id":"hex:2187:17406"},"type":"Feature"},{"geometry":{"coordinates":[[[-117.97384,34.0554],[-117.97519,34.05539],[-117.97588,34.05636],[-117.97529,34.05723],[-117.97338,34.05607],[-117.97384,34.0554]]],"type":"Polygon"},"properties":{"bbox":{"roads":{"area":1813.13,"pct":6.48}},"city_same":1,"id":"hex:2187:17407"},"type":"Feature"},{"geometry":{"coordinates":[[[-117.97159,34.03687],[-117.9712,34.03631],[-117.97139,34.03645],[-117.97144,34.03649],[-117.97152,34.03654],[-117.97196,34.03686],[-117.97159,34.03687]]],"type":"Polygon"},"properties":{"bbox":{"roads":{"area":338.51,"pct":32.02}},"city_same":1,"id":"hex:2188:17397"},"type":"Feature"},{"geometry":{"coordinates":[[[-117.97297,34.03881],[-117.97162,34.03882],[-117.97093,34.03785],[-117.97159,34.03687],[-117.97196,34.03686],[-117.97205,34.03692],[-117.97283,34.0375],[-117.97332,34.03786],[-117.97348,34.03798],[-117.97352,34.038],[-117.97297,34.03881]]],"type":"Polygon"},"properties":{"bbox":{"roads":{"area":4929.3,"pct":14.69}},"city_same":1,"id":"hex:2188:17398"},"type":"Feature"},{"geometry":{"coordinates":[[[-117.97095,34.0398],[-117.97164,34.04077],[-117.97299,34.04076],[-117.97366,34.03978],[-117.97297,34.03881],[-117.97162,34.03882],[-117.97095,34.0398]]],"type":"Polygon"},"properties":{"bbox":{"roads":{"area":2412.48,"pct":5.94}},"city_same":1,"id":"hex:2188:17399"},"type":"Feature"},{"geometry":{"coordinates":[[[-117.97097,34.04175],[-117.97166,34.04272],[-117.97302,34.04271],[-117.97368,34.04173],[-117.97299,34.04076],[-117.97164,34.04077],[-117.97097,34.04175]]],"type":"Polygon"},"properties":{"bbox":{"roads":{"area":5607.44,"pct":13.81}},"city_same":1,"id":"hex:2188:17400"},"type":"Feature"},{"geometry":{"coordinates":[[[-117.971,34.0437],[-117.97168,34.04468],[-117.97304,34.04466],[-117.9737,34.04368],[-117.97302,34.04271],[-117.97166,34.04272],[-117.971,34.0437]]],"type":"Polygon"},"properties":{"bbox":{"roads":{"area":7587.24,"pct":18.69}},"city":{"roads":{"area":4162.73,"pct":10.25}},"id":"hex:2188:17401"},"type":"Feature"},{"geometry":{"coordinates":[[[-117.97102,34.04566],[-117.97171,34.04663],[-117.97306,34.04662],[-117.97373,34.04564],[-117.97304,34.04466],[-117.97168,34.04468],[-117.97102,34.04566]]],"type":"Polygon"},"properties":{"bbox":{"roads":{"area":3463.54,"pct":8.53}},"city_same":1,"id":"hex:2188:17402"},"type":"Feature"},{"geometry":{"coordinates":[[[-117.97104,34.04761],[-117.97173,34.04858],[-117.97308,34.04857],[-117.97375,34.04759],[-117.97306,34.04662],[-117.97171,34.04663],[-117.97104,34.04761]]],"type":"Polygon"},"properties":{"bbox":{"roads":{"area":3574.68,"pct":8.81}},"city_same":1,"id":"hex:2188:17403"},"type":"Feature"},{"geometry":{"coordinates":[[[-117.97106,34.04956],[-117.97175,34.05053],[-117.9731,34.05052],[-117.97377,34.04954],[-117.97308,34.04857],[-117.97173,34.04858],[-117.97106,34.04956]]],"type":"Polygon"},"properties":{"bbox":{"roads":{"area":4459.04,"pct":10.98}},"city_same":1,"id":"hex:2188:17404"},"type":"Feature"},{"geometry":{"coordinates":[[[-117.97108,34.05151],[-117.97175,34.05053],[-117.9731,34.05052],[-117.97379,34.05149],[-117.97313,34.05247],[-117.97186,34.05248],[-117.9714,34.05196],[-117.97108,34.05151]]],"type":"Polygon"},"properties":{"bbox":{"roads":{"area":7617.5,"pct":18.88}},"city":{"roads":{"area":4581.36,"pct":11.36}},"id":"hex:2188:17405"},"type":"Feature"},{"geometry":{"coordinates":[[[-117.97313,34.05247],[-117.97382,34.05344],[-117.97315,34.05443],[-117.9718,34.05444],[-117.97121,34.05361],[-117.97134,34.05348],[-117.97189,34.05298],[-117.97211,34.05277],[-117.97186,34.05248],[-117.97313,34.05247]]],"type":"Polygon"},"properties":{"bbox":{"roads":{"area":6707.11,"pct":18.27}},"city":{"roads":{"area":5551.73,"pct":15.12}},"id":"hex:2188:17406"},"type":"Feature"},{"geometry":{"coordinates":[[[-117.9718,34.05444],[-117.97315,34.05443],[-117.97384,34.0554],[-117.97338,34.05607],[-117.97301,34.05584],[-117.97152,34.05485],[-117.9718,34.05444]]],"type":"Polygon"},"properties":{"bbox":{"roads":{"area":2927.73,"pct":13.44}},"city_same":1,"id":"hex:2188:17407"},"type":"Feature"},{"geometry":{"coordinates":[[[-117.96955,34.03591],[-117.96886,34.03493],[-117.96901,34.03473],[-117.96921,34.03488],[-117.96935,34.03497],[-117.97016,34.03556],[-117.97029,34.03565],[-117.97063,34.0359],[-117.96955,34.03591]]],"type":"Polygon"},"properties":{"bbox":{"roads":{"area":874.05,"pct":11.01}},"city_same":1,"id":"hex:2189:17396"},"type":"Feature"},{"geometry":{"coordinates":[[[-117.97159,34.03687],[-117.97093,34.03785],[-117.96957,34.03786],[-117.96889,34.03689],[-117.96955,34.03591],[-117.97063,34.0359],[-117.97085,34.03606],[-117.97101,34.03617],[-117.9712,34.03631],[-117.97159,34.03687]]],"type":"Polygon"},"properties":{"bbox":{"roads":{"area":3242.64,"pct":8.11}},"city_same":1,"id":"hex:2189:17397"},"type":"Feature"},{"geometry":{"coordinates":[[[-117.96891,34.03884],[-117.9696,34.03981],[-117.97095,34.0398],[-117.97162,34.03882],[-117.97093,34.03785],[-117.96957,34.03786],[-117.96891,34.03884]]],"type":"Polygon"},"properties":{"bbox":{"roads":{"area":6264.87,"pct":15.43}},"city_same":1,"id":"hex:2189:17398"},"type":"Feature"},{"geometry":{"coordinates":[[[-117.96893,34.04079],[-117.96962,34.04176],[-117.97097,34.04175],[-117.97164,34.04077],[-117.97095,34.0398],[-117.9696,34.03981],[-117.96893,34.04079]]],"type":"Polygon"},"properties":{"bbox":{"roads":{"area":3327.49,"pct":8.2}},"city":{"roads":{"area":3326.44,"pct":8.19}},"id":"hex:2189:17399"},"type":"Feature"},{"geometry":{"coordinates":[[[-117.96895,34.04274],[-117.96964,34.04371],[-117.971,34.0437],[-117.97166,34.04272],[-117.97097,34.04175],[-117.96962,34.04176],[-117.96895,34.04274]]],"type":"Polygon"},"properties":{"bbox":{"roads":{"area":6747.08,"pct":16.62}},"city":{"roads":{"area":3333.74,"pct":8.21}},"id":"hex:2189:17400"},"type":"Feature"},{"geometry":{"coordinates":[[[-117.96898,34.0447],[-117.96966,34.04567],[-117.97102,34.04566],[-117.97168,34.04468],[-117.971,34.0437],[-117.96964,34.04371],[-117.96898,34.0447]]],"type":"Polygon"},"properties":{"bbox":{"roads":{"area":2071.76,"pct":5.1}},"city_same":1,"id":"hex:2189:17401"},"type":"Feature"},{"geometry":{"coordinates":[[[-117.969,34.04665],[-117.96969,34.04762],[-117.97104,34.04761],[-117.97171,34.04663],[-117.97102,34.04566],[-117.96966,34.04567],[-117.969,34.04665]]],"type":"Polygon"},"properties":{"bbox":{"roads":{"area":4198.11,"pct":10.34}},"city_same":1,"id":"hex:2189:17402"},"type":"Feature"},{"geometry":{"coordinates":[[[-117.96902,34.0486],[-117.96971,34.04957],[-117.97106,34.04956],[-117.97173,34.04858],[-117.97104,34.04761],[-117.96969,34.04762],[-117.96902,34.0486]]],"type":"Polygon"},"properties":{"bbox":{"roads":{"area":2665.44,"pct":6.57}},"city_same":1,"id":"hex:2189:17403"},"type":"Feature"},{"geometry":{"coordinates":[[[-117.96971,34.04957],[-117.97106,34.04956],[-117.97175,34.05053],[-117.97108,34.05151],[-117.97101,34.05151],[-117.97021,34.05061],[-117.96942,34.05],[-117.96971,34.04957]]],"type":"Polygon"},"properties":{"bbox":{"roads":{"area":5951.68,"pct":23.23}},"city":{"roads":{"area":2994.69,"pct":11.69}},"id":"hex:2189:17404"},"type":"Feature"},{"geometry":{"coordinates":[[[-117.97108,34.05151],[-117.9714,34.05196],[-117.97101,34.05151],[-117.97108,34.05151]]],"type":"Polygon"},"properties":{"bbox":{"roads":{"area":2.31,"pct":1.33}},"city_same":1,"id":"hex:2189:17405"},"type":"Feature"},{"geometry":{"coordinates":[[[-117.9718,34.05444],[-117.97152,34.05485],[-117.97116,34.05461],[-117.97065,34.05412],[-117.97107,34.05373],[-117.97121,34.05361],[-117.9718,34.05444]]],"type":"Polygon"},"properties":{"bbox":{"roads":{"area":1070.87,"pct":15.2}},"city_same":1,"id":"hex:2189:17406"},"type":"Feature"},{"geometry":{"coordinates":[[[-117.96886,34.03493],[-117.96751,34.03495],[-117.96682,34.03397],[-117.96721,34.0334],[-117.96727,34.03344],[-117.968,34.03399],[-117.96817,34.03412],[-117.96852,34.03437],[-117.96879,34.03457],[-117.96901,34.03473],[-117.96886,34.03493]]],"type":"Polygon"},"properties":{"bbox":{"roads":{"area":1406.28,"pct":8.04}},"city_same":1,"id":"hex:2190:17396"},"type":"Feature"},{"geometry":{"coordinates":[[[-117.96684,34.03593],[-117.96753,34.0369],[-117.96889,34.03689],[-117.96955,34.03591],[-117.96886,34.03493],[-117.96751,34.03495],[-117.96684,34.03593]]],"type":"Polygon"},"properties":{"bbox":{"roads":{"area":3209.71,"pct":7.91}},"city_same":1,"id":"hex:2190:17397"},"type":"Feature"},{"geometry":{"coordinates":[[[-117.96687,34.03788],[-117.96755,34.03885],[-117.96891,34.03884],[-117.96957,34.03786],[-117.96889,34.03689],[-117.96753,34.0369],[-117.96687,34.03788]]],"type":"Polygon"},"properties":{"bbox":{"roads":{"area":4815.65,"pct":11.86}},"city_same":1,"id":"hex:2190:17398"},"type":"Feature"},{"geometry":{"coordinates":[[[-117.96755,34.03885],[-117.96891,34.03884],[-117.9696,34.03981],[-117.96893,34.04079],[-117.96791,34.0408],[-117.96804,34.04067],[-117.96736,34.04015],[-117.96724,34.04007],[-117.9669,34.03982],[-117.96755,34.03885]]],"type":"Polygon"},"properties":{"bbox":{"roads":{"area":5556.15,"pct":14.84}},"city":{"roads":{"area":4512.28,"pct":12.06}},"id":"hex:2190:17399"},"type":"Feature"},{"geometry":{"coordinates":[[[-117.96893,34.04079],[-117.96962,34.04176],[-117.96895,34.04274],[-117.9676,34.04275],[-117.96691,34.04178],[-117.96695,34.04172],[-117.96696,34.04171],[-117.96712,34.04156],[-117.96737,34.04132],[-117.9677,34.04101],[-117.96791,34.0408],[-117.96893,34.04079]]],"type":"Polygon"},"properties":{"bbox":{"roads":{"area":6308.81,"pct":16.17}},"city":{"roads":{"area":3761.78,"pct":9.64}},"id":"hex:2190:17400"},"type":"Feature"},{"geometry":{"coordinates":[[[-117.96693,34.04374],[-117.96762,34.04471],[-117.96898,34.0447],[-117.96964,34.04371],[-117.96895,34.04274],[-117.9676,34.04275],[-117.96693,34.04374]]],"type":"Polygon"},"properties":{"bbox":{"roads":{"area":2469.95,"pct":6.08}},"city_same":1,"id":"hex:2190:17401"},"type":"Feature"},{"geometry":{"coordinates":[[[-117.96696,34.04569],[-117.96764,34.04666],[-117.969,34.04665],[-117.96966,34.04567],[-117.96898,34.0447],[-117.96762,34.04471],[-117.96696,34.04569]]],"type":"Polygon"},"properties":{"bbox":{"roads":{"area":3581.72,"pct":8.82}},"city_same":1,"id":"hex:2190:17402"},"type":"Feature"},{"geometry":{"coordinates":[[[-117.96698,34.04764],[-117.96767,34.04861],[-117.96902,34.0486],[-117.96969,34.04762],[-117.969,34.04665],[-117.96764,34.04666],[-117.96698,34.04764]]],"type":"Polygon"},"properties":{"bbox":{"roads":{"area":4536.51,"pct":11.18}},"city":{"roads":{"area":4508.1,"pct":11.11}},"id":"hex:2190:17403"},"type":"Feature"},{"geometry":{"coordinates":[[[-117.96767,34.04861],[-117.96902,34.0486],[-117.96971,34.04957],[-117.96942,34.05],[-117.96859,34.04936],[-117.96816,34.04975],[-117.96799,34.04963],[-117.96736,34.04927],[-117.96728,34.04919],[-117.96767,34.04861]]],"type":"Polygon"},"properties":{"bbox":{"roads":{"area":5009.03,"pct":24.97}},"city":{"roads":{"area":2544.95,"pct":12.68}},"id":"hex:2190:17404"},"type":"Feature"},{"geometry":{"coordinates":[[[-117.96682,34.03397],[-117.96547,34.03399],[-117.96478,34.03301],[-117.96543,34.03206],[-117.96569,34.03226],[-117.96574,34.03229],[-117.96596,34.03246],[-117.96609,34.03256],[-117.96678,34.03307],[-117.96709,34.0333],[-117.96721,34.0334],[-117.96682,34.03397]]],"type":"Polygon"},"properties":{"bbox":{"roads":{"area":1462.77,"pct":5.24}},"city_same":1,"id":"hex:2191:17395"},"type":"Feature"},{"geometry":{"coordinates":[[[-117.9648,34.03497],[-117.96549,34.03594],[-117.96684,34.03593],[-117.96751,34.03495],[-117.96682,34.03397],[-117.96547,34.03399],[-117.9648,34.03497]]],"type":"Polygon"},"properties":{"bbox":{"roads":{"area":4478.49,"pct":11.03}},"city_same":1,"id":"hex:2191:17396"},"type":"Feature"},{"geometry":{"coordinates":[[[-117.96482,34.03692],[-117.96551,34.03789],[-117.96687,34.03788],[-117.96753,34.0369],[-117.96684,34.03593],[-117.96549,34.03594],[-117.96482,34.03692]]],"type":"Polygon"},"properties":{"bbox":{"roads":{"area":4438.28,"pct":10.93}},"city_same":1,"id":"hex:2191:17397"},"type":"Feature"},{"geometry":{"coordinates":[[[-117.96551,34.03789],[-117.96687,34.03788],[-117.96755,34.03885],[-117.9669,34.03982],[-117.96672,34.03968],[-117.9666,34.03959],[-117.96604,34.03918],[-117.96595,34.03911],[-117.96534,34.03866],[-117.96521,34.03857],[-117.9651,34.03849],[-117.96551,34.03789]]],"type":"Polygon"},"properties":{"bbox":{"roads":{"area":4404.62,"pct":15.56}},"city":{"roads":{"area":2907.56,"pct":10.27}},"id":"hex:2191:17398"},"type":"Feature"},{"geometry":{"coordinates":[[[-117.96691,34.04178],[-117.9676,34.04275],[-117.96693,34.04374],[-117.96558,34.04375],[-117.96526,34.0433],[-117.96536,34.0432],[-117.96592,34.04266],[-117.96598,34.04261],[-117.96624,34.04235],[-117.96649,34.04213],[-117.96688,34.04178],[-117.96691,34.04178]]],"type":"Polygon"},"properties":{"bbox":{"roads":{"area":3150.93,"pct":11.65}},"city_same":1,"id":"hex:2191:17400"},"type":"Feature"},{"geometry":{"coordinates":[[[-117.96491,34.04473],[-117.9656,34.0457],[-117.96696,34.04569],[-117.96762,34.04471],[-117.96693,34.04374],[-117.96558,34.04375],[-117.96491,34.04473]]],"type":"Polygon"},"properties":{"bbox":{"roads":{"area":1410.27,"pct":3.47}},"city_same":1,"id":"hex:2191:17401"},"type":"Feature"},{"geometry":{"coordinates":[[[-117.9656,34.0457],[-117.96696,34.04569],[-117.96764,34.04666],[-117.96698,34.04764],[-117.96625,34.04765],[-117.96607,34.04751],[-117.96592,34.04739],[-117.96583,34.04733],[-117.96567,34.04721],[-117.9655,34.04708],[-117.96528,34.04693],[-117.96517,34.04684],[-117.96494,34.04668],[-117.9656,34.0457]]],"type":"Polygon"},"properties":{"bbox":{"roads":{"area":4416.5,"pct":11.82}},"city":{"roads":{"area":3017.75,"pct":8.08}},"id":"hex:2191:17402"},"type":"Feature"},{"geometry":{"coordinates":[[[-117.96698,34.04764],[-117.96767,34.04861],[-117.96728,34.04919],[-117.96672,34.04868],[-117.96718,34.04834],[-117.96708,34.04826],[-117.96686,34.0481],[-117.96661,34.04792],[-117.96652,34.04785],[-117.96641,34.04776],[-117.96625,34.04765],[-117.96698,34.04764]]],"type":"Polygon"},"properties":{"bbox":{"roads":{"area":2068.15,"pct":25.31}},"city":{"roads":{"area":526.72,"pct":6.45}},"id":"hex:2191:17403"},"type":"Feature"},{"geometry":{"coordinates":[[[-117.9634,34.03107],[-117.96272,34.0301],[-117.96273,34.03009],[-117.96282,34.03015],[-117.96322,34.03044],[-117.96408,34.03107],[-117.9634,34.03107]]],"type":"Polygon"},"properties":{"bbox":{"roads":{"area":311.16,"pct":8.74}},"city_same":1,"id":"hex:2192:17394"},"type":"Feature"},{"geometry":{"coordinates":[[[-117.96478,34.03301],[-117.96343,34.03302],[-117.96274,34.03205],[-117.9634,34.03107],[-117.96408,34.03107],[-117.96425,34.03119],[-117.96439,34.03129],[-117.96457,34.03142],[-117.96484,34.03162],[-117.96487,34.03164],[-117.96543,34.03206],[-117.96478,34.03301]]],"type":"Polygon"},"properties":{"bbox":{"roads":{"area":3105.43,"pct":8.39}},"city_same":1,"id":"hex:2192:17395"},"type":"Feature"},{"geometry":{"coordinates":[[[-117.96276,34.03401],[-117.96345,34.03498],[-117.9648,34.03497],[-117.96547,34.03399],[-117.96478,34.03301],[-117.96343,34.03302],[-117.96276,34.03401]]],"type":"Polygon"},"properties":{"bbox":{"roads":{"area":1406.85,"pct":3.47}},"city_same":1,"id":"hex:2192:17396"},"type":"Feature"},{"geometry":{"coordinates":[[[-117.96278,34.03596],[-117.96347,34.03693],[-117.96482,34.03692],[-117.96549,34.03594],[-117.9648,34.03497],[-117.96345,34.03498],[-117.96278,34.03596]]],"type":"Polygon"},"properties":{"bbox":{"roads":{"area":3542.86,"pct":8.73}},"city_same":1,"id":"hex:2192:17397"},"type":"Feature"},{"geometry":{"coordinates":[[[-117.96347,34.03693],[-117.96482,34.03692],[-117.96551,34.03789],[-117.9651,34.03849],[-117.96481,34.03828],[-117.96472,34.03821],[-117.96445,34.03802],[-117.96422,34.03785],[-117.9637,34.03747],[-117.96347,34.0373],[-117.9633,34.03718],[-117.96347,34.03693]]],"type":"Polygon"},"properties":{"bbox":{"roads":{"area":3642.89,"pct":19.63}},"city":{"roads":{"area":2076.98,"pct":11.19}},"id":"hex:2192:17398"},"type":"Feature"},{"geometry":{"coordinates":[[[-117.96558,34.04375],[-117.96491,34.04473],[-117.96371,34.04474],[-117.96376,34.04469],[-117.96409,34.04436],[-117.96422,34.04424],[-117.96474,34.04378],[-117.96499,34.04356],[-117.96526,34.0433],[-117.96558,34.04375]]],"type":"Polygon"},"properties":{"bbox":{"roads":{"area":1931.61,"pct":16.1}},"city_same":1,"id":"hex:2192:17401"},"type":"Feature"},{"geometry":{"coordinates":[[[-117.96491,34.04473],[-117.9656,34.0457],[-117.96494,34.04668],[-117.96492,34.04666],[-117.96458,34.04641],[-117.96435,34.04624],[-117.9641,34.04606],[-117.96397,34.04596],[-117.96386,34.04588],[-117.96368,34.04575],[-117.96315,34.04534],[-117.96326,34.04518],[-117.96371,34.04474],[-117.96491,34.04473]]],"type":"Polygon"},"properties":{"bbox":{"roads":{"area":4767.8,"pct":16.85}},"city":{"roads":{"area":2967.21,"pct":10.48}},"id":"hex:2192:17402"},"type":"Feature"},{"geometry":{"coordinates":[[[-117.96272,34.0301],[-117.96136,34.03011],[-117.96067,34.02914],[-117.96093,34.02876],[-117.96157,34.02923],[-117.96169,34.02932],[-117.96256,34.02996],[-117.96273,34.03009],[-117.96272,34.0301]]],"type":"Polygon"},"properties":{"bbox":{"roads":{"area":1413.7,"pct":11.54}},"city_same":1,"id":"hex:2193:17393"},"type":"Feature"},{"geometry":{"coordinates":[[[-117.9607,34.03109],[-117.96138,34.03206],[-117.96274,34.03205],[-117.9634,34.03107],[-117.96272,34.0301],[-117.96136,34.03011],[-117.9607,34.03109]]],"type":"Polygon"},"properties":{"bbox":{"roads":{"area":3513.46,"pct":8.65}},"city_same":1,"id":"hex:2193:17394"},"type":"Feature"},{"geometry":{"coordinates":[[[-117.96072,34.03305],[-117.96141,34.03402],[-117.96276,34.03401],[-117.96343,34.03302],[-117.96274,34.03205],[-117.96138,34.03206],[-117.96072,34.03305]]],"type":"Polygon"},"properties":{"bbox":{"roads":{"area":2963.55,"pct":7.3}},"city_same":1,"id":"hex:2193:17395"},"type":"Feature"},{"geometry":{"coordinates":[[[-117.96074,34.035],[-117.96141,34.03402],[-117.96276,34.03401],[-117.96345,34.03498],[-117.96278,34.03596],[-117.96166,34.03597],[-117.96162,34.03594],[-117.96117,34.03561],[-117.96074,34.035]]],"type":"Polygon"},"properties":{"bbox":{"roads":{"area":3997.9,"pct":9.96}},"city":{"roads":{"area":3499.36,"pct":8.71}},"id":"hex:2193:17396"},"type":"Feature"},{"geometry":{"coordinates":[[[-117.96278,34.03596],[-117.96347,34.03693],[-117.9633,34.03718],[-117.96329,34.03717],[-117.96273,34.03675],[-117.96248,34.03657],[-117.96213,34.03631],[-117.96166,34.03597],[-117.96278,34.03596]]],"type":"Polygon"},"properties":{"bbox":{"roads":{"area":1545.71,"pct":17.79}},"city":{"roads":{"area":230.43,"pct":2.65}},"id":"hex:2193:17397"},"type":"Feature"},{"geometry":{"coordinates":[[[-117.96067,34.02914],[-117.95932,34.02915],[-117.95863,34.02818],[-117.95915,34.02742],[-117.9592,34.02746],[-117.95954,34.02772],[-117.95993,34.02801],[-117.96027,34.02826],[-117.96093,34.02876],[-117.96067,34.02914]]],"type":"Polygon"},"properties":{"bbox":{"roads":{"area":2467.56,"pct":10.98},"sidewalks":{"area":199.17,"pct":0.89}},"city_same":1,"id":"hex:2194:17393"},"type":"Feature"},{"geometry":{"coordinates":[[[-117.95866,34.03013],[-117.95934,34.0311],[-117.9607,34.03109],[-117.96136,34.03011],[-117.96067,34.02914],[-117.95932,34.02915],[-117.95866,34.03013]]],"type":"Polygon"},"properties":{"bbox":{"roads":{"area":3213.21,"pct":7.92}},"city_same":1,"id":"hex:2194:17394"},"type":"Feature"},{"geometry":{"coordinates":[[[-117.95868,34.03209],[-117.95936,34.03306],[-117.96072,34.03305],[-117.96138,34.03206],[-117.9607,34.03109],[-117.95934,34.0311],[-117.95868,34.03209]]],"type":"Polygon"},"properties":{"bbox":{"roads":{"area":4858.5,"pct":11.97}},"city_same":1,"id":"hex:2194:17395"},"type":"Feature"},{"geometry":{"coordinates":[[[-117.95936,34.03306],[-117.96072,34.03305],[-117.96141,34.03402],[-117.96074,34.035],[-117.96035,34.035],[-117.96005,34.03478],[-117.9598,34.0346],[-117.95881,34.03388],[-117.95936,34.03306]]],"type":"Polygon"},"properties":{"bbox":{"roads":{"area":3938.59,"pct":11.62}},"city":{"roads":{"area":2414.05,"pct":7.12}},"id":"hex:2194:17396"},"type":"Feature"},{"geometry":{"coordinates":[[[-117.96074,34.035],[-117.96117,34.03561],[-117.96112,34.03557],[-117.96094,34.03544],[-117.96037,34.03502],[-117.96035,34.035],[-117.96074,34.035]]],"type":"Polygon"},"properties":{"bbox":{"roads":{"area":682.82,"pct":55.22}},"city":{"roads":{"area":43.49,"pct":3.52}},"id":"hex:2194:17397"},"type":"Feature"},{"geometry":{"coordinates":[[[-117.95726,34.02624],[-117.95696,34.02581],[-117.9572,34.02599],[-117.95754,34.02624],[-117.95726,34.02624]]],"type":"Polygon"},"properties":{"bbox":{"roads":{"area":238.91,"pct":39.4},"sidewalks":{"area":50.33,"pct":8.3}},"city_same":1,"id":"hex:2195:17391"},"type":"Feature"},{"geometry":{"coordinates":[[[-117.95863,34.02818],[-117.95728,34.02819],[-117.95659,34.02722],[-117.95726,34.02624],[-117.95754,34.02624],[-117.95756,34.02626],[-117.9577,34.02636],[-117.95778,34.02642],[-117.95783,34.02646],[-117.95869,34.02708],[-117.95891,34.02725],[-117.95915,34.02742],[-117.95863,34.02818]]],"type":"Polygon"},"properties":{"bbox":{"roads":{"area":5694.68,"pct":17.52},"sidewalks":{"area":675.89,"pct":2.08}},"city_same":1,"id":"hex:2195:17392"},"type":"Feature"},{"geometry":{"coordinates":[[[-117.95661,34.02917],[-117.9573,34.03014],[-117.95866,34.03013],[-117.95932,34.02915],[-117.95863,34.02818],[-117.95728,34.02819],[-117.95661,34.02917]]],"type":"Polygon"},"properties":{"bbox":{"roads":{"area":2938.21,"pct":7.24}},"city_same":1,"id":"hex:2195:17393"},"type":"Feature"},{"geometry":{"coordinates":[[[-117.95664,34.03113],[-117.95732,34.0321],[-117.95868,34.03209],[-117.95934,34.0311],[-117.95866,34.03013],[-117.9573,34.03014],[-117.95664,34.03113]]],"type":"Polygon"},"properties":{"bbox":{"roads":{"area":3686.42,"pct":9.08}},"city_same":1,"id":"hex:2195:17394"},"type":"Feature"},{"geometry":{"coordinates":[[[-117.95735,34.03405],[-117.95666,34.03308],[-117.95732,34.0321],[-117.95868,34.03209],[-117.95936,34.03306],[-117.95881,34.03388],[-117.95863,34.03374],[-117.95859,34.03371],[-117.95856,34.03369],[-117.95852,34.03373],[-117.9582,34.03404],[-117.95735,34.03405]]],"type":"Polygon"},"properties":{"bbox":{"roads":{"area":7399.2,"pct":18.79}},"city":{"roads":{"area":4211.96,"pct":10.69}},"id":"hex:2195:17395"},"type":"Feature"},{"geometry":{"coordinates":[[[-117.95668,34.03503],[-117.95735,34.03405],[-117.9582,34.03404],[-117.95696,34.03523],[-117.95688,34.03531],[-117.95668,34.03503]]],"type":"Polygon"},"properties":{"bbox":{"roads":{"area":1506.75,"pct":20.3}},"city_same":1,"id":"hex:2195:17396"},"type":"Feature"},{"geometry":{"coordinates":[[[-117.95522,34.02528],[-117.95453,34.02431],[-117.95465,34.02413],[-117.95539,34.02466],[-117.95622,34.02527],[-117.95522,34.02528]]],"type":"Polygon"},"properties":{"bbox":{"roads":{"area":815.41,"pct":11.31},"sidewalks":{"area":272.66,"pct":3.78}},"city_same":1,"id":"hex:2196:17391"},"type":"Feature"},{"geometry":{"coordinates":[[[-117.95726,34.02624],[-117.95659,34.02722],[-117.95524,34.02723],[-117.95455,34.02626],[-117.95522,34.02528],[-117.95622,34.02527],[-117.95695,34.02581],[-117.95696,34.02581],[-117.95726,34.02624]]],"type":"Polygon"},"properties":{"bbox":{"roads":{"area":2544.12,"pct":6.42},"sidewalks":{"area":190.76,"pct":0.48}},"city_same":1,"id":"hex:2196:17392"},"type":"Feature"},{"geometry":{"coordinates":[[[-117.95457,34.02821],[-117.95526,34.02918],[-117.95661,34.02917],[-117.95728,34.02819],[-117.95659,34.02722],[-117.95524,34.02723],[-117.95457,34.02821]]],"type":"Polygon"},"properties":{"bbox":{"roads":{"area":6199.06,"pct":15.27},"sidewalks":{"area":541.87,"pct":1.33}},"city_same":1,"id":"hex:2196:17393"},"type":"Feature"},{"geometry":{"coordinates":[[[-117.95459,34.03016],[-117.95528,34.03114],[-117.95664,34.03113],[-117.9573,34.03014],[-117.95661,34.02917],[-117.95526,34.02918],[-117.95459,34.03016]]],"type":"Polygon"},"properties":{"bbox":{"roads":{"area":3439.13,"pct":8.47}},"city_same":1,"id":"hex:2196:17394"},"type":"Feature"},{"geometry":{"coordinates":[[[-117.95462,34.03212],[-117.9553,34.03309],[-117.95666,34.03308],[-117.95732,34.0321],[-117.95664,34.03113],[-117.95528,34.03114],[-117.95462,34.03212]]],"type":"Polygon"},"properties":{"bbox":{"roads":{"area":6997.71,"pct":17.24}},"city":{"roads":{"area":3787.54,"pct":9.33}},"id":"hex:2196:17395"},"type":"Feature"},{"geometry":{"coordinates":[[[-117.95464,34.03407],[-117.95533,34.03504],[-117.95668,34.03503],[-117.95735,34.03405],[-117.95666,34.03308],[-117.9553,34.03309],[-117.95464,34.03407]]],"type":"Polygon"},"properties":{"bbox":{"roads":{"area":3820.23,"pct":9.41}},"city_same":1,"id":"hex:2196:17396"},"type":"Feature"},{"geometry":{"coordinates":[[[-117.95466,34.03602],[-117.95533,34.03504],[-117.95668,34.03503],[-117.95688,34.03531],[-117.95635,34.03582],[-117.95608,34.03607],[-117.95549,34.03663],[-117.95525,34.03685],[-117.95466,34.03602]]],"type":"Polygon"},"properties":{"bbox":{"roads":{"area":1853.4,"pct":8.29}},"city_same":1,"id":"hex:2196:17397"},"type":"Feature"},{"geometry":{"coordinates":[[[-117.95313,34.02041],[-117.95244,34.01944],[-117.9529,34.01877],[-117.95415,34.01991],[-117.95403,34.02008],[-117.95402,34.02023],[-117.95398,34.02038],[-117.95398,34.02041],[-117.95313,34.02041]]],"type":"Polygon"},"properties":{"bbox":{"roads":{"area":3079.06,"pct":19.48},"sidewalks":{"area":316.77,"pct":2}},"city_same":1,"id":"hex:2197:17388"},"type":"Feature"},{"geometry":{"coordinates":[[[-117.95246,34.02139],[-117.95313,34.02041],[-117.95398,34.02041],[-117.95398,34.02044],[-117.95391,34.02057],[-117.95383,34.02074],[-117.9537,34.02102],[-117.95342,34.02157],[-117.95307,34.02226],[-117.95246,34.02139]]],"type":"Polygon"},"properties":{"bbox":{"roads":{"area":2649.04,"pct":18.66},"sidewalks":{"area":445.77,"pct":3.14}},"city_same":1,"id":"hex:2197:17389"},"type":"Feature"},{"geometry":{"coordinates":[[[-117.95453,34.02431],[-117.95317,34.02432],[-117.95249,34.02335],[-117.95283,34.02284],[-117.95386,34.02356],[-117.95418,34.02379],[-117.95465,34.02413],[-117.95453,34.02431]]],"type":"Polygon"},"properties":{"bbox":{"roads":{"area":1415.79,"pct":8.64},"sidewalks":{"area":409.76,"pct":2.5}},"city_same":1,"id":"hex:2197:17390"},"type":"Feature"},{"geometry":{"coordinates":[[[-117.95251,34.0253],[-117.9532,34.02627],[-117.95455,34.02626],[-117.95522,34.02528],[-117.95453,34.02431],[-117.95317,34.02432],[-117.95251,34.0253]]],"type":"Polygon"},"properties":{"bbox":{"roads":{"area":227.42,"pct":0.56}},"city_same":1,"id":"hex:2197:17391"},"type":"Feature"},{"geometry":{"coordinates":[[[-117.95253,34.02725],[-117.95322,34.02822],[-117.95457,34.02821],[-117.95524,34.02723],[-117.95455,34.02626],[-117.9532,34.02627],[-117.95253,34.02725]]],"type":"Polygon"},"properties":{"bbox":{"roads":{"area":775.65,"pct":1.91}},"city_same":1,"id":"hex:2197:17392"},"type":"Feature"},{"geometry":{"coordinates":[[[-117.95255,34.0292],[-117.95324,34.03018],[-117.95459,34.03016],[-117.95526,34.02918],[-117.95457,34.02821],[-117.95322,34.02822],[-117.95255,34.0292]]],"type":"Polygon"},"properties":{"bbox":{"roads":{"area":6395.12,"pct":15.75}},"city":{"roads":{"area":4356.4,"pct":10.73}},"id":"hex:2197:17393"},"type":"Feature"},{"geometry":{"coordinates":[[[-117.95257,34.03116],[-117.95326,34.03213],[-117.95462,34.03212],[-117.95528,34.03114],[-117.95459,34.03016],[-117.95324,34.03018],[-117.95257,34.03116]]],"type":"Polygon"},"properties":{"bbox":{"roads":{"area":7989.34,"pct":19.68}},"city":{"roads":{"area":5526.89,"pct":13.61}},"id":"hex:2197:17394"},"type":"Feature"},{"geometry":{"coordinates":[[[-117.9526,34.03311],[-117.95328,34.03408],[-117.95464,34.03407],[-117.9553,34.03309],[-117.95462,34.03212],[-117.95326,34.03213],[-117.9526,34.03311]]],"type":"Polygon"},"properties":{"bbox":{"roads":{"area":3886.09,"pct":9.57}},"city_same":1,"id":"hex:2197:17395"},"type":"Feature"},{"geometry":{"coordinates":[[[-117.95262,34.03506],[-117.95331,34.03603],[-117.95466,34.03602],[-117.95533,34.03504],[-117.95464,34.03407],[-117.95328,34.03408],[-117.95262,34.03506]]],"type":"Polygon"},"properties":{"bbox":{"roads":{"area":4601.96,"pct":11.34}},"city_same":1,"id":"hex:2197:17396"},"type":"Feature"},{"geometry":{"coordinates":[[[-117.95333,34.03798],[-117.95264,34.03701],[-117.95331,34.03603],[-117.95466,34.03602],[-117.95525,34.03685],[-117.95524,34.03686],[-117.95493,34.03715],[-117.95439,34.03765],[-117.95405,34.03798],[-117.95333,34.03798]]],"type":"Polygon"},"properties":{"bbox":{"roads":{"area":3607.61,"pct":10.02}},"city_same":1,"id":"hex:2197:17397"},"type":"Feature"},{"geometry":{"coordinates":[[[-117.95266,34.03897],[-117.95333,34.03798],[-117.95405,34.03798],[-117.95369,34.03831],[-117.95364,34.03836],[-117.95398,34.03861],[-117.95437,34.0389],[-117.95471,34.03914],[-117.95485,34.03924],[-117.95433,34.03993],[-117.95419,34.03963],[-117.95375,34.03923],[-117.95322,34.03975],[-117.95266,34.03897]]],"type":"Polygon"},"properties":{"bbox":{"roads":{"area":4966.54,"pct":23.74}},"city_same":1,"id":"hex:2197:17398"},"type":"Feature"},{"geometry":{"coordinates":[[[-117.95244,34.01944],[-117.95109,34.01945],[-117.9504,34.01848],[-117.95107,34.0175],[-117.95126,34.0175],[-117.95148,34.01766],[-117.95269,34.01858],[-117.9529,34.01877],[-117.95244,34.01944]]],"type":"Polygon"},"properties":{"bbox":{"roads":{"area":5734.32,"pct":18.46}},"city_same":1,"id":"hex:2198:17388"},"type":"Feature"},{"geometry":{"coordinates":[[[-117.95042,34.02043],[-117.95111,34.02141],[-117.95246,34.02139],[-117.95313,34.02041],[-117.95244,34.01944],[-117.95109,34.01945],[-117.95042,34.02043]]],"type":"Polygon"},"properties":{"bbox":{"roads":{"area":5719.41,"pct":14.09},"sidewalks":{"area":881.26,"pct":2.17}},"city_same":1,"id":"hex:2198:17389"},"type":"Feature"},{"geometry":{"coordinates":[[[-117.95249,34.02335],[-117.95113,34.02336],[-117.95044,34.02239],[-117.95111,34.02141],[-117.95246,34.02139],[-117.95307,34.02226],[-117.95304,34.02231],[-117.95279,34.02281],[-117.95283,34.02284],[-117.95249,34.02335]]],"type":"Polygon"},"properties":{"bbox":{"roads":{"area":5714.82,"pct":14.26},"sidewalks":{"area":880.27,"pct":2.2}},"city_same":1,"id":"hex:2198:17390"},"type":"Feature"},{"geometry":{"coordinates":[[[-117.95047,34.02434],[-117.95115,34.02531],[-117.95251,34.0253],[-117.95317,34.02432],[-117.95249,34.02335],[-117.95113,34.02336],[-117.95047,34.02434]]],"type":"Polygon"},"properties":{"bbox":{"roads":{"area":7081.2,"pct":17.44},"sidewalks":{"area":629.82,"pct":1.55}},"city_same":1,"id":"hex:2198:17391"},"type":"Feature"},{"geometry":{"coordinates":[[[-117.95049,34.02629],[-117.95118,34.02726],[-117.95253,34.02725],[-117.9532,34.02627],[-117.95251,34.0253],[-117.95115,34.02531],[-117.95049,34.02629]]],"type":"Polygon"},"properties":{"bbox":{"roads":{"area":5812.06,"pct":14.32},"sidewalks":{"area":564.1,"pct":1.39}},"city_same":1,"id":"hex:2198:17392"},"type":"Feature"},{"geometry":{"coordinates":[[[-117.95051,34.02824],[-117.9512,34.02921],[-117.95255,34.0292],[-117.95322,34.02822],[-117.95253,34.02725],[-117.95118,34.02726],[-117.95051,34.02824]]],"type":"Polygon"},"properties":{"bbox":{"roads":{"area":5623.22,"pct":13.85},"sidewalks":{"area":276.84,"pct":0.68}},"city":{"roads":{"area":2719.46,"pct":6.7},"sidewalks":{"area":276.84,"pct":0.68}},"id":"hex:2198:17393"},"type":"Feature"},{"geometry":{"coordinates":[[[-117.95053,34.0302],[-117.95122,34.03117],[-117.95257,34.03116],[-117.95324,34.03018],[-117.95255,34.0292],[-117.9512,34.02921],[-117.95053,34.0302]]],"type":"Polygon"},"properties":{"bbox":{"roads":{"area":4294.84,"pct":10.58},"sidewalks":{"area":92.16,"pct":0.23}},"city":{"roads":{"area":3779.1,"pct":9.31},"sidewalks":{"area":92.16,"pct":0.23}},"id":"hex:2198:17394"},"type":"Feature"},{"geometry":{"coordinates":[[[-117.95055,34.03215],[-117.95124,34.03312],[-117.9526,34.03311],[-117.95326,34.03213],[-117.95257,34.03116],[-117.95122,34.03117],[-117.95055,34.03215]]],"type":"Polygon"},"properties":{"bbox":{"roads":{"area":7591.11,"pct":18.7}},"city_same":1,"id":"hex:2198:17395"},"type":"Feature"},{"geometry":{"coordinates":[[[-117.95058,34.0341],[-117.95126,34.03507],[-117.95262,34.03506],[-117.95328,34.03408],[-117.9526,34.03311],[-117.95124,34.03312],[-117.95058,34.0341]]],"type":"Polygon"},"properties":{"bbox":{"roads":{"area":5549.33,"pct":13.67}},"city_same":1,"id":"hex:2198:17396"},"type":"Feature"},{"geometry":{"coordinates":[[[-117.9506,34.03605],[-117.95129,34.03702],[-117.95264,34.03701],[-117.95331,34.03603],[-117.95262,34.03506],[-117.95126,34.03507],[-117.9506,34.03605]]],"type":"Polygon"},"properties":{"bbox":{"roads":{"area":5153.08,"pct":12.69}},"city_same":1,"id":"hex:2198:17397"},"type":"Feature"},{"geometry":{"coordinates":[[[-117.95062,34.03801],[-117.95131,34.03898],[-117.95266,34.03897],[-117.95333,34.03798],[-117.95264,34.03701],[-117.95129,34.03702],[-117.95062,34.03801]]],"type":"Polygon"},"properties":{"bbox":{"parking":{"area":551.24,"pct":1.36},"roads":{"area":7509.79,"pct":18.5},"sidewalks":{"area":82.45,"pct":0.2}},"city_same":1,"id":"hex:2198:17398"},"type":"Feature"},{"geometry":{"coordinates":[[[-117.95064,34.03996],[-117.95131,34.03898],[-117.95266,34.03897],[-117.95322,34.03975],[-117.95278,34.04018],[-117.95227,34.04059],[-117.95172,34.04015],[-117.9514,34.04046],[-117.95115,34.04068],[-117.95064,34.03996]]],"type":"Polygon"},"properties":{"bbox":{"roads":{"area":4183.17,"pct":14.11}},"city_same":1,"id":"hex:2198:17399"},"type":"Feature"},{"geometry":{"coordinates":[[[-117.95137,34.04483],[-117.95068,34.04386],[-117.95108,34.04328],[-117.95131,34.04345],[-117.95205,34.04399],[-117.9528,34.04454],[-117.95259,34.04468],[-117.95245,34.04483],[-117.9522,34.04483],[-117.95209,34.04475],[-117.952,34.04483],[-117.9517,34.04483],[-117.95164,34.04479],[-117.95159,34.04483],[-117.95137,34.04483]]],"type":"Polygon"},"properties":{"bbox":{"roads":{"area":2502.11,"pct":14.52}},"city_same":1,"id":"hex:2198:17401"},"type":"Feature"},{"geometry":{"coordinates":[[[[-117.95245,34.04483],[-117.95242,34.04486],[-117.95232,34.04491],[-117.9522,34.04483],[-117.95245,34.04483]]],[[[-117.952,34.04483],[-117.95188,34.04494],[-117.9517,34.04483],[-117.952,34.04483]]],[[[-117.95137,34.04483],[-117.95159,34.04483],[-117.95105,34.04532],[-117.95137,34.04483]]]],"type":"MultiPolygon"},"properties":{"bbox":{"roads":{"area":26.76,"pct":3.23}},"city_same":1,"id":"hex:2198:17402"},"type":"Feature"},{"geometry":{"coordinates":[[[-117.95073,34.04777],[-117.95104,34.0473],[-117.95188,34.04798],[-117.95176,34.04809],[-117.95139,34.04843],[-117.95129,34.04852],[-117.95127,34.04854],[-117.95073,34.04777]]],"type":"Polygon"},"properties":{"bbox":{"roads":{"area":793.02,"pct":11.31}},"city_same":1,"id":"hex:2198:17403"},"type":"Feature"},{"geometry":{"coordinates":[[[-117.94903,34.01654],[-117.94834,34.01557],[-117.9484,34.01548],[-117.94995,34.01653],[-117.94903,34.01654]]],"type":"Polygon"},"properties":{"bbox":{"roads":{"area":1188.2,"pct":20.73}},"city_same":1,"id":"hex:2199:17386"},"type":"Feature"},{"geometry":{"coordinates":[[[-117.95107,34.0175],[-117.9504,34.01848],[-117.94905,34.01849],[-117.94836,34.01752],[-117.94903,34.01654],[-117.94995,34.01653],[-117.95009,34.01663],[-117.95085,34.01719],[-117.95107,34.0175]]],"type":"Polygon"},"properties":{"bbox":{"roads":{"area":4410.59,"pct":11.26},"sidewalks":{"area":303.14,"pct":0.77}},"city_same":1,"id":"hex:2199:17387"},"type":"Feature"},{"geometry":{"coordinates":[[[-117.94838,34.01947],[-117.94907,34.02044],[-117.95042,34.02043],[-117.95109,34.01945],[-117.9504,34.01848],[-117.94905,34.01849],[-117.94838,34.01947]]],"type":"Polygon"},"properties":{"bbox":{"roads":{"area":6234,"pct":15.36},"sidewalks":{"area":581.88,"pct":1.43}},"city_same":1,"id":"hex:2199:17388"},"type":"Feature"},{"geometry":{"coordinates":[[[-117.9484,34.02143],[-117.94909,34.0224],[-117.95044,34.02239],[-117.95111,34.02141],[-117.95042,34.02043],[-117.94907,34.02044],[-117.9484,34.02143]]],"type":"Polygon"},"properties":{"bbox":{"roads":{"area":4917.43,"pct":12.11}},"city_same":1,"id":"hex:2199:17389"},"type":"Feature"},{"geometry":{"coordinates":[[[-117.94843,34.02338],[-117.94911,34.02435],[-117.95047,34.02434],[-117.95113,34.02336],[-117.95044,34.02239],[-117.94909,34.0224],[-117.94843,34.02338]]],"type":"Polygon"},"properties":{"bbox":{"roads":{"area":5675.95,"pct":13.98},"sidewalks":{"area":474.55,"pct":1.17}},"city_same":1,"id":"hex:2199:17390"},"type":"Feature"},{"geometry":{"coordinates":[[[-117.94845,34.02533],[-117.94913,34.0263],[-117.95049,34.02629],[-117.95115,34.02531],[-117.95047,34.02434],[-117.94911,34.02435],[-117.94845,34.02533]]],"type":"Polygon"},"properties":{"bbox":{"roads":{"area":4877.22,"pct":12.01}},"city_same":1,"id":"hex:2199:17391"},"type":"Feature"},{"geometry":{"coordinates":[[[-117.94847,34.02728],[-117.94916,34.02825],[-117.95051,34.02824],[-117.95118,34.02726],[-117.95049,34.02629],[-117.94913,34.0263],[-117.94847,34.02728]]],"type":"Polygon"},"properties":{"bbox":{"roads":{"area":8825.03,"pct":21.74},"sidewalks":{"area":261.12,"pct":0.64}},"city":{"roads":{"area":6536.73,"pct":16.1},"sidewalks":{"area":261.12,"pct":0.64}},"id":"hex:2199:17392"},"type":"Feature"},{"geometry":{"coordinates":[[[-117.94849,34.02924],[-117.94918,34.03021],[-117.95053,34.0302],[-117.9512,34.02921],[-117.95051,34.02824],[-117.94916,34.02825],[-117.94849,34.02924]]],"type":"Polygon"},"properties":{"bbox":{"roads":{"area":4782.67,"pct":11.78},"sidewalks":{"area":487,"pct":1.2}},"city_same":1,"id":"hex:2199:17393"},"type":"Feature"},{"geometry":{"coordinates":[[[-117.94851,34.03119],[-117.9492,34.03216],[-117.95055,34.03215],[-117.95122,34.03117],[-117.95053,34.0302],[-117.94918,34.03021],[-117.94851,34.03119]]],"type":"Polygon"},"properties":{"bbox":{"roads":{"area":6780.14,"pct":16.7},"sidewalks":{"area":612.64,"pct":1.51}},"city_same":1,"id":"hex:2199:17394"},"type":"Feature"},{"geometry":{"coordinates":[[[-117.94853,34.03314],[-117.94922,34.03411],[-117.95058,34.0341],[-117.95124,34.03312],[-117.95055,34.03215],[-117.9492,34.03216],[-117.94853,34.03314]]],"type":"Polygon"},"properties":{"bbox":{"roads":{"area":9287.1,"pct":22.88},"sidewalks":{"area":701.8,"pct":1.73}},"city_same":1,"id":"hex:2199:17395"},"type":"Feature"},{"geometry":{"coordinates":[[[-117.94856,34.03509],[-117.94924,34.03606],[-117.9506,34.03605],[-117.95126,34.03507],[-117.95058,34.0341],[-117.94922,34.03411],[-117.94856,34.03509]]],"type":"Polygon"},"properties":{"bbox":{"roads":{"area":8541.31,"pct":21.04},"sidewalks":{"area":655.74,"pct":1.62}},"city_same":1,"id":"hex:2199:17396"},"type":"Feature"},{"geometry":{"coordinates":[[[-117.94858,34.03705],[-117.94926,34.03802],[-117.95062,34.03801],[-117.95129,34.03702],[-117.9506,34.03605],[-117.94924,34.03606],[-117.94858,34.03705]]],"type":"Polygon"},"properties":{"bbox":{"roads":{"area":14282.09,"pct":35.18},"sidewalks":{"area":432.62,"pct":1.07}},"city_same":1,"id":"hex:2199:17397"},"type":"Feature"},{"geometry":{"coordinates":[[[-117.9486,34.039],[-117.94929,34.03997],[-117.95064,34.03996],[-117.95131,34.03898],[-117.95062,34.03801],[-117.94926,34.03802],[-117.9486,34.039]]],"type":"Polygon"},"properties":{"bbox":{"roads":{"area":7818.43,"pct":19.26},"sidewalks":{"area":326.02,"pct":0.8}},"city_same":1,"id":"hex:2199:17398"},"type":"Feature"},{"geometry":{"coordinates":[[[-117.94931,34.04192],[-117.94862,34.04095],[-117.94929,34.03997],[-117.95064,34.03996],[-117.95115,34.04068],[-117.95107,34.04076],[-117.95096,34.04086],[-117.95006,34.04171],[-117.94984,34.04192],[-117.94931,34.04192]]],"type":"Polygon"},"properties":{"bbox":{"roads":{"area":6140.64,"pct":18.22},"sidewalks":{"area":326.18,"pct":0.97}},"city_same":1,"id":"hex:2199:17399"},"type":"Feature"},{"geometry":{"coordinates":[[[-117.95068,34.04386],[-117.94933,34.04387],[-117.94864,34.0429],[-117.94931,34.04192],[-117.94984,34.04192],[-117.94959,34.04216],[-117.94961,34.04217],[-117.9497,34.04226],[-117.95007,34.04253],[-117.95032,34.04271],[-117.95063,34.04294],[-117.95108,34.04328],[-117.95068,34.04386]]],"type":"Polygon"},"properties":{"bbox":{"roads":{"area":8583.73,"pct":29.86},"sidewalks":{"area":471.22,"pct":1.64}},"city_same":1,"id":"hex:2199:17400"},"type":"Feature"},{"geometry":{"coordinates":[[[-117.94935,34.04583],[-117.94866,34.04485],[-117.94933,34.04387],[-117.95068,34.04386],[-117.95137,34.04483],[-117.95105,34.04532],[-117.95048,34.04581],[-117.95049,34.04582],[-117.94935,34.04583]]],"type":"Polygon"},"properties":{"bbox":{"roads":{"area":7649.54,"pct":19.12},"sidewalks":{"area":492.42,"pct":1.23}},"city_same":1,"id":"hex:2199:17401"},"type":"Feature"},{"geometry":{"coordinates":[[[-117.95073,34.04777],[-117.94937,34.04778],[-117.94869,34.04681],[-117.94935,34.04583],[-117.95049,34.04582],[-117.95068,34.04607],[-117.95091,34.04625],[-117.95024,34.04675],[-117.95073,34.04706],[-117.95104,34.0473],[-117.95073,34.04777]]],"type":"Polygon"},"properties":{"bbox":{"roads":{"area":4164.55,"pct":12.46}},"city_same":1,"id":"hex:2199:17402"},"type":"Feature"},{"geometry":{"coordinates":[[[-117.9494,34.04973],[-117.94871,34.04876],[-117.94937,34.04778],[-117.95073,34.04777],[-117.95127,34.04854],[-117.95122,34.04858],[-117.95106,34.04873],[-117.95091,34.04887],[-117.95056,34.0492],[-117.95034,34.0494],[-117.95004,34.04969],[-117.95,34.04973],[-117.9494,34.04973]]],"type":"Polygon"},"properties":{"bbox":{"roads":{"area":3720.87,"pct":10.74}},"city_same":1,"id":"hex:2199:17403"},"type":"Feature"},{"geometry":{"coordinates":[[[-117.9494,34.04973],[-117.95,34.04973],[-117.94979,34.04993],[-117.94934,34.05035],[-117.9491,34.05017],[-117.9494,34.04973]]],"type":"Polygon"},"properties":{"bbox":{"roads":{"area":468.49,"pct":17.1}},"city_same":1,"id":"hex:2199:17404"},"type":"Feature"},{"geometry":{"coordinates":[[[-117.94834,34.01557],[-117.94698,34.01558],[-117.9463,34.01461],[-117.94649,34.01433],[-117.94769,34.01505],[-117.94787,34.01522],[-117.94826,34.01538],[-117.9484,34.01548],[-117.94834,34.01557]]],"type":"Polygon"},"properties":{"bbox":{"roads":{"area":2624.98,"pct":22.37}},"city_same":1,"id":"hex:2200:17386"},"type":"Feature"},{"geometry":{"coordinates":[[[-117.94632,34.01656],[-117.94701,34.01753],[-117.94836,34.01752],[-117.94903,34.01654],[-117.94834,34.01557],[-117.94698,34.01558],[-117.94632,34.01656]]],"type":"Polygon"},"properties":{"bbox":{"roads":{"area":4186.48,"pct":10.31},"sidewalks":{"area":605.96,"pct":1.49}},"city_same":1,"id":"hex:2200:17387"},"type":"Feature"},{"geometry":{"coordinates":[[[-117.94634,34.01851],[-117.94703,34.01948],[-117.94838,34.01947],[-117.94905,34.01849],[-117.94836,34.01752],[-117.94701,34.01753],[-117.94634,34.01851]]],"type":"Polygon"},"properties":{"bbox":{"roads":{"area":4106.23,"pct":10.12},"sidewalks":{"area":173.09,"pct":0.43}},"city_same":1,"id":"hex:2200:17388"},"type":"Feature"},{"geometry":{"coordinates":[[[-117.94636,34.02047],[-117.94705,34.02144],[-117.9484,34.02143],[-117.94907,34.02044],[-117.94838,34.01947],[-117.94703,34.01948],[-117.94636,34.02047]]],"type":"Polygon"},"properties":{"bbox":{"roads":{"area":3939.39,"pct":9.7}},"city_same":1,"id":"hex:2200:17389"},"type":"Feature"},{"geometry":{"coordinates":[[[-117.94638,34.02242],[-117.94707,34.02339],[-117.94843,34.02338],[-117.94909,34.0224],[-117.9484,34.02143],[-117.94705,34.02144],[-117.94638,34.02242]]],"type":"Polygon"},"properties":{"bbox":{"roads":{"area":5300.58,"pct":13.06}},"city_same":1,"id":"hex:2200:17390"},"type":"Feature"},{"geometry":{"coordinates":[[[-117.94641,34.02437],[-117.94709,34.02534],[-117.94845,34.02533],[-117.94911,34.02435],[-117.94843,34.02338],[-117.94707,34.02339],[-117.94641,34.02437]]],"type":"Polygon"},"properties":{"bbox":{"roads":{"area":2666.47,"pct":6.57}},"city_same":1,"id":"hex:2200:17391"},"type":"Feature"},{"geometry":{"coordinates":[[[-117.94643,34.02632],[-117.94711,34.02729],[-117.94847,34.02728],[-117.94913,34.0263],[-117.94845,34.02533],[-117.94709,34.02534],[-117.94643,34.02632]]],"type":"Polygon"},"properties":{"bbox":{"roads":{"area":3134.78,"pct":7.72}},"city_same":1,"id":"hex:2200:17392"},"type":"Feature"},{"geometry":{"coordinates":[[[-117.94645,34.02828],[-117.94714,34.02925],[-117.94849,34.02924],[-117.94916,34.02825],[-117.94847,34.02728],[-117.94711,34.02729],[-117.94645,34.02828]]],"type":"Polygon"},"properties":{"bbox":{"roads":{"area":6299.46,"pct":15.52}},"city":{"roads":{"area":2939.61,"pct":7.24}},"id":"hex:2200:17393"},"type":"Feature"},{"geometry":{"coordinates":[[[-117.94647,34.03023],[-117.94716,34.0312],[-117.94851,34.03119],[-117.94918,34.03021],[-117.94849,34.02924],[-117.94714,34.02925],[-117.94647,34.03023]]],"type":"Polygon"},"properties":{"bbox":{"roads":{"area":4247.67,"pct":10.46}},"city_same":1,"id":"hex:2200:17394"},"type":"Feature"},{"geometry":{"coordinates":[[[-117.94649,34.03218],[-117.94718,34.03315],[-117.94853,34.03314],[-117.9492,34.03216],[-117.94851,34.03119],[-117.94716,34.0312],[-117.94649,34.03218]]],"type":"Polygon"},"properties":{"bbox":{"roads":{"area":1026.46,"pct":2.53}},"city_same":1,"id":"hex:2200:17395"},"type":"Feature"},{"geometry":{"coordinates":[[[-117.94651,34.03413],[-117.9472,34.0351],[-117.94856,34.03509],[-117.94922,34.03411],[-117.94853,34.03314],[-117.94718,34.03315],[-117.94651,34.03413]]],"type":"Polygon"},"properties":{"bbox":{"roads":{"area":3544.69,"pct":8.73}},"city_same":1,"id":"hex:2200:17396"},"type":"Feature"},{"geometry":{"coordinates":[[[-117.94654,34.03608],[-117.94722,34.03706],[-117.94858,34.03705],[-117.94924,34.03606],[-117.94856,34.03509],[-117.9472,34.0351],[-117.94654,34.03608]]],"type":"Polygon"},"properties":{"bbox":{"roads":{"area":5375.91,"pct":13.24}},"city_same":1,"id":"hex:2200:17397"},"type":"Feature"},{"geometry":{"coordinates":[[[-117.94656,34.03804],[-117.94724,34.03901],[-117.9486,34.039],[-117.94926,34.03802],[-117.94858,34.03705],[-117.94722,34.03706],[-117.94656,34.03804]]],"type":"Polygon"},"properties":{"bbox":{"roads":{"area":5195.06,"pct":12.8}},"city_same":1,"id":"hex:2200:17398"},"type":"Feature"},{"geometry":{"coordinates":[[[-117.94658,34.03999],[-117.94727,34.04096],[-117.94862,34.04095],[-117.94929,34.03997],[-117.9486,34.039],[-117.94724,34.03901],[-117.94658,34.03999]]],"type":"Polygon"},"properties":{"bbox":{"roads":{"area":3840.69,"pct":9.46}},"city_same":1,"id":"hex:2200:17399"},"type":"Feature"},{"geometry":{"coordinates":[[[-117.9466,34.04194],[-117.94727,34.04096],[-117.94862,34.04095],[-117.94931,34.04192],[-117.94864,34.0429],[-117.9476,34.04291],[-117.9477,34.04198],[-117.94703,34.04193],[-117.9469,34.04237],[-117.9466,34.04194]]],"type":"Polygon"},"properties":{"bbox":{"roads":{"area":5092.9,"pct":14.71}},"city_same":1,"id":"hex:2200:17400"},"type":"Feature"},{"geometry":{"coordinates":[[[-117.94864,34.0429],[-117.94933,34.04387],[-117.94866,34.04485],[-117.94741,34.04486],[-117.94756,34.04326],[-117.9476,34.04291],[-117.94864,34.0429]]],"type":"Polygon"},"properties":{"bbox":{"roads":{"area":3669.83,"pct":12.32},"sidewalks":{"area":74.41,"pct":0.25}},"city_same":1,"id":"hex:2200:17401"},"type":"Feature"},{"geometry":{"coordinates":[[[-117.94866,34.04485],[-117.94935,34.04583],[-117.94869,34.04681],[-117.94802,34.04681],[-117.94813,34.04671],[-117.9484,34.04646],[-117.94861,34.04624],[-117.94884,34.04593],[-117.9489,34.04581],[-117.94885,34.04576],[-117.94883,34.04575],[-117.94876,34.04568],[-117.94864,34.04522],[-117.94803,34.04523],[-117.94801,34.04561],[-117.94735,34.04556],[-117.94741,34.04486],[-117.94866,34.04485]]],"type":"Polygon"},"properties":{"bbox":{"roads":{"area":3393.3,"pct":22.21},"sidewalks":{"area":315.14,"pct":2.06}},"city_same":1,"id":"hex:2200:17402"},"type":"Feature"},{"geometry":{"coordinates":[[[-117.94869,34.04681],[-117.94937,34.04778],[-117.94871,34.04876],[-117.94735,34.04877],[-117.94677,34.04794],[-117.94737,34.0474],[-117.94782,34.04698],[-117.94802,34.04681],[-117.94869,34.04681]]],"type":"Polygon"},"properties":{"bbox":{"roads":{"area":5181.67,"pct":14.54},"sidewalks":{"area":287.41,"pct":0.81}},"city_same":1,"id":"hex:2200:17403"},"type":"Feature"},{"geometry":{"coordinates":[[[-117.94669,34.04975],[-117.94735,34.04877],[-117.94871,34.04876],[-117.9494,34.04973],[-117.9491,34.05017],[-117.94826,34.04955],[-117.94787,34.04987],[-117.9472,34.05047],[-117.9472,34.05048],[-117.94669,34.04975]]],"type":"Polygon"},"properties":{"bbox":{"roads":{"area":3209.08,"pct":11.99}},"city_same":1,"id":"hex:2200:17404"},"type":"Feature"},{"geometry":{"coordinates":[[[-117.9463,34.01461],[-117.94494,34.01462],[-117.94426,34.01365],[-117.9445,34.01329],[-117.94474,34.01341],[-117.94609,34.0141],[-117.94649,34.01433],[-117.9463,34.01461]]],"type":"Polygon"},"properties":{"bbox":{"roads":{"area":1806.44,"pct":11.42}},"city_same":1,"id":"hex:2201:17385"},"type":"Feature"},{"geometry":{"coordinates":[[[-117.94428,34.0156],[-117.94496,34.01657],[-117.94632,34.01656],[-117.94698,34.01558],[-117.9463,34.01461],[-117.94494,34.01462],[-117.94428,34.0156]]],"type":"Polygon"},"properties":{"bbox":{"roads":{"area":7542.26,"pct":18.58},"sidewalks":{"area":312.8,"pct":0.77}},"city_same":1,"id":"hex:2201:17386"},"type":"Feature"},{"geometry":{"coordinates":[[[-117.9443,34.01755],[-117.94499,34.01852],[-117.94634,34.01851],[-117.94701,34.01753],[-117.94632,34.01656],[-117.94496,34.01657],[-117.9443,34.01755]]],"type":"Polygon"},"properties":{"bbox":{"roads":{"area":3753.95,"pct":9.25}},"city_same":1,"id":"hex:2201:17387"},"type":"Feature"},{"geometry":{"coordinates":[[[-117.94432,34.01951],[-117.94501,34.02048],[-117.94636,34.02047],[-117.94703,34.01948],[-117.94634,34.01851],[-117.94499,34.01852],[-117.94432,34.01951]]],"type":"Polygon"},"properties":{"bbox":{"roads":{"area":3847.99,"pct":9.48}},"city_same":1,"id":"hex:2201:17388"},"type":"Feature"},{"geometry":{"coordinates":[[[-117.94434,34.02146],[-117.94503,34.02243],[-117.94638,34.02242],[-117.94705,34.02144],[-117.94636,34.02047],[-117.94501,34.02048],[-117.94434,34.02146]]],"type":"Polygon"},"properties":{"bbox":{"roads":{"area":3626.52,"pct":8.93}},"city_same":1,"id":"hex:2201:17389"},"type":"Feature"},{"geometry":{"coordinates":[[[-117.94436,34.02341],[-117.94505,34.02438],[-117.94641,34.02437],[-117.94707,34.02339],[-117.94638,34.02242],[-117.94503,34.02243],[-117.94436,34.02341]]],"type":"Polygon"},"properties":{"bbox":{"roads":{"area":2358.34,"pct":5.81}},"city_same":1,"id":"hex:2201:17390"},"type":"Feature"},{"geometry":{"coordinates":[[[-117.94505,34.02438],[-117.94641,34.02437],[-117.94709,34.02534],[-117.94643,34.02632],[-117.94507,34.02633],[-117.94446,34.02546],[-117.94474,34.02509],[-117.9446,34.02504],[-117.94505,34.02438]]],"type":"Polygon"},"properties":{"bbox":{"roads":{"area":2772.55,"pct":6.92}},"city_same":1,"id":"hex:2201:17391"},"type":"Feature"},{"geometry":{"coordinates":[[[-117.94441,34.02731],[-117.94509,34.02829],[-117.94645,34.02828],[-117.94711,34.02729],[-117.94643,34.02632],[-117.94507,34.02633],[-117.94441,34.02731]]],"type":"Polygon"},"properties":{"bbox":{"roads":{"area":4180.48,"pct":10.3}},"city":{"roads":{"area":1982.06,"pct":4.88}},"id":"hex:2201:17392"},"type":"Feature"},{"geometry":{"coordinates":[[[-117.94443,34.02927],[-117.94512,34.03024],[-117.94647,34.03023],[-117.94714,34.02925],[-117.94645,34.02828],[-117.94509,34.02829],[-117.94443,34.02927]]],"type":"Polygon"},"properties":{"bbox":{"roads":{"area":2809.11,"pct":6.92}},"city_same":1,"id":"hex:2201:17393"},"type":"Feature"},{"geometry":{"coordinates":[[[-117.94445,34.03122],[-117.94514,34.03219],[-117.94649,34.03218],[-117.94716,34.0312],[-117.94647,34.03023],[-117.94512,34.03024],[-117.94445,34.03122]]],"type":"Polygon"},"properties":{"bbox":{"roads":{"area":3313.14,"pct":8.16}},"city_same":1,"id":"hex:2201:17394"},"type":"Feature"},{"geometry":{"coordinates":[[[-117.94447,34.03317],[-117.94516,34.03414],[-117.94651,34.03413],[-117.94718,34.03315],[-117.94649,34.03218],[-117.94514,34.03219],[-117.94447,34.03317]]],"type":"Polygon"},"properties":{"bbox":{"roads":{"area":665.45,"pct":1.64}},"city_same":1,"id":"hex:2201:17395"},"type":"Feature"},{"geometry":{"coordinates":[[[-117.94449,34.03512],[-117.94518,34.0361],[-117.94654,34.03608],[-117.9472,34.0351],[-117.94651,34.03413],[-117.94516,34.03414],[-117.94449,34.03512]]],"type":"Polygon"},"properties":{"bbox":{"roads":{"area":4571.64,"pct":11.26}},"city_same":1,"id":"hex:2201:17396"},"type":"Feature"},{"geometry":{"coordinates":[[[-117.94452,34.03708],[-117.9452,34.03805],[-117.94656,34.03804],[-117.94722,34.03706],[-117.94654,34.03608],[-117.94518,34.0361],[-117.94452,34.03708]]],"type":"Polygon"},"properties":{"bbox":{"roads":{"area":6026.3,"pct":14.84}},"city_same":1,"id":"hex:2201:17397"},"type":"Feature"},{"geometry":{"coordinates":[[[-117.94454,34.03903],[-117.94522,34.04],[-117.94658,34.03999],[-117.94724,34.03901],[-117.94656,34.03804],[-117.9452,34.03805],[-117.94454,34.03903]]],"type":"Polygon"},"properties":{"bbox":{"roads":{"area":2976.34,"pct":7.33}},"city_same":1,"id":"hex:2201:17398"},"type":"Feature"},{"geometry":{"coordinates":[[[-117.94456,34.04098],[-117.94525,34.04195],[-117.9466,34.04194],[-117.94727,34.04096],[-117.94658,34.03999],[-117.94522,34.04],[-117.94456,34.04098]]],"type":"Polygon"},"properties":{"bbox":{"roads":{"area":1844.68,"pct":4.54}},"city_same":1,"id":"hex:2201:17399"},"type":"Feature"},{"geometry":{"coordinates":[[[-117.94525,34.04195],[-117.9466,34.04194],[-117.9469,34.04237],[-117.94687,34.04246],[-117.94592,34.04246],[-117.94591,34.04263],[-117.94588,34.04295],[-117.94499,34.04287],[-117.945,34.04232],[-117.94525,34.04195]]],"type":"Polygon"},"properties":{"bbox":{"roads":{"area":1086.06,"pct":8.33}},"city_same":1,"id":"hex:2201:17400"},"type":"Feature"},{"geometry":{"coordinates":[[[-117.94735,34.04877],[-117.94669,34.04975],[-117.94533,34.04976],[-117.94511,34.04944],[-117.9456,34.04899],[-117.94585,34.04877],[-117.94646,34.04822],[-117.94665,34.04805],[-117.94677,34.04794],[-117.94735,34.04877]]],"type":"Polygon"},"properties":{"bbox":{"roads":{"area":8363.41,"pct":36.78},"sidewalks":{"area":341.56,"pct":1.5}},"city_same":1,"id":"hex:2201:17403"},"type":"Feature"},{"geometry":{"coordinates":[[[-117.94467,34.05074],[-117.94533,34.04976],[-117.94669,34.04975],[-117.9472,34.05048],[-117.94655,34.05107],[-117.94589,34.05171],[-117.94553,34.05171],[-117.94538,34.05155],[-117.9453,34.05163],[-117.94467,34.05074]]],"type":"Polygon"},"properties":{"bbox":{"roads":{"area":3941.13,"pct":11.79}},"city_same":1,"id":"hex:2201:17404"},"type":"Feature"},{"geometry":{"coordinates":[[[-117.94426,34.01365],[-117.9429,34.01366],[-117.94221,34.01269],[-117.9424,34.01241],[-117.94251,34.01245],[-117.94279,34.01257],[-117.94325,34.01276],[-117.94356,34.01288],[-117.94378,34.01297],[-117.94428,34.01318],[-117.94431,34.01319],[-117.9445,34.01329],[-117.94426,34.01365]]],"type":"Polygon"},"properties":{"bbox":{"roads":{"area":1835.61,"pct":11.63}},"city_same":1,"id":"hex:2202:17385"},"type":"Feature"},{"geometry":{"coordinates":[[[-117.94224,34.01464],[-117.94292,34.01561],[-117.94428,34.0156],[-117.94494,34.01462],[-117.94426,34.01365],[-117.9429,34.01366],[-117.94224,34.01464]]],"type":"Polygon"},"properties":{"bbox":{"roads":{"area":8516.83,"pct":20.98},"sidewalks":{"area":543.79,"pct":1.34}},"city_same":1,"id":"hex:2202:17386"},"type":"Feature"},{"geometry":{"coordinates":[[[-117.94226,34.01659],[-117.94295,34.01756],[-117.9443,34.01755],[-117.94496,34.01657],[-117.94428,34.0156],[-117.94292,34.01561],[-117.94226,34.01659]]],"type":"Polygon"},"properties":{"bbox":{"roads":{"area":2534.48,"pct":6.24}},"city_same":1,"id":"hex:2202:17387"},"type":"Feature"},{"geometry":{"coordinates":[[[-117.94228,34.01854],[-117.94297,34.01952],[-117.94432,34.01951],[-117.94499,34.01852],[-117.9443,34.01755],[-117.94295,34.01756],[-117.94228,34.01854]]],"type":"Polygon"},"properties":{"bbox":{"roads":{"area":2652.79,"pct":6.53}},"city_same":1,"id":"hex:2202:17388"},"type":"Feature"},{"geometry":{"coordinates":[[[-117.9423,34.0205],[-117.94299,34.02147],[-117.94434,34.02146],[-117.94501,34.02048],[-117.94432,34.01951],[-117.94297,34.01952],[-117.9423,34.0205]]],"type":"Polygon"},"properties":{"bbox":{"roads":{"area":5379.55,"pct":13.25}},"city_same":1,"id":"hex:2202:17389"},"type":"Feature"},{"geometry":{"coordinates":[[[-117.94232,34.02245],[-117.94299,34.02147],[-117.94434,34.02146],[-117.94503,34.02243],[-117.94436,34.02341],[-117.9431,34.02342],[-117.9431,34.02287],[-117.9431,34.02281],[-117.94255,34.02277],[-117.94232,34.02245]]],"type":"Polygon"},"properties":{"bbox":{"roads":{"area":2812.3,"pct":7.28}},"city_same":1,"id":"hex:2202:17390"},"type":"Feature"},{"geometry":{"coordinates":[[[-117.94436,34.02341],[-117.94505,34.02438],[-117.9446,34.02504],[-117.9431,34.02444],[-117.9431,34.02397],[-117.9431,34.02342],[-117.94436,34.02341]]],"type":"Polygon"},"properties":{"bbox":{"roads":{"area":1548.49,"pct":6.72}},"city_same":1,"id":"hex:2202:17391"},"type":"Feature"},{"geometry":{"coordinates":[[[-117.94507,34.02633],[-117.94441,34.02731],[-117.9435,34.02732],[-117.94349,34.02724],[-117.94347,34.02689],[-117.94381,34.02682],[-117.94403,34.0262],[-117.94412,34.02594],[-117.94415,34.02586],[-117.94439,34.02555],[-117.94446,34.02546],[-117.94507,34.02633]]],"type":"Polygon"},"properties":{"bbox":{"roads":{"area":2647.1,"pct":16.82}},"city_same":1,"id":"hex:2202:17392"},"type":"Feature"},{"geometry":{"coordinates":[[[-117.94441,34.02731],[-117.94509,34.02829],[-117.94443,34.02927],[-117.94307,34.02928],[-117.94239,34.02831],[-117.94253,34.0281],[-117.94286,34.02809],[-117.94318,34.02809],[-117.9435,34.02809],[-117.9435,34.02732],[-117.94441,34.02731]]],"type":"Polygon"},"properties":{"bbox":{"roads":{"area":6577.76,"pct":18.77}},"city":{"roads":{"area":3557.13,"pct":10.15}},"id":"hex:2202:17393"},"type":"Feature"},{"geometry":{"coordinates":[[[-117.94241,34.03026],[-117.9431,34.03123],[-117.94445,34.03122],[-117.94512,34.03024],[-117.94443,34.02927],[-117.94307,34.02928],[-117.94241,34.03026]]],"type":"Polygon"},"properties":{"bbox":{"roads":{"area":4156.56,"pct":10.24}},"city_same":1,"id":"hex:2202:17394"},"type":"Feature"},{"geometry":{"coordinates":[[[-117.94243,34.03221],[-117.94312,34.03318],[-117.94447,34.03317],[-117.94514,34.03219],[-117.94445,34.03122],[-117.9431,34.03123],[-117.94243,34.03221]]],"type":"Polygon"},"properties":{"bbox":{"roads":{"area":4360.66,"pct":10.74}},"city_same":1,"id":"hex:2202:17395"},"type":"Feature"},{"geometry":{"coordinates":[[[-117.94245,34.03416],[-117.94314,34.03513],[-117.94449,34.03512],[-117.94516,34.03414],[-117.94447,34.03317],[-117.94312,34.03318],[-117.94245,34.03416]]],"type":"Polygon"},"properties":{"bbox":{"roads":{"area":4519.35,"pct":11.13}},"city_same":1,"id":"hex:2202:17396"},"type":"Feature"},{"geometry":{"coordinates":[[[-117.94247,34.03612],[-117.94316,34.03709],[-117.94452,34.03708],[-117.94518,34.0361],[-117.94449,34.03512],[-117.94314,34.03513],[-117.94247,34.03612]]],"type":"Polygon"},"properties":{"bbox":{"roads":{"area":7415.12,"pct":18.27}},"city_same":1,"id":"hex:2202:17397"},"type":"Feature"},{"geometry":{"coordinates":[[[-117.94249,34.03807],[-117.94318,34.03904],[-117.94454,34.03903],[-117.9452,34.03805],[-117.94452,34.03708],[-117.94316,34.03709],[-117.94249,34.03807]]],"type":"Polygon"},"properties":{"bbox":{"roads":{"area":3782.09,"pct":9.32}},"city_same":1,"id":"hex:2202:17398"},"type":"Feature"},{"geometry":{"coordinates":[[[-117.94252,34.04002],[-117.9432,34.04099],[-117.94456,34.04098],[-117.94522,34.04],[-117.94454,34.03903],[-117.94318,34.03904],[-117.94252,34.04002]]],"type":"Polygon"},"properties":{"bbox":{"roads":{"area":2613.62,"pct":6.44}},"city_same":1,"id":"hex:2202:17399"},"type":"Feature"},{"geometry":{"coordinates":[[[-117.9432,34.04099],[-117.94456,34.04098],[-117.94525,34.04195],[-117.945,34.04232],[-117.945,34.04181],[-117.94429,34.04176],[-117.94426,34.04213],[-117.94332,34.04203],[-117.94333,34.04186],[-117.94281,34.04183],[-117.94283,34.04167],[-117.94275,34.04166],[-117.9432,34.04099]]],"type":"Polygon"},"properties":{"bbox":{"roads":{"area":1453.71,"pct":7.48}},"city_same":1,"id":"hex:2202:17400"},"type":"Feature"},{"geometry":{"coordinates":[[[-117.94533,34.04976],[-117.94467,34.05074],[-117.94366,34.05075],[-117.94373,34.05068],[-117.94385,34.05057],[-117.94413,34.05033],[-117.94445,34.05004],[-117.94473,34.04979],[-117.94475,34.04977],[-117.94489,34.04963],[-117.94511,34.04944],[-117.94533,34.04976]]],"type":"Polygon"},"properties":{"bbox":{"roads":{"area":3456.65,"pct":38.82},"sidewalks":{"area":262.64,"pct":2.95}},"city_same":1,"id":"hex:2202:17404"},"type":"Feature"},{"geometry":{"coordinates":[[[-117.94265,34.05174],[-117.94274,34.05159],[-117.94293,34.05143],[-117.94334,34.05106],[-117.9434,34.051],[-117.94366,34.05075],[-117.94467,34.05074],[-117.9453,34.05163],[-117.94416,34.0527],[-117.94352,34.0527],[-117.94313,34.05241],[-117.94265,34.05174]]],"type":"Polygon"},"properties":{"bbox":{"roads":{"area":5673.69,"pct":16.05},"sidewalks":{"area":246.64,"pct":0.7}},"city_same":1,"id":"hex:2202:17405"},"type":"Feature"},{"geometry":{"coordinates":[[[-117.94416,34.0527],[-117.94387,34.05297],[-117.94352,34.0527],[-117.94416,34.0527]]],"type":"Polygon"},"properties":{"bbox":{"roads":{"area":144.34,"pct":16.13}},"city_same":1,"id":"hex:2202:17406"},"type":"Feature"},{"geometry":{"coordinates":[[[-117.94221,34.01269],[-117.94086,34.0127],[-117.94026,34.01185],[-117.9403,34.01187],[-117.94073,34.01215],[-117.94111,34.01246],[-117.94125,34.01259],[-117.94132,34.01255],[-117.94139,34.01251],[-117.94147,34.01247],[-117.9416,34.01241],[-117.9418,34.01234],[-117.94197,34.01232],[-117.94212,34.01233],[-117.94236,34.01239],[-117.9424,34.01241],[-117.94221,34.01269]]],"type":"Polygon"},"properties":{"bbox":{"roads":{"area":2901.85,"pct":50.74},"sidewalks":{"area":112.41,"pct":1.97}},"city_same":1,"id":"hex:2203:17384"},"type":"Feature"},{"geometry":{"coordinates":[[[-117.94019,34.01368],[-117.94088,34.01465],[-117.94224,34.01464],[-117.9429,34.01366],[-117.94221,34.01269],[-117.94086,34.0127],[-117.94019,34.01368]]],"type":"Polygon"},"properties":{"bbox":{"roads":{"area":6870.7,"pct":16.93},"sidewalks":{"area":584.69,"pct":1.44}},"city_same":1,"id":"hex:2203:17385"},"type":"Feature"},{"geometry":{"coordinates":[[[-117.94022,34.01563],[-117.9409,34.0166],[-117.94226,34.01659],[-117.94292,34.01561],[-117.94224,34.01464],[-117.94088,34.01465],[-117.94022,34.01563]]],"type":"Polygon"},"properties":{"bbox":{"roads":{"area":2544.71,"pct":6.27}},"city_same":1,"id":"hex:2203:17386"},"type":"Feature"},{"geometry":{"coordinates":[[[-117.94024,34.01758],[-117.94093,34.01855],[-117.94228,34.01854],[-117.94295,34.01756],[-117.94226,34.01659],[-117.9409,34.0166],[-117.94024,34.01758]]],"type":"Polygon"},"properties":{"bbox":{"roads":{"area":3815.37,"pct":9.4}},"city_same":1,"id":"hex:2203:17387"},"type":"Feature"},{"geometry":{"coordinates":[[[-117.94026,34.01954],[-117.94095,34.02051],[-117.9423,34.0205],[-117.94297,34.01952],[-117.94228,34.01854],[-117.94093,34.01855],[-117.94026,34.01954]]],"type":"Polygon"},"properties":{"bbox":{"roads":{"area":3924.52,"pct":9.67}},"city_same":1,"id":"hex:2203:17388"},"type":"Feature"},{"geometry":{"coordinates":[[[-117.94028,34.02149],[-117.94097,34.02246],[-117.94232,34.02245],[-117.94299,34.02147],[-117.9423,34.0205],[-117.94095,34.02051],[-117.94028,34.02149]]],"type":"Polygon"},"properties":{"bbox":{"roads":{"area":1395.58,"pct":3.44}},"city_same":1,"id":"hex:2203:17389"},"type":"Feature"},{"geometry":{"coordinates":[[[-117.94239,34.02831],[-117.94103,34.02832],[-117.94088,34.0281],[-117.94109,34.0281],[-117.94123,34.02811],[-117.94209,34.02811],[-117.94253,34.0281],[-117.94239,34.02831]]],"type":"Polygon"},"properties":{"bbox":{"roads":{"area":1182.65,"pct":37.54}},"city":{"roads":{"area":51.41,"pct":1.63}},"id":"hex:2203:17392"},"type":"Feature"},{"geometry":{"coordinates":[[[-117.94037,34.0293],[-117.94105,34.03027],[-117.94241,34.03026],[-117.94307,34.02928],[-117.94239,34.02831],[-117.94103,34.02832],[-117.94037,34.0293]]],"type":"Polygon"},"properties":{"bbox":{"roads":{"area":3462.28,"pct":8.53}},"city_same":1,"id":"hex:2203:17393"},"type":"Feature"},{"geometry":{"coordinates":[[[-117.94039,34.03125],[-117.94108,34.03222],[-117.94243,34.03221],[-117.9431,34.03123],[-117.94241,34.03026],[-117.94105,34.03027],[-117.94039,34.03125]]],"type":"Polygon"},"properties":{"bbox":{"roads":{"area":5078.24,"pct":12.51}},"city_same":1,"id":"hex:2203:17394"},"type":"Feature"},{"geometry":{"coordinates":[[[-117.94041,34.0332],[-117.9411,34.03417],[-117.94245,34.03416],[-117.94312,34.03318],[-117.94243,34.03221],[-117.94108,34.03222],[-117.94041,34.0332]]],"type":"Polygon"},"properties":{"bbox":{"roads":{"area":4703.61,"pct":11.59}},"city_same":1,"id":"hex:2203:17395"},"type":"Feature"},{"geometry":{"coordinates":[[[-117.9411,34.03417],[-117.94245,34.03416],[-117.94314,34.03513],[-117.94247,34.03612],[-117.94112,34.03613],[-117.94089,34.03581],[-117.9409,34.03571],[-117.94096,34.03527],[-117.94101,34.03453],[-117.94086,34.03452],[-117.9411,34.03417]]],"type":"Polygon"},"properties":{"bbox":{"roads":{"area":2580.11,"pct":7.05}},"city_same":1,"id":"hex:2203:17396"},"type":"Feature"},{"geometry":{"coordinates":[[[-117.94112,34.03613],[-117.94247,34.03612],[-117.94316,34.03709],[-117.94249,34.03807],[-117.94114,34.03808],[-117.9407,34.03746],[-117.94074,34.0371],[-117.9408,34.0366],[-117.94112,34.03613]]],"type":"Polygon"},"properties":{"bbox":{"roads":{"area":6724.75,"pct":17.09}},"city_same":1,"id":"hex:2203:17397"},"type":"Feature"},{"geometry":{"coordinates":[[[-117.94114,34.03808],[-117.94249,34.03807],[-117.94318,34.03904],[-117.94252,34.04002],[-117.94116,34.04003],[-117.94054,34.03915],[-117.94056,34.03894],[-117.94114,34.03808]]],"type":"Polygon"},"properties":{"bbox":{"roads":{"area":4080.75,"pct":10.07}},"city_same":1,"id":"hex:2203:17398"},"type":"Feature"},{"geometry":{"coordinates":[[[-117.9405,34.04101],[-117.94116,34.04003],[-117.94252,34.04002],[-117.9432,34.04099],[-117.94275,34.04166],[-117.94174,34.0416],[-117.94156,34.04159],[-117.94088,34.04156],[-117.9405,34.04101]]],"type":"Polygon"},"properties":{"bbox":{"roads":{"area":2506.25,"pct":7.27}},"city_same":1,"id":"hex:2203:17399"},"type":"Feature"},{"geometry":{"coordinates":[[[-117.94265,34.05174],[-117.94313,34.05241],[-117.94276,34.05214],[-117.94242,34.05189],[-117.94254,34.05177],[-117.94258,34.05174],[-117.94265,34.05174]]],"type":"Polygon"},"properties":{"bbox":{"roads":{"area":291.51,"pct":24.24},"sidewalks":{"area":33.45,"pct":2.78}},"city_same":1,"id":"hex:2203:17405"},"type":"Feature"},{"geometry":{"coordinates":[[[-117.93882,34.01174],[-117.93845,34.01122],[-117.93922,34.01139],[-117.93978,34.01159],[-117.94003,34.01173],[-117.93882,34.01174]]],"type":"Polygon"},"properties":{"bbox":{"roads":{"area":2712.84,"pct":67.45},"sidewalks":{"area":115.16,"pct":2.86}},"city_same":1,"id":"hex:2204:17384"},"type":"Feature"},{"geometry":{"coordinates":[[[-117.94086,34.0127],[-117.94019,34.01368],[-117.93884,34.01369],[-117.93815,34.01272],[-117.93882,34.01174],[-117.94003,34.01173],[-117.94026,34.01185],[-117.94086,34.0127]]],"type":"Polygon"},"properties":{"bbox":{"roads":{"area":4248.72,"pct":10.49},"sidewalks":{"area":203.76,"pct":0.5}},"city_same":1,"id":"hex:2204:17385"},"type":"Feature"},{"geometry":{"coordinates":[[[-117.93818,34.01467],[-117.93886,34.01564],[-117.94022,34.01563],[-117.94088,34.01465],[-117.94019,34.01368],[-117.93884,34.01369],[-117.93818,34.01467]]],"type":"Polygon"},"properties":{"bbox":{"roads":{"area":3134.69,"pct":7.72}},"city_same":1,"id":"hex:2204:17386"},"type":"Feature"},{"geometry":{"coordinates":[[[-117.9382,34.01662],[-117.93888,34.01759],[-117.94024,34.01758],[-117.9409,34.0166],[-117.94022,34.01563],[-117.93886,34.01564],[-117.9382,34.01662]]],"type":"Polygon"},"properties":{"bbox":{"roads":{"area":2400.76,"pct":5.91}},"city_same":1,"id":"hex:2204:17387"},"type":"Feature"},{"geometry":{"coordinates":[[[-117.93822,34.01858],[-117.93891,34.01955],[-117.94026,34.01954],[-117.94093,34.01855],[-117.94024,34.01758],[-117.93888,34.01759],[-117.93822,34.01858]]],"type":"Polygon"},"properties":{"bbox":{"roads":{"area":3191.95,"pct":7.86}},"city_same":1,"id":"hex:2204:17388"},"type":"Feature"},{"geometry":{"coordinates":[[[-117.93824,34.02053],[-117.93893,34.0215],[-117.94028,34.02149],[-117.94095,34.02051],[-117.94026,34.01954],[-117.93891,34.01955],[-117.93824,34.02053]]],"type":"Polygon"},"properties":{"bbox":{"roads":{"area":2872.37,"pct":7.08}},"city_same":1,"id":"hex:2204:17389"},"type":"Feature"},{"geometry":{"coordinates":[[[-117.93893,34.0215],[-117.94028,34.02149],[-117.94097,34.02246],[-117.94084,34.02265],[-117.93827,34.02247],[-117.93893,34.0215]]],"type":"Polygon"},"properties":{"bbox":{"roads":{"area":1444.3,"pct":6.31}},"city_same":1,"id":"hex:2204:17390"},"type":"Feature"},{"geometry":{"coordinates":[[[-117.94103,34.02832],[-117.94037,34.0293],[-117.93901,34.02931],[-117.93833,34.02834],[-117.93851,34.02806],[-117.939,34.02806],[-117.93978,34.02807],[-117.94024,34.02807],[-117.94026,34.02808],[-117.94088,34.0281],[-117.94103,34.02832]]],"type":"Polygon"},"properties":{"bbox":{"parking":{"area":193.09,"pct":0.72},"roads":{"area":4509.61,"pct":16.75}},"city":{"parking":{"area":193.09,"pct":0.72},"roads":{"area":3354.06,"pct":12.46}},"id":"hex:2204:17393"},"type":"Feature"},{"geometry":{"coordinates":[[[-117.93835,34.03029],[-117.93903,34.03126],[-117.94039,34.03125],[-117.94105,34.03027],[-117.94037,34.0293],[-117.93901,34.02931],[-117.93835,34.03029]]],"type":"Polygon"},"properties":{"bbox":{"roads":{"area":3903.47,"pct":9.62}},"city_same":1,"id":"hex:2204:17394"},"type":"Feature"},{"geometry":{"coordinates":[[[-117.93837,34.03224],[-117.93906,34.03321],[-117.94041,34.0332],[-117.94108,34.03222],[-117.94039,34.03125],[-117.93903,34.03126],[-117.93837,34.03224]]],"type":"Polygon"},"properties":{"bbox":{"roads":{"area":4022.51,"pct":9.91}},"city_same":1,"id":"hex:2204:17395"},"type":"Feature"},{"geometry":{"coordinates":[[[-117.93839,34.03419],[-117.93906,34.03321],[-117.94041,34.0332],[-117.9411,34.03417],[-117.94086,34.03452],[-117.93848,34.03433],[-117.93839,34.03419]]],"type":"Polygon"},"properties":{"bbox":{"roads":{"area":2673.82,"pct":10.05}},"city_same":1,"id":"hex:2204:17396"},"type":"Feature"},{"geometry":{"coordinates":[[[-117.94112,34.03613],[-117.9408,34.0366],[-117.9408,34.03659],[-117.94081,34.03653],[-117.94081,34.03648],[-117.94086,34.03609],[-117.94089,34.03581],[-117.94112,34.03613]]],"type":"Polygon"},"properties":{"bbox":{"roads":{"area":490.96,"pct":45.4}},"city_same":1,"id":"hex:2204:17397"},"type":"Feature"},{"geometry":{"coordinates":[[[-117.94114,34.03808],[-117.94056,34.03894],[-117.94057,34.03883],[-117.94057,34.03875],[-117.94063,34.0382],[-117.94068,34.03769],[-117.9407,34.03746],[-117.94114,34.03808]]],"type":"Polygon"},"properties":{"bbox":{"roads":{"area":1017.1,"pct":26.94}},"city_same":1,"id":"hex:2204:17398"},"type":"Feature"},{"geometry":{"coordinates":[[[-117.94116,34.04003],[-117.9405,34.04101],[-117.94037,34.04101],[-117.94045,34.04013],[-117.94054,34.03915],[-117.94116,34.04003]]],"type":"Polygon"},"properties":{"bbox":{"roads":{"area":1318.2,"pct":17.87}},"city_same":1,"id":"hex:2204:17399"},"type":"Feature"},{"geometry":{"coordinates":[[[-117.9405,34.04101],[-117.94088,34.04156],[-117.94032,34.04153],[-117.94037,34.04101],[-117.9405,34.04101]]],"type":"Polygon"},"properties":{"bbox":{"roads":{"area":313.01,"pct":16.94}},"city_same":1,"id":"hex:2204:17400"},"type":"Feature"},{"geometry":{"coordinates":[[[-117.93882,34.01174],[-117.93815,34.01272],[-117.9368,34.01273],[-117.93611,34.01176],[-117.9367,34.01089],[-117.9375,34.01101],[-117.93788,34.01109],[-117.93842,34.01121],[-117.93845,34.01122],[-117.93882,34.01174]]],"type":"Polygon"},"properties":{"bbox":{"roads":{"area":6476.64,"pct":17.71},"sidewalks":{"area":292.89,"pct":0.8}},"city_same":1,"id":"hex:2205:17384"},"type":"Feature"},{"geometry":{"coordinates":[[[-117.93613,34.01371],[-117.93682,34.01468],[-117.93818,34.01467],[-117.93884,34.01369],[-117.93815,34.01272],[-117.9368,34.01273],[-117.93613,34.01371]]],"type":"Polygon"},"properties":{"bbox":{"roads":{"area":3447.88,"pct":8.49}},"city_same":1,"id":"hex:2205:17385"},"type":"Feature"},{"geometry":{"coordinates":[[[-117.93616,34.01566],[-117.93684,34.01663],[-117.9382,34.01662],[-117.93886,34.01564],[-117.93818,34.01467],[-117.93682,34.01468],[-117.93616,34.01566]]],"type":"Polygon"},"properties":{"bbox":{"roads":{"area":3227.46,"pct":7.95}},"city_same":1,"id":"hex:2205:17386"},"type":"Feature"},{"geometry":{"coordinates":[[[-117.93684,34.01663],[-117.9382,34.01662],[-117.93888,34.01759],[-117.93822,34.01858],[-117.93789,34.01858],[-117.93812,34.01786],[-117.93665,34.01754],[-117.9363,34.01744],[-117.93684,34.01663]]],"type":"Polygon"},"properties":{"bbox":{"roads":{"area":2594.44,"pct":9.86}},"city_same":1,"id":"hex:2205:17387"},"type":"Feature"},{"geometry":{"coordinates":[[[-117.93822,34.01858],[-117.93891,34.01955],[-117.93824,34.02053],[-117.93729,34.02054],[-117.93789,34.01858],[-117.93822,34.01858]]],"type":"Polygon"},"properties":{"bbox":{"roads":{"area":1147.98,"pct":5.88}},"city_same":1,"id":"hex:2205:17388"},"type":"Feature"},{"geometry":{"coordinates":[[[-117.93675,34.02227],[-117.93729,34.02054],[-117.93824,34.02053],[-117.93893,34.0215],[-117.93827,34.02247],[-117.93682,34.02237],[-117.93675,34.02227]]],"type":"Polygon"},"properties":{"bbox":{"roads":{"area":1890.32,"pct":6.11}},"city_same":1,"id":"hex:2205:17389"},"type":"Feature"},{"geometry":{"coordinates":[[[-117.93833,34.02834],[-117.93778,34.02834],[-117.93778,34.02826],[-117.93779,34.02805],[-117.93782,34.02805],[-117.93846,34.02806],[-117.93851,34.02806],[-117.93833,34.02834]]],"type":"Polygon"},"properties":{"bbox":{"parking":{"area":147.77,"pct":7.97},"roads":{"area":563.57,"pct":30.41}},"city":{"parking":{"area":147.77,"pct":7.97},"roads":{"area":304.86,"pct":16.45}},"id":"hex:2205:17392"},"type":"Feature"},{"geometry":{"coordinates":[[[-117.93833,34.02834],[-117.93901,34.02931],[-117.93835,34.03029],[-117.93768,34.0303],[-117.93778,34.02834],[-117.93833,34.02834]]],"type":"Polygon"},"properties":{"bbox":{"parking":{"area":9926.44,"pct":52.41},"roads":{"area":2588.76,"pct":13.67}},"city_same":1,"id":"hex:2205:17393"},"type":"Feature"},{"geometry":{"coordinates":[[[-117.93835,34.03029],[-117.93903,34.03126],[-117.93837,34.03224],[-117.93758,34.03225],[-117.93763,34.03114],[-117.93768,34.0303],[-117.93835,34.03029]]],"type":"Polygon"},"properties":{"bbox":{"roads":{"area":2070.25,"pct":9.69}},"city_same":1,"id":"hex:2205:17394"},"type":"Feature"},{"geometry":{"coordinates":[[[-117.93837,34.03224],[-117.93906,34.03321],[-117.93839,34.03419],[-117.93736,34.0342],[-117.9375,34.03378],[-117.93758,34.03225],[-117.93837,34.03224]]],"type":"Polygon"},"properties":{"bbox":{"roads":{"area":2454.42,"pct":10.21}},"city_same":1,"id":"hex:2205:17395"},"type":"Feature"},{"geometry":{"coordinates":[[[-117.93611,34.01176],[-117.93476,34.01177],[-117.93407,34.0108],[-117.93428,34.01049],[-117.9367,34.01089],[-117.93611,34.01176]]],"type":"Polygon"},"properties":{"bbox":{"roads":{"area":5006.31,"pct":21.76},"sidewalks":{"area":342.38,"pct":1.49}},"city_same":1,"id":"hex:2206:17384"},"type":"Feature"},{"geometry":{"coordinates":[[[-117.93409,34.01275],[-117.93478,34.01372],[-117.93613,34.01371],[-117.9368,34.01273],[-117.93611,34.01176],[-117.93476,34.01177],[-117.93409,34.01275]]],"type":"Polygon"},"properties":{"bbox":{"roads":{"area":2676.97,"pct":6.59}},"city_same":1,"id":"hex:2206:17385"},"type":"Feature"},{"geometry":{"coordinates":[[[-117.93411,34.0147],[-117.9348,34.01567],[-117.93616,34.01566],[-117.93682,34.01468],[-117.93613,34.01371],[-117.93478,34.01372],[-117.93411,34.0147]]],"type":"Polygon"},"properties":{"bbox":{"roads":{"area":2665.8,"pct":6.57}},"city_same":1,"id":"hex:2206:17386"},"type":"Feature"},{"geometry":{"coordinates":[[[-117.93414,34.01665],[-117.9348,34.01567],[-117.93616,34.01566],[-117.93684,34.01663],[-117.9363,34.01744],[-117.93477,34.017],[-117.93428,34.01685],[-117.93414,34.01665]]],"type":"Polygon"},"properties":{"bbox":{"roads":{"area":2922.88,"pct":8.84}},"city_same":1,"id":"hex:2206:17387"},"type":"Feature"},{"geometry":{"coordinates":[[[-117.93407,34.0108],[-117.93272,34.01081],[-117.93227,34.01017],[-117.93322,34.01032],[-117.93428,34.01049],[-117.93407,34.0108]]],"type":"Polygon"},"properties":{"bbox":{"roads":{"area":2964.03,"pct":37.3},"sidewalks":{"area":248.41,"pct":3.13}},"city_same":1,"id":"hex:2207:17383"},"type":"Feature"},{"geometry":{"coordinates":[[[-117.93205,34.01179],[-117.93274,34.01276],[-117.93409,34.01275],[-117.93476,34.01177],[-117.93407,34.0108],[-117.93272,34.01081],[-117.93205,34.01179]]],"type":"Polygon"},"properties":{"bbox":{"roads":{"area":3554.89,"pct":8.76}},"city_same":1,"id":"hex:2207:17384"},"type":"Feature"},{"geometry":{"coordinates":[[[-117.93207,34.01374],[-117.93276,34.01471],[-117.93411,34.0147],[-117.93478,34.01372],[-117.93409,34.01275],[-117.93274,34.01276],[-117.93207,34.01374]]],"type":"Polygon"},"properties":{"bbox":{"roads":{"area":3095.86,"pct":7.63}},"city_same":1,"id":"hex:2207:17385"},"type":"Feature"},{"geometry":{"coordinates":[[[-117.93209,34.01569],[-117.93276,34.01471],[-117.93411,34.0147],[-117.9348,34.01567],[-117.93414,34.01665],[-117.93362,34.01666],[-117.93263,34.01636],[-117.93255,34.01634],[-117.93209,34.01569]]],"type":"Polygon"},"properties":{"bbox":{"roads":{"area":3545.44,"pct":9.05}},"city_same":1,"id":"hex:2207:17386"},"type":"Feature"},{"geometry":{"coordinates":[[[-117.93272,34.01081],[-117.93205,34.01179],[-117.9307,34.0118],[-117.93001,34.01083],[-117.93064,34.00991],[-117.93108,34.00998],[-117.93159,34.01006],[-117.93212,34.01015],[-117.93227,34.01017],[-117.93272,34.01081]]],"type":"Polygon"},"properties":{"bbox":{"roads":{"area":5817.57,"pct":15.44},"sidewalks":{"area":266.68,"pct":0.71}},"city_same":1,"id":"hex:2208:17384"},"type":"Feature"},{"geometry":{"coordinates":[[[-117.93003,34.01278],[-117.93072,34.01375],[-117.93207,34.01374],[-117.93274,34.01276],[-117.93205,34.01179],[-117.9307,34.0118],[-117.93003,34.01278]]],"type":"Polygon"},"properties":{"bbox":{"roads":{"area":3189.68,"pct":7.86}},"city_same":1,"id":"hex:2208:17385"},"type":"Feature"},{"geometry":{"coordinates":[[[-117.93005,34.01473],[-117.93074,34.0157],[-117.93209,34.01569],[-117.93276,34.01471],[-117.93207,34.01374],[-117.93072,34.01375],[-117.93005,34.01473]]],"type":"Polygon"},"properties":{"bbox":{"roads":{"area":3616.18,"pct":8.91}},"city_same":1,"id":"hex:2208:17386"},"type":"Feature"},{"geometry":{"coordinates":[[[-117.93074,34.0157],[-117.93209,34.01569],[-117.93255,34.01634],[-117.93167,34.01608],[-117.93097,34.01586],[-117.93074,34.01571],[-117.93074,34.0157]]],"type":"Polygon"},"properties":{"bbox":{"roads":{"area":186.18,"pct":3.51}},"city_same":1,"id":"hex:2208:17387"},"type":"Feature"},{"geometry":{"coordinates":[[[-117.93001,34.01083],[-117.92866,34.01084],[-117.92797,34.00987],[-117.92821,34.00952],[-117.92848,34.00956],[-117.929,34.00964],[-117.92958,34.00974],[-117.93027,34.00985],[-117.93064,34.00991],[-117.93001,34.01083]]],"type":"Polygon"},"properties":{"bbox":{"roads":{"area":5901.13,"pct":24.3},"sidewalks":{"area":344.13,"pct":1.42}},"city_same":1,"id":"hex:2209:17383"},"type":"Feature"},{"geometry":{"coordinates":[[[-117.92799,34.01182],[-117.92868,34.01279],[-117.93003,34.01278],[-117.9307,34.0118],[-117.93001,34.01083],[-117.92866,34.01084],[-117.92799,34.01182]]],"type":"Polygon"},"properties":{"bbox":{"roads":{"area":2003.46,"pct":4.94}},"city_same":1,"id":"hex:2209:17384"},"type":"Feature"},{"geometry":{"coordinates":[[[-117.92801,34.01377],[-117.9287,34.01474],[-117.93005,34.01473],[-117.93072,34.01375],[-117.93003,34.01278],[-117.92868,34.01279],[-117.92801,34.01377]]],"type":"Polygon"},"properties":{"bbox":{"roads":{"area":1825.05,"pct":4.5}},"city_same":1,"id":"hex:2209:17385"},"type":"Feature"},{"geometry":{"coordinates":[[[-117.9287,34.01474],[-117.93005,34.01473],[-117.93074,34.0157],[-117.93074,34.01571],[-117.93025,34.0154],[-117.92967,34.01531],[-117.92964,34.01555],[-117.92825,34.0154],[-117.9287,34.01474]]],"type":"Polygon"},"properties":{"bbox":{"roads":{"area":1001.75,"pct":7.41}},"city_same":1,"id":"hex:2209:17386"},"type":"Feature"},{"geometry":{"coordinates":[[[-117.92797,34.00987],[-117.92662,34.00988],[-117.92612,34.00918],[-117.92649,34.00924],[-117.92705,34.00933],[-117.92763,34.00942],[-117.92821,34.00952],[-117.92797,34.00987]]],"type":"Polygon"},"properties":{"bbox":{"roads":{"area":4381.92,"pct":48.55},"sidewalks":{"area":258.43,"pct":2.86}},"city_same":1,"id":"hex:2210:17383"},"type":"Feature"},{"geometry":{"coordinates":[[[-117.92595,34.01086],[-117.92664,34.01183],[-117.92799,34.01182],[-117.92866,34.01084],[-117.92797,34.00987],[-117.92662,34.00988],[-117.92595,34.01086]]],"type":"Polygon"},"properties":{"bbox":{"roads":{"area":5352.14,"pct":13.18},"sidewalks":{"area":98.98,"pct":0.24}},"city_same":1,"id":"hex:2210:17384"},"type":"Feature"},{"geometry":{"coordinates":[[[-117.92597,34.01281],[-117.92666,34.01378],[-117.92801,34.01377],[-117.92868,34.01279],[-117.92799,34.01182],[-117.92664,34.01183],[-117.92597,34.01281]]],"type":"Polygon"},"properties":{"bbox":{"roads":{"area":4479.52,"pct":11.03},"sidewalks":{"area":154.08,"pct":0.38}},"city_same":1,"id":"hex:2210:17385"},"type":"Feature"},{"geometry":{"coordinates":[[[-117.92599,34.01476],[-117.92666,34.01378],[-117.92801,34.01377],[-117.9287,34.01474],[-117.92825,34.0154],[-117.9263,34.0152],[-117.92599,34.01476]]],"type":"Polygon"},"properties":{"bbox":{"roads":{"area":3159.21,"pct":9.43}},"city_same":1,"id":"hex:2210:17386"},"type":"Feature"},{"geometry":{"coordinates":[[[-117.92662,34.00988],[-117.92595,34.01086],[-117.9246,34.01087],[-117.92424,34.01037],[-117.92443,34.01006],[-117.92466,34.00976],[-117.92499,34.00941],[-117.92517,34.00926],[-117.9254,34.00908],[-117.92569,34.00911],[-117.92593,34.00915],[-117.92612,34.00918],[-117.92662,34.00988]]],"type":"Polygon"},"properties":{"bbox":{"roads":{"area":8850.26,"pct":29.59},"sidewalks":{"area":914.34,"pct":3.06}},"city":{"roads":{"area":6991.33,"pct":23.38},"sidewalks":{"area":914.34,"pct":3.06}},"id":"hex:2211:17383"},"type":"Feature"},{"geometry":{"coordinates":[[[-117.92393,34.01185],[-117.92462,34.01282],[-117.92597,34.01281],[-117.92664,34.01183],[-117.92595,34.01086],[-117.9246,34.01087],[-117.92393,34.01185]]],"type":"Polygon"},"properties":{"bbox":{"roads":{"area":6249.29,"pct":15.39},"sidewalks":{"area":773.09,"pct":1.9}},"city_same":1,"id":"hex:2211:17384"},"type":"Feature"},{"geometry":{"coordinates":[[[-117.92395,34.0138],[-117.92464,34.01477],[-117.92599,34.01476],[-117.92666,34.01378],[-117.92597,34.01281],[-117.92462,34.01282],[-117.92395,34.0138]]],"type":"Polygon"},"properties":{"bbox":{"roads":{"area":4210.3,"pct":10.37}},"city_same":1,"id":"hex:2211:17385"},"type":"Feature"},{"geometry":{"coordinates":[[[-117.92464,34.01477],[-117.92599,34.01476],[-117.9263,34.0152],[-117.92625,34.0152],[-117.92485,34.01504],[-117.92448,34.015],[-117.92464,34.01477]]],"type":"Polygon"},"properties":{"bbox":{"roads":{"area":98.74,"pct":1.85}},"city_same":1,"id":"hex:2211:17386"},"type":"Feature"},{"geometry":{"coordinates":[[[-117.9246,34.01087],[-117.92393,34.01185],[-117.92357,34.01185],[-117.92366,34.01153],[-117.92382,34.01116],[-117.92396,34.01085],[-117.92415,34.01051],[-117.92424,34.01037],[-117.9246,34.01087]]],"type":"Polygon"},"properties":{"bbox":{"roads":{"area":2965.43,"pct":42.87},"sidewalks":{"area":266.1,"pct":3.85}},"city":{"roads":{"area":1019.91,"pct":14.75},"sidewalks":{"area":266.1,"pct":3.85}},"id":"hex:2212:17384"},"type":"Feature"},{"geometry":{"coordinates":[[[-117.92393,34.01185],[-117.92462,34.01282],[-117.92395,34.0138],[-117.92261,34.01381],[-117.9228,34.0135],[-117.9232,34.0128],[-117.92329,34.01263],[-117.92345,34.01229],[-117.92357,34.01186],[-117.92357,34.01185],[-117.92393,34.01185]]],"type":"Polygon"},"properties":{"bbox":{"roads":{"area":6978.65,"pct":30.98},"sidewalks":{"area":180.11,"pct":0.8}},"city":{"roads":{"area":4231.11,"pct":18.78},"sidewalks":{"area":180.11,"pct":0.8}},"id":"hex:2212:17385"},"type":"Feature"},{"geometry":{"coordinates":[[[-117.92395,34.0138],[-117.92464,34.01477],[-117.92448,34.015],[-117.92204,34.01474],[-117.92261,34.01381],[-117.92395,34.0138]]],"type":"Polygon"},"properties":{"bbox":{"roads":{"area":3355.33,"pct":15.12}},"city":{"roads":{"area":2124.29,"pct":9.57}},"id":"hex:2212:17386"},"type":"Feature"}],"type":"FeatureCollection","v":2}