{"features":[{"geometry":{"coordinates":[[[-118.11483,34.03351],[-118.10776,34.02712],[-118.10542,34.02968],[-118.10457,34.03009],[-118.10363,34.03197],[-118.10176,34.0319],[-118.09901,34.03225],[-118.09821,34.03525],[-118.09705,34.03567],[-118.09501,34.03516],[-118.09295,34.03561],[-118.10338,34.03822],[-118.10339,34.03959],[-118.10647,34.04043],[-118.10194,34.04264],[-118.10101,34.04351],[-118.10027,34.04476],[-118.09706,34.04477],[-118.09641,34.04447],[-118.09485,34.04318],[-118.0943,34.04412],[-118.0953,34.04453],[-118.09434,34.04612],[-118.09241,34.04528],[-118.09393,34.04276],[-118.09235,34.04208],[-118.09105,34.04048],[-118.09096,34.04064],[-118.0905,34.04046],[-118.09062,34.04022],[-118.08991,34.0398],[-118.08763,34.03915],[-118.08467,34.03862],[-118.08346,34.03791],[-118.08269,34.03815],[-118.08233,34.03774],[-118.08246,34.03629],[-118.08221,34.03627],[-118.0823,34.03491],[-118.08138,34.03487],[-118.0811,34.03436],[-118.08041,34.0347],[-118.07997,34.03534],[-118.0794,34.03501],[-118.07785,34.03562],[-118.07377,34.03177],[-118.07306,34.03066],[-118.0733,34.02772],[-118.09292,34.0137],[-118.09217,34.013],[-118.0951,34.01007],[-118.09582,34.00905],[-118.09561,34.00901],[-118.09619,34.00787],[-118.0966,34.00407],[-118.09742,34.0013],[-118.10343,33.99955],[-118.10397,33.99833],[-118.10375,33.99883],[-118.10614,33.99575],[-118.10801,33.99429],[-118.10721,33.99491],[-118.09898,34.00538],[-118.09421,34.01193],[-118.09263,34.01343],[-118.09283,34.01361],[-118.09431,34.01216],[-118.10028,34.00463],[-118.1052,33.99797],[-118.10888,33.99343],[-118.10911,33.99352],[-118.10795,33.9949],[-118.10799,33.99507],[-118.10867,33.99539],[-118.10957,33.9937],[-118.10984,33.99381],[-118.11162,33.99153],[-118.11197,33.99087],[-118.11274,33.99013],[-118.1131,33.99],[-118.11399,33.98929],[-118.11481,33.98805],[-118.11543,33.98638],[-118.11561,33.98389],[-118.1162,33.9823],[-118.11782,33.97912],[-118.12,33.97548],[-118.12219,33.97456],[-118.12283,33.97448],[-118.12373,33.97516],[-118.12637,33.97778],[-118.12658,33.97764],[-118.12964,33.98105],[-118.13408,33.98562],[-118.13321,33.98716],[-118.12852,33.98552],[-118.12518,33.99114],[-118.12976,33.99322],[-118.1284,33.99885],[-118.12882,33.99902],[-118.12848,33.99973],[-118.12886,33.99992],[-118.12853,34.00048],[-118.12953,34.00089],[-118.12893,34.00198],[-118.12962,34.0022],[-118.1299,34.00251],[-118.12732,34.00722],[-118.12783,34.00726],[-118.12779,34.00764],[-118.12741,34.00776],[-118.12718,34.01093],[-118.12665,34.01311],[-118.13108,34.01407],[-118.13082,34.01528],[-118.13052,34.01521],[-118.13033,34.01607],[-118.13971,34.02169],[-118.14159,34.02267],[-118.14321,34.02385],[-118.14279,34.02458],[-118.14288,34.02562],[-118.14349,34.026],[-118.14285,34.02676],[-118.14319,34.02697],[-118.1427,34.02744],[-118.14285,34.0304],[-118.1438,34.03039],[-118.14385,34.03087],[-118.14286,34.03083],[-118.14286,34.03221],[-118.14411,34.03233],[-118.14416,34.03346],[-118.11483,34.03351]],[[-118.08241,34.03001],[-118.08281,34.03005],[-118.08317,34.02981],[-118.08317,34.02921],[-118.08239,34.02874],[-118.08199,34.02895],[-118.08115,34.03007],[-118.08132,34.03021],[-118.08241,34.03001]],[[-118.09881,34.00739],[-118.09927,34.00713],[-118.10099,34.00477],[-118.1007,34.00463],[-118.10056,34.00499],[-118.09944,34.00605],[-118.09562,34.01105],[-118.09593,34.011],[-118.09881,34.00739]],[[-118.10303,33.99966],[-118.10047,34.00041],[-118.10084,34.00149],[-118.1016,34.00052],[-118.1018,34.00057],[-118.10084,34.00172],[-118.10088,34.00208],[-118.10122,34.00201],[-118.10303,33.99966]],[[-118.10302,34.00208],[-118.10315,34.00184],[-118.10294,34.00163],[-118.10258,34.00184],[-118.10096,34.00406],[-118.1008,34.00446],[-118.10117,34.00455],[-118.10302,34.00208]],[[-118.10513,33.99947],[-118.10483,33.99887],[-118.10303,34.00143],[-118.10323,34.0016],[-118.10513,33.99947]],[[-118.10778,33.99697],[-118.10857,33.9956],[-118.10787,33.99513],[-118.10766,33.99517],[-118.10559,33.99772],[-118.10501,33.99876],[-118.10528,33.9993],[-118.1055,33.99945],[-118.10778,33.99697]]],"type":"Polygon"},"properties":{"type":"boundary"},"type":"Feature"}],"type":"FeatureCollection"}