{"features":[{"geometry":{"coordinates":[[[-122.60351,38.58449],[-122.60285,38.58516],[-122.60231,38.58485],[-122.59952,38.58786],[-122.59543,38.59045],[-122.59718,38.59212],[-122.59755,38.59212],[-122.59809,38.59155],[-122.59773,38.59213],[-122.59849,38.59264],[-122.59853,38.59302],[-122.598,38.59371],[-122.59828,38.59398],[-122.59768,38.59437],[-122.59438,38.59113],[-122.58338,38.59807],[-122.58198,38.59564],[-122.57942,38.59258],[-122.57741,38.58903],[-122.57724,38.58898],[-122.57707,38.58926],[-122.57678,38.58915],[-122.57694,38.58887],[-122.57483,38.58808],[-122.57045,38.58521],[-122.56415,38.58612],[-122.56279,38.58588],[-122.5611,38.58536],[-122.56662,38.57536],[-122.55619,38.57106],[-122.55476,38.5703],[-122.55522,38.56864],[-122.55737,38.56925],[-122.55817,38.57001],[-122.55838,38.57062],[-122.55884,38.57117],[-122.55964,38.57149],[-122.56006,38.57209],[-122.56157,38.57222],[-122.56241,38.57266],[-122.56297,38.57268],[-122.56319,38.57329],[-122.56392,38.5734],[-122.56415,38.57363],[-122.56418,38.57403],[-122.56681,38.57499],[-122.56883,38.571],[-122.57105,38.56734],[-122.57609,38.56928],[-122.59027,38.57399],[-122.60022,38.57854],[-122.60427,38.58083],[-122.60429,38.58366],[-122.60351,38.58449]],[[-122.55537,38.57025],[-122.55624,38.57063],[-122.55692,38.56945],[-122.55547,38.56904],[-122.5552,38.56985],[-122.55537,38.57025]],[[-122.557,38.57101],[-122.5574,38.57049],[-122.5575,38.5698],[-122.5572,38.56961],[-122.55651,38.57073],[-122.557,38.57101]],[[-122.55956,38.57171],[-122.55911,38.57149],[-122.5589,38.57166],[-122.55989,38.57223],[-122.55956,38.57171]],[[-122.56087,38.57234],[-122.56005,38.57222],[-122.56103,38.57267],[-122.56116,38.57249],[-122.56087,38.57234]],[[-122.56166,38.57252],[-122.56116,38.57235],[-122.56116,38.57274],[-122.56229,38.57317],[-122.56229,38.57297],[-122.56166,38.57252]],[[-122.56276,38.57311],[-122.56252,38.57307],[-122.56244,38.57325],[-122.5641,38.57392],[-122.56393,38.57349],[-122.5633,38.5734],[-122.56306,38.57314],[-122.56276,38.57311]],[[-122.56665,38.57562],[-122.56627,38.57648],[-122.5683,38.57728],[-122.56872,38.57636],[-122.56665,38.57562]],[[-122.56909,38.5818],[-122.5686,38.58149],[-122.56878,38.58215],[-122.5692,38.58198],[-122.56909,38.5818]],[[-122.56987,38.5852],[-122.56975,38.58501],[-122.56867,38.5846],[-122.56866,38.58485],[-122.5691,38.58497],[-122.56915,38.58515],[-122.56987,38.5852]],[[-122.57245,38.58154],[-122.57261,38.58148],[-122.572,38.58134],[-122.57245,38.58154]],[[-122.58832,38.58501],[-122.58781,38.58482],[-122.58831,38.58536],[-122.58835,38.58595],[-122.58863,38.5857],[-122.5886,38.58544],[-122.58897,38.58539],[-122.58832,38.58501]],[[-122.59332,38.58643],[-122.59267,38.58606],[-122.59243,38.58649],[-122.59302,38.58676],[-122.59332,38.58643]]],"type":"Polygon"},"properties":{"type":"boundary"},"type":"Feature"}],"type":"FeatureCollection"}