{"features":[{"geometry":{"coordinates":[[[-122.60159,38.58425],[-122.60217,38.58348],[-122.60332,38.58348],[-122.60382,38.58416],[-122.60351,38.58449],[-122.60297,38.58504],[-122.60264,38.58504],[-122.60243,38.58492],[-122.60231,38.58485],[-122.60215,38.58502],[-122.60159,38.58425]]],"type":"Polygon"},"properties":{"bbox":{"roads":{"area":1204.55,"pct":5.11}},"city":{"roads":{"area":718.95,"pct":3.05}},"id":"hex:3564:24657"},"type":"Feature"},{"geometry":{"coordinates":[[[-122.60297,38.58504],[-122.60285,38.58516],[-122.60264,38.58504],[-122.60297,38.58504]]],"type":"Polygon"},"properties":{"bbox":{"roads":{"area":66.3,"pct":33.35}},"id":"hex:3564:24658"},"type":"Feature"},{"geometry":{"coordinates":[[[-122.60162,38.57957],[-122.60047,38.57957],[-122.5999,38.57878],[-122.60011,38.5785],[-122.60017,38.57852],[-122.60022,38.57854],[-122.60026,38.57858],[-122.6003,38.57861],[-122.60032,38.57862],[-122.60033,38.57864],[-122.60035,38.5787],[-122.60048,38.57877],[-122.6013,38.57922],[-122.60171,38.57944],[-122.60162,38.57957]]],"type":"Polygon"},"properties":{"bbox":{"roads":{"area":470.86,"pct":5.48}},"city":{"roads":{"area":183.23,"pct":2.13}},"id":"hex:3565:24653"},"type":"Feature"},{"geometry":{"coordinates":[[[-122.59989,38.58035],[-122.60046,38.58113],[-122.60161,38.58113],[-122.60219,38.58035],[-122.60162,38.57957],[-122.60047,38.57957],[-122.59989,38.58035]]],"type":"Polygon"},"properties":{"bbox":{"roads":{"area":247.07,"pct":0.95}},"city_same":1,"id":"hex:3565:24654"},"type":"Feature"},{"geometry":{"coordinates":[[[-122.59988,38.58191],[-122.60045,38.58269],[-122.6016,38.58269],[-122.60218,38.58191],[-122.60161,38.58113],[-122.60046,38.58113],[-122.59988,38.58191]]],"type":"Polygon"},"properties":{"bbox":{"roads":{"area":641.23,"pct":2.47}},"city_same":1,"id":"hex:3565:24655"},"type":"Feature"},{"geometry":{"coordinates":[[[-122.59987,38.58347],[-122.60044,38.58425],[-122.60159,38.58425],[-122.60217,38.58348],[-122.6016,38.58269],[-122.60045,38.58269],[-122.59987,38.58347]]],"type":"Polygon"},"properties":{"bbox":{"roads":{"area":1437.74,"pct":5.53}},"city":{"roads":{"area":345.95,"pct":1.33}},"id":"hex:3565:24656"},"type":"Feature"},{"geometry":{"coordinates":[[[-122.60043,38.58581],[-122.59986,38.58503],[-122.60044,38.58425],[-122.60159,38.58425],[-122.60215,38.58502],[-122.60148,38.58572],[-122.60139,38.58581],[-122.60043,38.58581]]],"type":"Polygon"},"properties":{"bbox":{"roads":{"area":2166.94,"pct":8.62}},"city":{"roads":{"area":1758.39,"pct":7}},"id":"hex:3565:24657"},"type":"Feature"},{"geometry":{"coordinates":[[[-122.59986,38.58659],[-122.60043,38.58581],[-122.60139,38.58581],[-122.6002,38.58706],[-122.59986,38.58659]]],"type":"Polygon"},"properties":{"bbox":{"roads":{"area":738.82,"pct":8.87}},"city_same":1,"id":"hex:3565:24658"},"type":"Feature"},{"geometry":{"coordinates":[[[-122.5999,38.57878],[-122.59875,38.57878],[-122.59818,38.578],[-122.59841,38.5777],[-122.5997,38.5783],[-122.60002,38.57845],[-122.60011,38.57849],[-122.60011,38.5785],[-122.5999,38.57878]]],"type":"Polygon"},"properties":{"bbox":{"roads":{"area":171.93,"pct":1.58}},"city_same":1,"id":"hex:3566:24653"},"type":"Feature"},{"geometry":{"coordinates":[[[-122.59817,38.57956],[-122.59874,38.58034],[-122.59989,38.58035],[-122.60047,38.57957],[-122.5999,38.57878],[-122.59875,38.57878],[-122.59817,38.57956]]],"type":"Polygon"},"properties":{"bbox":{"roads":{"area":2140.4,"pct":8.24}},"city":{"roads":{"area":833.71,"pct":3.21}},"id":"hex:3566:24654"},"type":"Feature"},{"geometry":{"coordinates":[[[-122.59816,38.58112],[-122.59873,38.5819],[-122.59988,38.58191],[-122.60046,38.58113],[-122.59989,38.58035],[-122.59874,38.58034],[-122.59816,38.58112]]],"type":"Polygon"},"properties":{"bbox":{"parking":{"area":10.01,"pct":0.04},"roads":{"area":800.74,"pct":3.08}},"city_same":1,"id":"hex:3566:24655"},"type":"Feature"},{"geometry":{"coordinates":[[[-122.59816,38.58268],[-122.59872,38.58346],[-122.59987,38.58347],[-122.60045,38.58269],[-122.59988,38.58191],[-122.59873,38.5819],[-122.59816,38.58268]]],"type":"Polygon"},"properties":{"bbox":{"roads":{"area":2571.27,"pct":9.9}},"city":{"roads":{"area":1331.88,"pct":5.13}},"id":"hex:3566:24656"},"type":"Feature"},{"geometry":{"coordinates":[[[-122.59814,38.5858],[-122.59871,38.58659],[-122.59986,38.58659],[-122.60043,38.58581],[-122.59986,38.58503],[-122.59872,38.58502],[-122.59814,38.5858]]],"type":"Polygon"},"properties":{"bbox":{"roads":{"area":1305.91,"pct":5.03}},"city_same":1,"id":"hex:3566:24658"},"type":"Feature"},{"geometry":{"coordinates":[[[-122.5987,38.58815],[-122.59813,38.58736],[-122.59871,38.58659],[-122.59986,38.58659],[-122.6002,38.58706],[-122.5999,38.58737],[-122.59978,38.58749],[-122.59946,38.58783],[-122.59952,38.58786],[-122.59919,38.58807],[-122.59915,38.58812],[-122.59909,38.58815],[-122.5987,38.58815]]],"type":"Polygon"},"properties":{"bbox":{"roads":{"area":461.71,"pct":2.24}},"city_same":1,"id":"hex:3566:24659"},"type":"Feature"},{"geometry":{"coordinates":[[[-122.5987,38.58815],[-122.59909,38.58815],[-122.59834,38.58863],[-122.5987,38.58815]]],"type":"Polygon"},"properties":{"bbox":{"roads":{"area":190.88,"pct":20.72}},"city_same":1,"id":"hex:3566:24660"},"type":"Feature"},{"geometry":{"coordinates":[[[-122.59645,38.57877],[-122.59702,38.57956],[-122.59817,38.57956],[-122.59875,38.57878],[-122.59818,38.578],[-122.59703,38.57799],[-122.59645,38.57877]]],"type":"Polygon"},"properties":{"bbox":{"roads":{"area":396.58,"pct":1.53}},"city_same":1,"id":"hex:3567:24653"},"type":"Feature"},{"geometry":{"coordinates":[[[-122.59645,38.58033],[-122.59702,38.58112],[-122.59816,38.58112],[-122.59874,38.58034],[-122.59817,38.57956],[-122.59702,38.57956],[-122.59645,38.58033]]],"type":"Polygon"},"properties":{"bbox":{"parking":{"area":4358.72,"pct":16.78},"roads":{"area":2897.21,"pct":11.15}},"city":{"parking":{"area":4358.72,"pct":16.78},"roads":{"area":1602.27,"pct":6.17}},"id":"hex:3567:24654"},"type":"Feature"},{"geometry":{"coordinates":[[[-122.59644,38.58189],[-122.59701,38.58268],[-122.59816,38.58268],[-122.59873,38.5819],[-122.59816,38.58112],[-122.59702,38.58112],[-122.59644,38.58189]]],"type":"Polygon"},"properties":{"bbox":{"roads":{"area":2714.31,"pct":10.45}},"city":{"roads":{"area":1369.88,"pct":5.27}},"id":"hex:3567:24655"},"type":"Feature"},{"geometry":{"coordinates":[[[-122.59643,38.58346],[-122.597,38.58424],[-122.59815,38.58424],[-122.59872,38.58346],[-122.59816,38.58268],[-122.59701,38.58268],[-122.59643,38.58346]]],"type":"Polygon"},"properties":{"bbox":{"roads":{"area":217.26,"pct":0.84}},"city_same":1,"id":"hex:3567:24656"},"type":"Feature"},{"geometry":{"coordinates":[[[-122.59697,38.58892],[-122.5964,38.58814],[-122.59698,38.58736],[-122.59813,38.58736],[-122.5987,38.58815],[-122.59834,38.58863],[-122.59787,38.58892],[-122.59697,38.58892]]],"type":"Polygon"},"properties":{"bbox":{"roads":{"area":401.24,"pct":1.57}},"city_same":1,"id":"hex:3567:24659"},"type":"Feature"},{"geometry":{"coordinates":[[[-122.59639,38.5897],[-122.59697,38.58892],[-122.59787,38.58892],[-122.59769,38.58904],[-122.59648,38.58981],[-122.59639,38.5897]]],"type":"Polygon"},"properties":{"bbox":{"roads":{"area":458.15,"pct":10.12}},"city_same":1,"id":"hex:3567:24660"},"type":"Feature"},{"geometry":{"coordinates":[[[-122.59809,38.59361],[-122.59695,38.5936],[-122.59638,38.59282],[-122.59695,38.59204],[-122.5971,38.59204],[-122.59718,38.59212],[-122.59755,38.59212],[-122.59759,38.59208],[-122.59762,38.59204],[-122.5978,38.59205],[-122.59773,38.59213],[-122.5978,38.59216],[-122.59806,38.59229],[-122.59814,38.59232],[-122.5982,38.59238],[-122.59829,38.59246],[-122.59841,38.59257],[-122.59849,38.59264],[-122.59849,38.59267],[-122.59852,38.59292],[-122.59853,38.59302],[-122.59852,38.59303],[-122.59809,38.59361]]],"type":"Polygon"},"properties":{"bbox":{"roads":{"area":555.11,"pct":2.3}},"city_same":1,"id":"hex:3567:24662"},"type":"Feature"},{"geometry":{"coordinates":[[[-122.59695,38.5936],[-122.59809,38.59361],[-122.5981,38.59361],[-122.598,38.59371],[-122.59821,38.59391],[-122.59828,38.59398],[-122.59802,38.59415],[-122.59768,38.59437],[-122.59765,38.59434],[-122.59741,38.59411],[-122.59739,38.59409],[-122.59693,38.59363],[-122.59695,38.5936]]],"type":"Polygon"},"properties":{"bbox":{"roads":{"area":169.75,"pct":3.04}},"city_same":1,"id":"hex:3567:24663"},"type":"Feature"},{"geometry":{"coordinates":[[[-122.59646,38.57721],[-122.59532,38.57721],[-122.59475,38.57643],[-122.59499,38.57609],[-122.59517,38.57617],[-122.5967,38.57689],[-122.59646,38.57721]]],"type":"Polygon"},"properties":{"bbox":{"roads":{"area":170.14,"pct":1.47}},"city_same":1,"id":"hex:3568:24652"},"type":"Feature"},{"geometry":{"coordinates":[[[-122.59474,38.57799],[-122.59531,38.57877],[-122.59645,38.57877],[-122.59703,38.57799],[-122.59646,38.57721],[-122.59532,38.57721],[-122.59474,38.57799]]],"type":"Polygon"},"properties":{"bbox":{"roads":{"area":354.07,"pct":1.36}},"city_same":1,"id":"hex:3568:24653"},"type":"Feature"},{"geometry":{"coordinates":[[[-122.59473,38.57955],[-122.5953,38.58033],[-122.59645,38.58033],[-122.59702,38.57956],[-122.59645,38.57877],[-122.59531,38.57877],[-122.59473,38.57955]]],"type":"Polygon"},"properties":{"bbox":{"roads":{"area":1595.72,"pct":6.14}},"city_same":1,"id":"hex:3568:24654"},"type":"Feature"},{"geometry":{"coordinates":[[[-122.59472,38.58111],[-122.59529,38.58189],[-122.59644,38.58189],[-122.59702,38.58112],[-122.59645,38.58033],[-122.5953,38.58033],[-122.59472,38.58111]]],"type":"Polygon"},"properties":{"bbox":{"roads":{"area":2935.54,"pct":11.3}},"city":{"roads":{"area":1235.51,"pct":4.76}},"id":"hex:3568:24655"},"type":"Feature"},{"geometry":{"coordinates":[[[-122.59471,38.58267],[-122.59528,38.58345],[-122.59643,38.58346],[-122.59701,38.58268],[-122.59644,38.58189],[-122.59529,38.58189],[-122.59471,38.58267]]],"type":"Polygon"},"properties":{"bbox":{"roads":{"area":2033.92,"pct":7.83}},"city_same":1,"id":"hex:3568:24656"},"type":"Feature"},{"geometry":{"coordinates":[[[-122.5947,38.58423],[-122.59527,38.58501],[-122.59642,38.58502],[-122.597,38.58424],[-122.59643,38.58346],[-122.59528,38.58345],[-122.5947,38.58423]]],"type":"Polygon"},"properties":{"bbox":{"roads":{"area":74.62,"pct":0.29}},"city_same":1,"id":"hex:3568:24657"},"type":"Feature"},{"geometry":{"coordinates":[[[-122.59468,38.58891],[-122.59525,38.5897],[-122.59639,38.5897],[-122.59697,38.58892],[-122.5964,38.58814],[-122.59525,38.58813],[-122.59468,38.58891]]],"type":"Polygon"},"properties":{"bbox":{"roads":{"area":554.57,"pct":2.13}},"city_same":1,"id":"hex:3568:24660"},"type":"Feature"},{"geometry":{"coordinates":[[[-122.59524,38.59126],[-122.59467,38.59047],[-122.59525,38.5897],[-122.59639,38.5897],[-122.59648,38.58981],[-122.59616,38.59001],[-122.59568,38.5903],[-122.59544,38.59044],[-122.59543,38.59045],[-122.59628,38.59126],[-122.59524,38.59126]]],"type":"Polygon"},"properties":{"bbox":{"roads":{"area":780.66,"pct":5.24}},"city_same":1,"id":"hex:3568:24661"},"type":"Feature"},{"geometry":{"coordinates":[[[-122.59695,38.59204],[-122.59638,38.59282],[-122.59611,38.59282],[-122.59493,38.59167],[-122.59524,38.59126],[-122.59628,38.59126],[-122.59662,38.59158],[-122.59695,38.59204]]],"type":"Polygon"},"properties":{"bbox":{"roads":{"area":737.88,"pct":3.91}},"city_same":1,"id":"hex:3568:24662"},"type":"Feature"},{"geometry":{"coordinates":[[[-122.59638,38.59282],[-122.59695,38.5936],[-122.59693,38.59363],[-122.5967,38.5934],[-122.59611,38.59282],[-122.59638,38.59282]]],"type":"Polygon"},"properties":{"bbox":{"roads":{"area":136.08,"pct":11.72}},"city_same":1,"id":"hex:3568:24663"},"type":"Feature"},{"geometry":{"coordinates":[[[-122.59475,38.57643],[-122.5936,38.57642],[-122.59303,38.57564],[-122.59328,38.5753],[-122.59437,38.5758],[-122.59499,38.57609],[-122.59475,38.57643]]],"type":"Polygon"},"properties":{"bbox":{"roads":{"area":101.36,"pct":0.85}},"city_same":1,"id":"hex:3569:24651"},"type":"Feature"},{"geometry":{"coordinates":[[[-122.59302,38.5772],[-122.59359,38.57798],[-122.59474,38.57799],[-122.59532,38.57721],[-122.59475,38.57643],[-122.5936,38.57642],[-122.59302,38.5772]]],"type":"Polygon"},"properties":{"bbox":{"roads":{"area":854.69,"pct":3.29}},"city_same":1,"id":"hex:3569:24652"},"type":"Feature"},{"geometry":{"coordinates":[[[-122.59301,38.57876],[-122.59358,38.57954],[-122.59473,38.57955],[-122.59531,38.57877],[-122.59474,38.57799],[-122.59359,38.57798],[-122.59301,38.57876]]],"type":"Polygon"},"properties":{"bbox":{"roads":{"area":953.59,"pct":3.67}},"city_same":1,"id":"hex:3569:24653"},"type":"Feature"},{"geometry":{"coordinates":[[[-122.593,38.58032],[-122.59357,38.5811],[-122.59472,38.58111],[-122.5953,38.58033],[-122.59473,38.57955],[-122.59358,38.57954],[-122.593,38.58032]]],"type":"Polygon"},"properties":{"bbox":{"roads":{"area":2091.92,"pct":8.05}},"city":{"roads":{"area":858.08,"pct":3.3}},"id":"hex:3569:24654"},"type":"Feature"},{"geometry":{"coordinates":[[[-122.59299,38.58188],[-122.59356,38.58267],[-122.59471,38.58267],[-122.59529,38.58189],[-122.59472,38.58111],[-122.59357,38.5811],[-122.59299,38.58188]]],"type":"Polygon"},"properties":{"bbox":{"roads":{"area":2051.76,"pct":7.9}},"city_same":1,"id":"hex:3569:24655"},"type":"Feature"},{"geometry":{"coordinates":[[[-122.59298,38.58344],[-122.59355,38.58423],[-122.5947,38.58423],[-122.59528,38.58345],[-122.59471,38.58267],[-122.59356,38.58267],[-122.59298,38.58344]]],"type":"Polygon"},"properties":{"bbox":{"roads":{"area":2876.43,"pct":11.07}},"city_same":1,"id":"hex:3569:24656"},"type":"Feature"},{"geometry":{"coordinates":[[[-122.59298,38.585],[-122.59355,38.58579],[-122.59469,38.58579],[-122.59527,38.58501],[-122.5947,38.58423],[-122.59355,38.58423],[-122.59298,38.585]]],"type":"Polygon"},"properties":{"bbox":{"roads":{"area":1517.17,"pct":5.84}},"city_same":1,"id":"hex:3569:24657"},"type":"Feature"},{"geometry":{"coordinates":[[[-122.59295,38.58969],[-122.59352,38.59047],[-122.59467,38.59047],[-122.59525,38.5897],[-122.59468,38.58891],[-122.59353,38.58891],[-122.59295,38.58969]]],"type":"Polygon"},"properties":{"bbox":{"roads":{"area":134.6,"pct":0.52}},"city_same":1,"id":"hex:3569:24660"},"type":"Feature"},{"geometry":{"coordinates":[[[-122.59294,38.59125],[-122.59352,38.59047],[-122.59467,38.59047],[-122.59524,38.59126],[-122.59493,38.59167],[-122.59438,38.59113],[-122.59334,38.59179],[-122.59294,38.59125]]],"type":"Polygon"},"properties":{"bbox":{"roads":{"area":1486.06,"pct":8.49}},"city_same":1,"id":"hex:3569:24661"},"type":"Feature"},{"geometry":{"coordinates":[[[-122.5913,38.57641],[-122.59187,38.5772],[-122.59302,38.5772],[-122.5936,38.57642],[-122.59303,38.57564],[-122.59188,38.57564],[-122.5913,38.57641]]],"type":"Polygon"},"properties":{"bbox":{"roads":{"area":709.51,"pct":2.73}},"city_same":1,"id":"hex:3570:24652"},"type":"Feature"},{"geometry":{"coordinates":[[[-122.59129,38.57797],[-122.59186,38.57876],[-122.59301,38.57876],[-122.59359,38.57798],[-122.59302,38.5772],[-122.59187,38.5772],[-122.59129,38.57797]]],"type":"Polygon"},"properties":{"bbox":{"roads":{"area":410.11,"pct":1.58}},"city_same":1,"id":"hex:3570:24653"},"type":"Feature"},{"geometry":{"coordinates":[[[-122.59128,38.57954],[-122.59185,38.58032],[-122.593,38.58032],[-122.59358,38.57954],[-122.59301,38.57876],[-122.59186,38.57876],[-122.59128,38.57954]]],"type":"Polygon"},"properties":{"bbox":{"roads":{"area":1835.18,"pct":7.06}},"city":{"roads":{"area":539.11,"pct":2.08}},"id":"hex:3570:24654"},"type":"Feature"},{"geometry":{"coordinates":[[[-122.59128,38.5811],[-122.59184,38.58188],[-122.59299,38.58188],[-122.59357,38.5811],[-122.593,38.58032],[-122.59185,38.58032],[-122.59128,38.5811]]],"type":"Polygon"},"properties":{"bbox":{"roads":{"area":2267.82,"pct":8.73}},"city_same":1,"id":"hex:3570:24655"},"type":"Feature"},{"geometry":{"coordinates":[[[-122.59127,38.58266],[-122.59184,38.58344],[-122.59298,38.58344],[-122.59356,38.58267],[-122.59299,38.58188],[-122.59184,38.58188],[-122.59127,38.58266]]],"type":"Polygon"},"properties":{"bbox":{"roads":{"area":2861.26,"pct":11.01}},"city_same":1,"id":"hex:3570:24656"},"type":"Feature"},{"geometry":{"coordinates":[[[-122.59126,38.58422],[-122.59183,38.585],[-122.59298,38.585],[-122.59355,38.58423],[-122.59298,38.58344],[-122.59184,38.58344],[-122.59126,38.58422]]],"type":"Polygon"},"properties":{"bbox":{"roads":{"area":1442.39,"pct":5.55}},"city_same":1,"id":"hex:3570:24657"},"type":"Feature"},{"geometry":{"coordinates":[[[-122.59182,38.58656],[-122.59125,38.58578],[-122.59183,38.585],[-122.59298,38.585],[-122.59355,38.58579],[-122.59316,38.5863],[-122.59275,38.58609],[-122.59272,38.58607],[-122.59267,38.58606],[-122.59261,38.58608],[-122.59257,38.5861],[-122.59256,38.58612],[-122.59241,38.58635],[-122.5924,38.58638],[-122.59239,38.58645],[-122.5924,38.58647],[-122.59243,38.58649],[-122.59257,38.58656],[-122.59182,38.58656]]],"type":"Polygon"},"properties":{"bbox":{"roads":{"area":434.49,"pct":1.85}},"city_same":1,"id":"hex:3570:24658"},"type":"Feature"},{"geometry":{"coordinates":[[[-122.59354,38.58735],[-122.59296,38.58813],[-122.59181,38.58812],[-122.59124,38.58734],[-122.59182,38.58656],[-122.59257,38.58656],[-122.59285,38.58672],[-122.59292,38.58675],[-122.59296,38.58677],[-122.59302,38.58676],[-122.59309,38.58673],[-122.59309,38.58673],[-122.59354,38.58735]]],"type":"Polygon"},"properties":{"bbox":{"roads":{"area":91.67,"pct":0.36}},"city_same":1,"id":"hex:3570:24659"},"type":"Feature"},{"geometry":{"coordinates":[[[-122.59123,38.5889],[-122.5918,38.58968],[-122.59295,38.58969],[-122.59353,38.58891],[-122.59296,38.58813],[-122.59181,38.58812],[-122.59123,38.5889]]],"type":"Polygon"},"properties":{"bbox":{"roads":{"area":25.62,"pct":0.1}},"city_same":1,"id":"hex:3570:24660"},"type":"Feature"},{"geometry":{"coordinates":[[[-122.59122,38.59046],[-122.59179,38.59124],[-122.59294,38.59125],[-122.59352,38.59047],[-122.59295,38.58969],[-122.5918,38.58968],[-122.59122,38.59046]]],"type":"Polygon"},"properties":{"bbox":{"roads":{"area":1086.25,"pct":4.18}},"city_same":1,"id":"hex:3570:24661"},"type":"Feature"},{"geometry":{"coordinates":[[[-122.59121,38.59202],[-122.59179,38.59124],[-122.59294,38.59125],[-122.59334,38.59179],[-122.59177,38.59279],[-122.59121,38.59202]]],"type":"Polygon"},"properties":{"bbox":{"roads":{"area":333.84,"pct":1.77}},"city_same":1,"id":"hex:3570:24662"},"type":"Feature"},{"geometry":{"coordinates":[[[-122.58958,38.57719],[-122.59014,38.57797],[-122.59129,38.57797],[-122.59187,38.5772],[-122.5913,38.57641],[-122.59015,38.57641],[-122.58958,38.57719]]],"type":"Polygon"},"properties":{"bbox":{"roads":{"area":1016.38,"pct":3.91}},"city_same":1,"id":"hex:3571:24652"},"type":"Feature"},{"geometry":{"coordinates":[[[-122.58957,38.57875],[-122.59014,38.57953],[-122.59128,38.57954],[-122.59186,38.57876],[-122.59129,38.57797],[-122.59014,38.57797],[-122.58957,38.57875]]],"type":"Polygon"},"properties":{"bbox":{"roads":{"area":2666.35,"pct":10.26}},"city":{"roads":{"area":1378.93,"pct":5.31}},"id":"hex:3571:24653"},"type":"Feature"},{"geometry":{"coordinates":[[[-122.58956,38.58031],[-122.59013,38.58109],[-122.59128,38.5811],[-122.59185,38.58032],[-122.59128,38.57954],[-122.59014,38.57953],[-122.58956,38.58031]]],"type":"Polygon"},"properties":{"bbox":{"roads":{"area":1320.91,"pct":5.08}},"city_same":1,"id":"hex:3571:24654"},"type":"Feature"},{"geometry":{"coordinates":[[[-122.58955,38.58187],[-122.59012,38.58265],[-122.59127,38.58266],[-122.59184,38.58188],[-122.59128,38.5811],[-122.59013,38.58109],[-122.58955,38.58187]]],"type":"Polygon"},"properties":{"bbox":{"roads":{"area":2254.04,"pct":8.68}},"city_same":1,"id":"hex:3571:24655"},"type":"Feature"},{"geometry":{"coordinates":[[[-122.58954,38.58343],[-122.59011,38.58421],[-122.59126,38.58422],[-122.59184,38.58344],[-122.59127,38.58266],[-122.59012,38.58265],[-122.58954,38.58343]]],"type":"Polygon"},"properties":{"bbox":{"roads":{"area":1893.41,"pct":7.29}},"city_same":1,"id":"hex:3571:24656"},"type":"Feature"},{"geometry":{"coordinates":[[[-122.58952,38.58655],[-122.59009,38.58734],[-122.59124,38.58734],[-122.59182,38.58656],[-122.59125,38.58578],[-122.5901,38.58578],[-122.58952,38.58655]]],"type":"Polygon"},"properties":{"bbox":{"roads":{"area":1993.49,"pct":7.67}},"city_same":1,"id":"hex:3571:24658"},"type":"Feature"},{"geometry":{"coordinates":[[[-122.58951,38.58811],[-122.59008,38.5889],[-122.59123,38.5889],[-122.59181,38.58812],[-122.59124,38.58734],[-122.59009,38.58734],[-122.58951,38.58811]]],"type":"Polygon"},"properties":{"bbox":{"roads":{"area":1787.88,"pct":6.88}},"city_same":1,"id":"hex:3571:24659"},"type":"Feature"},{"geometry":{"coordinates":[[[-122.5895,38.58968],[-122.59007,38.59046],[-122.59122,38.59046],[-122.5918,38.58968],[-122.59123,38.5889],[-122.59008,38.5889],[-122.5895,38.58968]]],"type":"Polygon"},"properties":{"bbox":{"roads":{"area":2004.27,"pct":7.71}},"city_same":1,"id":"hex:3571:24660"},"type":"Feature"},{"geometry":{"coordinates":[[[-122.5895,38.59124],[-122.59007,38.59202],[-122.59121,38.59202],[-122.59179,38.59124],[-122.59122,38.59046],[-122.59007,38.59046],[-122.5895,38.59124]]],"type":"Polygon"},"properties":{"bbox":{"roads":{"area":148.42,"pct":0.57}},"city_same":1,"id":"hex:3571:24661"},"type":"Feature"},{"geometry":{"coordinates":[[[-122.59006,38.59358],[-122.58949,38.5928],[-122.59007,38.59202],[-122.59121,38.59202],[-122.59177,38.59279],[-122.59163,38.59288],[-122.59147,38.59298],[-122.59145,38.59299],[-122.59134,38.59303],[-122.59118,38.59313],[-122.59097,38.59328],[-122.59049,38.59358],[-122.59006,38.59358]]],"type":"Polygon"},"properties":{"bbox":{"roads":{"area":523.87,"pct":2.27}},"city_same":1,"id":"hex:3571:24662"},"type":"Feature"},{"geometry":{"coordinates":[[[-122.59006,38.59358],[-122.59049,38.59358],[-122.58967,38.5941],[-122.59006,38.59358]]],"type":"Polygon"},"properties":{"bbox":{"roads":{"area":227.73,"pct":20.77}},"city_same":1,"id":"hex:3571:24663"},"type":"Feature"},{"geometry":{"coordinates":[[[-122.58787,38.57484],[-122.58844,38.57562],[-122.58958,38.57563],[-122.59016,38.57485],[-122.58959,38.57407],[-122.58845,38.57406],[-122.58787,38.57484]]],"type":"Polygon"},"properties":{"bbox":{"roads":{"area":536.37,"pct":2.06}},"city_same":1,"id":"hex:3572:24651"},"type":"Feature"},{"geometry":{"coordinates":[[[-122.58786,38.5764],[-122.58843,38.57718],[-122.58958,38.57719],[-122.59015,38.57641],[-122.58958,38.57563],[-122.58844,38.57562],[-122.58786,38.5764]]],"type":"Polygon"},"properties":{"bbox":{"roads":{"area":818.01,"pct":3.15}},"city_same":1,"id":"hex:3572:24652"},"type":"Feature"},{"geometry":{"coordinates":[[[-122.58785,38.57796],[-122.58842,38.57875],[-122.58957,38.57875],[-122.59014,38.57797],[-122.58958,38.57719],[-122.58843,38.57718],[-122.58785,38.57796]]],"type":"Polygon"},"properties":{"bbox":{"roads":{"area":2289.72,"pct":8.81}},"city":{"roads":{"area":1069.17,"pct":4.12}},"id":"hex:3572:24653"},"type":"Feature"},{"geometry":{"coordinates":[[[-122.58784,38.57952],[-122.58841,38.58031],[-122.58956,38.58031],[-122.59014,38.57953],[-122.58957,38.57875],[-122.58842,38.57875],[-122.58784,38.57952]]],"type":"Polygon"},"properties":{"bbox":{"roads":{"area":2593.77,"pct":9.98}},"city_same":1,"id":"hex:3572:24654"},"type":"Feature"},{"geometry":{"coordinates":[[[-122.58783,38.58108],[-122.5884,38.58187],[-122.58955,38.58187],[-122.59013,38.58109],[-122.58956,38.58031],[-122.58841,38.58031],[-122.58783,38.58108]]],"type":"Polygon"},"properties":{"bbox":{"roads":{"area":738.19,"pct":2.84}},"city_same":1,"id":"hex:3572:24655"},"type":"Feature"},{"geometry":{"coordinates":[[[-122.58781,38.58421],[-122.58838,38.58499],[-122.58953,38.58499],[-122.59011,38.58421],[-122.58954,38.58343],[-122.58839,38.58343],[-122.58781,38.58421]]],"type":"Polygon"},"properties":{"bbox":{"roads":{"area":34.05,"pct":0.13}},"city_same":1,"id":"hex:3572:24657"},"type":"Feature"},{"geometry":{"coordinates":[[[-122.58838,38.58499],[-122.58953,38.58499],[-122.5901,38.58578],[-122.58952,38.58655],[-122.58837,38.58655],[-122.5878,38.58577],[-122.58822,38.58521],[-122.58827,38.58527],[-122.58831,38.58536],[-122.58832,38.58539],[-122.58832,38.58544],[-122.58834,38.58549],[-122.58835,38.5855],[-122.58835,38.58554],[-122.58837,38.58557],[-122.58837,38.58559],[-122.58838,38.58559],[-122.58838,38.5856],[-122.58839,38.58561],[-122.58842,38.58565],[-122.58843,38.5857],[-122.58841,38.58573],[-122.58837,38.58579],[-122.58835,38.58582],[-122.58832,38.58586],[-122.58829,38.5859],[-122.58829,38.58593],[-122.58832,38.58595],[-122.58835,38.58595],[-122.58839,38.58594],[-122.58843,38.58591],[-122.58844,38.58589],[-122.58848,38.58588],[-122.58851,38.58585],[-122.58853,38.5858],[-122.58861,38.58574],[-122.58863,38.5857],[-122.58861,38.58565],[-122.58858,38.58561],[-122.58856,38.58559],[-122.58855,38.58556],[-122.58856,38.58552],[-122.5886,38.58544],[-122.58866,38.58543],[-122.58881,38.58542],[-122.58892,38.58541],[-122.58897,38.58539],[-122.589,38.58536],[-122.58899,38.58532],[-122.58897,38.58528],[-122.5889,38.58527],[-122.58882,38.58525],[-122.58874,38.58521],[-122.58872,38.58524],[-122.58869,38.58524],[-122.58864,38.58519],[-122.58855,38.58515],[-122.5884,38.58506],[-122.58839,38.58502],[-122.58839,38.58501],[-122.58837,38.585],[-122.58838,38.58499]]],"type":"Polygon"},"properties":{"bbox":{"roads":{"area":358.56,"pct":1.54}},"city_same":1,"id":"hex:3572:24658"},"type":"Feature"},{"geometry":{"coordinates":[[[-122.5878,38.58733],[-122.58836,38.58811],[-122.58951,38.58811],[-122.59009,38.58734],[-122.58952,38.58655],[-122.58837,38.58655],[-122.5878,38.58733]]],"type":"Polygon"},"properties":{"bbox":{"roads":{"area":865.04,"pct":3.33}},"city_same":1,"id":"hex:3572:24659"},"type":"Feature"},{"geometry":{"coordinates":[[[-122.58779,38.58889],[-122.58836,38.58967],[-122.5895,38.58968],[-122.59008,38.5889],[-122.58951,38.58811],[-122.58836,38.58811],[-122.58779,38.58889]]],"type":"Polygon"},"properties":{"bbox":{"roads":{"area":1509.6,"pct":5.81}},"city_same":1,"id":"hex:3572:24660"},"type":"Feature"},{"geometry":{"coordinates":[[[-122.58833,38.59435],[-122.58776,38.59357],[-122.58834,38.59279],[-122.58949,38.5928],[-122.59006,38.59358],[-122.58967,38.5941],[-122.58926,38.59436],[-122.58833,38.59435]]],"type":"Polygon"},"properties":{"bbox":{"roads":{"area":668.1,"pct":2.6}},"city_same":1,"id":"hex:3572:24663"},"type":"Feature"},{"geometry":{"coordinates":[[[-122.58775,38.59513],[-122.58833,38.59435],[-122.58926,38.59436],[-122.58784,38.59525],[-122.58775,38.59513]]],"type":"Polygon"},"properties":{"bbox":{"roads":{"area":614.81,"pct":12.98}},"city_same":1,"id":"hex:3572:24664"},"type":"Feature"},{"geometry":{"coordinates":[[[-122.58788,38.57328],[-122.58673,38.57328],[-122.58628,38.57267],[-122.58673,38.57281],[-122.58718,38.57296],[-122.58745,38.57304],[-122.5878,38.57316],[-122.58794,38.5732],[-122.58788,38.57328]]],"type":"Polygon"},"properties":{"bbox":{"roads":{"area":151.47,"pct":3.64}},"city_same":1,"id":"hex:3573:24649"},"type":"Feature"},{"geometry":{"coordinates":[[[-122.58615,38.57405],[-122.58672,38.57484],[-122.58787,38.57484],[-122.58845,38.57406],[-122.58788,38.57328],[-122.58673,38.57328],[-122.58615,38.57405]]],"type":"Polygon"},"properties":{"bbox":{"roads":{"area":561.89,"pct":2.16}},"city_same":1,"id":"hex:3573:24650"},"type":"Feature"},{"geometry":{"coordinates":[[[-122.58614,38.57562],[-122.58671,38.5764],[-122.58786,38.5764],[-122.58844,38.57562],[-122.58787,38.57484],[-122.58672,38.57484],[-122.58614,38.57562]]],"type":"Polygon"},"properties":{"bbox":{"roads":{"area":797.79,"pct":3.07}},"city_same":1,"id":"hex:3573:24651"},"type":"Feature"},{"geometry":{"coordinates":[[[-122.58613,38.57718],[-122.5867,38.57796],[-122.58785,38.57796],[-122.58843,38.57718],[-122.58786,38.5764],[-122.58671,38.5764],[-122.58613,38.57718]]],"type":"Polygon"},"properties":{"bbox":{"roads":{"area":2188.62,"pct":8.42}},"city":{"roads":{"area":950.04,"pct":3.66}},"id":"hex:3573:24652"},"type":"Feature"},{"geometry":{"coordinates":[[[-122.58612,38.57874],[-122.58669,38.57952],[-122.58784,38.57952],[-122.58842,38.57875],[-122.58785,38.57796],[-122.5867,38.57796],[-122.58612,38.57874]]],"type":"Polygon"},"properties":{"bbox":{"roads":{"area":2098.38,"pct":8.08}},"city_same":1,"id":"hex:3573:24653"},"type":"Feature"},{"geometry":{"coordinates":[[[-122.58611,38.5803],[-122.58668,38.58108],[-122.58783,38.58108],[-122.58841,38.58031],[-122.58784,38.57952],[-122.58669,38.57952],[-122.58611,38.5803]]],"type":"Polygon"},"properties":{"bbox":{"roads":{"area":1902.3,"pct":7.32}},"city_same":1,"id":"hex:3573:24654"},"type":"Feature"},{"geometry":{"coordinates":[[[-122.5861,38.58186],[-122.58667,38.58264],[-122.58782,38.58265],[-122.5884,38.58187],[-122.58783,38.58108],[-122.58668,38.58108],[-122.5861,38.58186]]],"type":"Polygon"},"properties":{"bbox":{"roads":{"area":472.86,"pct":1.82}},"city_same":1,"id":"hex:3573:24655"},"type":"Feature"},{"geometry":{"coordinates":[[[-122.5861,38.58342],[-122.58667,38.5842],[-122.58781,38.58421],[-122.58839,38.58343],[-122.58782,38.58265],[-122.58667,38.58264],[-122.5861,38.58342]]],"type":"Polygon"},"properties":{"bbox":{"roads":{"area":1310.46,"pct":5.04}},"city_same":1,"id":"hex:3573:24656"},"type":"Feature"},{"geometry":{"coordinates":[[[-122.5878,38.58577],[-122.58666,38.58576],[-122.58609,38.58498],[-122.58667,38.5842],[-122.58781,38.58421],[-122.58838,38.58499],[-122.58837,38.585],[-122.58837,38.585],[-122.58836,38.585],[-122.58834,38.585],[-122.58832,38.58501],[-122.58827,38.58501],[-122.58823,38.58498],[-122.58819,38.58498],[-122.58806,38.58491],[-122.58792,38.58487],[-122.58781,38.58482],[-122.58781,38.58486],[-122.58791,38.5849],[-122.58803,38.58499],[-122.58805,38.58501],[-122.58806,38.58503],[-122.5882,38.58518],[-122.58822,38.58521],[-122.5878,38.58577]]],"type":"Polygon"},"properties":{"bbox":{"roads":{"area":1160.36,"pct":4.56}},"city_same":1,"id":"hex:3573:24657"},"type":"Feature"},{"geometry":{"coordinates":[[[-122.58608,38.58654],[-122.58665,38.58732],[-122.5878,38.58733],[-122.58837,38.58655],[-122.5878,38.58577],[-122.58666,38.58576],[-122.58608,38.58654]]],"type":"Polygon"},"properties":{"bbox":{"roads":{"area":760.88,"pct":2.93}},"city_same":1,"id":"hex:3573:24658"},"type":"Feature"},{"geometry":{"coordinates":[[[-122.58607,38.5881],[-122.58664,38.58888],[-122.58779,38.58889],[-122.58836,38.58811],[-122.5878,38.58733],[-122.58665,38.58732],[-122.58607,38.5881]]],"type":"Polygon"},"properties":{"bbox":{"roads":{"area":1968.68,"pct":7.58},"sidewalks":{"area":86.6,"pct":0.33}},"city_same":1,"id":"hex:3573:24659"},"type":"Feature"},{"geometry":{"coordinates":[[[-122.58606,38.58966],[-122.58663,38.59045],[-122.58778,38.59045],[-122.58836,38.58967],[-122.58779,38.58889],[-122.58664,38.58888],[-122.58606,38.58966]]],"type":"Polygon"},"properties":{"bbox":{"roads":{"area":933.46,"pct":3.59}},"city_same":1,"id":"hex:3573:24660"},"type":"Feature"},{"geometry":{"coordinates":[[[-122.58604,38.59278],[-122.58661,38.59357],[-122.58776,38.59357],[-122.58834,38.59279],[-122.58777,38.59201],[-122.58662,38.59201],[-122.58604,38.59278]]],"type":"Polygon"},"properties":{"bbox":{"roads":{"area":259.37,"pct":1}},"city_same":1,"id":"hex:3573:24662"},"type":"Feature"},{"geometry":{"coordinates":[[[-122.58603,38.59435],[-122.5866,38.59513],[-122.58775,38.59513],[-122.58833,38.59435],[-122.58776,38.59357],[-122.58661,38.59357],[-122.58603,38.59435]]],"type":"Polygon"},"properties":{"bbox":{"roads":{"area":479.93,"pct":1.85}},"city_same":1,"id":"hex:3573:24663"},"type":"Feature"},{"geometry":{"coordinates":[[[-122.58602,38.59591],[-122.5866,38.59513],[-122.58775,38.59513],[-122.58784,38.59525],[-122.58627,38.59624],[-122.58602,38.59591]]],"type":"Polygon"},"properties":{"bbox":{"roads":{"area":791.27,"pct":8.4}},"city_same":1,"id":"hex:3573:24664"},"type":"Feature"},{"geometry":{"coordinates":[[[-122.58673,38.57328],[-122.58615,38.57405],[-122.585,38.57405],[-122.58443,38.57327],[-122.58501,38.57249],[-122.58575,38.57249],[-122.5862,38.57264],[-122.58628,38.57267],[-122.58673,38.57328]]],"type":"Polygon"},"properties":{"bbox":{"roads":{"area":0.04,"pct":0}},"city_same":1,"id":"hex:3574:24650"},"type":"Feature"},{"geometry":{"coordinates":[[[-122.58442,38.57483],[-122.58499,38.57561],[-122.58614,38.57562],[-122.58672,38.57484],[-122.58615,38.57405],[-122.585,38.57405],[-122.58442,38.57483]]],"type":"Polygon"},"properties":{"bbox":{"roads":{"area":76.32,"pct":0.29}},"city_same":1,"id":"hex:3574:24651"},"type":"Feature"},{"geometry":{"coordinates":[[[-122.58441,38.57639],[-122.58498,38.57717],[-122.58613,38.57718],[-122.58671,38.5764],[-122.58614,38.57562],[-122.58499,38.57561],[-122.58441,38.57639]]],"type":"Polygon"},"properties":{"bbox":{"roads":{"area":2232.7,"pct":8.59}},"city":{"roads":{"area":1270.36,"pct":4.89}},"id":"hex:3574:24652"},"type":"Feature"},{"geometry":{"coordinates":[[[-122.5844,38.57795],[-122.58497,38.57873],[-122.58612,38.57874],[-122.5867,38.57796],[-122.58613,38.57718],[-122.58498,38.57717],[-122.5844,38.57795]]],"type":"Polygon"},"properties":{"bbox":{"roads":{"area":2215.66,"pct":8.53}},"city":{"roads":{"area":2140.44,"pct":8.24}},"id":"hex:3574:24653"},"type":"Feature"},{"geometry":{"coordinates":[[[-122.5844,38.57951],[-122.58497,38.58029],[-122.58611,38.5803],[-122.58669,38.57952],[-122.58612,38.57874],[-122.58497,38.57873],[-122.5844,38.57951]]],"type":"Polygon"},"properties":{"bbox":{"roads":{"area":1199.42,"pct":4.62}},"city_same":1,"id":"hex:3574:24654"},"type":"Feature"},{"geometry":{"coordinates":[[[-122.58439,38.58107],[-122.58496,38.58185],[-122.5861,38.58186],[-122.58668,38.58108],[-122.58611,38.5803],[-122.58497,38.58029],[-122.58439,38.58107]]],"type":"Polygon"},"properties":{"bbox":{"roads":{"area":1509.71,"pct":5.81}},"city_same":1,"id":"hex:3574:24655"},"type":"Feature"},{"geometry":{"coordinates":[[[-122.58438,38.58263],[-122.58495,38.58342],[-122.5861,38.58342],[-122.58667,38.58264],[-122.5861,38.58186],[-122.58496,38.58185],[-122.58438,38.58263]]],"type":"Polygon"},"properties":{"bbox":{"roads":{"area":2381.25,"pct":9.17}},"city_same":1,"id":"hex:3574:24656"},"type":"Feature"},{"geometry":{"coordinates":[[[-122.58437,38.58419],[-122.58494,38.58498],[-122.58609,38.58498],[-122.58667,38.5842],[-122.5861,38.58342],[-122.58495,38.58342],[-122.58437,38.58419]]],"type":"Polygon"},"properties":{"bbox":{"roads":{"area":1232.12,"pct":4.74}},"city_same":1,"id":"hex:3574:24657"},"type":"Feature"},{"geometry":{"coordinates":[[[-122.58436,38.58575],[-122.58493,38.58654],[-122.58608,38.58654],[-122.58666,38.58576],[-122.58609,38.58498],[-122.58494,38.58498],[-122.58436,38.58575]]],"type":"Polygon"},"properties":{"bbox":{"roads":{"area":1268.72,"pct":4.88}},"city_same":1,"id":"hex:3574:24658"},"type":"Feature"},{"geometry":{"coordinates":[[[-122.58435,38.58732],[-122.58492,38.5881],[-122.58607,38.5881],[-122.58665,38.58732],[-122.58608,38.58654],[-122.58493,38.58654],[-122.58435,38.58732]]],"type":"Polygon"},"properties":{"bbox":{"roads":{"area":2678.71,"pct":10.31},"sidewalks":{"area":315.39,"pct":1.21}},"city_same":1,"id":"hex:3574:24659"},"type":"Feature"},{"geometry":{"coordinates":[[[-122.58434,38.58888],[-122.58491,38.58966],[-122.58606,38.58966],[-122.58664,38.58888],[-122.58607,38.5881],[-122.58492,38.5881],[-122.58434,38.58888]]],"type":"Polygon"},"properties":{"bbox":{"roads":{"area":1761.82,"pct":6.78},"sidewalks":{"area":628.22,"pct":2.42}},"city_same":1,"id":"hex:3574:24660"},"type":"Feature"},{"geometry":{"coordinates":[[[-122.58433,38.59044],[-122.5849,38.59122],[-122.58605,38.59122],[-122.58663,38.59045],[-122.58606,38.58966],[-122.58491,38.58966],[-122.58433,38.59044]]],"type":"Polygon"},"properties":{"bbox":{"roads":{"area":1793.11,"pct":6.9},"sidewalks":{"area":18.06,"pct":0.07}},"city_same":1,"id":"hex:3574:24661"},"type":"Feature"},{"geometry":{"coordinates":[[[-122.58432,38.592],[-122.58489,38.59278],[-122.58604,38.59278],[-122.58662,38.59201],[-122.58605,38.59122],[-122.5849,38.59122],[-122.58432,38.592]]],"type":"Polygon"},"properties":{"bbox":{"roads":{"area":1231.82,"pct":4.74}},"city_same":1,"id":"hex:3574:24662"},"type":"Feature"},{"geometry":{"coordinates":[[[-122.58431,38.59356],[-122.58488,38.59434],[-122.58603,38.59435],[-122.58661,38.59357],[-122.58604,38.59278],[-122.58489,38.59278],[-122.58431,38.59356]]],"type":"Polygon"},"properties":{"bbox":{"roads":{"area":286.53,"pct":1.1}},"city_same":1,"id":"hex:3574:24663"},"type":"Feature"},{"geometry":{"coordinates":[[[-122.58431,38.59512],[-122.58488,38.5959],[-122.58602,38.59591],[-122.5866,38.59513],[-122.58603,38.59435],[-122.58488,38.59434],[-122.58431,38.59512]]],"type":"Polygon"},"properties":{"bbox":{"roads":{"area":62.51,"pct":0.24}},"city_same":1,"id":"hex:3574:24664"},"type":"Feature"},{"geometry":{"coordinates":[[[-122.5843,38.59668],[-122.58488,38.5959],[-122.58602,38.59591],[-122.58627,38.59624],[-122.5847,38.59723],[-122.5843,38.59668]]],"type":"Polygon"},"properties":{"bbox":{"roads":{"area":567.01,"pct":3.99}},"city_same":1,"id":"hex:3574:24665"},"type":"Feature"},{"geometry":{"coordinates":[[[-122.58501,38.57249],[-122.58443,38.57327],[-122.58328,38.57326],[-122.58271,38.57248],[-122.58329,38.5717],[-122.58336,38.5717],[-122.58339,38.57171],[-122.58411,38.57195],[-122.58447,38.57207],[-122.58478,38.57217],[-122.58501,38.57249]]],"type":"Polygon"},"properties":{"bbox":{"roads":{"area":754.12,"pct":3.21}},"city_same":1,"id":"hex:3575:24649"},"type":"Feature"},{"geometry":{"coordinates":[[[-122.5827,38.5756],[-122.58327,38.57639],[-122.58441,38.57639],[-122.58499,38.57561],[-122.58442,38.57483],[-122.58327,38.57482],[-122.5827,38.5756]]],"type":"Polygon"},"properties":{"bbox":{"roads":{"area":887.02,"pct":3.41}},"city":{"roads":{"area":449.18,"pct":1.73}},"id":"hex:3575:24651"},"type":"Feature"},{"geometry":{"coordinates":[[[-122.58269,38.57716],[-122.58326,38.57795],[-122.5844,38.57795],[-122.58498,38.57717],[-122.58441,38.57639],[-122.58327,38.57639],[-122.58269,38.57716]]],"type":"Polygon"},"properties":{"bbox":{"roads":{"area":2504.34,"pct":9.64}},"city":{"roads":{"area":1909.36,"pct":7.35}},"id":"hex:3575:24652"},"type":"Feature"},{"geometry":{"coordinates":[[[-122.58268,38.57872],[-122.58325,38.57951],[-122.5844,38.57951],[-122.58497,38.57873],[-122.5844,38.57795],[-122.58326,38.57795],[-122.58268,38.57872]]],"type":"Polygon"},"properties":{"bbox":{"roads":{"area":1649.97,"pct":6.35}},"city_same":1,"id":"hex:3575:24653"},"type":"Feature"},{"geometry":{"coordinates":[[[-122.58267,38.58029],[-122.58324,38.58107],[-122.58439,38.58107],[-122.58497,38.58029],[-122.5844,38.57951],[-122.58325,38.57951],[-122.58267,38.58029]]],"type":"Polygon"},"properties":{"bbox":{"roads":{"area":1532.7,"pct":5.9}},"city_same":1,"id":"hex:3575:24654"},"type":"Feature"},{"geometry":{"coordinates":[[[-122.58266,38.58185],[-122.58323,38.58263],[-122.58438,38.58263],[-122.58496,38.58185],[-122.58439,38.58107],[-122.58324,38.58107],[-122.58266,38.58185]]],"type":"Polygon"},"properties":{"bbox":{"roads":{"area":2697.37,"pct":10.38}},"city_same":1,"id":"hex:3575:24655"},"type":"Feature"},{"geometry":{"coordinates":[[[-122.58265,38.58341],[-122.58322,38.58419],[-122.58437,38.58419],[-122.58495,38.58342],[-122.58438,38.58263],[-122.58323,38.58263],[-122.58265,38.58341]]],"type":"Polygon"},"properties":{"bbox":{"roads":{"area":2616.55,"pct":10.07}},"city_same":1,"id":"hex:3575:24656"},"type":"Feature"},{"geometry":{"coordinates":[[[-122.58264,38.58497],[-122.58321,38.58575],[-122.58436,38.58575],[-122.58494,38.58498],[-122.58437,38.58419],[-122.58322,38.58419],[-122.58264,38.58497]]],"type":"Polygon"},"properties":{"bbox":{"roads":{"area":3395.76,"pct":13.07}},"city_same":1,"id":"hex:3575:24657"},"type":"Feature"},{"geometry":{"coordinates":[[[-122.58263,38.58653],[-122.5832,38.58731],[-122.58435,38.58732],[-122.58493,38.58654],[-122.58436,38.58575],[-122.58321,38.58575],[-122.58263,38.58653]]],"type":"Polygon"},"properties":{"bbox":{"roads":{"area":1652.99,"pct":6.36},"sidewalks":{"area":159.29,"pct":0.61}},"city_same":1,"id":"hex:3575:24658"},"type":"Feature"},{"geometry":{"coordinates":[[[-122.58262,38.58809],[-122.58319,38.58887],[-122.58434,38.58888],[-122.58492,38.5881],[-122.58435,38.58732],[-122.5832,38.58731],[-122.58262,38.58809]]],"type":"Polygon"},"properties":{"bbox":{"roads":{"area":1349.38,"pct":5.19},"sidewalks":{"area":487.28,"pct":1.88}},"city_same":1,"id":"hex:3575:24659"},"type":"Feature"},{"geometry":{"coordinates":[[[-122.58261,38.58965],[-122.58318,38.59043],[-122.58433,38.59044],[-122.58491,38.58966],[-122.58434,38.58888],[-122.58319,38.58887],[-122.58261,38.58965]]],"type":"Polygon"},"properties":{"bbox":{"roads":{"area":218.44,"pct":0.84},"sidewalks":{"area":38.53,"pct":0.15}},"city_same":1,"id":"hex:3575:24660"},"type":"Feature"},{"geometry":{"coordinates":[[[-122.58261,38.59121],[-122.58318,38.59199],[-122.58432,38.592],[-122.5849,38.59122],[-122.58433,38.59044],[-122.58318,38.59043],[-122.58261,38.59121]]],"type":"Polygon"},"properties":{"bbox":{"roads":{"area":283.58,"pct":1.09}},"city_same":1,"id":"hex:3575:24661"},"type":"Feature"},{"geometry":{"coordinates":[[[-122.5826,38.59277],[-122.58317,38.59356],[-122.58431,38.59356],[-122.58489,38.59278],[-122.58432,38.592],[-122.58318,38.59199],[-122.5826,38.59277]]],"type":"Polygon"},"properties":{"bbox":{"roads":{"area":1387.86,"pct":5.34}},"city_same":1,"id":"hex:3575:24662"},"type":"Feature"},{"geometry":{"coordinates":[[[-122.58259,38.59433],[-122.58316,38.59512],[-122.58431,38.59512],[-122.58488,38.59434],[-122.58431,38.59356],[-122.58317,38.59356],[-122.58259,38.59433]]],"type":"Polygon"},"properties":{"bbox":{"roads":{"area":985.3,"pct":3.79}},"city_same":1,"id":"hex:3575:24663"},"type":"Feature"},{"geometry":{"coordinates":[[[-122.58258,38.59589],[-122.58315,38.59668],[-122.5843,38.59668],[-122.58488,38.5959],[-122.58431,38.59512],[-122.58316,38.59512],[-122.58258,38.59589]]],"type":"Polygon"},"properties":{"bbox":{"roads":{"area":1.53,"pct":0.01}},"city_same":1,"id":"hex:3575:24664"},"type":"Feature"},{"geometry":{"coordinates":[[[-122.58315,38.59668],[-122.5843,38.59668],[-122.5847,38.59723],[-122.58338,38.59807],[-122.58316,38.59764],[-122.58287,38.59706],[-122.58315,38.59668]]],"type":"Polygon"},"properties":{"bbox":{"roads":{"area":1586.36,"pct":10.43}},"city":{"roads":{"area":1025.94,"pct":6.75}},"id":"hex:3575:24665"},"type":"Feature"},{"geometry":{"coordinates":[[[-122.58099,38.57326],[-122.58156,38.57404],[-122.58271,38.57404],[-122.58328,38.57326],[-122.58271,38.57248],[-122.58157,38.57248],[-122.58099,38.57326]]],"type":"Polygon"},"properties":{"bbox":{"roads":{"area":985.27,"pct":3.79}},"city_same":1,"id":"hex:3576:24650"},"type":"Feature"},{"geometry":{"coordinates":[[[-122.58098,38.57482],[-122.58155,38.5756],[-122.5827,38.5756],[-122.58327,38.57482],[-122.58271,38.57404],[-122.58156,38.57404],[-122.58098,38.57482]]],"type":"Polygon"},"properties":{"bbox":{"roads":{"area":56.58,"pct":0.22}},"city":{"roads":{"area":54.92,"pct":0.21}},"id":"hex:3576:24651"},"type":"Feature"},{"geometry":{"coordinates":[[[-122.58097,38.57638],[-122.58154,38.57716],[-122.58269,38.57716],[-122.58327,38.57639],[-122.5827,38.5756],[-122.58155,38.5756],[-122.58097,38.57638]]],"type":"Polygon"},"properties":{"bbox":{"parking":{"area":89.85,"pct":0.35},"roads":{"area":3047.68,"pct":11.73}},"city":{"parking":{"area":89.85,"pct":0.35},"roads":{"area":1957.08,"pct":7.53}},"id":"hex:3576:24652"},"type":"Feature"},{"geometry":{"coordinates":[[[-122.58096,38.57794],[-122.58153,38.57872],[-122.58268,38.57872],[-122.58326,38.57795],[-122.58269,38.57716],[-122.58154,38.57716],[-122.58096,38.57794]]],"type":"Polygon"},"properties":{"bbox":{"roads":{"area":2501.69,"pct":9.63}},"city_same":1,"id":"hex:3576:24653"},"type":"Feature"},{"geometry":{"coordinates":[[[-122.58095,38.5795],[-122.58152,38.58028],[-122.58267,38.58029],[-122.58325,38.57951],[-122.58268,38.57872],[-122.58153,38.57872],[-122.58095,38.5795]]],"type":"Polygon"},"properties":{"bbox":{"parking":{"area":111.94,"pct":0.43},"roads":{"area":2679.46,"pct":10.31}},"city_same":1,"id":"hex:3576:24654"},"type":"Feature"},{"geometry":{"coordinates":[[[-122.58094,38.58106],[-122.58151,38.58184],[-122.58266,38.58185],[-122.58324,38.58107],[-122.58267,38.58029],[-122.58152,38.58028],[-122.58094,38.58106]]],"type":"Polygon"},"properties":{"bbox":{"parking":{"area":920.75,"pct":3.54},"roads":{"area":1906.95,"pct":7.34}},"city_same":1,"id":"hex:3576:24655"},"type":"Feature"},{"geometry":{"coordinates":[[[-122.58093,38.58262],[-122.5815,38.5834],[-122.58265,38.58341],[-122.58323,38.58263],[-122.58266,38.58185],[-122.58151,38.58184],[-122.58093,38.58262]]],"type":"Polygon"},"properties":{"bbox":{"roads":{"area":2930.08,"pct":11.28},"sidewalks":{"area":483.28,"pct":1.86}},"city_same":1,"id":"hex:3576:24656"},"type":"Feature"},{"geometry":{"coordinates":[[[-122.58092,38.58418],[-122.58149,38.58496],[-122.58264,38.58497],[-122.58322,38.58419],[-122.58265,38.58341],[-122.5815,38.5834],[-122.58092,38.58418]]],"type":"Polygon"},"properties":{"bbox":{"roads":{"area":3088.46,"pct":11.89},"sidewalks":{"area":171.92,"pct":0.66}},"city_same":1,"id":"hex:3576:24657"},"type":"Feature"},{"geometry":{"coordinates":[[[-122.58092,38.58574],[-122.58148,38.58653],[-122.58263,38.58653],[-122.58321,38.58575],[-122.58264,38.58497],[-122.58149,38.58496],[-122.58092,38.58574]]],"type":"Polygon"},"properties":{"bbox":{"roads":{"area":2236.29,"pct":8.61}},"city_same":1,"id":"hex:3576:24658"},"type":"Feature"},{"geometry":{"coordinates":[[[-122.58091,38.5873],[-122.58148,38.58809],[-122.58262,38.58809],[-122.5832,38.58731],[-122.58263,38.58653],[-122.58148,38.58653],[-122.58091,38.5873]]],"type":"Polygon"},"properties":{"bbox":{"roads":{"area":1463.51,"pct":5.63},"sidewalks":{"area":331.94,"pct":1.28}},"city_same":1,"id":"hex:3576:24659"},"type":"Feature"},{"geometry":{"coordinates":[[[-122.5809,38.58886],[-122.58147,38.58965],[-122.58261,38.58965],[-122.58319,38.58887],[-122.58262,38.58809],[-122.58148,38.58809],[-122.5809,38.58886]]],"type":"Polygon"},"properties":{"bbox":{"roads":{"area":1664.4,"pct":6.41},"sidewalks":{"area":808.87,"pct":3.11}},"city_same":1,"id":"hex:3576:24660"},"type":"Feature"},{"geometry":{"coordinates":[[[-122.58089,38.59043],[-122.58146,38.59121],[-122.58261,38.59121],[-122.58318,38.59043],[-122.58261,38.58965],[-122.58147,38.58965],[-122.58089,38.59043]]],"type":"Polygon"},"properties":{"bbox":{"roads":{"area":1626.77,"pct":6.26},"sidewalks":{"area":439.96,"pct":1.69}},"city_same":1,"id":"hex:3576:24661"},"type":"Feature"},{"geometry":{"coordinates":[[[-122.58087,38.59355],[-122.58144,38.59433],[-122.58259,38.59433],[-122.58317,38.59356],[-122.5826,38.59277],[-122.58145,38.59277],[-122.58087,38.59355]]],"type":"Polygon"},"properties":{"bbox":{"roads":{"area":69.64,"pct":0.27}},"city_same":1,"id":"hex:3576:24663"},"type":"Feature"},{"geometry":{"coordinates":[[[-122.58144,38.59433],[-122.58259,38.59433],[-122.58316,38.59512],[-122.58258,38.59589],[-122.58217,38.59589],[-122.58198,38.59564],[-122.58151,38.59506],[-122.58124,38.59471],[-122.58119,38.59466],[-122.58144,38.59433]]],"type":"Polygon"},"properties":{"bbox":{"roads":{"area":2049.83,"pct":10.78}},"city":{"roads":{"area":1209.65,"pct":6.36}},"id":"hex:3576:24664"},"type":"Feature"},{"geometry":{"coordinates":[[[-122.58258,38.59589],[-122.58315,38.59668],[-122.58287,38.59706],[-122.58274,38.5968],[-122.58247,38.59634],[-122.58227,38.59603],[-122.58217,38.59589],[-122.58258,38.59589]]],"type":"Polygon"},"properties":{"bbox":{"roads":{"area":369.97,"pct":8.89}},"id":"hex:3576:24665"},"type":"Feature"},{"geometry":{"coordinates":[[[-122.581,38.57169],[-122.57985,38.57169],[-122.57928,38.57091],[-122.57961,38.57046],[-122.58001,38.57059],[-122.5808,38.57085],[-122.58126,38.57101],[-122.58146,38.57107],[-122.581,38.57169]]],"type":"Polygon"},"properties":{"bbox":{"roads":{"area":16.07,"pct":0.1}},"city_same":1,"id":"hex:3577:24648"},"type":"Feature"},{"geometry":{"coordinates":[[[-122.57927,38.57247],[-122.57984,38.57325],[-122.58099,38.57326],[-122.58157,38.57248],[-122.581,38.57169],[-122.57985,38.57169],[-122.57927,38.57247]]],"type":"Polygon"},"properties":{"bbox":{"roads":{"area":513.83,"pct":1.98}},"city_same":1,"id":"hex:3577:24649"},"type":"Feature"},{"geometry":{"coordinates":[[[-122.57926,38.57403],[-122.57983,38.57481],[-122.58098,38.57482],[-122.58156,38.57404],[-122.58099,38.57326],[-122.57984,38.57325],[-122.57926,38.57403]]],"type":"Polygon"},"properties":{"bbox":{"roads":{"area":710.59,"pct":2.74}},"city_same":1,"id":"hex:3577:24650"},"type":"Feature"},{"geometry":{"coordinates":[[[-122.57925,38.57559],[-122.57982,38.57637],[-122.58097,38.57638],[-122.58155,38.5756],[-122.58098,38.57482],[-122.57983,38.57481],[-122.57925,38.57559]]],"type":"Polygon"},"properties":{"bbox":{"parking":{"area":437.83,"pct":1.69},"roads":{"area":5596.25,"pct":21.54},"sidewalks":{"area":415.49,"pct":1.6}},"city":{"parking":{"area":437.83,"pct":1.69},"roads":{"area":3207.35,"pct":12.35},"sidewalks":{"area":415.49,"pct":1.6}},"id":"hex:3577:24651"},"type":"Feature"},{"geometry":{"coordinates":[[[-122.57924,38.57715],[-122.57981,38.57793],[-122.58096,38.57794],[-122.58154,38.57716],[-122.58097,38.57638],[-122.57982,38.57637],[-122.57924,38.57715]]],"type":"Polygon"},"properties":{"bbox":{"roads":{"area":2485.31,"pct":9.57},"sidewalks":{"area":373.35,"pct":1.44}},"city":{"roads":{"area":1533.59,"pct":5.9},"sidewalks":{"area":373.35,"pct":1.44}},"id":"hex:3577:24652"},"type":"Feature"},{"geometry":{"coordinates":[[[-122.57923,38.57871],[-122.5798,38.57949],[-122.58095,38.5795],[-122.58153,38.57872],[-122.58096,38.57794],[-122.57981,38.57793],[-122.57923,38.57871]]],"type":"Polygon"},"properties":{"bbox":{"parking":{"area":341.84,"pct":1.32},"roads":{"area":2867.88,"pct":11.04}},"city_same":1,"id":"hex:3577:24653"},"type":"Feature"},{"geometry":{"coordinates":[[[-122.57923,38.58027],[-122.57979,38.58106],[-122.58094,38.58106],[-122.58152,38.58028],[-122.58095,38.5795],[-122.5798,38.57949],[-122.57923,38.58027]]],"type":"Polygon"},"properties":{"bbox":{"roads":{"area":2445.74,"pct":9.41}},"city_same":1,"id":"hex:3577:24654"},"type":"Feature"},{"geometry":{"coordinates":[[[-122.57922,38.58183],[-122.57979,38.58262],[-122.58093,38.58262],[-122.58151,38.58184],[-122.58094,38.58106],[-122.57979,38.58106],[-122.57922,38.58183]]],"type":"Polygon"},"properties":{"bbox":{"roads":{"area":2646.99,"pct":10.19},"sidewalks":{"area":638.92,"pct":2.46}},"city_same":1,"id":"hex:3577:24655"},"type":"Feature"},{"geometry":{"coordinates":[[[-122.57921,38.5834],[-122.57978,38.58418],[-122.58092,38.58418],[-122.5815,38.5834],[-122.58093,38.58262],[-122.57979,38.58262],[-122.57921,38.5834]]],"type":"Polygon"},"properties":{"bbox":{"roads":{"area":985.25,"pct":3.79},"sidewalks":{"area":46.31,"pct":0.18}},"city_same":1,"id":"hex:3577:24656"},"type":"Feature"},{"geometry":{"coordinates":[[[-122.5792,38.58496],[-122.57977,38.58574],[-122.58092,38.58574],[-122.58149,38.58496],[-122.58092,38.58418],[-122.57978,38.58418],[-122.5792,38.58496]]],"type":"Polygon"},"properties":{"bbox":{"roads":{"area":3084.72,"pct":11.87},"sidewalks":{"area":185.7,"pct":0.71}},"city_same":1,"id":"hex:3577:24657"},"type":"Feature"},{"geometry":{"coordinates":[[[-122.57919,38.58652],[-122.57976,38.5873],[-122.58091,38.5873],[-122.58148,38.58653],[-122.58092,38.58574],[-122.57977,38.58574],[-122.57919,38.58652]]],"type":"Polygon"},"properties":{"bbox":{"roads":{"area":2539.33,"pct":9.77}},"city_same":1,"id":"hex:3577:24658"},"type":"Feature"},{"geometry":{"coordinates":[[[-122.57918,38.58808],[-122.57975,38.58886],[-122.5809,38.58886],[-122.58148,38.58809],[-122.58091,38.5873],[-122.57976,38.5873],[-122.57918,38.58808]]],"type":"Polygon"},"properties":{"bbox":{"roads":{"area":2004.91,"pct":7.72},"sidewalks":{"area":459.27,"pct":1.77}},"city_same":1,"id":"hex:3577:24659"},"type":"Feature"},{"geometry":{"coordinates":[[[-122.57917,38.58964],[-122.57974,38.59042],[-122.58089,38.59043],[-122.58147,38.58965],[-122.5809,38.58886],[-122.57975,38.58886],[-122.57917,38.58964]]],"type":"Polygon"},"properties":{"bbox":{"roads":{"area":2280.34,"pct":8.78},"sidewalks":{"area":1061.77,"pct":4.09}},"city_same":1,"id":"hex:3577:24660"},"type":"Feature"},{"geometry":{"coordinates":[[[-122.57916,38.5912],[-122.57973,38.59198],[-122.58088,38.59199],[-122.58146,38.59121],[-122.58089,38.59043],[-122.57974,38.59042],[-122.57916,38.5912]]],"type":"Polygon"},"properties":{"bbox":{"roads":{"area":1410.27,"pct":5.43},"sidewalks":{"area":772.99,"pct":2.98}},"city_same":1,"id":"hex:3577:24661"},"type":"Feature"},{"geometry":{"coordinates":[[[-122.57973,38.59198],[-122.58088,38.59199],[-122.58145,38.59277],[-122.58087,38.59355],[-122.5802,38.59354],[-122.57999,38.5933],[-122.57967,38.59292],[-122.57942,38.59258],[-122.57936,38.59248],[-122.57973,38.59198]]],"type":"Polygon"},"properties":{"bbox":{"roads":{"area":501.36,"pct":2.26}},"id":"hex:3577:24662"},"type":"Feature"},{"geometry":{"coordinates":[[[-122.58087,38.59355],[-122.58144,38.59433],[-122.58119,38.59466],[-122.58095,38.5944],[-122.5802,38.59354],[-122.58087,38.59355]]],"type":"Polygon"},"properties":{"bbox":{"roads":{"area":663.77,"pct":12.09}},"city":{"roads":{"area":2.39,"pct":0.04}},"id":"hex:3577:24663"},"type":"Feature"},{"geometry":{"coordinates":[[[-122.57928,38.57091],[-122.57813,38.5709],[-122.57756,38.57012],[-122.57777,38.56984],[-122.57804,38.56994],[-122.57854,38.5701],[-122.57908,38.57028],[-122.57961,38.57046],[-122.57928,38.57091]]],"type":"Polygon"},"properties":{"bbox":{"roads":{"area":468.53,"pct":3.77}},"city_same":1,"id":"hex:3578:24648"},"type":"Feature"},{"geometry":{"coordinates":[[[-122.57755,38.57168],[-122.57812,38.57246],[-122.57927,38.57247],[-122.57985,38.57169],[-122.57928,38.57091],[-122.57813,38.5709],[-122.57755,38.57168]]],"type":"Polygon"},"properties":{"bbox":{"roads":{"area":715.28,"pct":2.75}},"city_same":1,"id":"hex:3578:24649"},"type":"Feature"},{"geometry":{"coordinates":[[[-122.57754,38.57324],[-122.57811,38.57403],[-122.57926,38.57403],[-122.57984,38.57325],[-122.57927,38.57247],[-122.57812,38.57246],[-122.57754,38.57324]]],"type":"Polygon"},"properties":{"bbox":{"roads":{"area":465.2,"pct":1.79}},"city_same":1,"id":"hex:3578:24650"},"type":"Feature"},{"geometry":{"coordinates":[[[-122.57753,38.5748],[-122.5781,38.57559],[-122.57925,38.57559],[-122.57983,38.57481],[-122.57926,38.57403],[-122.57811,38.57403],[-122.57753,38.5748]]],"type":"Polygon"},"properties":{"bbox":{"roads":{"area":3293.98,"pct":12.68}},"city":{"roads":{"area":1267.63,"pct":4.88}},"id":"hex:3578:24651"},"type":"Feature"},{"geometry":{"coordinates":[[[-122.57753,38.57636],[-122.5781,38.57715],[-122.57924,38.57715],[-122.57982,38.57637],[-122.57925,38.57559],[-122.5781,38.57559],[-122.57753,38.57636]]],"type":"Polygon"},"properties":{"bbox":{"roads":{"area":2670.89,"pct":10.28}},"city_same":1,"id":"hex:3578:24652"},"type":"Feature"},{"geometry":{"coordinates":[[[-122.57752,38.57793],[-122.57809,38.57871],[-122.57923,38.57871],[-122.57981,38.57793],[-122.57924,38.57715],[-122.5781,38.57715],[-122.57752,38.57793]]],"type":"Polygon"},"properties":{"bbox":{"parking":{"area":2700.07,"pct":10.39},"roads":{"area":3672.35,"pct":14.13},"sidewalks":{"area":660.78,"pct":2.54}},"city":{"parking":{"area":2700.07,"pct":10.39},"roads":{"area":2594.45,"pct":9.99},"sidewalks":{"area":660.78,"pct":2.54}},"id":"hex:3578:24653"},"type":"Feature"},{"geometry":{"coordinates":[[[-122.57751,38.57949],[-122.57808,38.58027],[-122.57923,38.58027],[-122.5798,38.57949],[-122.57923,38.57871],[-122.57809,38.57871],[-122.57751,38.57949]]],"type":"Polygon"},"properties":{"bbox":{"parking":{"area":930.13,"pct":3.58},"roads":{"area":3267.3,"pct":12.58},"sidewalks":{"area":489.3,"pct":1.88}},"city":{"parking":{"area":930.13,"pct":3.58},"roads":{"area":1838.7,"pct":7.08},"sidewalks":{"area":489.3,"pct":1.88}},"id":"hex:3578:24654"},"type":"Feature"},{"geometry":{"coordinates":[[[-122.5775,38.58105],[-122.57807,38.58183],[-122.57922,38.58183],[-122.57979,38.58106],[-122.57923,38.58027],[-122.57808,38.58027],[-122.5775,38.58105]]],"type":"Polygon"},"properties":{"bbox":{"parking":{"area":238.85,"pct":0.92},"roads":{"area":3610.48,"pct":13.9},"sidewalks":{"area":391.78,"pct":1.51}},"city":{"parking":{"area":238.85,"pct":0.92},"roads":{"area":2940.84,"pct":11.32},"sidewalks":{"area":391.78,"pct":1.51}},"id":"hex:3578:24655"},"type":"Feature"},{"geometry":{"coordinates":[[[-122.57749,38.58261],[-122.57806,38.58339],[-122.57921,38.5834],[-122.57979,38.58262],[-122.57922,38.58183],[-122.57807,38.58183],[-122.57749,38.58261]]],"type":"Polygon"},"properties":{"bbox":{"roads":{"area":546.52,"pct":2.1},"sidewalks":{"area":221.04,"pct":0.85}},"city_same":1,"id":"hex:3578:24656"},"type":"Feature"},{"geometry":{"coordinates":[[[-122.57748,38.58417],[-122.57805,38.58495],[-122.5792,38.58496],[-122.57978,38.58418],[-122.57921,38.5834],[-122.57806,38.58339],[-122.57748,38.58417]]],"type":"Polygon"},"properties":{"bbox":{"roads":{"area":2047.92,"pct":7.88},"sidewalks":{"area":215.62,"pct":0.83}},"city_same":1,"id":"hex:3578:24657"},"type":"Feature"},{"geometry":{"coordinates":[[[-122.57747,38.58573],[-122.57804,38.58651],[-122.57919,38.58652],[-122.57977,38.58574],[-122.5792,38.58496],[-122.57805,38.58495],[-122.57747,38.58573]]],"type":"Polygon"},"properties":{"bbox":{"roads":{"area":1138.31,"pct":4.38}},"city_same":1,"id":"hex:3578:24658"},"type":"Feature"},{"geometry":{"coordinates":[[[-122.57746,38.58729],[-122.57803,38.58807],[-122.57918,38.58808],[-122.57976,38.5873],[-122.57919,38.58652],[-122.57804,38.58651],[-122.57746,38.58729]]],"type":"Polygon"},"properties":{"bbox":{"roads":{"area":2365.16,"pct":9.1}},"city_same":1,"id":"hex:3578:24659"},"type":"Feature"},{"geometry":{"coordinates":[[[-122.57745,38.58885],[-122.57802,38.58963],[-122.57917,38.58964],[-122.57975,38.58886],[-122.57918,38.58808],[-122.57803,38.58807],[-122.57745,38.58885]]],"type":"Polygon"},"properties":{"bbox":{"parking":{"area":553.78,"pct":2.13},"roads":{"area":2599.52,"pct":10.01},"sidewalks":{"area":185.08,"pct":0.71}},"city_same":1,"id":"hex:3578:24660"},"type":"Feature"},{"geometry":{"coordinates":[[[-122.57802,38.58963],[-122.57917,38.58964],[-122.57974,38.59042],[-122.57916,38.5912],[-122.57858,38.5912],[-122.57848,38.59102],[-122.57827,38.59062],[-122.57823,38.59055],[-122.57785,38.58986],[-122.57802,38.58963]]],"type":"Polygon"},"properties":{"bbox":{"roads":{"area":1332.66,"pct":6.92},"sidewalks":{"area":593.65,"pct":3.08}},"city":{"roads":{"area":1211.21,"pct":6.29},"sidewalks":{"area":593.65,"pct":3.08}},"id":"hex:3578:24661"},"type":"Feature"},{"geometry":{"coordinates":[[[-122.57916,38.5912],[-122.57973,38.59198],[-122.57936,38.59248],[-122.57908,38.59206],[-122.57898,38.5919],[-122.57871,38.59143],[-122.57868,38.59139],[-122.57858,38.5912],[-122.57916,38.5912]]],"type":"Polygon"},"properties":{"bbox":{"roads":{"area":673.34,"pct":10.24},"sidewalks":{"area":197.7,"pct":3.01}},"city":{"roads":{"area":146.81,"pct":2.23},"sidewalks":{"area":197.7,"pct":3.01}},"id":"hex:3578:24662"},"type":"Feature"},{"geometry":{"coordinates":[[[-122.57756,38.57012],[-122.57641,38.57012],[-122.57585,38.56933],[-122.57593,38.56922],[-122.57609,38.56928],[-122.57631,38.56936],[-122.57665,38.56947],[-122.57699,38.56959],[-122.5775,38.56975],[-122.57777,38.56984],[-122.57756,38.57012]]],"type":"Polygon"},"properties":{"bbox":{"roads":{"area":176.63,"pct":2.05}},"city_same":1,"id":"hex:3579:24647"},"type":"Feature"},{"geometry":{"coordinates":[[[-122.57584,38.5709],[-122.57641,38.57168],[-122.57755,38.57168],[-122.57813,38.5709],[-122.57756,38.57012],[-122.57641,38.57012],[-122.57584,38.5709]]],"type":"Polygon"},"properties":{"bbox":{"roads":{"area":422.58,"pct":1.63}},"city_same":1,"id":"hex:3579:24648"},"type":"Feature"},{"geometry":{"coordinates":[[[-122.57583,38.57246],[-122.5764,38.57324],[-122.57754,38.57324],[-122.57812,38.57246],[-122.57755,38.57168],[-122.57641,38.57168],[-122.57583,38.57246]]],"type":"Polygon"},"properties":{"bbox":{"roads":{"area":462.21,"pct":1.78}},"city_same":1,"id":"hex:3579:24649"},"type":"Feature"},{"geometry":{"coordinates":[[[-122.57582,38.57402],[-122.57639,38.5748],[-122.57753,38.5748],[-122.57811,38.57403],[-122.57754,38.57324],[-122.5764,38.57324],[-122.57582,38.57402]]],"type":"Polygon"},"properties":{"bbox":{"roads":{"area":2323.36,"pct":8.94}},"city":{"roads":{"area":196.97,"pct":0.76}},"id":"hex:3579:24650"},"type":"Feature"},{"geometry":{"coordinates":[[[-122.57581,38.57558],[-122.57638,38.57636],[-122.57753,38.57636],[-122.5781,38.57559],[-122.57753,38.5748],[-122.57639,38.5748],[-122.57581,38.57558]]],"type":"Polygon"},"properties":{"bbox":{"roads":{"area":401.8,"pct":1.55}},"city_same":1,"id":"hex:3579:24651"},"type":"Feature"},{"geometry":{"coordinates":[[[-122.5758,38.57714],[-122.57637,38.57792],[-122.57752,38.57793],[-122.5781,38.57715],[-122.57753,38.57636],[-122.57638,38.57636],[-122.5758,38.57714]]],"type":"Polygon"},"properties":{"bbox":{"parking":{"area":1702.28,"pct":6.55},"roads":{"area":984.64,"pct":3.79},"sidewalks":{"area":65.16,"pct":0.25}},"city_same":1,"id":"hex:3579:24652"},"type":"Feature"},{"geometry":{"coordinates":[[[-122.57579,38.5787],[-122.57636,38.57948],[-122.57751,38.57949],[-122.57809,38.57871],[-122.57752,38.57793],[-122.57637,38.57792],[-122.57579,38.5787]]],"type":"Polygon"},"properties":{"bbox":{"roads":{"area":3639.24,"pct":14.01},"sidewalks":{"area":866.99,"pct":3.34}},"city_same":1,"id":"hex:3579:24653"},"type":"Feature"},{"geometry":{"coordinates":[[[-122.57578,38.58026],[-122.57635,38.58104],[-122.5775,38.58105],[-122.57808,38.58027],[-122.57751,38.57949],[-122.57636,38.57948],[-122.57578,38.58026]]],"type":"Polygon"},"properties":{"bbox":{"roads":{"area":2325.07,"pct":8.95},"sidewalks":{"area":132.74,"pct":0.51}},"city":{"roads":{"area":2231.58,"pct":8.59},"sidewalks":{"area":132.74,"pct":0.51}},"id":"hex:3579:24654"},"type":"Feature"},{"geometry":{"coordinates":[[[-122.57577,38.58182],[-122.57634,38.5826],[-122.57749,38.58261],[-122.57807,38.58183],[-122.5775,38.58105],[-122.57635,38.58104],[-122.57577,38.58182]]],"type":"Polygon"},"properties":{"bbox":{"roads":{"area":3900.91,"pct":15.01},"sidewalks":{"area":818.68,"pct":3.15}},"city":{"roads":{"area":2505.89,"pct":9.65},"sidewalks":{"area":818.68,"pct":3.15}},"id":"hex:3579:24655"},"type":"Feature"},{"geometry":{"coordinates":[[[-122.57576,38.58338],[-122.57633,38.58417],[-122.57748,38.58417],[-122.57806,38.58339],[-122.57749,38.58261],[-122.57634,38.5826],[-122.57576,38.58338]]],"type":"Polygon"},"properties":{"bbox":{"roads":{"area":3347.84,"pct":12.89},"sidewalks":{"area":402.4,"pct":1.55}},"city":{"roads":{"area":2110.86,"pct":8.12},"sidewalks":{"area":402.4,"pct":1.55}},"id":"hex:3579:24656"},"type":"Feature"},{"geometry":{"coordinates":[[[-122.57575,38.58494],[-122.57632,38.58573],[-122.57747,38.58573],[-122.57805,38.58495],[-122.57748,38.58417],[-122.57633,38.58417],[-122.57575,38.58494]]],"type":"Polygon"},"properties":{"bbox":{"roads":{"area":1977.83,"pct":7.61}},"city":{"roads":{"area":728.3,"pct":2.8}},"id":"hex:3579:24657"},"type":"Feature"},{"geometry":{"coordinates":[[[-122.57574,38.5865],[-122.57631,38.58729],[-122.57746,38.58729],[-122.57804,38.58651],[-122.57747,38.58573],[-122.57632,38.58573],[-122.57574,38.5865]]],"type":"Polygon"},"properties":{"bbox":{"roads":{"area":3137.99,"pct":12.08}},"city":{"roads":{"area":1886.58,"pct":7.26}},"id":"hex:3579:24658"},"type":"Feature"},{"geometry":{"coordinates":[[[-122.57573,38.58807],[-122.57631,38.58729],[-122.57746,38.58729],[-122.57803,38.58807],[-122.57745,38.58885],[-122.57688,38.58885],[-122.57666,38.58877],[-122.57613,38.58861],[-122.57573,38.58807]]],"type":"Polygon"},"properties":{"bbox":{"roads":{"area":3182.94,"pct":12.58}},"city":{"roads":{"area":1421.69,"pct":5.62}},"id":"hex:3579:24659"},"type":"Feature"},{"geometry":{"coordinates":[[[-122.57745,38.58885],[-122.57802,38.58963],[-122.57785,38.58986],[-122.57755,38.58931],[-122.57741,38.58903],[-122.57724,38.58898],[-122.57719,38.58906],[-122.57707,38.58926],[-122.57678,38.58915],[-122.57694,38.58887],[-122.57688,38.58885],[-122.57745,38.58885]]],"type":"Polygon"},"properties":{"bbox":{"roads":{"area":1009.17,"pct":30.26},"sidewalks":{"area":8.36,"pct":0.25}},"city":{"roads":{"area":315.61,"pct":9.46},"sidewalks":{"area":8.36,"pct":0.25}},"id":"hex:3579:24660"},"type":"Feature"},{"geometry":{"coordinates":[[[-122.57412,38.57011],[-122.57469,38.57089],[-122.57584,38.5709],[-122.57641,38.57012],[-122.57585,38.56933],[-122.5747,38.56933],[-122.57412,38.57011]]],"type":"Polygon"},"properties":{"bbox":{"roads":{"area":610.41,"pct":2.35}},"city_same":1,"id":"hex:3580:24648"},"type":"Feature"},{"geometry":{"coordinates":[[[-122.57411,38.57167],[-122.57468,38.57245],[-122.57583,38.57246],[-122.57641,38.57168],[-122.57584,38.5709],[-122.57469,38.57089],[-122.57411,38.57167]]],"type":"Polygon"},"properties":{"bbox":{"roads":{"area":7.2,"pct":0.03}},"city_same":1,"id":"hex:3580:24649"},"type":"Feature"},{"geometry":{"coordinates":[[[-122.5741,38.57323],[-122.57467,38.57401],[-122.57582,38.57402],[-122.5764,38.57324],[-122.57583,38.57246],[-122.57468,38.57245],[-122.5741,38.57323]]],"type":"Polygon"},"properties":{"bbox":{"roads":{"area":2341.66,"pct":9.01}},"city":{"roads":{"area":1040.61,"pct":4.01}},"id":"hex:3580:24650"},"type":"Feature"},{"geometry":{"coordinates":[[[-122.57409,38.57479],[-122.57466,38.57557],[-122.57581,38.57558],[-122.57639,38.5748],[-122.57582,38.57402],[-122.57467,38.57401],[-122.57409,38.57479]]],"type":"Polygon"},"properties":{"bbox":{"roads":{"area":161.03,"pct":0.62}},"id":"hex:3580:24651"},"type":"Feature"},{"geometry":{"coordinates":[[[-122.57408,38.57635],[-122.57465,38.57713],[-122.5758,38.57714],[-122.57638,38.57636],[-122.57581,38.57558],[-122.57466,38.57557],[-122.57408,38.57635]]],"type":"Polygon"},"properties":{"bbox":{"roads":{"area":27.57,"pct":0.11}},"city_same":1,"id":"hex:3580:24652"},"type":"Feature"},{"geometry":{"coordinates":[[[-122.57407,38.57791],[-122.57464,38.5787],[-122.57579,38.5787],[-122.57637,38.57792],[-122.5758,38.57714],[-122.57465,38.57713],[-122.57407,38.57791]]],"type":"Polygon"},"properties":{"bbox":{"roads":{"area":3012.17,"pct":11.59},"sidewalks":{"area":1095,"pct":4.21}},"city_same":1,"id":"hex:3580:24653"},"type":"Feature"},{"geometry":{"coordinates":[[[-122.57406,38.57947],[-122.57463,38.58026],[-122.57578,38.58026],[-122.57636,38.57948],[-122.57579,38.5787],[-122.57464,38.5787],[-122.57406,38.57947]]],"type":"Polygon"},"properties":{"bbox":{"roads":{"area":1163.82,"pct":4.48},"sidewalks":{"area":16.27,"pct":0.06}},"city_same":1,"id":"hex:3580:24654"},"type":"Feature"},{"geometry":{"coordinates":[[[-122.57405,38.58104],[-122.57462,38.58182],[-122.57577,38.58182],[-122.57635,38.58104],[-122.57578,38.58026],[-122.57463,38.58026],[-122.57405,38.58104]]],"type":"Polygon"},"properties":{"bbox":{"parking":{"area":1286.13,"pct":4.95},"roads":{"area":1798.13,"pct":6.92},"sidewalks":{"area":64.42,"pct":0.25}},"city_same":1,"id":"hex:3580:24655"},"type":"Feature"},{"geometry":{"coordinates":[[[-122.57404,38.5826],[-122.57461,38.58338],[-122.57576,38.58338],[-122.57634,38.5826],[-122.57577,38.58182],[-122.57462,38.58182],[-122.57404,38.5826]]],"type":"Polygon"},"properties":{"bbox":{"roads":{"area":974.34,"pct":3.75},"sidewalks":{"area":41.7,"pct":0.16}},"city":{"roads":{"area":974.33,"pct":3.75},"sidewalks":{"area":41.7,"pct":0.16}},"id":"hex:3580:24656"},"type":"Feature"},{"geometry":{"coordinates":[[[-122.57404,38.58416],[-122.57461,38.58494],[-122.57575,38.58494],[-122.57633,38.58417],[-122.57576,38.58338],[-122.57461,38.58338],[-122.57404,38.58416]]],"type":"Polygon"},"properties":{"bbox":{"parking":{"area":1010.53,"pct":3.89},"roads":{"area":1940.3,"pct":7.47},"sidewalks":{"area":515.26,"pct":1.98}},"city_same":1,"id":"hex:3580:24657"},"type":"Feature"},{"geometry":{"coordinates":[[[-122.57403,38.58572],[-122.5746,38.5865],[-122.57574,38.5865],[-122.57632,38.58573],[-122.57575,38.58494],[-122.57461,38.58494],[-122.57403,38.58572]]],"type":"Polygon"},"properties":{"bbox":{"roads":{"area":1055.85,"pct":4.06}},"city_same":1,"id":"hex:3580:24658"},"type":"Feature"},{"geometry":{"coordinates":[[[-122.57402,38.58728],[-122.5746,38.5865],[-122.57574,38.5865],[-122.57631,38.58729],[-122.57573,38.58807],[-122.57481,38.58806],[-122.57451,38.58786],[-122.57435,38.58774],[-122.57402,38.58728]]],"type":"Polygon"},"properties":{"bbox":{"roads":{"area":1874.3,"pct":7.31}},"city":{"roads":{"area":1561.05,"pct":6.09}},"id":"hex:3580:24659"},"type":"Feature"},{"geometry":{"coordinates":[[[-122.57573,38.58807],[-122.57613,38.58861],[-122.57592,38.58855],[-122.57555,38.58841],[-122.57515,38.58825],[-122.57483,38.58808],[-122.57481,38.58806],[-122.57573,38.58807]]],"type":"Polygon"},"properties":{"bbox":{"roads":{"area":915.53,"pct":32.3}},"city":{"roads":{"area":208.28,"pct":7.35}},"id":"hex:3580:24660"},"type":"Feature"},{"geometry":{"coordinates":[[[-122.5724,38.56932],[-122.57297,38.5701],[-122.57412,38.57011],[-122.5747,38.56933],[-122.57413,38.56855],[-122.57298,38.56854],[-122.5724,38.56932]]],"type":"Polygon"},"properties":{"bbox":{"roads":{"area":1143.33,"pct":4.4}},"city_same":1,"id":"hex:3581:24647"},"type":"Feature"},{"geometry":{"coordinates":[[[-122.57239,38.57088],[-122.57296,38.57167],[-122.57411,38.57167],[-122.57469,38.57089],[-122.57412,38.57011],[-122.57297,38.5701],[-122.57239,38.57088]]],"type":"Polygon"},"properties":{"bbox":{"roads":{"area":959.08,"pct":3.69}},"city_same":1,"id":"hex:3581:24648"},"type":"Feature"},{"geometry":{"coordinates":[[[-122.57238,38.57244],[-122.57295,38.57323],[-122.5741,38.57323],[-122.57468,38.57245],[-122.57411,38.57167],[-122.57296,38.57167],[-122.57238,38.57244]]],"type":"Polygon"},"properties":{"bbox":{"roads":{"area":1465.61,"pct":5.64}},"city_same":1,"id":"hex:3581:24649"},"type":"Feature"},{"geometry":{"coordinates":[[[-122.57237,38.574],[-122.57294,38.57479],[-122.57409,38.57479],[-122.57467,38.57401],[-122.5741,38.57323],[-122.57295,38.57323],[-122.57237,38.574]]],"type":"Polygon"},"properties":{"bbox":{"roads":{"area":2356.62,"pct":9.07}},"city":{"roads":{"area":697.8,"pct":2.69}},"id":"hex:3581:24650"},"type":"Feature"},{"geometry":{"coordinates":[[[-122.57236,38.57557],[-122.57293,38.57635],[-122.57408,38.57635],[-122.57466,38.57557],[-122.57409,38.57479],[-122.57294,38.57479],[-122.57236,38.57557]]],"type":"Polygon"},"properties":{"bbox":{"roads":{"area":106.81,"pct":0.41}},"city_same":1,"id":"hex:3581:24651"},"type":"Feature"},{"geometry":{"coordinates":[[[-122.57236,38.57713],[-122.57292,38.57791],[-122.57407,38.57791],[-122.57465,38.57713],[-122.57408,38.57635],[-122.57293,38.57635],[-122.57236,38.57713]]],"type":"Polygon"},"properties":{"bbox":{"roads":{"area":2819.19,"pct":10.85},"sidewalks":{"area":314.92,"pct":1.21}},"city_same":1,"id":"hex:3581:24652"},"type":"Feature"},{"geometry":{"coordinates":[[[-122.57235,38.57869],[-122.57292,38.57947],[-122.57406,38.57947],[-122.57464,38.5787],[-122.57407,38.57791],[-122.57292,38.57791],[-122.57235,38.57869]]],"type":"Polygon"},"properties":{"bbox":{"roads":{"area":80.44,"pct":0.31},"sidewalks":{"area":34.27,"pct":0.13}},"city_same":1,"id":"hex:3581:24653"},"type":"Feature"},{"geometry":{"coordinates":[[[-122.57234,38.58025],[-122.57291,38.58103],[-122.57405,38.58104],[-122.57463,38.58026],[-122.57406,38.57947],[-122.57292,38.57947],[-122.57234,38.58025]]],"type":"Polygon"},"properties":{"bbox":{"roads":{"area":1339.24,"pct":5.15}},"city_same":1,"id":"hex:3581:24654"},"type":"Feature"},{"geometry":{"coordinates":[[[-122.57291,38.58103],[-122.57405,38.58104],[-122.57462,38.58182],[-122.57404,38.5826],[-122.5729,38.58259],[-122.57233,38.58181],[-122.5725,38.58158],[-122.5725,38.58158],[-122.57253,38.58157],[-122.57256,38.58155],[-122.5726,38.58153],[-122.57262,38.58152],[-122.57262,38.5815],[-122.57262,38.58149],[-122.57261,38.58148],[-122.57258,38.58147],[-122.57258,38.58147],[-122.57291,38.58103]]],"type":"Polygon"},"properties":{"bbox":{"parking":{"area":1947.58,"pct":7.51},"roads":{"area":2663.77,"pct":10.27}},"city_same":1,"id":"hex:3581:24655"},"type":"Feature"},{"geometry":{"coordinates":[[[-122.57232,38.58337],[-122.57289,38.58415],[-122.57404,38.58416],[-122.57461,38.58338],[-122.57404,38.5826],[-122.5729,38.58259],[-122.57232,38.58337]]],"type":"Polygon"},"properties":{"bbox":{"roads":{"area":3390.48,"pct":13.05}},"city_same":1,"id":"hex:3581:24656"},"type":"Feature"},{"geometry":{"coordinates":[[[-122.57231,38.58493],[-122.57288,38.58571],[-122.57403,38.58572],[-122.57461,38.58494],[-122.57404,38.58416],[-122.57289,38.58415],[-122.57231,38.58493]]],"type":"Polygon"},"properties":{"bbox":{"roads":{"area":2395.18,"pct":9.22},"sidewalks":{"area":261.49,"pct":1.01}},"city_same":1,"id":"hex:3581:24657"},"type":"Feature"},{"geometry":{"coordinates":[[[-122.57288,38.58571],[-122.57403,38.58572],[-122.5746,38.5865],[-122.57402,38.58728],[-122.57374,38.58728],[-122.5736,38.58718],[-122.57261,38.58655],[-122.57237,38.5864],[-122.57288,38.58571]]],"type":"Polygon"},"properties":{"bbox":{"roads":{"area":2115.11,"pct":9.74},"sidewalks":{"area":170.69,"pct":0.79}},"city":{"roads":{"area":1258.85,"pct":5.8},"sidewalks":{"area":170.69,"pct":0.79}},"id":"hex:3581:24658"},"type":"Feature"},{"geometry":{"coordinates":[[[-122.57402,38.58728],[-122.57435,38.58774],[-122.57413,38.58757],[-122.57374,38.58728],[-122.57402,38.58728]]],"type":"Polygon"},"properties":{"bbox":{"roads":{"area":292.01,"pct":47.84}},"id":"hex:3581:24659"},"type":"Feature"},{"geometry":{"coordinates":[[[-122.57298,38.56854],[-122.5724,38.56932],[-122.57125,38.56932],[-122.57068,38.56854],[-122.57126,38.56776],[-122.57214,38.56776],[-122.57251,38.5679],[-122.57298,38.56854]]],"type":"Polygon"},"properties":{"bbox":{"roads":{"area":677.85,"pct":2.63}},"city_same":1,"id":"hex:3582:24647"},"type":"Feature"},{"geometry":{"coordinates":[[[-122.57067,38.5701],[-122.57124,38.57088],[-122.57239,38.57088],[-122.57297,38.5701],[-122.5724,38.56932],[-122.57125,38.56932],[-122.57067,38.5701]]],"type":"Polygon"},"properties":{"bbox":{"roads":{"area":745.24,"pct":2.87}},"city_same":1,"id":"hex:3582:24648"},"type":"Feature"},{"geometry":{"coordinates":[[[-122.57067,38.57166],[-122.57123,38.57244],[-122.57238,38.57244],[-122.57296,38.57167],[-122.57239,38.57088],[-122.57124,38.57088],[-122.57067,38.57166]]],"type":"Polygon"},"properties":{"bbox":{"roads":{"area":727.84,"pct":2.8}},"city":{"roads":{"area":359.54,"pct":1.38}},"id":"hex:3582:24649"},"type":"Feature"},{"geometry":{"coordinates":[[[-122.57066,38.57322],[-122.57123,38.574],[-122.57237,38.574],[-122.57295,38.57323],[-122.57238,38.57244],[-122.57123,38.57244],[-122.57066,38.57322]]],"type":"Polygon"},"properties":{"bbox":{"roads":{"area":2093.07,"pct":8.06}},"city":{"roads":{"area":193.03,"pct":0.74}},"id":"hex:3582:24650"},"type":"Feature"},{"geometry":{"coordinates":[[[-122.57064,38.57634],[-122.57121,38.57712],[-122.57236,38.57713],[-122.57293,38.57635],[-122.57236,38.57557],[-122.57122,38.57556],[-122.57064,38.57634]]],"type":"Polygon"},"properties":{"bbox":{"roads":{"area":1533.12,"pct":5.9},"sidewalks":{"area":21.31,"pct":0.08}},"city_same":1,"id":"hex:3582:24652"},"type":"Feature"},{"geometry":{"coordinates":[[[-122.57063,38.5779],[-122.5712,38.57868],[-122.57235,38.57869],[-122.57292,38.57791],[-122.57236,38.57713],[-122.57121,38.57712],[-122.57063,38.5779]]],"type":"Polygon"},"properties":{"bbox":{"roads":{"area":175.67,"pct":0.68}},"city_same":1,"id":"hex:3582:24653"},"type":"Feature"},{"geometry":{"coordinates":[[[-122.57062,38.57946],[-122.57119,38.58024],[-122.57234,38.58025],[-122.57292,38.57947],[-122.57235,38.57869],[-122.5712,38.57868],[-122.57062,38.57946]]],"type":"Polygon"},"properties":{"bbox":{"roads":{"area":1189.92,"pct":4.58}},"city_same":1,"id":"hex:3582:24654"},"type":"Feature"},{"geometry":{"coordinates":[[[-122.57233,38.58181],[-122.57118,38.58181],[-122.57061,38.58102],[-122.57119,38.58024],[-122.57234,38.58025],[-122.57291,38.58103],[-122.57258,38.58147],[-122.57255,38.58148],[-122.5725,38.58149],[-122.57246,38.58152],[-122.57245,38.58151],[-122.57244,38.5815],[-122.57242,38.58148],[-122.57237,38.58145],[-122.57235,38.58143],[-122.57231,38.58141],[-122.57226,38.58139],[-122.57221,38.58138],[-122.57215,38.58138],[-122.57209,38.58139],[-122.57207,38.58138],[-122.57207,38.58135],[-122.57204,38.58134],[-122.572,38.58134],[-122.57197,38.58136],[-122.57196,38.58138],[-122.57196,38.5814],[-122.57197,38.58142],[-122.57201,38.58143],[-122.57204,38.58143],[-122.57206,38.58141],[-122.57208,38.58141],[-122.5721,38.58141],[-122.57219,38.5814],[-122.57225,38.58141],[-122.57231,38.58143],[-122.57236,38.58146],[-122.5724,38.58149],[-122.57243,38.58152],[-122.57245,38.58152],[-122.57245,38.58154],[-122.57246,38.58156],[-122.57248,38.58157],[-122.5725,38.58158],[-122.57233,38.58181]]],"type":"Polygon"},"properties":{"bbox":{"roads":{"area":2303.21,"pct":8.94}},"city_same":1,"id":"hex:3582:24655"},"type":"Feature"},{"geometry":{"coordinates":[[[-122.5706,38.58258],[-122.57117,38.58337],[-122.57232,38.58337],[-122.5729,38.58259],[-122.57233,38.58181],[-122.57118,38.58181],[-122.5706,38.58258]]],"type":"Polygon"},"properties":{"bbox":{"roads":{"area":3600.64,"pct":13.86}},"city_same":1,"id":"hex:3582:24656"},"type":"Feature"},{"geometry":{"coordinates":[[[-122.57059,38.58414],[-122.57116,38.58493],[-122.57231,38.58493],[-122.57289,38.58415],[-122.57232,38.58337],[-122.57117,38.58337],[-122.57059,38.58414]]],"type":"Polygon"},"properties":{"bbox":{"roads":{"area":1508.92,"pct":5.81}},"city_same":1,"id":"hex:3582:24657"},"type":"Feature"},{"geometry":{"coordinates":[[[-122.57116,38.58493],[-122.57231,38.58493],[-122.57288,38.58571],[-122.57237,38.5864],[-122.57199,38.58617],[-122.57173,38.58601],[-122.57079,38.58542],[-122.57116,38.58493]]],"type":"Polygon"},"properties":{"bbox":{"roads":{"area":1531.87,"pct":8.73},"sidewalks":{"area":241.28,"pct":1.37}},"city":{"roads":{"area":381.89,"pct":2.18},"sidewalks":{"area":241.28,"pct":1.37}},"id":"hex:3582:24658"},"type":"Feature"},{"geometry":{"coordinates":[[[-122.57068,38.56854],[-122.57125,38.56932],[-122.57067,38.5701],[-122.56953,38.57009],[-122.56945,38.56999],[-122.56959,38.56975],[-122.57015,38.56882],[-122.57033,38.56853],[-122.57068,38.56854]]],"type":"Polygon"},"properties":{"bbox":{"roads":{"area":537.06,"pct":3.22}},"city_same":1,"id":"hex:3583:24647"},"type":"Feature"},{"geometry":{"coordinates":[[[-122.56895,38.57087],[-122.56952,38.57165],[-122.57067,38.57166],[-122.57124,38.57088],[-122.57067,38.5701],[-122.56953,38.57009],[-122.56895,38.57087]]],"type":"Polygon"},"properties":{"bbox":{"roads":{"area":1197.05,"pct":4.61}},"id":"hex:3583:24648"},"type":"Feature"},{"geometry":{"coordinates":[[[-122.56894,38.57243],[-122.56951,38.57321],[-122.57066,38.57322],[-122.57123,38.57244],[-122.57067,38.57166],[-122.56952,38.57165],[-122.56894,38.57243]]],"type":"Polygon"},"properties":{"bbox":{"roads":{"area":2300.83,"pct":8.86}},"city":{"roads":{"area":968.35,"pct":3.73}},"id":"hex:3583:24649"},"type":"Feature"},{"geometry":{"coordinates":[[[-122.56891,38.57711],[-122.56948,38.5779],[-122.57063,38.5779],[-122.57121,38.57712],[-122.57064,38.57634],[-122.56949,38.57634],[-122.56891,38.57711]]],"type":"Polygon"},"properties":{"bbox":{"roads":{"area":26.17,"pct":0.1}},"city_same":1,"id":"hex:3583:24652"},"type":"Feature"},{"geometry":{"coordinates":[[[-122.5689,38.57867],[-122.56947,38.57946],[-122.57062,38.57946],[-122.5712,38.57868],[-122.57063,38.5779],[-122.56948,38.5779],[-122.5689,38.57867]]],"type":"Polygon"},"properties":{"bbox":{"roads":{"area":986.58,"pct":3.8}},"city_same":1,"id":"hex:3583:24653"},"type":"Feature"},{"geometry":{"coordinates":[[[-122.56889,38.58024],[-122.56946,38.58102],[-122.57061,38.58102],[-122.57119,38.58024],[-122.57062,38.57946],[-122.56947,38.57946],[-122.56889,38.58024]]],"type":"Polygon"},"properties":{"bbox":{"roads":{"area":1965.47,"pct":7.57}},"city_same":1,"id":"hex:3583:24654"},"type":"Feature"},{"geometry":{"coordinates":[[[-122.56946,38.58102],[-122.57061,38.58102],[-122.57118,38.58181],[-122.5706,38.58258],[-122.56945,38.58258],[-122.56905,38.58203],[-122.56915,38.58201],[-122.5692,38.58198],[-122.56921,38.58193],[-122.56921,38.58191],[-122.56909,38.5818],[-122.56908,38.58178],[-122.56906,38.58178],[-122.56898,38.58167],[-122.56946,38.58102]]],"type":"Polygon"},"properties":{"bbox":{"roads":{"area":3314.37,"pct":13.04}},"city_same":1,"id":"hex:3583:24655"},"type":"Feature"},{"geometry":{"coordinates":[[[-122.56887,38.58336],[-122.56944,38.58414],[-122.57059,38.58414],[-122.57117,38.58337],[-122.5706,38.58258],[-122.56945,38.58258],[-122.56887,38.58336]]],"type":"Polygon"},"properties":{"bbox":{"roads":{"area":991.51,"pct":3.82}},"city_same":1,"id":"hex:3583:24656"},"type":"Feature"},{"geometry":{"coordinates":[[[[-122.56886,38.58492],[-122.5689,38.58487],[-122.56893,38.58488],[-122.56889,38.58495],[-122.56886,38.58492]]],[[[-122.5689,38.58497],[-122.56896,38.585],[-122.5691,38.58497],[-122.56915,38.58515],[-122.56929,38.58513],[-122.5693,38.58517],[-122.56946,38.58515],[-122.56963,38.58513],[-122.56971,38.58516],[-122.56978,38.5852],[-122.56987,38.5852],[-122.56991,38.58515],[-122.56989,38.58508],[-122.56975,38.58501],[-122.5695,38.58491],[-122.56928,38.58482],[-122.5691,38.58476],[-122.56901,38.58473],[-122.56944,38.58414],[-122.57059,38.58414],[-122.57116,38.58493],[-122.57079,38.58542],[-122.57045,38.58521],[-122.56922,38.58541],[-122.5689,38.58497]]]],"type":"MultiPolygon"},"properties":{"bbox":{"roads":{"area":4483.22,"pct":24.38},"sidewalks":{"area":253.37,"pct":1.38}},"city":{"roads":{"area":2756.82,"pct":14.99},"sidewalks":{"area":253.37,"pct":1.38}},"id":"hex:3583:24657"},"type":"Feature"},{"geometry":{"coordinates":[[[-122.56895,38.57087],[-122.56952,38.57165],[-122.56894,38.57243],[-122.56811,38.57243],[-122.56892,38.57105],[-122.56883,38.571],[-122.56891,38.57087],[-122.56895,38.57087]]],"type":"Polygon"},"properties":{"bbox":{"roads":{"area":900.9,"pct":8.83}},"city":{"roads":{"area":584.1,"pct":5.72}},"id":"hex:3584:24649"},"type":"Feature"},{"geometry":{"coordinates":[[[-122.56894,38.57243],[-122.56951,38.57321],[-122.56893,38.57399],[-122.56778,38.57399],[-122.56751,38.57362],[-122.56752,38.57362],[-122.56762,38.57325],[-122.56811,38.57243],[-122.56894,38.57243]]],"type":"Polygon"},"properties":{"bbox":{"roads":{"area":276.05,"pct":1.24}},"city_same":1,"id":"hex:3584:24650"},"type":"Feature"},{"geometry":{"coordinates":[[[[-122.56776,38.57711],[-122.56774,38.57708],[-122.56781,38.57711],[-122.56776,38.57711]]],[[[-122.56777,38.57555],[-122.56892,38.57555],[-122.56949,38.57634],[-122.56891,38.57711],[-122.56839,38.57711],[-122.56872,38.57653],[-122.56874,38.57646],[-122.56874,38.57641],[-122.56872,38.57636],[-122.56867,38.57633],[-122.56752,38.57588],[-122.56777,38.57555]]]],"type":"MultiPolygon"},"properties":{"bbox":{"roads":{"area":312.1,"pct":2.18}},"city_same":1,"id":"hex:3584:24652"},"type":"Feature"},{"geometry":{"coordinates":[[[-122.56891,38.57711],[-122.56948,38.5779],[-122.5689,38.57867],[-122.56775,38.57867],[-122.56718,38.57789],[-122.56776,38.57711],[-122.56781,38.57711],[-122.56818,38.57726],[-122.56824,38.57728],[-122.5683,38.57728],[-122.56839,38.57711],[-122.56891,38.57711]]],"type":"Polygon"},"properties":{"bbox":{"roads":{"area":796.89,"pct":3.13}},"city_same":1,"id":"hex:3584:24653"},"type":"Feature"},{"geometry":{"coordinates":[[[-122.56718,38.57945],[-122.56774,38.58023],[-122.56889,38.58024],[-122.56947,38.57946],[-122.5689,38.57867],[-122.56775,38.57867],[-122.56718,38.57945]]],"type":"Polygon"},"properties":{"bbox":{"roads":{"area":2754.44,"pct":10.6}},"city_same":1,"id":"hex:3584:24654"},"type":"Feature"},{"geometry":{"coordinates":[[[-122.56774,38.58179],[-122.56717,38.58101],[-122.56774,38.58023],[-122.56889,38.58024],[-122.56946,38.58102],[-122.56898,38.58167],[-122.56897,38.58167],[-122.56885,38.58157],[-122.56872,38.5815],[-122.56865,38.58148],[-122.56861,38.58148],[-122.5686,38.58149],[-122.56858,38.58152],[-122.56858,38.58156],[-122.5686,38.58161],[-122.56869,38.5818],[-122.56774,38.58179]]],"type":"Polygon"},"properties":{"bbox":{"roads":{"area":3066.84,"pct":12.17}},"city_same":1,"id":"hex:3584:24655"},"type":"Feature"},{"geometry":{"coordinates":[[[-122.56945,38.58258],[-122.56887,38.58336],[-122.56773,38.58335],[-122.56716,38.58257],[-122.56774,38.58179],[-122.56869,38.5818],[-122.56871,38.58184],[-122.56871,38.58185],[-122.56877,38.58195],[-122.56877,38.58204],[-122.56878,38.58212],[-122.56878,38.58215],[-122.5688,38.58216],[-122.56882,38.58218],[-122.56884,38.58215],[-122.56885,38.58214],[-122.56886,38.58211],[-122.56892,38.58207],[-122.569,38.58204],[-122.56905,38.58203],[-122.56945,38.58258]]],"type":"Polygon"},"properties":{"bbox":{"roads":{"area":1528.89,"pct":6.04}},"city_same":1,"id":"hex:3584:24656"},"type":"Feature"},{"geometry":{"coordinates":[[[-122.56886,38.58492],[-122.56772,38.58491],[-122.56715,38.58413],[-122.56773,38.58335],[-122.56887,38.58336],[-122.56944,38.58414],[-122.56901,38.58473],[-122.56895,38.58471],[-122.56878,38.58464],[-122.56867,38.5846],[-122.56861,38.58461],[-122.56866,38.58485],[-122.5687,38.58487],[-122.56876,38.5848],[-122.5689,38.58487],[-122.56886,38.58492]]],"type":"Polygon"},"properties":{"bbox":{"roads":{"area":4163.57,"pct":16.41},"sidewalks":{"area":265.37,"pct":1.05}},"city":{"roads":{"area":2819.02,"pct":11.11},"sidewalks":{"area":265.37,"pct":1.05}},"id":"hex:3584:24657"},"type":"Feature"},{"geometry":{"coordinates":[[[-122.56714,38.58569],[-122.56772,38.58491],[-122.56886,38.58492],[-122.56889,38.58495],[-122.56888,38.58496],[-122.5689,38.58497],[-122.56922,38.58541],[-122.5684,38.58555],[-122.56718,38.58575],[-122.56714,38.58569]]],"type":"Polygon"},"properties":{"bbox":{"roads":{"area":127.03,"pct":1.22},"sidewalks":{"area":143.72,"pct":1.38}},"city_same":1,"id":"hex:3584:24658"},"type":"Feature"},{"geometry":{"coordinates":[[[-122.56546,38.57866],[-122.56603,38.57944],[-122.56718,38.57945],[-122.56775,38.57867],[-122.56718,38.57789],[-122.56604,38.57788],[-122.56546,38.57866]]],"type":"Polygon"},"properties":{"bbox":{"roads":{"area":21.48,"pct":0.08}},"city_same":1,"id":"hex:3585:24653"},"type":"Feature"},{"geometry":{"coordinates":[[[-122.56545,38.58022],[-122.56602,38.58101],[-122.56717,38.58101],[-122.56774,38.58023],[-122.56718,38.57945],[-122.56603,38.57944],[-122.56545,38.58022]]],"type":"Polygon"},"properties":{"bbox":{"roads":{"area":1151.04,"pct":4.43}},"city_same":1,"id":"hex:3585:24654"},"type":"Feature"},{"geometry":{"coordinates":[[[-122.56544,38.58178],[-122.56601,38.58257],[-122.56716,38.58257],[-122.56774,38.58179],[-122.56717,38.58101],[-122.56602,38.58101],[-122.56544,38.58178]]],"type":"Polygon"},"properties":{"bbox":{"roads":{"area":1346.49,"pct":5.18}},"city_same":1,"id":"hex:3585:24655"},"type":"Feature"},{"geometry":{"coordinates":[[[-122.56543,38.58334],[-122.566,38.58413],[-122.56715,38.58413],[-122.56773,38.58335],[-122.56716,38.58257],[-122.56601,38.58257],[-122.56543,38.58334]]],"type":"Polygon"},"properties":{"bbox":{"roads":{"area":2096.11,"pct":8.07},"sidewalks":{"area":178,"pct":0.69}},"city":{"roads":{"area":733.29,"pct":2.82},"sidewalks":{"area":178,"pct":0.69}},"id":"hex:3585:24656"},"type":"Feature"},{"geometry":{"coordinates":[[[-122.56542,38.58491],[-122.56599,38.58569],[-122.56714,38.58569],[-122.56772,38.58491],[-122.56715,38.58413],[-122.566,38.58413],[-122.56542,38.58491]]],"type":"Polygon"},"properties":{"bbox":{"roads":{"area":93.93,"pct":0.36},"sidewalks":{"area":749.07,"pct":2.88}},"city_same":1,"id":"hex:3585:24657"},"type":"Feature"},{"geometry":{"coordinates":[[[-122.56599,38.58569],[-122.56714,38.58569],[-122.56718,38.58575],[-122.56578,38.58597],[-122.56599,38.58569]]],"type":"Polygon"},"properties":{"bbox":{"roads":{"area":245.17,"pct":12.39},"sidewalks":{"area":33.08,"pct":1.67}},"city_same":1,"id":"hex:3585:24658"},"type":"Feature"},{"geometry":{"coordinates":[[[-122.56604,38.57788],[-122.56546,38.57866],[-122.56477,38.57866],[-122.56555,38.57722],[-122.56604,38.57788]]],"type":"Polygon"},"properties":{"bbox":{"roads":{"area":438.69,"pct":5.14}},"city_same":1,"id":"hex:3586:24653"},"type":"Feature"},{"geometry":{"coordinates":[[[-122.56546,38.57866],[-122.56603,38.57944],[-122.56545,38.58022],[-122.5643,38.58022],[-122.56408,38.57992],[-122.56477,38.57866],[-122.56546,38.57866]]],"type":"Polygon"},"properties":{"bbox":{"roads":{"area":561.05,"pct":2.73}},"city_same":1,"id":"hex:3586:24654"},"type":"Feature"},{"geometry":{"coordinates":[[[-122.56371,38.58256],[-122.56428,38.58334],[-122.56543,38.58334],[-122.56601,38.58257],[-122.56544,38.58178],[-122.56429,38.58178],[-122.56371,38.58256]]],"type":"Polygon"},"properties":{"bbox":{"roads":{"area":2158.57,"pct":8.31}},"city":{"roads":{"area":798.57,"pct":3.07}},"id":"hex:3586:24656"},"type":"Feature"},{"geometry":{"coordinates":[[[-122.5637,38.58412],[-122.56427,38.5849],[-122.56542,38.58491],[-122.566,38.58413],[-122.56543,38.58334],[-122.56428,38.58334],[-122.5637,38.58412]]],"type":"Polygon"},"properties":{"bbox":{"roads":{"area":664.82,"pct":2.56}},"city_same":1,"id":"hex:3586:24657"},"type":"Feature"},{"geometry":{"coordinates":[[[-122.56369,38.58568],[-122.56427,38.5849],[-122.56542,38.58491],[-122.56599,38.58569],[-122.56578,38.58597],[-122.56545,38.58602],[-122.56497,38.58607],[-122.56415,38.58612],[-122.56401,38.58612],[-122.56369,38.58568]]],"type":"Polygon"},"properties":{"bbox":{"roads":{"area":2335.33,"pct":11.4}},"city_same":1,"id":"hex:3586:24658"},"type":"Feature"},{"geometry":{"coordinates":[[[-122.5643,38.58022],[-122.56372,38.581],[-122.56352,38.581],[-122.56396,38.58014],[-122.56408,38.57992],[-122.5643,38.58022]]],"type":"Polygon"},"properties":{"bbox":{"roads":{"area":424.02,"pct":15.56}},"city_same":1,"id":"hex:3587:24654"},"type":"Feature"},{"geometry":{"coordinates":[[[-122.56372,38.581],[-122.56429,38.58178],[-122.56371,38.58256],[-122.56258,38.58255],[-122.56278,38.58216],[-122.56283,38.58207],[-122.56296,38.5821],[-122.56301,38.582],[-122.56352,38.581],[-122.56372,38.581]]],"type":"Polygon"},"properties":{"bbox":{"roads":{"area":1369.26,"pct":9.85}},"city":{"roads":{"area":676.78,"pct":4.87}},"id":"hex:3587:24655"},"type":"Feature"},{"geometry":{"coordinates":[[[-122.56371,38.58256],[-122.56428,38.58334],[-122.5637,38.58412],[-122.56255,38.58411],[-122.5621,38.58348],[-122.56241,38.58288],[-122.56258,38.58255],[-122.56371,38.58256]]],"type":"Polygon"},"properties":{"bbox":{"roads":{"area":437.88,"pct":1.75}},"city_same":1,"id":"hex:3587:24656"},"type":"Feature"},{"geometry":{"coordinates":[[[-122.56255,38.58568],[-122.56369,38.58568],[-122.56401,38.58612],[-122.56384,38.58612],[-122.56364,38.5861],[-122.56279,38.58588],[-122.56246,38.58578],[-122.56255,38.58568]]],"type":"Polygon"},"properties":{"bbox":{"roads":{"area":654.97,"pct":16.85}},"city_same":1,"id":"hex:3587:24658"},"type":"Feature"},{"geometry":{"coordinates":[[[-122.56255,38.58411],[-122.56198,38.58489],[-122.56136,38.58489],[-122.56142,38.58477],[-122.56151,38.5846],[-122.56197,38.58372],[-122.5621,38.58348],[-122.56255,38.58411]]],"type":"Polygon"},"properties":{"bbox":{"roads":{"area":567.86,"pct":7.38}},"city_same":1,"id":"hex:3588:24657"},"type":"Feature"},{"geometry":{"coordinates":[[[-122.56198,38.58489],[-122.56255,38.58568],[-122.56246,38.58578],[-122.5611,38.58536],[-122.56124,38.58513],[-122.56136,38.58489],[-122.56198,38.58489]]],"type":"Polygon"},"properties":{"bbox":{"roads":{"area":848.3,"pct":12.34}},"city_same":1,"id":"hex:3588:24658"},"type":"Feature"},{"geometry":{"coordinates":[[[[-122.5569,38.57004],[-122.55707,38.56981],[-122.55692,38.57007],[-122.5569,38.57004]]],[[[-122.55747,38.57083],[-122.55732,38.57062],[-122.5574,38.57049],[-122.55742,38.57008],[-122.5575,38.5698],[-122.55747,38.56972],[-122.5574,38.56964],[-122.55728,38.56959],[-122.55723,38.5696],[-122.55744,38.56932],[-122.55817,38.57001],[-122.55821,38.57008],[-122.55821,38.5701],[-122.55821,38.57013],[-122.55825,38.57022],[-122.55827,38.57027],[-122.55838,38.57062],[-122.55856,38.57083],[-122.55747,38.57083]]]],"type":"MultiPolygon"},"properties":{"bbox":{"roads":{"area":327.84,"pct":3.24}},"city_same":1,"id":"hex:3590:24648"},"type":"Feature"},{"geometry":{"coordinates":[[[-122.55879,38.57214],[-122.55843,38.57199],[-122.55805,38.57184],[-122.55735,38.57154],[-122.55704,38.57141],[-122.55747,38.57083],[-122.55856,38.57083],[-122.55875,38.57106],[-122.55878,38.5711],[-122.55884,38.57117],[-122.55887,38.57118],[-122.5591,38.57149],[-122.55906,38.5715],[-122.55896,38.57154],[-122.55892,38.5716],[-122.5589,38.57166],[-122.55895,38.5717],[-122.559,38.57171],[-122.55902,38.57169],[-122.55903,38.5717],[-122.55903,38.5717],[-122.55905,38.5717],[-122.55904,38.57172],[-122.55903,38.57175],[-122.55904,38.57177],[-122.55906,38.57178],[-122.55879,38.57214]]],"type":"Polygon"},"properties":{"bbox":{"roads":{"area":999.87,"pct":6.19}},"city_same":1,"id":"hex:3590:24649"},"type":"Feature"},{"geometry":{"coordinates":[[[-122.55747,38.57083],[-122.55704,38.57141],[-122.55659,38.57122],[-122.55619,38.57106],[-122.55613,38.57103],[-122.55581,38.57085],[-122.55534,38.5706],[-122.55554,38.57033],[-122.55609,38.5706],[-122.55618,38.57063],[-122.55624,38.57063],[-122.55633,38.57058],[-122.55666,38.57004],[-122.5569,38.57004],[-122.55692,38.57007],[-122.55651,38.57073],[-122.55651,38.57079],[-122.55661,38.57088],[-122.55691,38.571],[-122.557,38.57101],[-122.55711,38.57094],[-122.55732,38.57062],[-122.55747,38.57083]]],"type":"Polygon"},"properties":{"bbox":{"roads":{"area":808.63,"pct":8.81}},"city_same":1,"id":"hex:3591:24648"},"type":"Feature"},{"geometry":{"coordinates":[[[-122.55518,38.56926],[-122.55503,38.56926],[-122.55516,38.56877],[-122.55522,38.56864],[-122.55557,38.56874],[-122.55518,38.56926]]],"type":"Polygon"},"properties":{"bbox":{"roads":{"area":321.18,"pct":20.53}},"city_same":1,"id":"hex:3592:24647"},"type":"Feature"},{"geometry":{"coordinates":[[[-122.55534,38.5706],[-122.55511,38.57048],[-122.55497,38.57041],[-122.55476,38.5703],[-122.55484,38.57001],[-122.55485,38.56997],[-122.5549,38.56979],[-122.55503,38.56926],[-122.55518,38.56926],[-122.5553,38.56942],[-122.55524,38.56963],[-122.5552,38.56985],[-122.55522,38.57001],[-122.55526,38.57013],[-122.55537,38.57025],[-122.55554,38.57033],[-122.55534,38.5706]]],"type":"Polygon"},"properties":{"bbox":{"roads":{"area":489.79,"pct":10.39}},"city_same":1,"id":"hex:3592:24648"},"type":"Feature"}],"type":"FeatureCollection","v":2}