{"features":[{"geometry":{"coordinates":[[[-118.08278,33.82987],[-118.08182,33.82628],[-118.08167,33.82516],[-118.07469,33.82301],[-118.0747,33.82345],[-118.07252,33.8235],[-118.07183,33.82325],[-118.07185,33.82397],[-118.06875,33.82402],[-118.06871,33.82261],[-118.0689,33.82217],[-118.06667,33.82219],[-118.06596,33.82398],[-118.06333,33.82414],[-118.06343,33.83095],[-118.0612,33.83334],[-118.06771,33.83331],[-118.06769,33.83244],[-118.06878,33.83245],[-118.06879,33.83471],[-118.0678,33.83471],[-118.06781,33.83508],[-118.06761,33.83508],[-118.06755,33.83807],[-118.072,33.83806],[-118.072,33.83866],[-118.07887,33.83864],[-118.07886,33.83691],[-118.07973,33.83691],[-118.07973,33.83397],[-118.08176,33.83398],[-118.08174,33.83126],[-118.08196,33.83126],[-118.08195,33.83065],[-118.08239,33.83052],[-118.08278,33.82987]]],"type":"Polygon"},"properties":{"type":"boundary"},"type":"Feature"}],"type":"FeatureCollection"}