{"features":[{"geometry":{"coordinates":[[[-118.08202,33.828],[-118.08221,33.82772],[-118.08244,33.8286],[-118.08202,33.828]]],"type":"Polygon"},"properties":{"bbox":{"parking":{"area":769.09,"pct":63.75},"roads":{"area":107.22,"pct":8.89}},"city_same":1,"id":"hex:2132:17291"},"type":"Feature"},{"geometry":{"coordinates":[[[-118.08204,33.82995],[-118.08259,33.82914],[-118.08278,33.82987],[-118.08274,33.83007],[-118.08265,33.83023],[-118.08242,33.83049],[-118.08204,33.82995]]],"type":"Polygon"},"properties":{"bbox":{"parking":{"area":891.26,"pct":16.58},"roads":{"area":230.83,"pct":4.29}},"city_same":1,"id":"hex:2132:17292"},"type":"Feature"},{"geometry":{"coordinates":[[[-118.08064,33.82606],[-118.07995,33.82509],[-118.08021,33.82471],[-118.08167,33.82516],[-118.08179,33.82605],[-118.08064,33.82606]]],"type":"Polygon"},"properties":{"bbox":{"roads":{"area":3090.36,"pct":18.27},"sidewalks":{"area":386.25,"pct":2.28}},"city":{"roads":{"area":3052.33,"pct":18.04},"sidewalks":{"area":386.25,"pct":2.28}},"id":"hex:2133:17289"},"type":"Feature"},{"geometry":{"coordinates":[[[-118.08202,33.828],[-118.08066,33.82801],[-118.07998,33.82704],[-118.08064,33.82606],[-118.08179,33.82605],[-118.08182,33.82628],[-118.08221,33.82772],[-118.08202,33.828]]],"type":"Polygon"},"properties":{"bbox":{"parking":{"area":547.93,"pct":1.62},"roads":{"area":4319.69,"pct":12.78},"sidewalks":{"area":134.5,"pct":0.4}},"city_same":1,"id":"hex:2133:17290"},"type":"Feature"},{"geometry":{"coordinates":[[[-118.08204,33.82995],[-118.08069,33.82996],[-118.08,33.82899],[-118.08066,33.82801],[-118.08202,33.828],[-118.08244,33.8286],[-118.08259,33.82914],[-118.08204,33.82995]]],"type":"Polygon"},"properties":{"bbox":{"parking":{"area":426.02,"pct":1.06},"roads":{"area":4910.73,"pct":12.23},"sidewalks":{"area":405.21,"pct":1.01}},"city_same":1,"id":"hex:2133:17291"},"type":"Feature"},{"geometry":{"coordinates":[[[-118.08071,33.83191],[-118.08003,33.83094],[-118.08069,33.82996],[-118.08204,33.82995],[-118.08242,33.83049],[-118.08239,33.83052],[-118.08216,33.83064],[-118.08195,33.83065],[-118.08196,33.83126],[-118.08174,33.83126],[-118.08174,33.83191],[-118.08071,33.83191]]],"type":"Polygon"},"properties":{"bbox":{"parking":{"area":1629.52,"pct":5.01},"roads":{"area":7522.13,"pct":23.11},"sidewalks":{"area":489.52,"pct":1.5}},"city_same":1,"id":"hex:2133:17292"},"type":"Feature"},{"geometry":{"coordinates":[[[-118.08074,33.83387],[-118.08005,33.8329],[-118.08071,33.83191],[-118.08174,33.83191],[-118.08176,33.83386],[-118.08074,33.83387]]],"type":"Polygon"},"properties":{"bbox":{"roads":{"area":3608.86,"pct":13.21},"sidewalks":{"area":325.22,"pct":1.19}},"city_same":1,"id":"hex:2133:17293"},"type":"Feature"},{"geometry":{"coordinates":[[[-118.08074,33.83387],[-118.08176,33.83386],[-118.08176,33.83398],[-118.08067,33.83397],[-118.08074,33.83387]]],"type":"Polygon"},"properties":{"bbox":{"roads":{"area":161.15,"pct":12.83},"sidewalks":{"area":12.65,"pct":1.01}},"city_same":1,"id":"hex:2133:17294"},"type":"Feature"},{"geometry":{"coordinates":[[[-118.07995,33.82509],[-118.0786,33.8251],[-118.07791,33.82413],[-118.07798,33.82403],[-118.08021,33.82471],[-118.07995,33.82509]]],"type":"Polygon"},"properties":{"bbox":{"roads":{"area":1880.9,"pct":14.08}},"city_same":1,"id":"hex:2134:17289"},"type":"Feature"},{"geometry":{"coordinates":[[[-118.07794,33.82608],[-118.07863,33.82705],[-118.07998,33.82704],[-118.08064,33.82606],[-118.07995,33.82509],[-118.0786,33.8251],[-118.07794,33.82608]]],"type":"Polygon"},"properties":{"bbox":{"roads":{"area":4588.13,"pct":11.3}},"city_same":1,"id":"hex:2134:17290"},"type":"Feature"},{"geometry":{"coordinates":[[[-118.07796,33.82803],[-118.07865,33.829],[-118.08,33.82899],[-118.08066,33.82801],[-118.07998,33.82704],[-118.07863,33.82705],[-118.07796,33.82803]]],"type":"Polygon"},"properties":{"bbox":{"roads":{"area":4380.12,"pct":10.79}},"city_same":1,"id":"hex:2134:17291"},"type":"Feature"},{"geometry":{"coordinates":[[[-118.07799,33.82999],[-118.07868,33.83096],[-118.08003,33.83094],[-118.08069,33.82996],[-118.08,33.82899],[-118.07865,33.829],[-118.07799,33.82999]]],"type":"Polygon"},"properties":{"bbox":{"roads":{"area":4699.01,"pct":11.58}},"city_same":1,"id":"hex:2134:17292"},"type":"Feature"},{"geometry":{"coordinates":[[[-118.07801,33.83194],[-118.0787,33.83291],[-118.08005,33.8329],[-118.08071,33.83191],[-118.08003,33.83094],[-118.07868,33.83096],[-118.07801,33.83194]]],"type":"Polygon"},"properties":{"bbox":{"roads":{"area":7913.27,"pct":19.49}},"city_same":1,"id":"hex:2134:17293"},"type":"Feature"},{"geometry":{"coordinates":[[[-118.07872,33.83486],[-118.07804,33.83389],[-118.0787,33.83291],[-118.08005,33.8329],[-118.08074,33.83387],[-118.08067,33.83397],[-118.07973,33.83397],[-118.07973,33.83485],[-118.07872,33.83486]]],"type":"Polygon"},"properties":{"bbox":{"parking":{"area":1268.79,"pct":3.64},"roads":{"area":3998.84,"pct":11.48}},"city_same":1,"id":"hex:2134:17294"},"type":"Feature"},{"geometry":{"coordinates":[[[-118.07809,33.83779],[-118.07875,33.83681],[-118.07973,33.8368],[-118.07973,33.83691],[-118.07886,33.83691],[-118.07887,33.83864],[-118.07869,33.83864],[-118.07809,33.83779]]],"type":"Polygon"},"properties":{"bbox":{"roads":{"area":1158.64,"pct":12.09}},"city_same":1,"id":"hex:2134:17296"},"type":"Feature"},{"geometry":{"coordinates":[[[-118.07791,33.82413],[-118.07656,33.82414],[-118.07606,33.82344],[-118.07798,33.82403],[-118.07791,33.82413]]],"type":"Polygon"},"properties":{"bbox":{"roads":{"area":1663.36,"pct":27.16}},"city_same":1,"id":"hex:2135:17288"},"type":"Feature"},{"geometry":{"coordinates":[[[-118.0759,33.82512],[-118.07659,33.82609],[-118.07794,33.82608],[-118.0786,33.8251],[-118.07791,33.82413],[-118.07656,33.82414],[-118.0759,33.82512]]],"type":"Polygon"},"properties":{"bbox":{"roads":{"area":3975.65,"pct":9.79}},"city_same":1,"id":"hex:2135:17289"},"type":"Feature"},{"geometry":{"coordinates":[[[-118.07593,33.82707],[-118.07661,33.82804],[-118.07796,33.82803],[-118.07863,33.82705],[-118.07794,33.82608],[-118.07659,33.82609],[-118.07593,33.82707]]],"type":"Polygon"},"properties":{"bbox":{"roads":{"area":2420.64,"pct":5.96}},"city_same":1,"id":"hex:2135:17290"},"type":"Feature"},{"geometry":{"coordinates":[[[-118.07595,33.82903],[-118.07664,33.83],[-118.07799,33.82999],[-118.07865,33.829],[-118.07796,33.82803],[-118.07661,33.82804],[-118.07595,33.82903]]],"type":"Polygon"},"properties":{"bbox":{"roads":{"area":4547.66,"pct":11.2}},"city_same":1,"id":"hex:2135:17291"},"type":"Feature"},{"geometry":{"coordinates":[[[-118.07597,33.83098],[-118.07666,33.83195],[-118.07801,33.83194],[-118.07868,33.83096],[-118.07799,33.82999],[-118.07664,33.83],[-118.07597,33.83098]]],"type":"Polygon"},"properties":{"bbox":{"roads":{"area":8592.09,"pct":21.17}},"city_same":1,"id":"hex:2135:17292"},"type":"Feature"},{"geometry":{"coordinates":[[[-118.076,33.83293],[-118.07669,33.8339],[-118.07804,33.83389],[-118.0787,33.83291],[-118.07801,33.83194],[-118.07666,33.83195],[-118.076,33.83293]]],"type":"Polygon"},"properties":{"bbox":{"roads":{"area":8719.36,"pct":21.48}},"city_same":1,"id":"hex:2135:17293"},"type":"Feature"},{"geometry":{"coordinates":[[[-118.07602,33.83488],[-118.07671,33.83585],[-118.07806,33.83584],[-118.07872,33.83486],[-118.07804,33.83389],[-118.07669,33.8339],[-118.07602,33.83488]]],"type":"Polygon"},"properties":{"bbox":{"parking":{"area":130.1,"pct":0.32},"roads":{"area":2755.67,"pct":6.79}},"city_same":1,"id":"hex:2135:17294"},"type":"Feature"},{"geometry":{"coordinates":[[[-118.07605,33.83684],[-118.07674,33.83781],[-118.07809,33.83779],[-118.07875,33.83681],[-118.07806,33.83584],[-118.07671,33.83585],[-118.07605,33.83684]]],"type":"Polygon"},"properties":{"bbox":{"roads":{"area":1638.76,"pct":4.04}},"city_same":1,"id":"hex:2135:17295"},"type":"Feature"},{"geometry":{"coordinates":[[[-118.07674,33.83781],[-118.07809,33.83779],[-118.07869,33.83864],[-118.07617,33.83865],[-118.07674,33.83781]]],"type":"Polygon"},"properties":{"bbox":{"roads":{"area":748.26,"pct":4.46}},"city_same":1,"id":"hex:2135:17296"},"type":"Feature"},{"geometry":{"coordinates":[[[-118.07656,33.82414],[-118.0759,33.82512],[-118.07455,33.82513],[-118.07386,33.82416],[-118.07434,33.82346],[-118.0747,33.82345],[-118.0747,33.82318],[-118.07522,33.82318],[-118.07606,33.82344],[-118.07656,33.82414]]],"type":"Polygon"},"properties":{"bbox":{"roads":{"area":4571.84,"pct":11.73}},"city_same":1,"id":"hex:2136:17289"},"type":"Feature"},{"geometry":{"coordinates":[[[-118.07389,33.82612],[-118.07457,33.82709],[-118.07593,33.82707],[-118.07659,33.82609],[-118.0759,33.82512],[-118.07455,33.82513],[-118.07389,33.82612]]],"type":"Polygon"},"properties":{"bbox":{"roads":{"area":5115.31,"pct":12.6}},"city_same":1,"id":"hex:2136:17290"},"type":"Feature"},{"geometry":{"coordinates":[[[-118.07391,33.82807],[-118.0746,33.82904],[-118.07595,33.82903],[-118.07661,33.82804],[-118.07593,33.82707],[-118.07457,33.82709],[-118.07391,33.82807]]],"type":"Polygon"},"properties":{"bbox":{"roads":{"area":4512.09,"pct":11.11}},"city_same":1,"id":"hex:2136:17291"},"type":"Feature"},{"geometry":{"coordinates":[[[-118.07394,33.83002],[-118.07462,33.83099],[-118.07597,33.83098],[-118.07664,33.83],[-118.07595,33.82903],[-118.0746,33.82904],[-118.07394,33.83002]]],"type":"Polygon"},"properties":{"bbox":{"parking":{"area":3127.55,"pct":7.7},"roads":{"area":4262.6,"pct":10.5}},"city_same":1,"id":"hex:2136:17292"},"type":"Feature"},{"geometry":{"coordinates":[[[-118.07396,33.83197],[-118.07465,33.83294],[-118.076,33.83293],[-118.07666,33.83195],[-118.07597,33.83098],[-118.07462,33.83099],[-118.07396,33.83197]]],"type":"Polygon"},"properties":{"bbox":{"parking":{"area":827.13,"pct":2.04},"roads":{"area":7437.12,"pct":18.32}},"city_same":1,"id":"hex:2136:17293"},"type":"Feature"},{"geometry":{"coordinates":[[[-118.07398,33.83393],[-118.07467,33.8349],[-118.07602,33.83488],[-118.07669,33.8339],[-118.076,33.83293],[-118.07465,33.83294],[-118.07398,33.83393]]],"type":"Polygon"},"properties":{"bbox":{"roads":{"area":3085.99,"pct":7.6}},"city_same":1,"id":"hex:2136:17294"},"type":"Feature"},{"geometry":{"coordinates":[[[-118.07401,33.83588],[-118.0747,33.83685],[-118.07605,33.83684],[-118.07671,33.83585],[-118.07602,33.83488],[-118.07467,33.8349],[-118.07401,33.83588]]],"type":"Polygon"},"properties":{"bbox":{"roads":{"area":4901.98,"pct":12.08}},"city_same":1,"id":"hex:2136:17295"},"type":"Feature"},{"geometry":{"coordinates":[[[-118.07403,33.83783],[-118.0747,33.83685],[-118.07605,33.83684],[-118.07674,33.83781],[-118.07617,33.83865],[-118.07461,33.83865],[-118.07403,33.83783]]],"type":"Polygon"},"properties":{"bbox":{"roads":{"area":4749.83,"pct":12.36}},"city_same":1,"id":"hex:2136:17296"},"type":"Feature"},{"geometry":{"coordinates":[[[-118.07386,33.82416],[-118.07251,33.82418],[-118.07186,33.82325],[-118.07202,33.82326],[-118.07252,33.8235],[-118.07434,33.82346],[-118.07386,33.82416]]],"type":"Polygon"},"properties":{"bbox":{"roads":{"area":2084.29,"pct":15.19}},"city_same":1,"id":"hex:2137:17288"},"type":"Feature"},{"geometry":{"coordinates":[[[-118.07185,33.82516],[-118.07254,33.82613],[-118.07389,33.82612],[-118.07455,33.82513],[-118.07386,33.82416],[-118.07251,33.82418],[-118.07185,33.82516]]],"type":"Polygon"},"properties":{"bbox":{"roads":{"area":3922.63,"pct":9.66}},"city_same":1,"id":"hex:2137:17289"},"type":"Feature"},{"geometry":{"coordinates":[[[-118.07187,33.82711],[-118.07256,33.82808],[-118.07391,33.82807],[-118.07457,33.82709],[-118.07389,33.82612],[-118.07254,33.82613],[-118.07187,33.82711]]],"type":"Polygon"},"properties":{"bbox":{"roads":{"area":4507.67,"pct":11.1}},"city_same":1,"id":"hex:2137:17290"},"type":"Feature"},{"geometry":{"coordinates":[[[-118.0719,33.82906],[-118.07259,33.83003],[-118.07394,33.83002],[-118.0746,33.82904],[-118.07391,33.82807],[-118.07256,33.82808],[-118.0719,33.82906]]],"type":"Polygon"},"properties":{"bbox":{"parking":{"area":1292.09,"pct":3.18},"roads":{"area":4950.36,"pct":12.19}},"city_same":1,"id":"hex:2137:17291"},"type":"Feature"},{"geometry":{"coordinates":[[[-118.07192,33.83101],[-118.07261,33.83198],[-118.07396,33.83197],[-118.07462,33.83099],[-118.07394,33.83002],[-118.07259,33.83003],[-118.07192,33.83101]]],"type":"Polygon"},"properties":{"bbox":{"parking":{"area":13357.93,"pct":32.91},"roads":{"area":10290.63,"pct":25.35}},"city_same":1,"id":"hex:2137:17292"},"type":"Feature"},{"geometry":{"coordinates":[[[-118.07195,33.83297],[-118.07263,33.83394],[-118.07398,33.83393],[-118.07465,33.83294],[-118.07396,33.83197],[-118.07261,33.83198],[-118.07195,33.83297]]],"type":"Polygon"},"properties":{"bbox":{"roads":{"area":4849.37,"pct":11.95}},"city":{"roads":{"area":4428.61,"pct":10.91}},"id":"hex:2137:17293"},"type":"Feature"},{"geometry":{"coordinates":[[[-118.07197,33.83492],[-118.07266,33.83589],[-118.07401,33.83588],[-118.07467,33.8349],[-118.07398,33.83393],[-118.07263,33.83394],[-118.07197,33.83492]]],"type":"Polygon"},"properties":{"bbox":{"roads":{"area":5221.14,"pct":12.86}},"city":{"roads":{"area":4783.61,"pct":11.78}},"id":"hex:2137:17294"},"type":"Feature"},{"geometry":{"coordinates":[[[-118.072,33.83687],[-118.07268,33.83784],[-118.07403,33.83783],[-118.0747,33.83685],[-118.07401,33.83588],[-118.07266,33.83589],[-118.072,33.83687]]],"type":"Polygon"},"properties":{"bbox":{"roads":{"area":3426.7,"pct":8.44}},"city":{"roads":{"area":3162.25,"pct":7.79}},"id":"hex:2137:17295"},"type":"Feature"},{"geometry":{"coordinates":[[[-118.07268,33.83784],[-118.07403,33.83783],[-118.07461,33.83865],[-118.07213,33.83866],[-118.07268,33.83784]]],"type":"Polygon"},"properties":{"bbox":{"roads":{"area":2015.38,"pct":12.55}},"city":{"roads":{"area":2001.5,"pct":12.47}},"id":"hex:2137:17296"},"type":"Feature"},{"geometry":{"coordinates":[[[-118.07251,33.82418],[-118.07185,33.82516],[-118.0705,33.82517],[-118.06981,33.8242],[-118.06994,33.824],[-118.07185,33.82397],[-118.07183,33.82325],[-118.07186,33.82325],[-118.07251,33.82418]]],"type":"Polygon"},"properties":{"bbox":{"roads":{"area":6379.52,"pct":23.09}},"city_same":1,"id":"hex:2138:17289"},"type":"Feature"},{"geometry":{"coordinates":[[[-118.06984,33.82615],[-118.07052,33.82712],[-118.07187,33.82711],[-118.07254,33.82613],[-118.07185,33.82516],[-118.0705,33.82517],[-118.06984,33.82615]]],"type":"Polygon"},"properties":{"bbox":{"roads":{"area":7572.14,"pct":18.65}},"city_same":1,"id":"hex:2138:17290"},"type":"Feature"},{"geometry":{"coordinates":[[[-118.06986,33.8281],[-118.07055,33.82907],[-118.0719,33.82906],[-118.07256,33.82808],[-118.07187,33.82711],[-118.07052,33.82712],[-118.06986,33.8281]]],"type":"Polygon"},"properties":{"bbox":{"roads":{"area":6828.8,"pct":16.82}},"city_same":1,"id":"hex:2138:17291"},"type":"Feature"},{"geometry":{"coordinates":[[[-118.06988,33.83006],[-118.07057,33.83103],[-118.07192,33.83101],[-118.07259,33.83003],[-118.0719,33.82906],[-118.07055,33.82907],[-118.06988,33.83006]]],"type":"Polygon"},"properties":{"bbox":{"parking":{"area":6876.94,"pct":16.94},"roads":{"area":8514.28,"pct":20.97}},"city_same":1,"id":"hex:2138:17292"},"type":"Feature"},{"geometry":{"coordinates":[[[-118.06991,33.83201],[-118.0706,33.83298],[-118.07195,33.83297],[-118.07261,33.83198],[-118.07192,33.83101],[-118.07057,33.83103],[-118.06991,33.83201]]],"type":"Polygon"},"properties":{"bbox":{"parking":{"area":2375.81,"pct":5.85},"roads":{"area":11168.04,"pct":27.51}},"city":{"parking":{"area":2375.81,"pct":5.85},"roads":{"area":9098.91,"pct":22.41}},"id":"hex:2138:17293"},"type":"Feature"},{"geometry":{"coordinates":[[[-118.06993,33.83396],[-118.07062,33.83493],[-118.07197,33.83492],[-118.07263,33.83394],[-118.07195,33.83297],[-118.0706,33.83298],[-118.06993,33.83396]]],"type":"Polygon"},"properties":{"bbox":{"roads":{"area":6204.5,"pct":15.28}},"city":{"roads":{"area":3693.65,"pct":9.1}},"id":"hex:2138:17294"},"type":"Feature"},{"geometry":{"coordinates":[[[-118.06996,33.83591],[-118.07064,33.83688],[-118.072,33.83687],[-118.07266,33.83589],[-118.07197,33.83492],[-118.07062,33.83493],[-118.06996,33.83591]]],"type":"Polygon"},"properties":{"bbox":{"roads":{"area":6304.3,"pct":15.53}},"city":{"roads":{"area":3697.92,"pct":9.11}},"id":"hex:2138:17295"},"type":"Feature"},{"geometry":{"coordinates":[[[-118.06998,33.83787],[-118.07064,33.83688],[-118.072,33.83687],[-118.07268,33.83784],[-118.07213,33.83866],[-118.072,33.83866],[-118.072,33.83806],[-118.07012,33.83807],[-118.06998,33.83787]]],"type":"Polygon"},"properties":{"bbox":{"roads":{"area":5222.61,"pct":18.77}},"city":{"roads":{"area":2641.15,"pct":9.49}},"id":"hex:2138:17296"},"type":"Feature"},{"geometry":{"coordinates":[[[-118.06844,33.82226],[-118.06838,33.82217],[-118.0689,33.82217],[-118.06884,33.82225],[-118.06844,33.82226]]],"type":"Polygon"},"properties":{"bbox":{"roads":{"area":32.27,"pct":7.96}},"city_same":1,"id":"hex:2139:17287"},"type":"Feature"},{"geometry":{"coordinates":[[[-118.06981,33.8242],[-118.06846,33.82421],[-118.06777,33.82324],[-118.06844,33.82226],[-118.06884,33.82225],[-118.06878,33.82234],[-118.06874,33.82241],[-118.06873,33.82248],[-118.06871,33.82261],[-118.06875,33.82402],[-118.06994,33.824],[-118.06981,33.8242]]],"type":"Polygon"},"properties":{"bbox":{"roads":{"area":1949.66,"pct":13.2}},"city_same":1,"id":"hex:2139:17288"},"type":"Feature"},{"geometry":{"coordinates":[[[-118.0678,33.82519],[-118.06848,33.82616],[-118.06984,33.82615],[-118.0705,33.82517],[-118.06981,33.8242],[-118.06846,33.82421],[-118.0678,33.82519]]],"type":"Polygon"},"properties":{"bbox":{"roads":{"area":4128.28,"pct":10.17}},"city_same":1,"id":"hex:2139:17289"},"type":"Feature"},{"geometry":{"coordinates":[[[-118.06782,33.82715],[-118.06851,33.82812],[-118.06986,33.8281],[-118.07052,33.82712],[-118.06984,33.82615],[-118.06848,33.82616],[-118.06782,33.82715]]],"type":"Polygon"},"properties":{"bbox":{"roads":{"area":4766.36,"pct":11.74}},"city_same":1,"id":"hex:2139:17290"},"type":"Feature"},{"geometry":{"coordinates":[[[-118.06785,33.8291],[-118.06853,33.83007],[-118.06988,33.83006],[-118.07055,33.82907],[-118.06986,33.8281],[-118.06851,33.82812],[-118.06785,33.8291]]],"type":"Polygon"},"properties":{"bbox":{"roads":{"area":5927.8,"pct":14.6}},"city_same":1,"id":"hex:2139:17291"},"type":"Feature"},{"geometry":{"coordinates":[[[-118.06787,33.83105],[-118.06856,33.83202],[-118.06991,33.83201],[-118.07057,33.83103],[-118.06988,33.83006],[-118.06853,33.83007],[-118.06787,33.83105]]],"type":"Polygon"},"properties":{"bbox":{"roads":{"area":7400.4,"pct":18.23}},"city_same":1,"id":"hex:2139:17292"},"type":"Feature"},{"geometry":{"coordinates":[[[-118.06856,33.83202],[-118.06991,33.83201],[-118.0706,33.83298],[-118.06993,33.83396],[-118.06879,33.83397],[-118.06878,33.83245],[-118.06827,33.83245],[-118.06856,33.83202]]],"type":"Polygon"},"properties":{"bbox":{"roads":{"area":4059.69,"pct":13.02}},"city_same":1,"id":"hex:2139:17293"},"type":"Feature"},{"geometry":{"coordinates":[[[-118.06993,33.83396],[-118.07062,33.83493],[-118.06996,33.83591],[-118.06861,33.83592],[-118.06792,33.83495],[-118.06808,33.83471],[-118.06879,33.83471],[-118.06879,33.83397],[-118.06993,33.83396]]],"type":"Polygon"},"properties":{"bbox":{"roads":{"area":2770.67,"pct":7.46}},"city_same":1,"id":"hex:2139:17294"},"type":"Feature"},{"geometry":{"coordinates":[[[-118.06794,33.83691],[-118.06863,33.83788],[-118.06998,33.83787],[-118.07064,33.83688],[-118.06996,33.83591],[-118.06861,33.83592],[-118.06794,33.83691]]],"type":"Polygon"},"properties":{"bbox":{"roads":{"area":2069.91,"pct":5.1}},"city_same":1,"id":"hex:2139:17295"},"type":"Feature"},{"geometry":{"coordinates":[[[-118.06863,33.83788],[-118.06998,33.83787],[-118.07012,33.83807],[-118.0685,33.83807],[-118.06863,33.83788]]],"type":"Polygon"},"properties":{"bbox":{"roads":{"area":775.37,"pct":25.95}},"city_same":1,"id":"hex:2139:17296"},"type":"Feature"},{"geometry":{"coordinates":[[[-118.06642,33.82325],[-118.06777,33.82324],[-118.06846,33.82421],[-118.0678,33.82519],[-118.06645,33.8252],[-118.06576,33.82423],[-118.06593,33.82398],[-118.06596,33.82398],[-118.066,33.82388],[-118.06642,33.82325]]],"type":"Polygon"},"properties":{"bbox":{"roads":{"area":3954.03,"pct":9.74}},"city_same":1,"id":"hex:2140:17289"},"type":"Feature"},{"geometry":{"coordinates":[[[-118.06578,33.82619],[-118.06647,33.82716],[-118.06782,33.82715],[-118.06848,33.82616],[-118.0678,33.82519],[-118.06645,33.8252],[-118.06578,33.82619]]],"type":"Polygon"},"properties":{"bbox":{"roads":{"area":4162.13,"pct":10.25}},"city_same":1,"id":"hex:2140:17290"},"type":"Feature"},{"geometry":{"coordinates":[[[-118.06581,33.82814],[-118.0665,33.82911],[-118.06785,33.8291],[-118.06851,33.82812],[-118.06782,33.82715],[-118.06647,33.82716],[-118.06581,33.82814]]],"type":"Polygon"},"properties":{"bbox":{"roads":{"area":4135.35,"pct":10.19}},"city_same":1,"id":"hex:2140:17291"},"type":"Feature"},{"geometry":{"coordinates":[[[-118.06583,33.83009],[-118.06652,33.83106],[-118.06787,33.83105],[-118.06853,33.83007],[-118.06785,33.8291],[-118.0665,33.82911],[-118.06583,33.83009]]],"type":"Polygon"},"properties":{"bbox":{"roads":{"area":2896.3,"pct":7.13}},"city_same":1,"id":"hex:2140:17292"},"type":"Feature"},{"geometry":{"coordinates":[[[-118.06654,33.83301],[-118.06586,33.83204],[-118.06652,33.83106],[-118.06787,33.83105],[-118.06856,33.83202],[-118.06827,33.83245],[-118.06769,33.83244],[-118.0677,33.833],[-118.06654,33.83301]]],"type":"Polygon"},"properties":{"bbox":{"parking":{"area":1769.25,"pct":4.61},"roads":{"area":6985.89,"pct":18.2}},"city_same":1,"id":"hex:2140:17293"},"type":"Feature"},{"geometry":{"coordinates":[[[[-118.06792,33.83495],[-118.0678,33.83496],[-118.0678,33.83471],[-118.06808,33.83471],[-118.06792,33.83495]]],[[[-118.06654,33.83301],[-118.0677,33.833],[-118.06771,33.83331],[-118.06634,33.83332],[-118.06654,33.83301]]]],"type":"MultiPolygon"},"properties":{"bbox":{"roads":{"area":145.28,"pct":3.26}},"city_same":1,"id":"hex:2140:17294"},"type":"Feature"},{"geometry":{"coordinates":[[[-118.06792,33.83495],[-118.06861,33.83592],[-118.06794,33.83691],[-118.06758,33.83691],[-118.06761,33.83679],[-118.06761,33.83665],[-118.06761,33.83508],[-118.06781,33.83508],[-118.0678,33.83496],[-118.06792,33.83495]]],"type":"Polygon"},"properties":{"bbox":{"roads":{"area":2315.94,"pct":17.85}},"city_same":1,"id":"hex:2140:17295"},"type":"Feature"},{"geometry":{"coordinates":[[[-118.06794,33.83691],[-118.06863,33.83788],[-118.0685,33.83807],[-118.06755,33.83807],[-118.06755,33.83717],[-118.06756,33.83701],[-118.06758,33.83691],[-118.06794,33.83691]]],"type":"Polygon"},"properties":{"bbox":{"roads":{"area":1714.82,"pct":18.49}},"city_same":1,"id":"hex:2140:17296"},"type":"Feature"},{"geometry":{"coordinates":[[[[-118.06576,33.82423],[-118.06441,33.82425],[-118.06432,33.82412],[-118.06451,33.82412],[-118.06454,33.82402],[-118.06593,33.82398],[-118.06576,33.82423]]],[[[-118.06642,33.82325],[-118.066,33.82388],[-118.06631,33.82309],[-118.06642,33.82325]]]],"type":"MultiPolygon"},"properties":{"bbox":{"roads":{"area":143.34,"pct":3.45}},"city_same":1,"id":"hex:2141:17288"},"type":"Feature"},{"geometry":{"coordinates":[[[-118.06375,33.82523],[-118.06443,33.8262],[-118.06578,33.82619],[-118.06645,33.8252],[-118.06576,33.82423],[-118.06441,33.82425],[-118.06375,33.82523]]],"type":"Polygon"},"properties":{"bbox":{"roads":{"area":2512,"pct":6.19}},"city_same":1,"id":"hex:2141:17289"},"type":"Feature"},{"geometry":{"coordinates":[[[-118.06377,33.82718],[-118.06446,33.82815],[-118.06581,33.82814],[-118.06647,33.82716],[-118.06578,33.82619],[-118.06443,33.8262],[-118.06377,33.82718]]],"type":"Polygon"},"properties":{"bbox":{"roads":{"area":3823.65,"pct":9.42}},"city_same":1,"id":"hex:2141:17290"},"type":"Feature"},{"geometry":{"coordinates":[[[-118.06379,33.82913],[-118.06448,33.8301],[-118.06583,33.83009],[-118.0665,33.82911],[-118.06581,33.82814],[-118.06446,33.82815],[-118.06379,33.82913]]],"type":"Polygon"},"properties":{"bbox":{"roads":{"area":5837.92,"pct":14.38}},"city_same":1,"id":"hex:2141:17291"},"type":"Feature"},{"geometry":{"coordinates":[[[-118.06382,33.83108],[-118.06451,33.83206],[-118.06586,33.83204],[-118.06652,33.83106],[-118.06583,33.83009],[-118.06448,33.8301],[-118.06382,33.83108]]],"type":"Polygon"},"properties":{"bbox":{"roads":{"area":8117.47,"pct":20}},"city_same":1,"id":"hex:2141:17292"},"type":"Feature"},{"geometry":{"coordinates":[[[-118.06384,33.83304],[-118.06451,33.83206],[-118.06586,33.83204],[-118.06654,33.83301],[-118.06634,33.83332],[-118.06405,33.83333],[-118.06384,33.83304]]],"type":"Polygon"},"properties":{"bbox":{"parking":{"area":3928.53,"pct":14.07},"roads":{"area":3432.52,"pct":12.29}},"city_same":1,"id":"hex:2141:17293"},"type":"Feature"},{"geometry":{"coordinates":[[[-118.06441,33.82425],[-118.06375,33.82523],[-118.06335,33.82523],[-118.06333,33.82414],[-118.06432,33.82412],[-118.06441,33.82425]]],"type":"Polygon"},"properties":{"bbox":{"roads":{"area":840.93,"pct":9.74}},"city_same":1,"id":"hex:2142:17289"},"type":"Feature"},{"geometry":{"coordinates":[[[-118.06375,33.82523],[-118.06443,33.8262],[-118.06377,33.82718],[-118.06337,33.82718],[-118.06335,33.82523],[-118.06375,33.82523]]],"type":"Polygon"},"properties":{"bbox":{"roads":{"area":809.66,"pct":5.5}},"city_same":1,"id":"hex:2142:17290"},"type":"Feature"},{"geometry":{"coordinates":[[[-118.06377,33.82718],[-118.06446,33.82815],[-118.06379,33.82913],[-118.0634,33.82914],[-118.06337,33.82718],[-118.06377,33.82718]]],"type":"Polygon"},"properties":{"bbox":{"roads":{"area":196.39,"pct":1.34}},"city_same":1,"id":"hex:2142:17291"},"type":"Feature"},{"geometry":{"coordinates":[[[-118.06379,33.82913],[-118.06448,33.8301],[-118.06382,33.83108],[-118.0633,33.83109],[-118.06343,33.83095],[-118.0634,33.82914],[-118.06379,33.82913]]],"type":"Polygon"},"properties":{"bbox":{"roads":{"area":2333.49,"pct":15.9}},"city_same":1,"id":"hex:2142:17292"},"type":"Feature"},{"geometry":{"coordinates":[[[-118.06382,33.83108],[-118.06451,33.83206],[-118.06384,33.83304],[-118.06249,33.83305],[-118.06205,33.83243],[-118.0633,33.83109],[-118.06382,33.83108]]],"type":"Polygon"},"properties":{"bbox":{"roads":{"area":7433.01,"pct":22.89}},"city_same":1,"id":"hex:2142:17293"},"type":"Feature"},{"geometry":{"coordinates":[[[-118.06249,33.83305],[-118.06384,33.83304],[-118.06405,33.83333],[-118.0623,33.83334],[-118.06249,33.83305]]],"type":"Polygon"},"properties":{"bbox":{"roads":{"area":1155.3,"pct":25.07}},"city_same":1,"id":"hex:2142:17294"},"type":"Feature"}],"type":"FeatureCollection","v":2}