{"features":[{"geometry":{"coordinates":[[[[-117.89449,34.02779],[-117.89214,34.02828],[-117.89044,34.02901],[-117.88957,34.02968],[-117.88901,34.04351],[-117.88411,34.04372],[-117.87523,34.04822],[-117.8716,34.04835],[-117.86706,34.04658],[-117.86189,34.05317],[-117.85258,34.05355],[-117.85483,34.05896],[-117.85413,34.05942],[-117.85375,34.05891],[-117.85335,34.05903],[-117.85354,34.05937],[-117.85332,34.05966],[-117.85311,34.05956],[-117.85245,34.05977],[-117.85264,34.05949],[-117.85251,34.05929],[-117.85219,34.06],[-117.85252,34.06005],[-117.85239,34.06012],[-117.85254,34.06037],[-117.85193,34.06045],[-117.85177,34.05985],[-117.85206,34.05936],[-117.85117,34.05913],[-117.85076,34.0588],[-117.85017,34.05882],[-117.85062,34.05904],[-117.85103,34.05966],[-117.85069,34.05978],[-117.85043,34.05965],[-117.84974,34.05966],[-117.84974,34.06003],[-117.85045,34.06002],[-117.85055,34.0604],[-117.85124,34.06057],[-117.85126,34.06102],[-117.84964,34.0618],[-117.84856,34.0618],[-117.84772,34.06153],[-117.84769,34.0623],[-117.84722,34.0624],[-117.84453,34.06047],[-117.84562,34.05753],[-117.84184,34.05797],[-117.83805,34.05792],[-117.83422,34.05986],[-117.82605,34.0623],[-117.82509,34.06032],[-117.82986,34.05828],[-117.82904,34.05658],[-117.83591,34.05371],[-117.83298,34.04204],[-117.82811,34.04361],[-117.82668,34.0413],[-117.82867,34.03767],[-117.82469,34.03762],[-117.82506,34.03649],[-117.82534,34.03365],[-117.8259,34.03263],[-117.82749,34.03114],[-117.83468,34.02784],[-117.83539,34.02744],[-117.83666,34.02608],[-117.83841,34.02191],[-117.8392,34.02092],[-117.84172,34.01927],[-117.84578,34.01798],[-117.8483,34.0167],[-117.85377,34.01278],[-117.85661,34.0112],[-117.85937,34.00941],[-117.86919,34.00405],[-117.87104,34.00323],[-117.87277,34.00268],[-117.87388,34.004],[-117.87392,34.01163],[-117.86933,34.01165],[-117.86788,34.01572],[-117.87051,34.01734],[-117.87481,34.01399],[-117.87887,34.01198],[-117.87999,34.01341],[-117.88159,34.013],[-117.8822,34.01318],[-117.8828,34.01417],[-117.88298,34.01505],[-117.88353,34.0161],[-117.88666,34.01513],[-117.88739,34.01662],[-117.8914,34.02194],[-117.89408,34.02442],[-117.89493,34.02547],[-117.89572,34.02757],[-117.89449,34.02779]],[[-117.83487,34.04718],[-117.83487,34.04645],[-117.83444,34.04603],[-117.83442,34.04713],[-117.83487,34.04718]],[[-117.83562,34.02763],[-117.83561,34.02763],[-117.83561,34.02763],[-117.83561,34.02764],[-117.83566,34.02765],[-117.83566,34.02765],[-117.83566,34.02764],[-117.83566,34.02764],[-117.83565,34.02763],[-117.83565,34.02763],[-117.83564,34.02763],[-117.83563,34.02763],[-117.83562,34.02763]],[[-117.83641,34.04637],[-117.83645,34.04637],[-117.83645,34.04634],[-117.83641,34.04634],[-117.83641,34.04637]],[[-117.83685,34.02743],[-117.83686,34.02743],[-117.83686,34.02742],[-117.83687,34.02742],[-117.83687,34.02741],[-117.83687,34.0274],[-117.83687,34.0274],[-117.83686,34.02739],[-117.83685,34.02739],[-117.83685,34.02738],[-117.83684,34.02739],[-117.83683,34.02739],[-117.83682,34.02739],[-117.83682,34.0274],[-117.83682,34.02741],[-117.83682,34.02741],[-117.83682,34.02742],[-117.83683,34.02743],[-117.83684,34.02743],[-117.83685,34.02743]],[[-117.84518,34.04307],[-117.84491,34.04278],[-117.8444,34.04286],[-117.84468,34.04325],[-117.84468,34.04296],[-117.84486,34.04298],[-117.84511,34.0433],[-117.84532,34.04322],[-117.84518,34.04307]],[[-117.84666,34.04256],[-117.84639,34.04253],[-117.8462,34.04268],[-117.84643,34.04285],[-117.84669,34.04271],[-117.84666,34.04256]]],[[[-117.83684,34.0274],[-117.83685,34.0274],[-117.83685,34.0274],[-117.83685,34.0274],[-117.83685,34.0274],[-117.83685,34.02741],[-117.83685,34.02741],[-117.83685,34.02741],[-117.83685,34.02741],[-117.83684,34.02741],[-117.83684,34.02741],[-117.83684,34.02741],[-117.83684,34.02741],[-117.83684,34.02741],[-117.83683,34.02741],[-117.83683,34.0274],[-117.83684,34.0274],[-117.83684,34.0274],[-117.83684,34.0274],[-117.83684,34.0274]]]],"type":"MultiPolygon"},"properties":{"type":"boundary"},"type":"Feature"}],"type":"FeatureCollection"}