{"features":[{"geometry":{"coordinates":[[[-118.37875,33.91382],[-118.37874,33.9151],[-118.37848,33.91638],[-118.36998,33.91631],[-118.37001,33.90397],[-118.36943,33.90335],[-118.36942,33.90235],[-118.36586,33.90236],[-118.36585,33.90371],[-118.36507,33.90371],[-118.36506,33.90236],[-118.3642,33.90236],[-118.3642,33.90281],[-118.36374,33.9028],[-118.36374,33.90235],[-118.36202,33.90236],[-118.36202,33.90275],[-118.36176,33.90275],[-118.36177,33.90377],[-118.36163,33.90377],[-118.36174,33.90515],[-118.3613,33.90515],[-118.3613,33.90783],[-118.36176,33.90784],[-118.36178,33.90956],[-118.36214,33.90956],[-118.36215,33.91029],[-118.3613,33.91031],[-118.3613,33.91388],[-118.36176,33.91388],[-118.36176,33.91424],[-118.36189,33.91424],[-118.36176,33.91596],[-118.36129,33.91596],[-118.3613,33.91655],[-118.36267,33.91655],[-118.36267,33.91596],[-118.36381,33.91596],[-118.36382,33.91655],[-118.36834,33.91654],[-118.36834,33.9164],[-118.36922,33.91641],[-118.3691,33.91704],[-118.36841,33.91675],[-118.36565,33.91793],[-118.36568,33.92367],[-118.36679,33.92382],[-118.36678,33.92411],[-118.36822,33.92413],[-118.36776,33.92828],[-118.3672,33.92879],[-118.36719,33.92902],[-118.36842,33.92902],[-118.36841,33.93085],[-118.36186,33.93086],[-118.36187,33.93183],[-118.36136,33.93183],[-118.36135,33.93274],[-118.36025,33.93274],[-118.36026,33.93228],[-118.35593,33.93349],[-118.35591,33.93446],[-118.35486,33.93445],[-118.35486,33.93422],[-118.35373,33.93424],[-118.35373,33.93447],[-118.35286,33.93448],[-118.35286,33.9336],[-118.351,33.93329],[-118.34885,33.93265],[-118.3488,33.93315],[-118.349,33.93316],[-118.34894,33.93352],[-118.34945,33.93376],[-118.34828,33.93364],[-118.34828,33.93405],[-118.3472,33.93404],[-118.34718,33.93278],[-118.34611,33.93279],[-118.3463,33.93266],[-118.34616,33.93211],[-118.34496,33.93159],[-118.34495,33.93081],[-118.3363,33.93083],[-118.33629,33.92949],[-118.33735,33.92948],[-118.33728,33.92709],[-118.33813,33.92869],[-118.33778,33.92775],[-118.33571,33.924],[-118.33523,33.92386],[-118.3308,33.92387],[-118.3308,33.92404],[-118.33545,33.92407],[-118.33573,33.92424],[-118.33663,33.92592],[-118.33522,33.92539],[-118.33168,33.92521],[-118.32921,33.92536],[-118.32682,33.92573],[-118.32673,33.92611],[-118.32637,33.92612],[-118.32637,33.92671],[-118.32576,33.92672],[-118.32575,33.92881],[-118.32648,33.92881],[-118.32648,33.92917],[-118.32216,33.92916],[-118.32214,33.93072],[-118.31339,33.93072],[-118.31343,33.92353],[-118.31787,33.92169],[-118.31788,33.91768],[-118.31687,33.91768],[-118.31536,33.91855],[-118.31461,33.91855],[-118.31433,33.91649],[-118.32654,33.9165],[-118.32654,33.91285],[-118.33441,33.91283],[-118.33441,33.91234],[-118.33522,33.91235],[-118.33522,33.9108],[-118.33401,33.91079],[-118.334,33.90922],[-118.32652,33.90924],[-118.32651,33.90161],[-118.33142,33.89728],[-118.32669,33.90156],[-118.33154,33.89728],[-118.33301,33.89727],[-118.333,33.89829],[-118.33518,33.89826],[-118.33517,33.89468],[-118.34233,33.89468],[-118.34232,33.8936],[-118.34451,33.89351],[-118.34452,33.89546],[-118.34383,33.89542],[-118.34383,33.90245],[-118.35107,33.90257],[-118.35103,33.90193],[-118.35215,33.90192],[-118.35215,33.90111],[-118.35238,33.90108],[-118.35237,33.90161],[-118.35317,33.90169],[-118.35321,33.9023],[-118.35811,33.90231],[-118.35814,33.90059],[-118.35866,33.90065],[-118.35869,33.9011],[-118.359,33.90108],[-118.35913,33.90153],[-118.35944,33.90141],[-118.36126,33.90134],[-118.36129,33.89686],[-118.36918,33.89692],[-118.36828,33.89607],[-118.36631,33.89466],[-118.3787,33.89467],[-118.37875,33.91382]],[[-118.32667,33.91285],[-118.32667,33.91286],[-118.33087,33.91284],[-118.33507,33.91284],[-118.3351,33.91283],[-118.3351,33.9128],[-118.33507,33.91279],[-118.33441,33.91279],[-118.33441,33.91283],[-118.32667,33.91285]],[[-118.32588,33.91953],[-118.32588,33.91659],[-118.32569,33.91659],[-118.32568,33.92346],[-118.3259,33.92359],[-118.32588,33.91953]],[[-118.37463,33.91491],[-118.37472,33.9148],[-118.3745,33.9149],[-118.37463,33.91491]],[[-118.3748,33.915],[-118.37479,33.91499],[-118.37478,33.91499],[-118.37478,33.91497],[-118.37477,33.91497],[-118.37477,33.91495],[-118.37475,33.91494],[-118.37471,33.91494],[-118.37468,33.91495],[-118.37464,33.91497],[-118.37463,33.91499],[-118.37462,33.91502],[-118.37462,33.91505],[-118.37463,33.91507],[-118.37465,33.91509],[-118.37469,33.91511],[-118.37472,33.91511],[-118.37476,33.91511],[-118.37477,33.9151],[-118.37477,33.91508],[-118.37478,33.91508],[-118.37478,33.91507],[-118.3748,33.91506],[-118.37481,33.91505],[-118.37481,33.91503],[-118.37481,33.91501],[-118.3748,33.915]],[[-118.37472,33.9152],[-118.3747,33.91521],[-118.37469,33.91522],[-118.37469,33.91524],[-118.37471,33.91525],[-118.37473,33.91525],[-118.37475,33.91524],[-118.37475,33.91522],[-118.37474,33.91521],[-118.37472,33.9152]]],"type":"Polygon"},"properties":{"type":"boundary"},"type":"Feature"}],"type":"FeatureCollection"}