{"features":[{"geometry":{"coordinates":[[[-118.42293,33.90504],[-118.41969,33.90619],[-118.41755,33.90197],[-118.41567,33.90197],[-118.41554,33.90173],[-118.41446,33.90188],[-118.37876,33.9019],[-118.3786,33.88289],[-118.37891,33.88171],[-118.37867,33.88147],[-118.37867,33.88007],[-118.37992,33.8801],[-118.38007,33.87566],[-118.37996,33.87287],[-118.39554,33.8728],[-118.39597,33.87399],[-118.39597,33.87711],[-118.40156,33.87709],[-118.40204,33.87731],[-118.40276,33.87705],[-118.40312,33.87765],[-118.40454,33.87715],[-118.40486,33.87785],[-118.40694,33.87723],[-118.40717,33.87774],[-118.40949,33.87702],[-118.41665,33.89046],[-118.41857,33.89438],[-118.42328,33.90492],[-118.42293,33.90504]]],"type":"Polygon"},"properties":{"type":"boundary"},"type":"Feature"}],"type":"FeatureCollection"}