{"features":[{"geometry":{"coordinates":[[[-118.42232,33.90459],[-118.42313,33.90458],[-118.42328,33.90492],[-118.42293,33.90504],[-118.42233,33.90524],[-118.42237,33.9053],[-118.4217,33.90552],[-118.42232,33.90459]]],"type":"Polygon"},"properties":{"bbox":{"parking":{"area":154.01,"pct":2.23},"roads":{"area":53.7,"pct":0.78}},"city_same":1,"id":"hex:1965:17332"},"type":"Feature"},{"geometry":{"coordinates":[[[-118.4216,33.90167],[-118.42024,33.90169],[-118.41955,33.90072],[-118.42021,33.89974],[-118.42094,33.89973],[-118.42173,33.90148],[-118.4216,33.90167]]],"type":"Polygon"},"properties":{"bbox":{"parking":{"area":2277.03,"pct":7.7},"roads":{"area":683.34,"pct":2.31},"sidewalks":{"area":2.04,"pct":0.01}},"city_same":1,"id":"hex:1966:17330"},"type":"Feature"},{"geometry":{"coordinates":[[[-118.42163,33.90362],[-118.42028,33.90364],[-118.41958,33.90267],[-118.42024,33.90169],[-118.4216,33.90167],[-118.42219,33.9025],[-118.42227,33.90267],[-118.42163,33.90362]]],"type":"Polygon"},"properties":{"bbox":{"parking":{"area":3161.93,"pct":7.8},"roads":{"area":3585.6,"pct":8.84}},"city_same":1,"id":"hex:1966:17331"},"type":"Feature"},{"geometry":{"coordinates":[[[-118.42031,33.90559],[-118.41962,33.90462],[-118.42028,33.90364],[-118.42163,33.90362],[-118.42232,33.90459],[-118.4217,33.90552],[-118.42151,33.90558],[-118.42031,33.90559]]],"type":"Polygon"},"properties":{"bbox":{"parking":{"area":2106.91,"pct":5.2},"roads":{"area":5266.7,"pct":12.99}},"city_same":1,"id":"hex:1966:17332"},"type":"Feature"},{"geometry":{"coordinates":[[[-118.42031,33.90559],[-118.42151,33.90558],[-118.42072,33.90584],[-118.41998,33.90609],[-118.42031,33.90559]]],"type":"Polygon"},"properties":{"bbox":{"roads":{"area":545.8,"pct":18.21}},"city_same":1,"id":"hex:1966:17333"},"type":"Feature"},{"geometry":{"coordinates":[[[-118.41952,33.89877],[-118.41817,33.89878],[-118.41748,33.89782],[-118.41814,33.89683],[-118.41949,33.89682],[-118.41991,33.89741],[-118.42012,33.89788],[-118.41952,33.89877]]],"type":"Polygon"},"properties":{"bbox":{"roads":{"area":1844.85,"pct":4.57}},"city_same":1,"id":"hex:1967:17328"},"type":"Feature"},{"geometry":{"coordinates":[[[-118.41751,33.89977],[-118.4182,33.90074],[-118.41955,33.90072],[-118.42021,33.89974],[-118.41952,33.89877],[-118.41817,33.89878],[-118.41751,33.89977]]],"type":"Polygon"},"properties":{"bbox":{"roads":{"area":6279.84,"pct":15.47},"sidewalks":{"area":282.95,"pct":0.7}},"city_same":1,"id":"hex:1967:17329"},"type":"Feature"},{"geometry":{"coordinates":[[[-118.41754,33.90172],[-118.41823,33.90269],[-118.41958,33.90267],[-118.42024,33.90169],[-118.41955,33.90072],[-118.4182,33.90074],[-118.41754,33.90172]]],"type":"Polygon"},"properties":{"bbox":{"parking":{"area":552.84,"pct":1.36},"roads":{"area":9156.01,"pct":22.55},"sidewalks":{"area":148.01,"pct":0.36}},"city_same":1,"id":"hex:1967:17330"},"type":"Feature"},{"geometry":{"coordinates":[[[-118.41823,33.90269],[-118.41958,33.90267],[-118.42028,33.90364],[-118.41962,33.90462],[-118.41888,33.90463],[-118.41884,33.90456],[-118.41805,33.90297],[-118.41823,33.90269]]],"type":"Polygon"},"properties":{"bbox":{"parking":{"area":1039.72,"pct":3.41},"roads":{"area":8187.96,"pct":26.83},"sidewalks":{"area":10.99,"pct":0.04}},"city_same":1,"id":"hex:1967:17331"},"type":"Feature"},{"geometry":{"coordinates":[[[-118.41962,33.90462],[-118.42031,33.90559],[-118.41998,33.90609],[-118.41969,33.90619],[-118.41888,33.90463],[-118.41962,33.90462]]],"type":"Polygon"},"properties":{"bbox":{"parking":{"area":1044.6,"pct":8.94},"roads":{"area":3530.92,"pct":30.23}},"city_same":1,"id":"hex:1967:17332"},"type":"Feature"},{"geometry":{"coordinates":[[[-118.41738,33.89196],[-118.41603,33.89197],[-118.41534,33.89101],[-118.416,33.89002],[-118.4164,33.89002],[-118.41665,33.89046],[-118.41738,33.89196],[-118.41738,33.89196]]],"type":"Polygon"},"properties":{"bbox":{"roads":{"area":193.44,"pct":0.79}},"city_same":1,"id":"hex:1968:17325"},"type":"Feature"},{"geometry":{"coordinates":[[[-118.41741,33.89391],[-118.41606,33.89393],[-118.41537,33.89296],[-118.41603,33.89197],[-118.41738,33.89196],[-118.41739,33.89197],[-118.41795,33.89311],[-118.41741,33.89391]]],"type":"Polygon"},"properties":{"bbox":{"parking":{"area":339.36,"pct":0.86},"roads":{"area":1509.68,"pct":3.84},"sidewalks":{"area":160.08,"pct":0.41}},"city_same":1,"id":"hex:1968:17326"},"type":"Feature"},{"geometry":{"coordinates":[[[-118.4154,33.89491],[-118.41609,33.89588],[-118.41744,33.89586],[-118.4181,33.89488],[-118.41741,33.89391],[-118.41606,33.89393],[-118.4154,33.89491]]],"type":"Polygon"},"properties":{"bbox":{"parking":{"area":1973.6,"pct":4.86},"roads":{"area":5903.33,"pct":14.54},"sidewalks":{"area":1164.25,"pct":2.87}},"city_same":1,"id":"hex:1968:17327"},"type":"Feature"},{"geometry":{"coordinates":[[[-118.41543,33.89686],[-118.41612,33.89783],[-118.41748,33.89782],[-118.41814,33.89683],[-118.41744,33.89586],[-118.41609,33.89588],[-118.41543,33.89686]]],"type":"Polygon"},"properties":{"bbox":{"roads":{"area":6372.15,"pct":15.7},"sidewalks":{"area":485.24,"pct":1.2}},"city_same":1,"id":"hex:1968:17328"},"type":"Feature"},{"geometry":{"coordinates":[[[-118.41547,33.89881],[-118.41616,33.89978],[-118.41751,33.89977],[-118.41817,33.89878],[-118.41748,33.89782],[-118.41612,33.89783],[-118.41547,33.89881]]],"type":"Polygon"},"properties":{"bbox":{"parking":{"area":549.35,"pct":1.35},"roads":{"area":7987.41,"pct":19.68},"sidewalks":{"area":518.4,"pct":1.28}},"city_same":1,"id":"hex:1968:17329"},"type":"Feature"},{"geometry":{"coordinates":[[[-118.4155,33.90077],[-118.41619,33.90173],[-118.41754,33.90172],[-118.4182,33.90074],[-118.41751,33.89977],[-118.41616,33.89978],[-118.4155,33.90077]]],"type":"Polygon"},"properties":{"bbox":{"parking":{"area":2210.5,"pct":5.45},"roads":{"area":9676.52,"pct":23.84},"sidewalks":{"area":413.79,"pct":1.02}},"city_same":1,"id":"hex:1968:17330"},"type":"Feature"},{"geometry":{"coordinates":[[[-118.41619,33.90173],[-118.41754,33.90172],[-118.41823,33.90269],[-118.41805,33.90297],[-118.41755,33.90197],[-118.41603,33.90197],[-118.41619,33.90173]]],"type":"Polygon"},"properties":{"bbox":{"parking":{"area":3646.6,"pct":59.83},"roads":{"area":1423.12,"pct":23.35}},"city_same":1,"id":"hex:1968:17331"},"type":"Feature"},{"geometry":{"coordinates":[[[-118.4153,33.88905],[-118.41395,33.88907],[-118.41326,33.8881],[-118.41392,33.88712],[-118.41479,33.88711],[-118.41498,33.88747],[-118.41561,33.8886],[-118.4153,33.88905]]],"type":"Polygon"},"properties":{"bbox":{"roads":{"area":255.39,"pct":0.77}},"city_same":1,"id":"hex:1969:17323"},"type":"Feature"},{"geometry":{"coordinates":[[[-118.41329,33.89005],[-118.41398,33.89102],[-118.41534,33.89101],[-118.416,33.89002],[-118.4153,33.88905],[-118.41395,33.88907],[-118.41329,33.89005]]],"type":"Polygon"},"properties":{"bbox":{"roads":{"area":2588.74,"pct":6.38}},"city_same":1,"id":"hex:1969:17324"},"type":"Feature"},{"geometry":{"coordinates":[[[-118.41333,33.89201],[-118.41402,33.89297],[-118.41537,33.89296],[-118.41603,33.89197],[-118.41534,33.89101],[-118.41398,33.89102],[-118.41333,33.89201]]],"type":"Polygon"},"properties":{"bbox":{"roads":{"area":7478.71,"pct":18.42},"sidewalks":{"area":963.89,"pct":2.37}},"city_same":1,"id":"hex:1969:17325"},"type":"Feature"},{"geometry":{"coordinates":[[[-118.41336,33.89396],[-118.41405,33.89493],[-118.4154,33.89491],[-118.41606,33.89393],[-118.41537,33.89296],[-118.41402,33.89297],[-118.41336,33.89396]]],"type":"Polygon"},"properties":{"bbox":{"parking":{"area":71.67,"pct":0.18},"roads":{"area":6601.04,"pct":16.26},"sidewalks":{"area":1251.13,"pct":3.08}},"city_same":1,"id":"hex:1969:17326"},"type":"Feature"},{"geometry":{"coordinates":[[[-118.41339,33.89591],[-118.41408,33.89688],[-118.41543,33.89686],[-118.41609,33.89588],[-118.4154,33.89491],[-118.41405,33.89493],[-118.41339,33.89591]]],"type":"Polygon"},"properties":{"bbox":{"roads":{"area":7250.43,"pct":17.86},"sidewalks":{"area":452.16,"pct":1.11}},"city_same":1,"id":"hex:1969:17327"},"type":"Feature"},{"geometry":{"coordinates":[[[-118.41342,33.89786],[-118.41411,33.89883],[-118.41547,33.89881],[-118.41612,33.89783],[-118.41543,33.89686],[-118.41408,33.89688],[-118.41342,33.89786]]],"type":"Polygon"},"properties":{"bbox":{"roads":{"area":6531.53,"pct":16.09}},"city_same":1,"id":"hex:1969:17328"},"type":"Feature"},{"geometry":{"coordinates":[[[-118.41345,33.89981],[-118.41415,33.90078],[-118.4155,33.90077],[-118.41616,33.89978],[-118.41547,33.89881],[-118.41411,33.89883],[-118.41345,33.89981]]],"type":"Polygon"},"properties":{"bbox":{"roads":{"area":5267.65,"pct":12.98}},"city_same":1,"id":"hex:1969:17329"},"type":"Feature"},{"geometry":{"coordinates":[[[-118.41349,33.90177],[-118.41415,33.90078],[-118.4155,33.90077],[-118.41619,33.90173],[-118.41603,33.90197],[-118.41567,33.90197],[-118.41554,33.90173],[-118.41509,33.90183],[-118.41486,33.90186],[-118.41446,33.90188],[-118.41357,33.90188],[-118.41349,33.90177]]],"type":"Polygon"},"properties":{"bbox":{"parking":{"area":619.71,"pct":2.64},"roads":{"area":3939.42,"pct":16.79}},"city_same":1,"id":"hex:1969:17330"},"type":"Feature"},{"geometry":{"coordinates":[[[-118.4132,33.8842],[-118.41184,33.88421],[-118.41115,33.88324],[-118.41181,33.88226],[-118.41219,33.88226],[-118.41296,33.88369],[-118.41301,33.88379],[-118.41315,33.88405],[-118.41322,33.88417],[-118.4132,33.8842]]],"type":"Polygon"},"properties":{"bbox":{"parking":{"area":322.57,"pct":1.32},"roads":{"area":65.51,"pct":0.27}},"city_same":1,"id":"hex:1970:17321"},"type":"Feature"},{"geometry":{"coordinates":[[[-118.41323,33.88615],[-118.41188,33.88616],[-118.41119,33.8852],[-118.41184,33.88421],[-118.4132,33.8842],[-118.41333,33.88439],[-118.41381,33.88528],[-118.41323,33.88615]]],"type":"Polygon"},"properties":{"bbox":{"parking":{"area":1780.84,"pct":4.46},"roads":{"area":2026.03,"pct":5.07},"sidewalks":{"area":37.73,"pct":0.09}},"city_same":1,"id":"hex:1970:17322"},"type":"Feature"},{"geometry":{"coordinates":[[[-118.41122,33.88715],[-118.41191,33.88812],[-118.41326,33.8881],[-118.41392,33.88712],[-118.41323,33.88615],[-118.41188,33.88616],[-118.41122,33.88715]]],"type":"Polygon"},"properties":{"bbox":{"roads":{"area":4946.77,"pct":12.19},"sidewalks":{"area":640.4,"pct":1.58}},"city":{"roads":{"area":3685.41,"pct":9.08},"sidewalks":{"area":640.4,"pct":1.58}},"id":"hex:1970:17323"},"type":"Feature"},{"geometry":{"coordinates":[[[-118.41125,33.8891],[-118.41194,33.89007],[-118.41329,33.89005],[-118.41395,33.88907],[-118.41326,33.8881],[-118.41191,33.88812],[-118.41125,33.8891]]],"type":"Polygon"},"properties":{"bbox":{"roads":{"area":3745.7,"pct":9.23},"sidewalks":{"area":544.82,"pct":1.34}},"city_same":1,"id":"hex:1970:17324"},"type":"Feature"},{"geometry":{"coordinates":[[[-118.41128,33.89105],[-118.41197,33.89202],[-118.41333,33.89201],[-118.41398,33.89102],[-118.41329,33.89005],[-118.41194,33.89007],[-118.41128,33.89105]]],"type":"Polygon"},"properties":{"bbox":{"roads":{"area":5074.95,"pct":12.5},"sidewalks":{"area":499.93,"pct":1.23}},"city_same":1,"id":"hex:1970:17325"},"type":"Feature"},{"geometry":{"coordinates":[[[-118.41131,33.893],[-118.41201,33.89397],[-118.41336,33.89396],[-118.41402,33.89297],[-118.41333,33.89201],[-118.41197,33.89202],[-118.41131,33.893]]],"type":"Polygon"},"properties":{"bbox":{"roads":{"area":7872.62,"pct":19.39}},"city_same":1,"id":"hex:1970:17326"},"type":"Feature"},{"geometry":{"coordinates":[[[-118.41135,33.89496],[-118.41204,33.89593],[-118.41339,33.89591],[-118.41405,33.89493],[-118.41336,33.89396],[-118.41201,33.89397],[-118.41135,33.89496]]],"type":"Polygon"},"properties":{"bbox":{"roads":{"area":3788.19,"pct":9.33}},"city_same":1,"id":"hex:1970:17327"},"type":"Feature"},{"geometry":{"coordinates":[[[-118.41138,33.89691],[-118.41207,33.89788],[-118.41342,33.89786],[-118.41408,33.89688],[-118.41339,33.89591],[-118.41204,33.89593],[-118.41138,33.89691]]],"type":"Polygon"},"properties":{"bbox":{"roads":{"area":3579.5,"pct":8.82}},"city_same":1,"id":"hex:1970:17328"},"type":"Feature"},{"geometry":{"coordinates":[[[-118.41141,33.89886],[-118.4121,33.89983],[-118.41345,33.89981],[-118.41411,33.89883],[-118.41342,33.89786],[-118.41207,33.89788],[-118.41141,33.89886]]],"type":"Polygon"},"properties":{"bbox":{"roads":{"area":2623.9,"pct":6.46},"sidewalks":{"area":62.13,"pct":0.15}},"city_same":1,"id":"hex:1970:17329"},"type":"Feature"},{"geometry":{"coordinates":[[[-118.41144,33.90081],[-118.41213,33.90178],[-118.41349,33.90177],[-118.41415,33.90078],[-118.41345,33.89981],[-118.4121,33.89983],[-118.41144,33.90081]]],"type":"Polygon"},"properties":{"bbox":{"roads":{"area":5121.17,"pct":12.62}},"city_same":1,"id":"hex:1970:17330"},"type":"Feature"},{"geometry":{"coordinates":[[[-118.41213,33.90178],[-118.41349,33.90177],[-118.41357,33.90188],[-118.41247,33.90188],[-118.41207,33.90188],[-118.41213,33.90178]]],"type":"Polygon"},"properties":{"bbox":{"roads":{"area":1003.4,"pct":65.75}},"city_same":1,"id":"hex:1970:17331"},"type":"Feature"},{"geometry":{"coordinates":[[[-118.40911,33.88229],[-118.4098,33.88326],[-118.41115,33.88324],[-118.41181,33.88226],[-118.41112,33.88129],[-118.40977,33.88131],[-118.40911,33.88229]]],"type":"Polygon"},"properties":{"bbox":{"roads":{"area":2951.42,"pct":7.27},"sidewalks":{"area":443.27,"pct":1.09}},"city":{"roads":{"area":1814.36,"pct":4.47},"sidewalks":{"area":443.27,"pct":1.09}},"id":"hex:1971:17320"},"type":"Feature"},{"geometry":{"coordinates":[[[-118.40914,33.88424],[-118.40983,33.88521],[-118.41119,33.8852],[-118.41184,33.88421],[-118.41115,33.88324],[-118.4098,33.88326],[-118.40914,33.88424]]],"type":"Polygon"},"properties":{"bbox":{"parking":{"area":2418.73,"pct":5.96},"roads":{"area":8445.05,"pct":20.8},"sidewalks":{"area":1216.09,"pct":3}},"city":{"parking":{"area":2418.73,"pct":5.96},"roads":{"area":5463.47,"pct":13.46},"sidewalks":{"area":1216.09,"pct":3}},"id":"hex:1971:17321"},"type":"Feature"},{"geometry":{"coordinates":[[[-118.40917,33.8862],[-118.40987,33.88716],[-118.41122,33.88715],[-118.41188,33.88616],[-118.41119,33.8852],[-118.40983,33.88521],[-118.40917,33.8862]]],"type":"Polygon"},"properties":{"bbox":{"parking":{"area":2300.62,"pct":5.67},"roads":{"area":7649.66,"pct":18.84},"sidewalks":{"area":1535.17,"pct":3.78}},"city":{"parking":{"area":2300.62,"pct":5.67},"roads":{"area":6504.42,"pct":16.02},"sidewalks":{"area":1535.17,"pct":3.78}},"id":"hex:1971:17322"},"type":"Feature"},{"geometry":{"coordinates":[[[-118.40921,33.88815],[-118.4099,33.88912],[-118.41125,33.8891],[-118.41191,33.88812],[-118.41122,33.88715],[-118.40987,33.88716],[-118.40921,33.88815]]],"type":"Polygon"},"properties":{"bbox":{"parking":{"area":3651.31,"pct":8.99},"roads":{"area":7562.92,"pct":18.63},"sidewalks":{"area":1119.26,"pct":2.76}},"city":{"parking":{"area":3651.31,"pct":8.99},"roads":{"area":4820.53,"pct":11.87},"sidewalks":{"area":1119.26,"pct":2.76}},"id":"hex:1971:17323"},"type":"Feature"},{"geometry":{"coordinates":[[[-118.40924,33.8901],[-118.40993,33.89107],[-118.41128,33.89105],[-118.41194,33.89007],[-118.41125,33.8891],[-118.4099,33.88912],[-118.40924,33.8901]]],"type":"Polygon"},"properties":{"bbox":{"parking":{"area":1809.05,"pct":4.46},"roads":{"area":3036.65,"pct":7.48},"sidewalks":{"area":538.16,"pct":1.33}},"city":{"parking":{"area":1809.05,"pct":4.46},"roads":{"area":2245.16,"pct":5.53},"sidewalks":{"area":538.16,"pct":1.33}},"id":"hex:1971:17324"},"type":"Feature"},{"geometry":{"coordinates":[[[-118.40927,33.89205],[-118.40996,33.89302],[-118.41131,33.893],[-118.41197,33.89202],[-118.41128,33.89105],[-118.40993,33.89107],[-118.40927,33.89205]]],"type":"Polygon"},"properties":{"bbox":{"roads":{"area":5202.74,"pct":12.82},"sidewalks":{"area":134.18,"pct":0.33}},"city_same":1,"id":"hex:1971:17325"},"type":"Feature"},{"geometry":{"coordinates":[[[-118.4093,33.894],[-118.40999,33.89497],[-118.41135,33.89496],[-118.41201,33.89397],[-118.41131,33.893],[-118.40996,33.89302],[-118.4093,33.894]]],"type":"Polygon"},"properties":{"bbox":{"roads":{"area":4841.81,"pct":11.93}},"city_same":1,"id":"hex:1971:17326"},"type":"Feature"},{"geometry":{"coordinates":[[[-118.40933,33.89596],[-118.41003,33.89692],[-118.41138,33.89691],[-118.41204,33.89593],[-118.41135,33.89496],[-118.40999,33.89497],[-118.40933,33.89596]]],"type":"Polygon"},"properties":{"bbox":{"roads":{"area":3842.82,"pct":9.47}},"city_same":1,"id":"hex:1971:17327"},"type":"Feature"},{"geometry":{"coordinates":[[[-118.40937,33.89791],[-118.41006,33.89888],[-118.41141,33.89886],[-118.41207,33.89788],[-118.41138,33.89691],[-118.41003,33.89692],[-118.40937,33.89791]]],"type":"Polygon"},"properties":{"bbox":{"roads":{"area":4270.56,"pct":10.52}},"city_same":1,"id":"hex:1971:17328"},"type":"Feature"},{"geometry":{"coordinates":[[[-118.4094,33.89986],[-118.41009,33.90083],[-118.41144,33.90081],[-118.4121,33.89983],[-118.41141,33.89886],[-118.41006,33.89888],[-118.4094,33.89986]]],"type":"Polygon"},"properties":{"bbox":{"roads":{"area":4034.55,"pct":9.94}},"city_same":1,"id":"hex:1971:17329"},"type":"Feature"},{"geometry":{"coordinates":[[[-118.40943,33.90181],[-118.41009,33.90083],[-118.41144,33.90081],[-118.41213,33.90178],[-118.41207,33.90188],[-118.40949,33.9019],[-118.40943,33.90181]]],"type":"Polygon"},"properties":{"bbox":{"roads":{"area":3513.47,"pct":15.41}},"city_same":1,"id":"hex:1971:17330"},"type":"Feature"},{"geometry":{"coordinates":[[[[-118.407,33.87743],[-118.40702,33.87741],[-118.40709,33.87756],[-118.407,33.87743]]],[[[-118.40905,33.87839],[-118.40769,33.8784],[-118.40721,33.87772],[-118.40829,33.87736],[-118.40832,33.87742],[-118.40859,33.87732],[-118.40944,33.87703],[-118.40965,33.87732],[-118.4097,33.87742],[-118.40905,33.87839]]]],"type":"MultiPolygon"},"properties":{"bbox":{"roads":{"area":31.14,"pct":0.15},"sidewalks":{"area":71.04,"pct":0.33}},"city":{"sidewalks":{"area":71.04,"pct":0.33}},"id":"hex:1972:17318"},"type":"Feature"},{"geometry":{"coordinates":[[[-118.40704,33.87939],[-118.40773,33.88035],[-118.40908,33.88034],[-118.40974,33.87936],[-118.40905,33.87839],[-118.40769,33.8784],[-118.40704,33.87939]]],"type":"Polygon"},"properties":{"bbox":{"roads":{"area":2197.41,"pct":5.41},"sidewalks":{"area":614.18,"pct":1.51}},"city":{"roads":{"area":487.72,"pct":1.2},"sidewalks":{"area":614.18,"pct":1.51}},"id":"hex:1972:17319"},"type":"Feature"},{"geometry":{"coordinates":[[[-118.40707,33.88134],[-118.40776,33.88231],[-118.40911,33.88229],[-118.40977,33.88131],[-118.40908,33.88034],[-118.40773,33.88035],[-118.40707,33.88134]]],"type":"Polygon"},"properties":{"bbox":{"roads":{"area":2790.59,"pct":6.87},"sidewalks":{"area":605.29,"pct":1.49}},"city":{"roads":{"area":1176.76,"pct":2.9},"sidewalks":{"area":605.29,"pct":1.49}},"id":"hex:1972:17320"},"type":"Feature"},{"geometry":{"coordinates":[[[-118.4071,33.88329],[-118.40779,33.88426],[-118.40914,33.88424],[-118.4098,33.88326],[-118.40911,33.88229],[-118.40776,33.88231],[-118.4071,33.88329]]],"type":"Polygon"},"properties":{"bbox":{"parking":{"area":590.26,"pct":1.45},"roads":{"area":1315.11,"pct":3.24}},"city_same":1,"id":"hex:1972:17321"},"type":"Feature"},{"geometry":{"coordinates":[[[-118.40713,33.88524],[-118.40782,33.88621],[-118.40917,33.8862],[-118.40983,33.88521],[-118.40914,33.88424],[-118.40779,33.88426],[-118.40713,33.88524]]],"type":"Polygon"},"properties":{"bbox":{"parking":{"area":5263.59,"pct":12.97},"roads":{"area":1394.01,"pct":3.43},"sidewalks":{"area":1055.4,"pct":2.6}},"city_same":1,"id":"hex:1972:17322"},"type":"Feature"},{"geometry":{"coordinates":[[[-118.40716,33.88719],[-118.40786,33.88816],[-118.40921,33.88815],[-118.40987,33.88716],[-118.40917,33.8862],[-118.40782,33.88621],[-118.40716,33.88719]]],"type":"Polygon"},"properties":{"bbox":{"parking":{"area":1631.17,"pct":4.02},"roads":{"area":239.84,"pct":0.59},"sidewalks":{"area":1022.12,"pct":2.52}},"city_same":1,"id":"hex:1972:17323"},"type":"Feature"},{"geometry":{"coordinates":[[[-118.4072,33.88915],[-118.40789,33.89012],[-118.40924,33.8901],[-118.4099,33.88912],[-118.40921,33.88815],[-118.40786,33.88816],[-118.4072,33.88915]]],"type":"Polygon"},"properties":{"bbox":{"parking":{"area":387.65,"pct":0.95},"roads":{"area":1168.8,"pct":2.88},"sidewalks":{"area":1338.09,"pct":3.3}},"city":{"parking":{"area":387.65,"pct":0.95},"roads":{"area":341.31,"pct":0.84},"sidewalks":{"area":1338.09,"pct":3.3}},"id":"hex:1972:17324"},"type":"Feature"},{"geometry":{"coordinates":[[[-118.40723,33.8911],[-118.40792,33.89207],[-118.40927,33.89205],[-118.40993,33.89107],[-118.40924,33.8901],[-118.40789,33.89012],[-118.40723,33.8911]]],"type":"Polygon"},"properties":{"bbox":{"parking":{"area":884.25,"pct":2.18},"roads":{"area":3110.4,"pct":7.66},"sidewalks":{"area":897.08,"pct":2.21}},"city":{"parking":{"area":884.25,"pct":2.18},"roads":{"area":1866.37,"pct":4.6},"sidewalks":{"area":897.08,"pct":2.21}},"id":"hex:1972:17325"},"type":"Feature"},{"geometry":{"coordinates":[[[-118.40726,33.89305],[-118.40795,33.89402],[-118.4093,33.894],[-118.40996,33.89302],[-118.40927,33.89205],[-118.40792,33.89207],[-118.40726,33.89305]]],"type":"Polygon"},"properties":{"bbox":{"roads":{"area":4607.62,"pct":11.35},"sidewalks":{"area":81.68,"pct":0.2}},"city_same":1,"id":"hex:1972:17326"},"type":"Feature"},{"geometry":{"coordinates":[[[-118.40729,33.895],[-118.40798,33.89597],[-118.40933,33.89596],[-118.40999,33.89497],[-118.4093,33.894],[-118.40795,33.89402],[-118.40729,33.895]]],"type":"Polygon"},"properties":{"bbox":{"roads":{"area":4142.32,"pct":10.2}},"city_same":1,"id":"hex:1972:17327"},"type":"Feature"},{"geometry":{"coordinates":[[[-118.40732,33.89696],[-118.40802,33.89792],[-118.40937,33.89791],[-118.41003,33.89692],[-118.40933,33.89596],[-118.40798,33.89597],[-118.40732,33.89696]]],"type":"Polygon"},"properties":{"bbox":{"roads":{"area":3724.73,"pct":9.18}},"city_same":1,"id":"hex:1972:17328"},"type":"Feature"},{"geometry":{"coordinates":[[[-118.40736,33.89891],[-118.40805,33.89988],[-118.4094,33.89986],[-118.41006,33.89888],[-118.40937,33.89791],[-118.40802,33.89792],[-118.40736,33.89891]]],"type":"Polygon"},"properties":{"bbox":{"roads":{"area":4262.52,"pct":10.5}},"city_same":1,"id":"hex:1972:17329"},"type":"Feature"},{"geometry":{"coordinates":[[[-118.40739,33.90086],[-118.40808,33.90183],[-118.40943,33.90181],[-118.41009,33.90083],[-118.4094,33.89986],[-118.40805,33.89988],[-118.40739,33.90086]]],"type":"Polygon"},"properties":{"bbox":{"roads":{"area":4259.04,"pct":10.49}},"city_same":1,"id":"hex:1972:17330"},"type":"Feature"},{"geometry":{"coordinates":[[[-118.40808,33.90183],[-118.40943,33.90181],[-118.40949,33.9019],[-118.40803,33.90191],[-118.40808,33.90183]]],"type":"Polygon"},"properties":{"bbox":{"roads":{"area":920.89,"pct":76.39}},"city_same":1,"id":"hex:1972:17331"},"type":"Feature"},{"geometry":{"coordinates":[[[-118.407,33.87743],[-118.40633,33.87744],[-118.40694,33.87723],[-118.40702,33.87741],[-118.407,33.87743]]],"type":"Polygon"},"properties":{"bbox":{"sidewalks":{"area":25.39,"pct":3.42}},"city_same":1,"id":"hex:1973:17317"},"type":"Feature"},{"geometry":{"coordinates":[[[-118.40769,33.8784],[-118.40704,33.87939],[-118.40568,33.8794],[-118.40499,33.87843],[-118.40556,33.87759],[-118.40592,33.87747],[-118.40597,33.87757],[-118.40633,33.87744],[-118.407,33.87743],[-118.40709,33.87756],[-118.40717,33.87774],[-118.40721,33.87772],[-118.40769,33.8784]]],"type":"Polygon"},"properties":{"bbox":{"roads":{"area":741.27,"pct":1.85},"sidewalks":{"area":1287.86,"pct":3.22}},"city":{"sidewalks":{"area":1287.86,"pct":3.22}},"id":"hex:1973:17318"},"type":"Feature"},{"geometry":{"coordinates":[[[-118.40502,33.88039],[-118.40572,33.88135],[-118.40707,33.88134],[-118.40773,33.88035],[-118.40704,33.87939],[-118.40568,33.8794],[-118.40502,33.88039]]],"type":"Polygon"},"properties":{"bbox":{"sidewalks":{"area":380.54,"pct":0.94}},"city_same":1,"id":"hex:1973:17319"},"type":"Feature"},{"geometry":{"coordinates":[[[-118.40509,33.88429],[-118.40578,33.88526],[-118.40713,33.88524],[-118.40779,33.88426],[-118.4071,33.88329],[-118.40575,33.88331],[-118.40509,33.88429]]],"type":"Polygon"},"properties":{"bbox":{"parking":{"area":737.94,"pct":1.82},"sidewalks":{"area":640.91,"pct":1.58}},"city_same":1,"id":"hex:1973:17321"},"type":"Feature"},{"geometry":{"coordinates":[[[-118.40512,33.88624],[-118.40581,33.88721],[-118.40716,33.88719],[-118.40782,33.88621],[-118.40713,33.88524],[-118.40578,33.88526],[-118.40512,33.88624]]],"type":"Polygon"},"properties":{"bbox":{"parking":{"area":4.88,"pct":0.01},"sidewalks":{"area":773.42,"pct":1.91}},"city_same":1,"id":"hex:1973:17322"},"type":"Feature"},{"geometry":{"coordinates":[[[-118.40515,33.88819],[-118.40584,33.88916],[-118.4072,33.88915],[-118.40786,33.88816],[-118.40716,33.88719],[-118.40581,33.88721],[-118.40515,33.88819]]],"type":"Polygon"},"properties":{"bbox":{"sidewalks":{"area":286.31,"pct":0.71}},"city_same":1,"id":"hex:1973:17323"},"type":"Feature"},{"geometry":{"coordinates":[[[-118.40518,33.89015],[-118.40588,33.89111],[-118.40723,33.8911],[-118.40789,33.89012],[-118.4072,33.88915],[-118.40584,33.88916],[-118.40518,33.89015]]],"type":"Polygon"},"properties":{"bbox":{"parking":{"area":854.93,"pct":2.11},"roads":{"area":291.31,"pct":0.72},"sidewalks":{"area":1327.98,"pct":3.27}},"city_same":1,"id":"hex:1973:17324"},"type":"Feature"},{"geometry":{"coordinates":[[[-118.40522,33.8921],[-118.40591,33.89307],[-118.40726,33.89305],[-118.40792,33.89207],[-118.40723,33.8911],[-118.40588,33.89111],[-118.40522,33.8921]]],"type":"Polygon"},"properties":{"bbox":{"roads":{"area":424.98,"pct":1.05},"sidewalks":{"area":465.19,"pct":1.15}},"city_same":1,"id":"hex:1973:17325"},"type":"Feature"},{"geometry":{"coordinates":[[[-118.40525,33.89405],[-118.40594,33.89502],[-118.40729,33.895],[-118.40795,33.89402],[-118.40726,33.89305],[-118.40591,33.89307],[-118.40525,33.89405]]],"type":"Polygon"},"properties":{"bbox":{"roads":{"area":183,"pct":0.45},"sidewalks":{"area":71.51,"pct":0.18}},"city_same":1,"id":"hex:1973:17326"},"type":"Feature"},{"geometry":{"coordinates":[[[-118.40528,33.896],[-118.40597,33.89697],[-118.40732,33.89696],[-118.40798,33.89597],[-118.40729,33.895],[-118.40594,33.89502],[-118.40528,33.896]]],"type":"Polygon"},"properties":{"bbox":{"roads":{"area":2184.19,"pct":5.38}},"city_same":1,"id":"hex:1973:17327"},"type":"Feature"},{"geometry":{"coordinates":[[[-118.40531,33.89795],[-118.406,33.89892],[-118.40736,33.89891],[-118.40802,33.89792],[-118.40732,33.89696],[-118.40597,33.89697],[-118.40531,33.89795]]],"type":"Polygon"},"properties":{"bbox":{"roads":{"area":3717.5,"pct":9.16}},"city_same":1,"id":"hex:1973:17328"},"type":"Feature"},{"geometry":{"coordinates":[[[-118.40534,33.89991],[-118.40604,33.90087],[-118.40739,33.90086],[-118.40805,33.89988],[-118.40736,33.89891],[-118.406,33.89892],[-118.40534,33.89991]]],"type":"Polygon"},"properties":{"bbox":{"roads":{"area":3441.69,"pct":8.48}},"city_same":1,"id":"hex:1973:17329"},"type":"Feature"},{"geometry":{"coordinates":[[[-118.40538,33.90186],[-118.40604,33.90087],[-118.40739,33.90086],[-118.40808,33.90183],[-118.40803,33.90191],[-118.40542,33.90193],[-118.40538,33.90186]]],"type":"Polygon"},"properties":{"bbox":{"roads":{"area":3195.18,"pct":14.32}},"city_same":1,"id":"hex:1973:17330"},"type":"Feature"},{"geometry":{"coordinates":[[[-118.40499,33.87843],[-118.40364,33.87845],[-118.40295,33.87748],[-118.40299,33.87742],[-118.40312,33.87765],[-118.40409,33.87731],[-118.40454,33.87715],[-118.40468,33.87746],[-118.40486,33.87785],[-118.40544,33.87763],[-118.40556,33.87759],[-118.40499,33.87843]]],"type":"Polygon"},"properties":{"bbox":{"parking":{"area":62.9,"pct":0.33},"sidewalks":{"area":206.44,"pct":1.07}},"city_same":1,"id":"hex:1974:17318"},"type":"Feature"},{"geometry":{"coordinates":[[[-118.40298,33.87943],[-118.40367,33.8804],[-118.40502,33.88039],[-118.40568,33.8794],[-118.40499,33.87843],[-118.40364,33.87845],[-118.40298,33.87943]]],"type":"Polygon"},"properties":{"bbox":{"sidewalks":{"area":525.06,"pct":1.29}},"city_same":1,"id":"hex:1974:17319"},"type":"Feature"},{"geometry":{"coordinates":[[[-118.40301,33.88138],[-118.4037,33.88235],[-118.40506,33.88234],[-118.40572,33.88135],[-118.40502,33.88039],[-118.40367,33.8804],[-118.40301,33.88138]]],"type":"Polygon"},"properties":{"bbox":{"sidewalks":{"area":467.7,"pct":1.15}},"city_same":1,"id":"hex:1974:17320"},"type":"Feature"},{"geometry":{"coordinates":[[[-118.40305,33.88334],[-118.40374,33.88431],[-118.40509,33.88429],[-118.40575,33.88331],[-118.40506,33.88234],[-118.4037,33.88235],[-118.40305,33.88334]]],"type":"Polygon"},"properties":{"bbox":{"sidewalks":{"area":468.16,"pct":1.15}},"city_same":1,"id":"hex:1974:17321"},"type":"Feature"},{"geometry":{"coordinates":[[[-118.40311,33.88724],[-118.4038,33.88821],[-118.40515,33.88819],[-118.40581,33.88721],[-118.40512,33.88624],[-118.40377,33.88626],[-118.40311,33.88724]]],"type":"Polygon"},"properties":{"bbox":{"sidewalks":{"area":911.22,"pct":2.24}},"city_same":1,"id":"hex:1974:17323"},"type":"Feature"},{"geometry":{"coordinates":[[[-118.40314,33.88919],[-118.40383,33.89016],[-118.40518,33.89015],[-118.40584,33.88916],[-118.40515,33.88819],[-118.4038,33.88821],[-118.40314,33.88919]]],"type":"Polygon"},"properties":{"bbox":{"parking":{"area":7467.68,"pct":18.4},"sidewalks":{"area":1392.99,"pct":3.43}},"city_same":1,"id":"hex:1974:17324"},"type":"Feature"},{"geometry":{"coordinates":[[[-118.40317,33.89115],[-118.40386,33.89211],[-118.40522,33.8921],[-118.40588,33.89111],[-118.40518,33.89015],[-118.40383,33.89016],[-118.40317,33.89115]]],"type":"Polygon"},"properties":{"bbox":{"sidewalks":{"area":891.93,"pct":2.2}},"city_same":1,"id":"hex:1974:17325"},"type":"Feature"},{"geometry":{"coordinates":[[[-118.40321,33.8931],[-118.4039,33.89407],[-118.40525,33.89405],[-118.40591,33.89307],[-118.40522,33.8921],[-118.40386,33.89211],[-118.40321,33.8931]]],"type":"Polygon"},"properties":{"bbox":{"sidewalks":{"area":130.19,"pct":0.32}},"city_same":1,"id":"hex:1974:17326"},"type":"Feature"},{"geometry":{"coordinates":[[[-118.40324,33.89505],[-118.40393,33.89602],[-118.40528,33.896],[-118.40594,33.89502],[-118.40525,33.89405],[-118.4039,33.89407],[-118.40324,33.89505]]],"type":"Polygon"},"properties":{"bbox":{"roads":{"area":673.02,"pct":1.66},"sidewalks":{"area":359.96,"pct":0.89}},"city_same":1,"id":"hex:1974:17327"},"type":"Feature"},{"geometry":{"coordinates":[[[-118.40327,33.897],[-118.40396,33.89797],[-118.40531,33.89795],[-118.40597,33.89697],[-118.40528,33.896],[-118.40393,33.89602],[-118.40327,33.897]]],"type":"Polygon"},"properties":{"bbox":{"roads":{"area":2209.91,"pct":5.44},"sidewalks":{"area":215.94,"pct":0.53}},"city_same":1,"id":"hex:1974:17328"},"type":"Feature"},{"geometry":{"coordinates":[[[-118.4033,33.89895],[-118.40399,33.89992],[-118.40534,33.89991],[-118.406,33.89892],[-118.40531,33.89795],[-118.40396,33.89797],[-118.4033,33.89895]]],"type":"Polygon"},"properties":{"bbox":{"roads":{"area":2134.69,"pct":5.26}},"city_same":1,"id":"hex:1974:17329"},"type":"Feature"},{"geometry":{"coordinates":[[[-118.40333,33.90091],[-118.40402,33.90187],[-118.40538,33.90186],[-118.40604,33.90087],[-118.40534,33.89991],[-118.40399,33.89992],[-118.40333,33.90091]]],"type":"Polygon"},"properties":{"bbox":{"roads":{"area":2394.31,"pct":5.9}},"city_same":1,"id":"hex:1974:17330"},"type":"Feature"},{"geometry":{"coordinates":[[[-118.40402,33.90187],[-118.40538,33.90186],[-118.40542,33.90193],[-118.40398,33.90194],[-118.40402,33.90187]]],"type":"Polygon"},"properties":{"bbox":{"roads":{"area":842.84,"pct":90.84}},"city_same":1,"id":"hex:1974:17331"},"type":"Feature"},{"geometry":{"coordinates":[[[-118.40295,33.87748],[-118.4016,33.8775],[-118.40131,33.87709],[-118.40156,33.87709],[-118.40178,33.8771],[-118.40204,33.87731],[-118.40276,33.87705],[-118.40294,33.87735],[-118.40299,33.87742],[-118.40295,33.87748]]],"type":"Polygon"},"properties":{"bbox":{"sidewalks":{"area":155.5,"pct":3.12}},"city_same":1,"id":"hex:1975:17317"},"type":"Feature"},{"geometry":{"coordinates":[[[-118.40094,33.87848],[-118.40163,33.87945],[-118.40298,33.87943],[-118.40364,33.87845],[-118.40295,33.87748],[-118.4016,33.8775],[-118.40094,33.87848]]],"type":"Polygon"},"properties":{"bbox":{"parking":{"area":1175.72,"pct":2.9},"sidewalks":{"area":863.42,"pct":2.13}},"city_same":1,"id":"hex:1975:17318"},"type":"Feature"},{"geometry":{"coordinates":[[[-118.40097,33.88043],[-118.40166,33.8814],[-118.40301,33.88138],[-118.40367,33.8804],[-118.40298,33.87943],[-118.40163,33.87945],[-118.40097,33.88043]]],"type":"Polygon"},"properties":{"bbox":{"sidewalks":{"area":877.27,"pct":2.16}},"city_same":1,"id":"hex:1975:17319"},"type":"Feature"},{"geometry":{"coordinates":[[[-118.40107,33.88629],[-118.40176,33.88726],[-118.40311,33.88724],[-118.40377,33.88626],[-118.40308,33.88529],[-118.40173,33.8853],[-118.40107,33.88629]]],"type":"Polygon"},"properties":{"bbox":{"parking":{"area":705.17,"pct":1.74}},"city_same":1,"id":"hex:1975:17322"},"type":"Feature"},{"geometry":{"coordinates":[[[-118.4011,33.88824],[-118.40179,33.88921],[-118.40314,33.88919],[-118.4038,33.88821],[-118.40311,33.88724],[-118.40176,33.88726],[-118.4011,33.88824]]],"type":"Polygon"},"properties":{"bbox":{"parking":{"area":51.04,"pct":0.13},"sidewalks":{"area":1186.72,"pct":2.92}},"city_same":1,"id":"hex:1975:17323"},"type":"Feature"},{"geometry":{"coordinates":[[[-118.40113,33.89019],[-118.40182,33.89116],[-118.40317,33.89115],[-118.40383,33.89016],[-118.40314,33.88919],[-118.40179,33.88921],[-118.40113,33.89019]]],"type":"Polygon"},"properties":{"bbox":{"parking":{"area":1614.97,"pct":3.98},"sidewalks":{"area":823.66,"pct":2.03}},"city_same":1,"id":"hex:1975:17324"},"type":"Feature"},{"geometry":{"coordinates":[[[-118.40116,33.89214],[-118.40185,33.89311],[-118.40321,33.8931],[-118.40386,33.89211],[-118.40317,33.89115],[-118.40182,33.89116],[-118.40116,33.89214]]],"type":"Polygon"},"properties":{"bbox":{"sidewalks":{"area":847.69,"pct":2.09}},"city_same":1,"id":"hex:1975:17325"},"type":"Feature"},{"geometry":{"coordinates":[[[-118.40119,33.8941],[-118.40189,33.89506],[-118.40324,33.89505],[-118.4039,33.89407],[-118.40321,33.8931],[-118.40185,33.89311],[-118.40119,33.8941]]],"type":"Polygon"},"properties":{"bbox":{"sidewalks":{"area":65.64,"pct":0.16}},"city_same":1,"id":"hex:1975:17326"},"type":"Feature"},{"geometry":{"coordinates":[[[-118.40123,33.89605],[-118.40192,33.89702],[-118.40327,33.897],[-118.40393,33.89602],[-118.40324,33.89505],[-118.40189,33.89506],[-118.40123,33.89605]]],"type":"Polygon"},"properties":{"bbox":{"roads":{"area":1212.46,"pct":2.99},"sidewalks":{"area":869.27,"pct":2.14}},"city_same":1,"id":"hex:1975:17327"},"type":"Feature"},{"geometry":{"coordinates":[[[-118.40126,33.898],[-118.40195,33.89897],[-118.4033,33.89895],[-118.40396,33.89797],[-118.40327,33.897],[-118.40192,33.89702],[-118.40126,33.898]]],"type":"Polygon"},"properties":{"bbox":{"roads":{"area":1264.83,"pct":3.12},"sidewalks":{"area":255.13,"pct":0.63}},"city_same":1,"id":"hex:1975:17328"},"type":"Feature"},{"geometry":{"coordinates":[[[-118.40129,33.89995],[-118.40198,33.90092],[-118.40333,33.90091],[-118.40399,33.89992],[-118.4033,33.89895],[-118.40195,33.89897],[-118.40129,33.89995]]],"type":"Polygon"},"properties":{"bbox":{"roads":{"area":1320.81,"pct":3.25}},"city_same":1,"id":"hex:1975:17329"},"type":"Feature"},{"geometry":{"coordinates":[[[-118.40132,33.9019],[-118.40198,33.90092],[-118.40333,33.90091],[-118.40402,33.90187],[-118.40398,33.90194],[-118.40136,33.90195],[-118.40132,33.9019]]],"type":"Polygon"},"properties":{"bbox":{"roads":{"area":43.37,"pct":0.2}},"city_same":1,"id":"hex:1975:17330"},"type":"Feature"},{"geometry":{"coordinates":[[[-118.39893,33.87948],[-118.39962,33.88045],[-118.40097,33.88043],[-118.40163,33.87945],[-118.40094,33.87848],[-118.39959,33.8785],[-118.39893,33.87948]]],"type":"Polygon"},"properties":{"bbox":{"sidewalks":{"area":428.12,"pct":1.05}},"city_same":1,"id":"hex:1976:17319"},"type":"Feature"},{"geometry":{"coordinates":[[[-118.39906,33.88729],[-118.39975,33.88826],[-118.4011,33.88824],[-118.40176,33.88726],[-118.40107,33.88629],[-118.39971,33.8863],[-118.39906,33.88729]]],"type":"Polygon"},"properties":{"bbox":{"parking":{"area":1371.99,"pct":3.38},"sidewalks":{"area":782.26,"pct":1.93}},"city_same":1,"id":"hex:1976:17323"},"type":"Feature"},{"geometry":{"coordinates":[[[-118.39909,33.88924],[-118.39978,33.89021],[-118.40113,33.89019],[-118.40179,33.88921],[-118.4011,33.88824],[-118.39975,33.88826],[-118.39909,33.88924]]],"type":"Polygon"},"properties":{"bbox":{"parking":{"area":327.52,"pct":0.81},"sidewalks":{"area":320.02,"pct":0.79}},"city_same":1,"id":"hex:1976:17324"},"type":"Feature"},{"geometry":{"coordinates":[[[-118.39912,33.89119],[-118.39981,33.89216],[-118.40116,33.89214],[-118.40182,33.89116],[-118.40113,33.89019],[-118.39978,33.89021],[-118.39912,33.89119]]],"type":"Polygon"},"properties":{"bbox":{"sidewalks":{"area":541.73,"pct":1.33}},"city_same":1,"id":"hex:1976:17325"},"type":"Feature"},{"geometry":{"coordinates":[[[-118.39915,33.89314],[-118.39984,33.89411],[-118.40119,33.8941],[-118.40185,33.89311],[-118.40116,33.89214],[-118.39981,33.89216],[-118.39915,33.89314]]],"type":"Polygon"},"properties":{"bbox":{"sidewalks":{"area":30.97,"pct":0.08}},"city_same":1,"id":"hex:1976:17326"},"type":"Feature"},{"geometry":{"coordinates":[[[-118.39918,33.8951],[-118.39987,33.89606],[-118.40123,33.89605],[-118.40189,33.89506],[-118.40119,33.8941],[-118.39984,33.89411],[-118.39918,33.8951]]],"type":"Polygon"},"properties":{"bbox":{"sidewalks":{"area":119.51,"pct":0.29}},"city_same":1,"id":"hex:1976:17327"},"type":"Feature"},{"geometry":{"coordinates":[[[-118.39921,33.89705],[-118.39991,33.89802],[-118.40126,33.898],[-118.40192,33.89702],[-118.40123,33.89605],[-118.39987,33.89606],[-118.39921,33.89705]]],"type":"Polygon"},"properties":{"bbox":{"roads":{"area":342.04,"pct":0.84},"sidewalks":{"area":250.83,"pct":0.62}},"city_same":1,"id":"hex:1976:17328"},"type":"Feature"},{"geometry":{"coordinates":[[[-118.39925,33.899],[-118.39994,33.89997],[-118.40129,33.89995],[-118.40195,33.89897],[-118.40126,33.898],[-118.39991,33.89802],[-118.39925,33.899]]],"type":"Polygon"},"properties":{"bbox":{"roads":{"area":746.53,"pct":1.84}},"city_same":1,"id":"hex:1976:17329"},"type":"Feature"},{"geometry":{"coordinates":[[[-118.39928,33.90095],[-118.39997,33.90192],[-118.40132,33.9019],[-118.40198,33.90092],[-118.40129,33.89995],[-118.39994,33.89997],[-118.39928,33.90095]]],"type":"Polygon"},"properties":{"bbox":{"roads":{"area":733.97,"pct":1.81}},"city_same":1,"id":"hex:1976:17330"},"type":"Feature"},{"geometry":{"coordinates":[[[-118.39692,33.88048],[-118.39761,33.88145],[-118.39896,33.88143],[-118.39962,33.88045],[-118.39893,33.87948],[-118.39758,33.87949],[-118.39692,33.88048]]],"type":"Polygon"},"properties":{"bbox":{"sidewalks":{"area":531.77,"pct":1.31}},"city_same":1,"id":"hex:1977:17319"},"type":"Feature"},{"geometry":{"coordinates":[[[-118.39695,33.88243],[-118.39764,33.8834],[-118.39899,33.88338],[-118.39965,33.8824],[-118.39896,33.88143],[-118.39761,33.88145],[-118.39695,33.88243]]],"type":"Polygon"},"properties":{"bbox":{"parking":{"area":97.69,"pct":0.24}},"city_same":1,"id":"hex:1977:17320"},"type":"Feature"},{"geometry":{"coordinates":[[[-118.39701,33.88633],[-118.3977,33.8873],[-118.39906,33.88729],[-118.39971,33.8863],[-118.39902,33.88534],[-118.39767,33.88535],[-118.39701,33.88633]]],"type":"Polygon"},"properties":{"bbox":{"parking":{"area":1005.84,"pct":2.48},"sidewalks":{"area":168.96,"pct":0.42}},"city_same":1,"id":"hex:1977:17322"},"type":"Feature"},{"geometry":{"coordinates":[[[-118.39704,33.88829],[-118.39774,33.88925],[-118.39909,33.88924],[-118.39975,33.88826],[-118.39906,33.88729],[-118.3977,33.8873],[-118.39704,33.88829]]],"type":"Polygon"},"properties":{"bbox":{"parking":{"area":845.09,"pct":2.08},"sidewalks":{"area":187.67,"pct":0.46}},"city_same":1,"id":"hex:1977:17323"},"type":"Feature"},{"geometry":{"coordinates":[[[-118.3972,33.89805],[-118.39789,33.89902],[-118.39925,33.899],[-118.39991,33.89802],[-118.39921,33.89705],[-118.39786,33.89706],[-118.3972,33.89805]]],"type":"Polygon"},"properties":{"bbox":{"sidewalks":{"area":295.77,"pct":0.73}},"city_same":1,"id":"hex:1977:17328"},"type":"Feature"},{"geometry":{"coordinates":[[[-118.39723,33.9],[-118.39793,33.90097],[-118.39928,33.90095],[-118.39994,33.89997],[-118.39925,33.899],[-118.39789,33.89902],[-118.39723,33.9]]],"type":"Polygon"},"properties":{"bbox":{"roads":{"area":1337.65,"pct":3.3},"sidewalks":{"area":185.26,"pct":0.46}},"city_same":1,"id":"hex:1977:17329"},"type":"Feature"},{"geometry":{"coordinates":[[[-118.39547,33.87464],[-118.39478,33.87367],[-118.39536,33.87279],[-118.39554,33.8728],[-118.39595,33.8738],[-118.39597,33.87399],[-118.39597,33.87463],[-118.39547,33.87464]]],"type":"Polygon"},"properties":{"bbox":{"parking":{"area":4967.91,"pct":35.31},"sidewalks":{"area":425.17,"pct":3.02}},"city_same":1,"id":"hex:1978:17316"},"type":"Feature"},{"geometry":{"coordinates":[[[-118.3955,33.87659],[-118.39481,33.87562],[-118.39547,33.87464],[-118.39597,33.87463],[-118.39597,33.87484],[-118.39597,33.87529],[-118.39597,33.8755],[-118.39597,33.87601],[-118.39597,33.87658],[-118.3955,33.87659]]],"type":"Polygon"},"properties":{"bbox":{"parking":{"area":0.67,"pct":0},"sidewalks":{"area":432.11,"pct":2.62}},"city_same":1,"id":"hex:1978:17317"},"type":"Feature"},{"geometry":{"coordinates":[[[-118.39754,33.87754],[-118.39688,33.87853],[-118.39553,33.87854],[-118.39484,33.87757],[-118.3955,33.87659],[-118.39597,33.87658],[-118.39597,33.87671],[-118.39597,33.87711],[-118.39723,33.8771],[-118.39754,33.87754]]],"type":"Polygon"},"properties":{"bbox":{"parking":{"area":616.62,"pct":1.77},"sidewalks":{"area":31.24,"pct":0.09}},"city_same":1,"id":"hex:1978:17318"},"type":"Feature"},{"geometry":{"coordinates":[[[-118.39487,33.87952],[-118.39557,33.88049],[-118.39692,33.88048],[-118.39758,33.87949],[-118.39688,33.87853],[-118.39553,33.87854],[-118.39487,33.87952]]],"type":"Polygon"},"properties":{"bbox":{"parking":{"area":1876.59,"pct":4.62},"sidewalks":{"area":312.45,"pct":0.77}},"city_same":1,"id":"hex:1978:17319"},"type":"Feature"},{"geometry":{"coordinates":[[[-118.39491,33.88148],[-118.3956,33.88245],[-118.39695,33.88243],[-118.39761,33.88145],[-118.39692,33.88048],[-118.39557,33.88049],[-118.39491,33.88148]]],"type":"Polygon"},"properties":{"bbox":{"parking":{"area":1054.23,"pct":2.6},"sidewalks":{"area":308.61,"pct":0.76}},"city_same":1,"id":"hex:1978:17320"},"type":"Feature"},{"geometry":{"coordinates":[[[-118.39494,33.88343],[-118.39563,33.8844],[-118.39698,33.88438],[-118.39764,33.8834],[-118.39695,33.88243],[-118.3956,33.88245],[-118.39494,33.88343]]],"type":"Polygon"},"properties":{"bbox":{"parking":{"area":7021.3,"pct":17.3},"sidewalks":{"area":190.42,"pct":0.47}},"city_same":1,"id":"hex:1978:17321"},"type":"Feature"},{"geometry":{"coordinates":[[[-118.39497,33.88538],[-118.39566,33.88635],[-118.39701,33.88633],[-118.39767,33.88535],[-118.39698,33.88438],[-118.39563,33.8844],[-118.39497,33.88538]]],"type":"Polygon"},"properties":{"bbox":{"parking":{"area":6954.35,"pct":17.13}},"city_same":1,"id":"hex:1978:17322"},"type":"Feature"},{"geometry":{"coordinates":[[[-118.395,33.88733],[-118.39569,33.8883],[-118.39704,33.88829],[-118.3977,33.8873],[-118.39701,33.88633],[-118.39566,33.88635],[-118.395,33.88733]]],"type":"Polygon"},"properties":{"bbox":{"parking":{"area":6951.55,"pct":17.12},"sidewalks":{"area":393.45,"pct":0.97}},"city_same":1,"id":"hex:1978:17323"},"type":"Feature"},{"geometry":{"coordinates":[[[-118.39503,33.88929],[-118.39572,33.89025],[-118.39708,33.89024],[-118.39774,33.88925],[-118.39704,33.88829],[-118.39569,33.8883],[-118.39503,33.88929]]],"type":"Polygon"},"properties":{"bbox":{"parking":{"area":5364.8,"pct":13.22}},"city_same":1,"id":"hex:1978:17324"},"type":"Feature"},{"geometry":{"coordinates":[[[-118.39506,33.89124],[-118.39576,33.89221],[-118.39711,33.89219],[-118.39777,33.89121],[-118.39708,33.89024],[-118.39572,33.89025],[-118.39506,33.89124]]],"type":"Polygon"},"properties":{"bbox":{"parking":{"area":1889.02,"pct":4.65},"sidewalks":{"area":86.44,"pct":0.21}},"city_same":1,"id":"hex:1978:17325"},"type":"Feature"},{"geometry":{"coordinates":[[[-118.3951,33.89319],[-118.39579,33.89416],[-118.39714,33.89414],[-118.3978,33.89316],[-118.39711,33.89219],[-118.39576,33.89221],[-118.3951,33.89319]]],"type":"Polygon"},"properties":{"bbox":{"parking":{"area":5545.62,"pct":13.66},"sidewalks":{"area":440.88,"pct":1.09}},"city_same":1,"id":"hex:1978:17326"},"type":"Feature"},{"geometry":{"coordinates":[[[-118.39513,33.89514],[-118.39582,33.89611],[-118.39717,33.89609],[-118.39783,33.89511],[-118.39714,33.89414],[-118.39579,33.89416],[-118.39513,33.89514]]],"type":"Polygon"},"properties":{"bbox":{"parking":{"area":3728.24,"pct":9.18},"sidewalks":{"area":564.09,"pct":1.39}},"city_same":1,"id":"hex:1978:17327"},"type":"Feature"},{"geometry":{"coordinates":[[[-118.39516,33.89709],[-118.39585,33.89806],[-118.3972,33.89805],[-118.39786,33.89706],[-118.39717,33.89609],[-118.39582,33.89611],[-118.39516,33.89709]]],"type":"Polygon"},"properties":{"bbox":{"parking":{"area":1508.38,"pct":3.72},"sidewalks":{"area":395.17,"pct":0.97}},"city_same":1,"id":"hex:1978:17328"},"type":"Feature"},{"geometry":{"coordinates":[[[-118.39519,33.89905],[-118.39588,33.90001],[-118.39723,33.9],[-118.39789,33.89902],[-118.3972,33.89805],[-118.39585,33.89806],[-118.39519,33.89905]]],"type":"Polygon"},"properties":{"bbox":{"parking":{"area":1310.3,"pct":3.23},"sidewalks":{"area":559.68,"pct":1.38}},"city_same":1,"id":"hex:1978:17329"},"type":"Feature"},{"geometry":{"coordinates":[[[-118.39522,33.901],[-118.39588,33.90001],[-118.39723,33.9],[-118.39793,33.90097],[-118.39731,33.90188],[-118.39715,33.90188],[-118.39618,33.90186],[-118.39584,33.90186],[-118.39522,33.901]]],"type":"Polygon"},"properties":{"bbox":{"parking":{"area":3820.49,"pct":9.72},"roads":{"area":104.09,"pct":0.26},"sidewalks":{"area":812.76,"pct":2.07}},"city_same":1,"id":"hex:1978:17330"},"type":"Feature"},{"geometry":{"coordinates":[[[-118.39478,33.87367],[-118.39343,33.87368],[-118.39279,33.87279],[-118.39393,33.87278],[-118.39536,33.87279],[-118.39478,33.87367]]],"type":"Polygon"},"properties":{"bbox":{"parking":{"area":6672.5,"pct":37.14},"sidewalks":{"area":326.67,"pct":1.82}},"city_same":1,"id":"hex:1979:17315"},"type":"Feature"},{"geometry":{"coordinates":[[[-118.39277,33.87467],[-118.39346,33.87564],[-118.39481,33.87562],[-118.39547,33.87464],[-118.39478,33.87367],[-118.39343,33.87368],[-118.39277,33.87467]]],"type":"Polygon"},"properties":{"bbox":{"parking":{"area":3588.23,"pct":8.84},"sidewalks":{"area":240.93,"pct":0.59}},"city_same":1,"id":"hex:1979:17316"},"type":"Feature"},{"geometry":{"coordinates":[[[-118.39283,33.87857],[-118.39352,33.87954],[-118.39487,33.87952],[-118.39553,33.87854],[-118.39484,33.87757],[-118.39349,33.87759],[-118.39283,33.87857]]],"type":"Polygon"},"properties":{"bbox":{"parking":{"area":256.28,"pct":0.63}},"city_same":1,"id":"hex:1979:17318"},"type":"Feature"},{"geometry":{"coordinates":[[[-118.39293,33.88443],[-118.39362,33.8854],[-118.39497,33.88538],[-118.39563,33.8844],[-118.39494,33.88343],[-118.39359,33.88344],[-118.39293,33.88443]]],"type":"Polygon"},"properties":{"bbox":{"parking":{"area":585.49,"pct":1.44}},"city_same":1,"id":"hex:1979:17321"},"type":"Feature"},{"geometry":{"coordinates":[[[-118.39296,33.88638],[-118.39365,33.88735],[-118.395,33.88733],[-118.39566,33.88635],[-118.39497,33.88538],[-118.39362,33.8854],[-118.39296,33.88638]]],"type":"Polygon"},"properties":{"bbox":{"parking":{"area":1223.56,"pct":3.01}},"city_same":1,"id":"hex:1979:17322"},"type":"Feature"},{"geometry":{"coordinates":[[[-118.39299,33.88833],[-118.39368,33.8893],[-118.39503,33.88929],[-118.39569,33.8883],[-118.395,33.88733],[-118.39365,33.88735],[-118.39299,33.88833]]],"type":"Polygon"},"properties":{"bbox":{"parking":{"area":9888.85,"pct":24.36},"sidewalks":{"area":18.02,"pct":0.04}},"city_same":1,"id":"hex:1979:17323"},"type":"Feature"},{"geometry":{"coordinates":[[[-118.39302,33.89028],[-118.39371,33.89125],[-118.39506,33.89124],[-118.39572,33.89025],[-118.39503,33.88929],[-118.39368,33.8893],[-118.39302,33.89028]]],"type":"Polygon"},"properties":{"bbox":{"parking":{"area":18.33,"pct":0.05}},"city_same":1,"id":"hex:1979:17324"},"type":"Feature"},{"geometry":{"coordinates":[[[-118.39305,33.89224],[-118.39374,33.8932],[-118.3951,33.89319],[-118.39576,33.89221],[-118.39506,33.89124],[-118.39371,33.89125],[-118.39305,33.89224]]],"type":"Polygon"},"properties":{"bbox":{"parking":{"area":4764.6,"pct":11.74},"sidewalks":{"area":53.05,"pct":0.13}},"city_same":1,"id":"hex:1979:17325"},"type":"Feature"},{"geometry":{"coordinates":[[[-118.39308,33.89419],[-118.39378,33.89516],[-118.39513,33.89514],[-118.39579,33.89416],[-118.3951,33.89319],[-118.39374,33.8932],[-118.39308,33.89419]]],"type":"Polygon"},"properties":{"bbox":{"parking":{"area":3896.06,"pct":9.6},"sidewalks":{"area":617.12,"pct":1.52}},"city_same":1,"id":"hex:1979:17326"},"type":"Feature"},{"geometry":{"coordinates":[[[-118.39312,33.89614],[-118.39381,33.89711],[-118.39516,33.89709],[-118.39582,33.89611],[-118.39513,33.89514],[-118.39378,33.89516],[-118.39312,33.89614]]],"type":"Polygon"},"properties":{"bbox":{"parking":{"area":12223.3,"pct":30.11},"sidewalks":{"area":836.23,"pct":2.06}},"city_same":1,"id":"hex:1979:17327"},"type":"Feature"},{"geometry":{"coordinates":[[[-118.39315,33.89809],[-118.39384,33.89906],[-118.39519,33.89905],[-118.39585,33.89806],[-118.39516,33.89709],[-118.39381,33.89711],[-118.39315,33.89809]]],"type":"Polygon"},"properties":{"bbox":{"parking":{"area":15530.75,"pct":38.26},"sidewalks":{"area":1514.85,"pct":3.73}},"city_same":1,"id":"hex:1979:17328"},"type":"Feature"},{"geometry":{"coordinates":[[[-118.39318,33.90004],[-118.39387,33.90101],[-118.39522,33.901],[-118.39588,33.90001],[-118.39519,33.89905],[-118.39384,33.89906],[-118.39318,33.90004]]],"type":"Polygon"},"properties":{"bbox":{"parking":{"area":12777.53,"pct":31.48},"sidewalks":{"area":1418.38,"pct":3.49}},"city_same":1,"id":"hex:1979:17329"},"type":"Feature"},{"geometry":{"coordinates":[[[-118.39387,33.90101],[-118.39522,33.901],[-118.39584,33.90186],[-118.3933,33.90187],[-118.39387,33.90101]]],"type":"Polygon"},"properties":{"bbox":{"parking":{"area":7286.3,"pct":42.39},"sidewalks":{"area":527.73,"pct":3.07}},"city_same":1,"id":"hex:1979:17330"},"type":"Feature"},{"geometry":{"coordinates":[[[-118.39343,33.87368],[-118.39277,33.87467],[-118.39142,33.87468],[-118.39072,33.87371],[-118.39134,33.8728],[-118.39142,33.87279],[-118.39229,33.87279],[-118.39279,33.87279],[-118.39343,33.87368]]],"type":"Polygon"},"properties":{"bbox":{"parking":{"area":31.59,"pct":0.08}},"city_same":1,"id":"hex:1980:17316"},"type":"Feature"},{"geometry":{"coordinates":[[[-118.39095,33.88738],[-118.39164,33.88835],[-118.39299,33.88833],[-118.39365,33.88735],[-118.39296,33.88638],[-118.39161,33.8864],[-118.39095,33.88738]]],"type":"Polygon"},"properties":{"bbox":{"sidewalks":{"area":17.91,"pct":0.04}},"city_same":1,"id":"hex:1980:17323"},"type":"Feature"},{"geometry":{"coordinates":[[[-118.39111,33.89714],[-118.3918,33.89811],[-118.39315,33.89809],[-118.39381,33.89711],[-118.39312,33.89614],[-118.39177,33.89616],[-118.39111,33.89714]]],"type":"Polygon"},"properties":{"bbox":{"parking":{"area":121.47,"pct":0.3}},"city_same":1,"id":"hex:1980:17328"},"type":"Feature"},{"geometry":{"coordinates":[[[-118.39114,33.89909],[-118.39183,33.90006],[-118.39318,33.90004],[-118.39384,33.89906],[-118.39315,33.89809],[-118.3918,33.89811],[-118.39114,33.89909]]],"type":"Polygon"},"properties":{"bbox":{"parking":{"area":8969.3,"pct":22.09}},"city_same":1,"id":"hex:1980:17329"},"type":"Feature"},{"geometry":{"coordinates":[[[-118.39117,33.90104],[-118.39183,33.90006],[-118.39318,33.90004],[-118.39387,33.90101],[-118.3933,33.90187],[-118.39176,33.90187],[-118.39117,33.90104]]],"type":"Polygon"},"properties":{"bbox":{"parking":{"area":9131.36,"pct":23.66},"sidewalks":{"area":290.19,"pct":0.75}},"city_same":1,"id":"hex:1980:17330"},"type":"Feature"},{"geometry":{"coordinates":[[[-118.38884,33.88252],[-118.38953,33.88349],[-118.39088,33.88347],[-118.39154,33.88249],[-118.39085,33.88152],[-118.3895,33.88154],[-118.38884,33.88252]]],"type":"Polygon"},"properties":{"bbox":{"sidewalks":{"area":199.69,"pct":0.49}},"city_same":1,"id":"hex:1981:17320"},"type":"Feature"},{"geometry":{"coordinates":[[[-118.38887,33.88447],[-118.38956,33.88544],[-118.39092,33.88543],[-118.39157,33.88444],[-118.39088,33.88347],[-118.38953,33.88349],[-118.38887,33.88447]]],"type":"Polygon"},"properties":{"bbox":{"sidewalks":{"area":87.2,"pct":0.21}},"city_same":1,"id":"hex:1981:17321"},"type":"Feature"},{"geometry":{"coordinates":[[[-118.3889,33.88643],[-118.3896,33.88739],[-118.39095,33.88738],[-118.39161,33.8864],[-118.39092,33.88543],[-118.38956,33.88544],[-118.3889,33.88643]]],"type":"Polygon"},"properties":{"bbox":{"parking":{"area":1805.58,"pct":4.45},"sidewalks":{"area":40.92,"pct":0.1}},"city_same":1,"id":"hex:1981:17322"},"type":"Feature"},{"geometry":{"coordinates":[[[-118.38894,33.88838],[-118.38963,33.88935],[-118.39098,33.88933],[-118.39164,33.88835],[-118.39095,33.88738],[-118.3896,33.88739],[-118.38894,33.88838]]],"type":"Polygon"},"properties":{"bbox":{"sidewalks":{"area":32.71,"pct":0.08}},"city_same":1,"id":"hex:1981:17323"},"type":"Feature"},{"geometry":{"coordinates":[[[-118.38913,33.90009],[-118.38982,33.90106],[-118.39117,33.90104],[-118.39183,33.90006],[-118.39114,33.89909],[-118.38979,33.89911],[-118.38913,33.90009]]],"type":"Polygon"},"properties":{"bbox":{"parking":{"area":9348.78,"pct":23.03}},"city_same":1,"id":"hex:1981:17329"},"type":"Feature"},{"geometry":{"coordinates":[[[-118.38982,33.90106],[-118.39117,33.90104],[-118.39176,33.90187],[-118.38927,33.90188],[-118.38982,33.90106]]],"type":"Polygon"},"properties":{"bbox":{"parking":{"area":10634.48,"pct":65.62}},"city_same":1,"id":"hex:1981:17330"},"type":"Feature"},{"geometry":{"coordinates":[[[-118.38937,33.87373],[-118.38871,33.87471],[-118.38736,33.87473],[-118.38667,33.87376],[-118.38727,33.87286],[-118.38737,33.87286],[-118.38874,33.87284],[-118.38937,33.87373]]],"type":"Polygon"},"properties":{"bbox":{"parking":{"area":10101.93,"pct":25.62},"sidewalks":{"area":545.58,"pct":1.38}},"city_same":1,"id":"hex:1982:17316"},"type":"Feature"},{"geometry":{"coordinates":[[[-118.3867,33.87571],[-118.38739,33.87668],[-118.38875,33.87667],[-118.38941,33.87568],[-118.38871,33.87471],[-118.38736,33.87473],[-118.3867,33.87571]]],"type":"Polygon"},"properties":{"bbox":{"sidewalks":{"area":589.41,"pct":1.45}},"city_same":1,"id":"hex:1982:17317"},"type":"Feature"},{"geometry":{"coordinates":[[[-118.38673,33.87766],[-118.38743,33.87863],[-118.38878,33.87862],[-118.38944,33.87763],[-118.38875,33.87667],[-118.38739,33.87668],[-118.38673,33.87766]]],"type":"Polygon"},"properties":{"bbox":{"sidewalks":{"area":585.1,"pct":1.44}},"city_same":1,"id":"hex:1982:17318"},"type":"Feature"},{"geometry":{"coordinates":[[[-118.38677,33.87962],[-118.38746,33.88058],[-118.38881,33.88057],[-118.38947,33.87959],[-118.38878,33.87862],[-118.38743,33.87863],[-118.38677,33.87962]]],"type":"Polygon"},"properties":{"bbox":{"sidewalks":{"area":430.46,"pct":1.06}},"city_same":1,"id":"hex:1982:17319"},"type":"Feature"},{"geometry":{"coordinates":[[[-118.38683,33.88352],[-118.38752,33.88449],[-118.38887,33.88447],[-118.38953,33.88349],[-118.38884,33.88252],[-118.38749,33.88254],[-118.38683,33.88352]]],"type":"Polygon"},"properties":{"bbox":{"sidewalks":{"area":147.04,"pct":0.36}},"city_same":1,"id":"hex:1982:17321"},"type":"Feature"},{"geometry":{"coordinates":[[[-118.38689,33.88742],[-118.38758,33.88839],[-118.38894,33.88838],[-118.3896,33.88739],[-118.3889,33.88643],[-118.38755,33.88644],[-118.38689,33.88742]]],"type":"Polygon"},"properties":{"bbox":{"sidewalks":{"area":856.79,"pct":2.11}},"city_same":1,"id":"hex:1982:17323"},"type":"Feature"},{"geometry":{"coordinates":[[[-118.38692,33.88938],[-118.38762,33.89035],[-118.38897,33.89033],[-118.38963,33.88935],[-118.38894,33.88838],[-118.38758,33.88839],[-118.38692,33.88938]]],"type":"Polygon"},"properties":{"bbox":{"parking":{"area":187.3,"pct":0.46},"sidewalks":{"area":8.29,"pct":0.02}},"city_same":1,"id":"hex:1982:17324"},"type":"Feature"},{"geometry":{"coordinates":[[[-118.38711,33.90109],[-118.38777,33.90011],[-118.38913,33.90009],[-118.38982,33.90106],[-118.38927,33.90188],[-118.38768,33.90188],[-118.38711,33.90109]]],"type":"Polygon"},"properties":{"bbox":{"parking":{"area":13925.61,"pct":36.66},"sidewalks":{"area":8.81,"pct":0.02}},"city_same":1,"id":"hex:1982:17330"},"type":"Feature"},{"geometry":{"coordinates":[[[-118.38667,33.87376],[-118.38532,33.87378],[-118.38466,33.87285],[-118.38512,33.87285],[-118.38591,33.87285],[-118.3867,33.87286],[-118.38727,33.87286],[-118.38667,33.87376]]],"type":"Polygon"},"properties":{"bbox":{"parking":{"area":886.85,"pct":4.78}},"city_same":1,"id":"hex:1983:17315"},"type":"Feature"},{"geometry":{"coordinates":[[[-118.38466,33.87476],[-118.38535,33.87573],[-118.3867,33.87571],[-118.38736,33.87473],[-118.38667,33.87376],[-118.38532,33.87378],[-118.38466,33.87476]]],"type":"Polygon"},"properties":{"bbox":{"sidewalks":{"area":11.88,"pct":0.03}},"city_same":1,"id":"hex:1983:17316"},"type":"Feature"},{"geometry":{"coordinates":[[[-118.38469,33.87671],[-118.38538,33.87768],[-118.38673,33.87766],[-118.38739,33.87668],[-118.3867,33.87571],[-118.38535,33.87573],[-118.38469,33.87671]]],"type":"Polygon"},"properties":{"bbox":{"sidewalks":{"area":20.9,"pct":0.05}},"city_same":1,"id":"hex:1983:17317"},"type":"Feature"},{"geometry":{"coordinates":[[[-118.38472,33.87866],[-118.38541,33.87963],[-118.38677,33.87962],[-118.38743,33.87863],[-118.38673,33.87766],[-118.38538,33.87768],[-118.38472,33.87866]]],"type":"Polygon"},"properties":{"bbox":{"sidewalks":{"area":38.27,"pct":0.09}},"city_same":1,"id":"hex:1983:17318"},"type":"Feature"},{"geometry":{"coordinates":[[[-118.38485,33.88647],[-118.38554,33.88744],[-118.38689,33.88742],[-118.38755,33.88644],[-118.38686,33.88547],[-118.38551,33.88549],[-118.38485,33.88647]]],"type":"Polygon"},"properties":{"bbox":{"parking":{"area":1618.63,"pct":3.99},"sidewalks":{"area":291.91,"pct":0.72}},"city_same":1,"id":"hex:1983:17322"},"type":"Feature"},{"geometry":{"coordinates":[[[-118.38488,33.88842],[-118.38557,33.88939],[-118.38692,33.88938],[-118.38758,33.88839],[-118.38689,33.88742],[-118.38554,33.88744],[-118.38488,33.88842]]],"type":"Polygon"},"properties":{"bbox":{"parking":{"area":170.31,"pct":0.42},"sidewalks":{"area":368.09,"pct":0.91}},"city_same":1,"id":"hex:1983:17323"},"type":"Feature"},{"geometry":{"coordinates":[[[-118.38491,33.89038],[-118.3856,33.89134],[-118.38696,33.89133],[-118.38762,33.89035],[-118.38692,33.88938],[-118.38557,33.88939],[-118.38491,33.89038]]],"type":"Polygon"},"properties":{"bbox":{"parking":{"area":2327.24,"pct":5.73}},"city_same":1,"id":"hex:1983:17324"},"type":"Feature"},{"geometry":{"coordinates":[[[-118.38507,33.90014],[-118.38576,33.9011],[-118.38711,33.90109],[-118.38777,33.90011],[-118.38708,33.89914],[-118.38573,33.89915],[-118.38507,33.90014]]],"type":"Polygon"},"properties":{"bbox":{"parking":{"area":4831.03,"pct":11.9}},"city_same":1,"id":"hex:1983:17329"},"type":"Feature"},{"geometry":{"coordinates":[[[-118.38576,33.9011],[-118.38711,33.90109],[-118.38768,33.90188],[-118.38524,33.90188],[-118.38576,33.9011]]],"type":"Polygon"},"properties":{"bbox":{"parking":{"area":6518.02,"pct":42.76},"sidewalks":{"area":155.25,"pct":1.02}},"city_same":1,"id":"hex:1983:17330"},"type":"Feature"},{"geometry":{"coordinates":[[[-118.38284,33.88747],[-118.38353,33.88844],[-118.38488,33.88842],[-118.38554,33.88744],[-118.38485,33.88647],[-118.3835,33.88649],[-118.38284,33.88747]]],"type":"Polygon"},"properties":{"bbox":{"parking":{"area":202.3,"pct":0.5},"sidewalks":{"area":758.13,"pct":1.87}},"city_same":1,"id":"hex:1984:17323"},"type":"Feature"},{"geometry":{"coordinates":[[[-118.3829,33.89137],[-118.38359,33.89234],[-118.38494,33.89233],[-118.3856,33.89134],[-118.38491,33.89038],[-118.38356,33.89039],[-118.3829,33.89137]]],"type":"Polygon"},"properties":{"bbox":{"parking":{"area":395.75,"pct":0.97}},"city_same":1,"id":"hex:1984:17325"},"type":"Feature"},{"geometry":{"coordinates":[[[-118.38296,33.89528],[-118.38366,33.89625],[-118.38501,33.89623],[-118.38567,33.89525],[-118.38498,33.89428],[-118.38362,33.8943],[-118.38296,33.89528]]],"type":"Polygon"},"properties":{"bbox":{"parking":{"area":2568.89,"pct":6.33},"sidewalks":{"area":21.33,"pct":0.05}},"city_same":1,"id":"hex:1984:17327"},"type":"Feature"},{"geometry":{"coordinates":[[[-118.383,33.89723],[-118.38369,33.8982],[-118.38504,33.89818],[-118.3857,33.8972],[-118.38501,33.89623],[-118.38366,33.89625],[-118.383,33.89723]]],"type":"Polygon"},"properties":{"bbox":{"parking":{"area":3468.81,"pct":8.54}},"city_same":1,"id":"hex:1984:17328"},"type":"Feature"},{"geometry":{"coordinates":[[[-118.38303,33.89918],[-118.38372,33.90015],[-118.38507,33.90014],[-118.38573,33.89915],[-118.38504,33.89818],[-118.38369,33.8982],[-118.38303,33.89918]]],"type":"Polygon"},"properties":{"bbox":{"parking":{"area":5705.78,"pct":14.06}},"city_same":1,"id":"hex:1984:17329"},"type":"Feature"},{"geometry":{"coordinates":[[[-118.38306,33.90114],[-118.38372,33.90015],[-118.38507,33.90014],[-118.38576,33.9011],[-118.38524,33.90188],[-118.3836,33.90189],[-118.38306,33.90114]]],"type":"Polygon"},"properties":{"bbox":{"parking":{"area":8705.77,"pct":23.3},"sidewalks":{"area":304.51,"pct":0.82}},"city_same":1,"id":"hex:1984:17330"},"type":"Feature"},{"geometry":{"coordinates":[[[-118.38262,33.87381],[-118.38127,33.87382],[-118.38058,33.87286],[-118.38156,33.87285],[-118.38274,33.87285],[-118.38297,33.87284],[-118.38326,33.87284],[-118.38262,33.87381]]],"type":"Polygon"},"properties":{"bbox":{"parking":{"area":1895.31,"pct":9.51},"sidewalks":{"area":364.53,"pct":1.83}},"city_same":1,"id":"hex:1985:17315"},"type":"Feature"},{"geometry":{"coordinates":[[[-118.3807,33.88066],[-118.38139,33.88163],[-118.38274,33.88161],[-118.3834,33.88063],[-118.38271,33.87966],[-118.38136,33.87968],[-118.3807,33.88066]]],"type":"Polygon"},"properties":{"bbox":{"parking":{"area":768.25,"pct":1.89}},"city_same":1,"id":"hex:1985:17319"},"type":"Feature"},{"geometry":{"coordinates":[[[-118.3808,33.88652],[-118.38149,33.88749],[-118.38284,33.88747],[-118.3835,33.88649],[-118.38281,33.88552],[-118.38146,33.88553],[-118.3808,33.88652]]],"type":"Polygon"},"properties":{"bbox":{"parking":{"area":904.99,"pct":2.23},"sidewalks":{"area":404.45,"pct":1}},"city_same":1,"id":"hex:1985:17322"},"type":"Feature"},{"geometry":{"coordinates":[[[-118.38083,33.88847],[-118.38152,33.88944],[-118.38287,33.88942],[-118.38353,33.88844],[-118.38284,33.88747],[-118.38149,33.88749],[-118.38083,33.88847]]],"type":"Polygon"},"properties":{"bbox":{"sidewalks":{"area":169.93,"pct":0.42}},"city_same":1,"id":"hex:1985:17323"},"type":"Feature"},{"geometry":{"coordinates":[[[-118.38092,33.89433],[-118.38161,33.89529],[-118.38296,33.89528],[-118.38362,33.8943],[-118.38293,33.89333],[-118.38158,33.89334],[-118.38092,33.89433]]],"type":"Polygon"},"properties":{"bbox":{"parking":{"area":833.95,"pct":2.05},"sidewalks":{"area":142.09,"pct":0.35}},"city_same":1,"id":"hex:1985:17326"},"type":"Feature"},{"geometry":{"coordinates":[[[-118.38095,33.89628],[-118.38164,33.89725],[-118.383,33.89723],[-118.38366,33.89625],[-118.38296,33.89528],[-118.38161,33.89529],[-118.38095,33.89628]]],"type":"Polygon"},"properties":{"bbox":{"parking":{"area":6694.71,"pct":16.49},"sidewalks":{"area":189.82,"pct":0.47}},"city_same":1,"id":"hex:1985:17327"},"type":"Feature"},{"geometry":{"coordinates":[[[-118.38102,33.90018],[-118.38171,33.90115],[-118.38306,33.90114],[-118.38372,33.90015],[-118.38303,33.89918],[-118.38168,33.8992],[-118.38102,33.90018]]],"type":"Polygon"},"properties":{"bbox":{"parking":{"area":1901.01,"pct":4.68}},"city_same":1,"id":"hex:1985:17329"},"type":"Feature"},{"geometry":{"coordinates":[[[-118.38171,33.90115],[-118.38306,33.90114],[-118.3836,33.90189],[-118.38121,33.90189],[-118.38171,33.90115]]],"type":"Polygon"},"properties":{"bbox":{"parking":{"area":4625.11,"pct":32.35},"sidewalks":{"area":273.6,"pct":1.91}},"city_same":1,"id":"hex:1985:17330"},"type":"Feature"},{"geometry":{"coordinates":[[[-118.38127,33.87382],[-118.38061,33.8748],[-118.37996,33.87481],[-118.37996,33.87473],[-118.37995,33.87419],[-118.37996,33.87379],[-118.37996,33.87287],[-118.38058,33.87286],[-118.38127,33.87382]]],"type":"Polygon"},"properties":{"bbox":{"parking":{"area":1896.18,"pct":9.76},"sidewalks":{"area":291.69,"pct":1.5}},"city_same":1,"id":"hex:1986:17316"},"type":"Feature"},{"geometry":{"coordinates":[[[-118.38067,33.87871],[-118.38136,33.87968],[-118.3807,33.88066],[-118.37935,33.88068],[-118.37892,33.88007],[-118.37948,33.88008],[-118.37992,33.8801],[-118.38002,33.87965],[-118.38004,33.87955],[-118.38004,33.8794],[-118.38004,33.87872],[-118.38067,33.87871]]],"type":"Polygon"},"properties":{"bbox":{"parking":{"area":1126.53,"pct":4.42}},"city_same":1,"id":"hex:1986:17319"},"type":"Feature"},{"geometry":{"coordinates":[[[-118.37935,33.88068],[-118.3807,33.88066],[-118.38139,33.88163],[-118.38073,33.88261],[-118.37938,33.88263],[-118.37884,33.88186],[-118.37891,33.88171],[-118.37879,33.88166],[-118.37873,33.8816],[-118.37935,33.88068]]],"type":"Polygon"},"properties":{"bbox":{"parking":{"area":199.98,"pct":0.5}},"city_same":1,"id":"hex:1986:17320"},"type":"Feature"},{"geometry":{"coordinates":[[[-118.37875,33.88556],[-118.37944,33.88653],[-118.3808,33.88652],[-118.38146,33.88553],[-118.38076,33.88456],[-118.37941,33.88458],[-118.37875,33.88556]]],"type":"Polygon"},"properties":{"bbox":{"parking":{"area":325.46,"pct":0.8}},"city_same":1,"id":"hex:1986:17322"},"type":"Feature"},{"geometry":{"coordinates":[[[-118.37878,33.88752],[-118.37948,33.88848],[-118.38083,33.88847],[-118.38149,33.88749],[-118.3808,33.88652],[-118.37944,33.88653],[-118.37878,33.88752]]],"type":"Polygon"},"properties":{"bbox":{"parking":{"area":2081.84,"pct":5.13},"sidewalks":{"area":583.14,"pct":1.44}},"city_same":1,"id":"hex:1986:17323"},"type":"Feature"},{"geometry":{"coordinates":[[[-118.37891,33.89532],[-118.3796,33.89629],[-118.38095,33.89628],[-118.38161,33.89529],[-118.38092,33.89433],[-118.37957,33.89434],[-118.37891,33.89532]]],"type":"Polygon"},"properties":{"bbox":{"parking":{"area":7433.51,"pct":18.31},"sidewalks":{"area":81,"pct":0.2}},"city_same":1,"id":"hex:1986:17327"},"type":"Feature"},{"geometry":{"coordinates":[[[-118.37894,33.89728],[-118.37963,33.89824],[-118.38098,33.89823],[-118.38164,33.89725],[-118.38095,33.89628],[-118.3796,33.89629],[-118.37894,33.89728]]],"type":"Polygon"},"properties":{"bbox":{"parking":{"area":6412.82,"pct":15.8}},"city_same":1,"id":"hex:1986:17328"},"type":"Feature"},{"geometry":{"coordinates":[[[-118.37897,33.89923],[-118.37966,33.9002],[-118.38102,33.90018],[-118.38168,33.8992],[-118.38098,33.89823],[-118.37963,33.89824],[-118.37897,33.89923]]],"type":"Polygon"},"properties":{"bbox":{"parking":{"area":744.64,"pct":1.83}},"city_same":1,"id":"hex:1986:17329"},"type":"Feature"},{"geometry":{"coordinates":[[[-118.379,33.90118],[-118.37966,33.9002],[-118.38102,33.90018],[-118.38171,33.90115],[-118.38121,33.90189],[-118.37951,33.90189],[-118.379,33.90118]]],"type":"Polygon"},"properties":{"bbox":{"parking":{"area":18352.4,"pct":50},"sidewalks":{"area":265.97,"pct":0.72}},"city_same":1,"id":"hex:1986:17330"},"type":"Feature"},{"geometry":{"coordinates":[[[-118.37935,33.88068],[-118.37873,33.8816],[-118.37871,33.88158],[-118.37869,33.88153],[-118.37867,33.88147],[-118.37867,33.88137],[-118.37866,33.88023],[-118.37867,33.88007],[-118.37892,33.88007],[-118.37935,33.88068]]],"type":"Polygon"},"properties":{"bbox":{"parking":{"area":106.28,"pct":1.65}},"city_same":1,"id":"hex:1987:17319"},"type":"Feature"},{"geometry":{"coordinates":[[[-118.37872,33.88361],[-118.37941,33.88458],[-118.37875,33.88556],[-118.37864,33.88556],[-118.37861,33.88361],[-118.37872,33.88361]]],"type":"Polygon"},"properties":{"bbox":{"parking":{"area":351.91,"pct":3.92}},"city_same":1,"id":"hex:1987:17321"},"type":"Feature"},{"geometry":{"coordinates":[[[-118.37875,33.88556],[-118.37944,33.88653],[-118.37878,33.88752],[-118.37868,33.88752],[-118.37868,33.88735],[-118.37864,33.88556],[-118.37875,33.88556]]],"type":"Polygon"},"properties":{"bbox":{"parking":{"area":1693.42,"pct":19.05},"sidewalks":{"area":27.88,"pct":0.31}},"city_same":1,"id":"hex:1987:17322"},"type":"Feature"},{"geometry":{"coordinates":[[[-118.37885,33.89142],[-118.37954,33.89239],[-118.37888,33.89337],[-118.3787,33.89337],[-118.37869,33.89142],[-118.37885,33.89142]]],"type":"Polygon"},"properties":{"bbox":{"sidewalks":{"area":231.7,"pct":2.28}},"city_same":1,"id":"hex:1987:17325"},"type":"Feature"},{"geometry":{"coordinates":[[[-118.37888,33.89337],[-118.37957,33.89434],[-118.37891,33.89532],[-118.37871,33.89533],[-118.3787,33.89467],[-118.3787,33.89337],[-118.37888,33.89337]]],"type":"Polygon"},"properties":{"bbox":{"parking":{"area":191.92,"pct":1.8},"sidewalks":{"area":188.66,"pct":1.77}},"city_same":1,"id":"hex:1987:17326"},"type":"Feature"},{"geometry":{"coordinates":[[[-118.37891,33.89532],[-118.3796,33.89629],[-118.37894,33.89728],[-118.37872,33.89728],[-118.37871,33.89533],[-118.37891,33.89532]]],"type":"Polygon"},"properties":{"bbox":{"parking":{"area":5608.36,"pct":50.91}},"city_same":1,"id":"hex:1987:17327"},"type":"Feature"},{"geometry":{"coordinates":[[[-118.37894,33.89728],[-118.37963,33.89824],[-118.37897,33.89923],[-118.37874,33.89923],[-118.37872,33.89728],[-118.37894,33.89728]]],"type":"Polygon"},"properties":{"bbox":{"parking":{"area":3324.8,"pct":29.29}},"city_same":1,"id":"hex:1987:17328"},"type":"Feature"},{"geometry":{"coordinates":[[[-118.37897,33.89923],[-118.37966,33.9002],[-118.379,33.90118],[-118.37875,33.90118],[-118.37874,33.89923],[-118.37897,33.89923]]],"type":"Polygon"},"properties":{"bbox":{"parking":{"area":1759.91,"pct":15.06}},"city_same":1,"id":"hex:1987:17329"},"type":"Feature"},{"geometry":{"coordinates":[[[-118.379,33.90118],[-118.37951,33.90189],[-118.37876,33.9019],[-118.37875,33.90118],[-118.379,33.90118]]],"type":"Polygon"},"properties":{"bbox":{"parking":{"area":2.2,"pct":0.06},"sidewalks":{"area":64.69,"pct":1.75}},"city_same":1,"id":"hex:1987:17330"},"type":"Feature"}],"type":"FeatureCollection","v":2}