{"features":[{"geometry":{"coordinates":[[[-117.96885,33.97258],[-117.958,33.97254],[-117.94962,33.97461],[-117.94964,33.97649],[-117.91639,33.96878],[-117.92586,33.94604],[-117.92748,33.94605],[-117.92597,33.94766],[-117.92594,33.94788],[-117.92742,33.94794],[-117.92923,33.94621],[-117.92915,33.94603],[-117.9543,33.94608],[-117.95422,33.94821],[-117.95355,33.94813],[-117.95359,33.94871],[-117.9542,33.94889],[-117.95416,33.94971],[-117.96227,33.94974],[-117.96261,33.94915],[-117.96405,33.94923],[-117.96485,33.94854],[-117.96485,33.94606],[-117.96668,33.94606],[-117.96646,33.94692],[-117.96613,33.94701],[-117.96598,33.9475],[-117.96516,33.94859],[-117.96549,33.9487],[-117.9652,33.94895],[-117.96526,33.94971],[-117.98651,33.94966],[-117.98638,33.95006],[-117.98702,33.95029],[-117.98725,33.95009],[-117.98819,33.95057],[-117.98871,33.94973],[-117.99229,33.9497],[-117.99271,33.94958],[-117.99301,33.94992],[-117.98083,33.95782],[-117.98196,33.95879],[-117.9834,33.95936],[-117.98362,33.95976],[-117.98332,33.96017],[-117.98323,33.96081],[-117.98216,33.96077],[-117.98263,33.96208],[-117.98387,33.96404],[-117.98364,33.96501],[-117.97658,33.96482],[-117.97669,33.97482],[-117.96885,33.97258]],[[-117.94718,33.95773],[-117.94736,33.95775],[-117.94749,33.95757],[-117.94686,33.95759],[-117.94679,33.95768],[-117.94718,33.95773]],[[-117.96247,33.95657],[-117.96259,33.95622],[-117.96228,33.95616],[-117.96214,33.95641],[-117.96247,33.95657]]],"type":"Polygon"},"properties":{"type":"boundary"},"type":"Feature"}],"type":"FeatureCollection"}