{"features":[{"geometry":{"coordinates":[[[-122.47048,37.68249],[-122.46369,37.68262],[-122.46366,37.68273],[-122.46535,37.68392],[-122.46346,37.68394],[-122.46421,37.68572],[-122.45992,37.68575],[-122.45892,37.68456],[-122.45524,37.68883],[-122.44823,37.68505],[-122.44714,37.68471],[-122.44638,37.68474],[-122.44542,37.68537],[-122.44328,37.68458],[-122.44219,37.68434],[-122.44097,37.68338],[-122.44209,37.68286],[-122.4441,37.67809],[-122.44377,37.67762],[-122.44042,37.67583],[-122.4398,37.67626],[-122.43878,37.67747],[-122.43213,37.67456],[-122.43283,37.67134],[-122.43336,37.67001],[-122.43599,37.67145],[-122.43618,37.67123],[-122.43656,37.67144],[-122.44462,37.6654],[-122.44533,37.66588],[-122.44584,37.66535],[-122.44834,37.66714],[-122.45006,37.66949],[-122.45063,37.66999],[-122.45177,37.66926],[-122.4529,37.67023],[-122.45331,37.67079],[-122.45968,37.66679],[-122.46028,37.66678],[-122.46042,37.66708],[-122.46506,37.67111],[-122.47069,37.67814],[-122.47092,37.67904],[-122.47096,37.68249],[-122.47048,37.68249]],[[-122.44676,37.68351],[-122.44678,37.68352],[-122.4468,37.68352],[-122.44684,37.68352],[-122.44687,37.68352],[-122.4469,37.68351],[-122.44691,37.68349],[-122.44692,37.68348],[-122.44692,37.68347],[-122.44691,37.68346],[-122.44689,37.68344],[-122.44687,37.68343],[-122.44685,37.68342],[-122.44682,37.68342],[-122.4468,37.68343],[-122.44678,37.68344],[-122.44675,37.68345],[-122.44674,37.68347],[-122.44674,37.68349],[-122.44676,37.68351]],[[-122.44778,37.68451],[-122.44814,37.6844],[-122.44808,37.68412],[-122.44771,37.68413],[-122.44778,37.68451]],[[-122.45189,37.68098],[-122.45188,37.68096],[-122.45188,37.68095],[-122.45188,37.68094],[-122.45189,37.68093],[-122.45188,37.68092],[-122.45187,37.68092],[-122.45186,37.68091],[-122.45185,37.68091],[-122.45184,37.68091],[-122.45183,37.6809],[-122.45182,37.68089],[-122.45182,37.68088],[-122.45181,37.68087],[-122.4518,37.68087],[-122.45179,37.68086],[-122.45178,37.68085],[-122.45177,37.68085],[-122.45176,37.68085],[-122.45174,37.68086],[-122.45174,37.68087],[-122.45173,37.68087],[-122.45173,37.68088],[-122.45173,37.68089],[-122.45172,37.6809],[-122.45171,37.68091],[-122.4517,37.68092],[-122.45169,37.68093],[-122.4517,37.68094],[-122.4517,37.68095],[-122.45171,37.68096],[-122.45172,37.68097],[-122.45173,37.68097],[-122.45175,37.68097],[-122.45176,37.68098],[-122.45177,37.68099],[-122.45178,37.681],[-122.45179,37.68101],[-122.4518,37.68102],[-122.45181,37.68103],[-122.45183,37.68104],[-122.45185,37.68104],[-122.45187,37.68104],[-122.45188,37.68103],[-122.4519,37.68102],[-122.4519,37.681],[-122.4519,37.68099],[-122.45189,37.68098]],[[-122.45306,37.68129],[-122.45316,37.68107],[-122.45197,37.68046],[-122.4518,37.68057],[-122.45216,37.68087],[-122.45253,37.68083],[-122.45306,37.68129]],[[-122.45217,37.68095],[-122.45217,37.68096],[-122.45217,37.68097],[-122.45217,37.68097],[-122.45218,37.68098],[-122.4522,37.68098],[-122.45221,37.68098],[-122.45222,37.68097],[-122.45222,37.68096],[-122.45221,37.68095],[-122.4522,37.68095],[-122.45219,37.68094],[-122.45218,37.68094],[-122.45217,37.68095]],[[-122.45325,37.67344],[-122.45369,37.67359],[-122.45401,37.67335],[-122.45348,37.67279],[-122.45284,37.67247],[-122.45241,37.67255],[-122.45325,37.67344]],[[-122.45395,37.67393],[-122.45421,37.67392],[-122.45413,37.67376],[-122.45395,37.67393]],[[-122.45425,37.67369],[-122.45423,37.67371],[-122.45418,37.67372],[-122.45417,37.67374],[-122.45419,37.67375],[-122.45422,37.67376],[-122.45425,37.67375],[-122.45428,37.67375],[-122.45431,37.67373],[-122.45443,37.67371],[-122.45443,37.67367],[-122.45431,37.67365],[-122.45428,37.67363],[-122.45425,37.67363],[-122.45424,37.67365],[-122.45425,37.67369]],[[-122.45448,37.67402],[-122.45428,37.67413],[-122.45458,37.67408],[-122.45448,37.67402]],[[-122.45454,37.67393],[-122.45469,37.67396],[-122.45466,37.67377],[-122.45446,37.67384],[-122.45454,37.67393]]],"type":"Polygon"},"properties":{"type":"boundary"},"type":"Feature"}],"type":"FeatureCollection"}