{"features":[{"geometry":{"coordinates":[[[-122.4704,37.67834],[-122.47063,37.67803],[-122.47066,37.6781],[-122.47069,37.67814],[-122.47071,37.67819],[-122.47073,37.67824],[-122.47075,37.67829],[-122.47077,37.67834],[-122.47079,37.67839],[-122.4708,37.67844],[-122.47082,37.67848],[-122.47083,37.67853],[-122.47085,37.67858],[-122.47086,37.67863],[-122.47087,37.67868],[-122.47088,37.67873],[-122.47089,37.67879],[-122.4709,37.67884],[-122.47091,37.67889],[-122.47091,37.67894],[-122.47092,37.67899],[-122.47092,37.67904],[-122.47092,37.67906],[-122.4704,37.67834]]],"type":"Polygon"},"properties":{"bbox":{"roads":{"area":693.67,"pct":34.27}},"id":"hex:3644:24077"},"type":"Feature"},{"geometry":{"coordinates":[[[-122.47039,37.6799],[-122.47092,37.67917],[-122.47094,37.68066],[-122.47039,37.6799]]],"type":"Polygon"},"properties":{"bbox":{"roads":{"area":1465.93,"pct":36.98}},"id":"hex:3644:24078"},"type":"Feature"},{"geometry":{"coordinates":[[[-122.47094,37.68224],[-122.47038,37.68146],[-122.47094,37.6807],[-122.47095,37.68147],[-122.47095,37.68224],[-122.47094,37.68224]]],"type":"Polygon"},"properties":{"bbox":{"roads":{"area":1654.91,"pct":38.03}},"city":{"roads":{"area":126.02,"pct":2.9}},"id":"hex:3644:24079"},"type":"Feature"},{"geometry":{"coordinates":[[[-122.47094,37.68224],[-122.47095,37.68224],[-122.47096,37.68247],[-122.47096,37.68249],[-122.47076,37.68249],[-122.47094,37.68224]]],"type":"Polygon"},"properties":{"bbox":{"roads":{"area":31.33,"pct":12.25}},"id":"hex:3644:24080"},"type":"Feature"},{"geometry":{"coordinates":[[[-122.46928,37.67677],[-122.46872,37.67599],[-122.46888,37.67576],[-122.46952,37.67655],[-122.46969,37.67677],[-122.46928,37.67677]]],"type":"Polygon"},"properties":{"bbox":{"roads":{"area":1389.03,"pct":41.54}},"id":"hex:3645:24075"},"type":"Feature"},{"geometry":{"coordinates":[[[-122.4704,37.67834],[-122.46927,37.67833],[-122.4687,37.67755],[-122.46928,37.67677],[-122.46969,37.67677],[-122.47044,37.67773],[-122.47047,37.67777],[-122.4705,37.67782],[-122.47063,37.67803],[-122.4704,37.67834]]],"type":"Polygon"},"properties":{"bbox":{"parking":{"area":2829.4,"pct":14.74},"roads":{"area":5050.78,"pct":26.3},"sidewalks":{"area":47.69,"pct":0.25}},"city":{"parking":{"area":2829.4,"pct":14.74},"roads":{"area":1335.81,"pct":6.96},"sidewalks":{"area":47.69,"pct":0.25}},"id":"hex:3645:24076"},"type":"Feature"},{"geometry":{"coordinates":[[[-122.47039,37.6799],[-122.46925,37.67989],[-122.46869,37.67911],[-122.46927,37.67833],[-122.4704,37.67834],[-122.47092,37.67906],[-122.47092,37.67909],[-122.47092,37.67915],[-122.47092,37.67917],[-122.47039,37.6799]]],"type":"Polygon"},"properties":{"bbox":{"roads":{"area":2206.56,"pct":8.5}},"city":{"roads":{"area":853.77,"pct":3.29}},"id":"hex:3645:24077"},"type":"Feature"},{"geometry":{"coordinates":[[[-122.47038,37.68146],[-122.46924,37.68145],[-122.46868,37.68067],[-122.46925,37.67989],[-122.47039,37.6799],[-122.47094,37.68066],[-122.47094,37.6807],[-122.47038,37.68146]]],"type":"Polygon"},"properties":{"bbox":{"roads":{"area":2095.67,"pct":8.07}},"city":{"roads":{"area":1022.34,"pct":3.94}},"id":"hex:3645:24078"},"type":"Feature"},{"geometry":{"coordinates":[[[-122.46867,37.68223],[-122.46924,37.68145],[-122.47038,37.68146],[-122.47094,37.68224],[-122.47076,37.68249],[-122.47048,37.68249],[-122.46943,37.68249],[-122.46886,37.6825],[-122.46867,37.68223]]],"type":"Polygon"},"properties":{"bbox":{"roads":{"area":2769.26,"pct":15.23}},"city":{"roads":{"area":1889.3,"pct":10.39}},"id":"hex:3645:24079"},"type":"Feature"},{"geometry":{"coordinates":[[[-122.46759,37.67442],[-122.46703,37.67364],[-122.4671,37.67354],[-122.46748,37.67401],[-122.46781,37.67442],[-122.46759,37.67442]]],"type":"Polygon"},"properties":{"bbox":{"roads":{"area":250.28,"pct":16.93}},"id":"hex:3646:24074"},"type":"Feature"},{"geometry":{"coordinates":[[[-122.46872,37.67599],[-122.46758,37.67598],[-122.46702,37.6752],[-122.46759,37.67442],[-122.46781,37.67442],[-122.46888,37.67576],[-122.46872,37.67599]]],"type":"Polygon"},"properties":{"bbox":{"parking":{"area":1005.91,"pct":5.93},"roads":{"area":5206.84,"pct":30.7},"sidewalks":{"area":282.17,"pct":1.66}},"city":{"parking":{"area":1005.91,"pct":5.93},"roads":{"area":1441.65,"pct":8.5},"sidewalks":{"area":282.17,"pct":1.66}},"id":"hex:3646:24075"},"type":"Feature"},{"geometry":{"coordinates":[[[-122.46701,37.67676],[-122.46757,37.67754],[-122.4687,37.67755],[-122.46928,37.67677],[-122.46872,37.67599],[-122.46758,37.67598],[-122.46701,37.67676]]],"type":"Polygon"},"properties":{"bbox":{"parking":{"area":6941.61,"pct":26.72},"roads":{"area":5165.34,"pct":19.88},"sidewalks":{"area":284.8,"pct":1.1}},"city":{"parking":{"area":6941.61,"pct":26.72},"roads":{"area":4559.88,"pct":17.55},"sidewalks":{"area":284.8,"pct":1.1}},"id":"hex:3646:24076"},"type":"Feature"},{"geometry":{"coordinates":[[[-122.467,37.67832],[-122.46756,37.6791],[-122.46869,37.67911],[-122.46927,37.67833],[-122.4687,37.67755],[-122.46757,37.67754],[-122.467,37.67832]]],"type":"Polygon"},"properties":{"bbox":{"parking":{"area":11394.15,"pct":43.86},"roads":{"area":2855.35,"pct":10.99}},"city_same":1,"id":"hex:3646:24077"},"type":"Feature"},{"geometry":{"coordinates":[[[-122.46699,37.67988],[-122.46755,37.68067],[-122.46868,37.68067],[-122.46925,37.67989],[-122.46869,37.67911],[-122.46756,37.6791],[-122.46699,37.67988]]],"type":"Polygon"},"properties":{"bbox":{"roads":{"area":827.95,"pct":3.19}},"city_same":1,"id":"hex:3646:24078"},"type":"Feature"},{"geometry":{"coordinates":[[[-122.46698,37.68144],[-122.46754,37.68223],[-122.46867,37.68223],[-122.46924,37.68145],[-122.46868,37.68067],[-122.46755,37.68067],[-122.46698,37.68144]]],"type":"Polygon"},"properties":{"bbox":{"roads":{"area":1603.1,"pct":6.17}},"city_same":1,"id":"hex:3646:24079"},"type":"Feature"},{"geometry":{"coordinates":[[[-122.46703,37.67364],[-122.4659,37.67363],[-122.46534,37.67285],[-122.46591,37.67207],[-122.46591,37.67207],[-122.4671,37.67354],[-122.46703,37.67364]]],"type":"Polygon"},"properties":{"bbox":{"parking":{"area":4250.58,"pct":30.15},"roads":{"area":5416.59,"pct":38.42},"sidewalks":{"area":225.65,"pct":1.6}},"city":{"parking":{"area":4250.58,"pct":30.15},"roads":{"area":2154.11,"pct":15.28},"sidewalks":{"area":225.65,"pct":1.6}},"id":"hex:3647:24073"},"type":"Feature"},{"geometry":{"coordinates":[[[-122.46532,37.67441],[-122.46589,37.67519],[-122.46702,37.6752],[-122.46759,37.67442],[-122.46703,37.67364],[-122.4659,37.67363],[-122.46532,37.67441]]],"type":"Polygon"},"properties":{"bbox":{"parking":{"area":5981.07,"pct":23.02},"roads":{"area":4660.79,"pct":17.94},"sidewalks":{"area":178.97,"pct":0.69}},"city":{"parking":{"area":5981.07,"pct":23.02},"roads":{"area":2614.84,"pct":10.06},"sidewalks":{"area":178.97,"pct":0.69}},"id":"hex:3647:24074"},"type":"Feature"},{"geometry":{"coordinates":[[[-122.46531,37.67597],[-122.46588,37.67676],[-122.46701,37.67676],[-122.46758,37.67598],[-122.46702,37.6752],[-122.46589,37.67519],[-122.46531,37.67597]]],"type":"Polygon"},"properties":{"bbox":{"parking":{"area":11.83,"pct":0.05},"roads":{"area":790.17,"pct":3.04}},"city_same":1,"id":"hex:3647:24075"},"type":"Feature"},{"geometry":{"coordinates":[[[-122.4653,37.67753],[-122.46586,37.67832],[-122.467,37.67832],[-122.46757,37.67754],[-122.46701,37.67676],[-122.46588,37.67676],[-122.4653,37.67753]]],"type":"Polygon"},"properties":{"bbox":{"parking":{"area":16061.29,"pct":61.82},"roads":{"area":5197.79,"pct":20.01}},"city_same":1,"id":"hex:3647:24076"},"type":"Feature"},{"geometry":{"coordinates":[[[-122.46529,37.67909],[-122.46585,37.67988],[-122.46699,37.67988],[-122.46756,37.6791],[-122.467,37.67832],[-122.46586,37.67832],[-122.46529,37.67909]]],"type":"Polygon"},"properties":{"bbox":{"parking":{"area":32.53,"pct":0.13},"roads":{"area":1319.08,"pct":5.08}},"city_same":1,"id":"hex:3647:24077"},"type":"Feature"},{"geometry":{"coordinates":[[[-122.46528,37.68066],[-122.46584,37.68144],[-122.46698,37.68144],[-122.46755,37.68067],[-122.46699,37.67988],[-122.46585,37.67988],[-122.46528,37.68066]]],"type":"Polygon"},"properties":{"bbox":{"roads":{"area":1178.73,"pct":4.54}},"city_same":1,"id":"hex:3647:24078"},"type":"Feature"},{"geometry":{"coordinates":[[[-122.46527,37.68222],[-122.46584,37.68144],[-122.46698,37.68144],[-122.46754,37.68223],[-122.46733,37.6825],[-122.46688,37.68251],[-122.46686,37.68251],[-122.46675,37.68251],[-122.46646,37.68251],[-122.46647,37.6826],[-122.4656,37.6826],[-122.46558,37.6826],[-122.46556,37.6826],[-122.46554,37.6826],[-122.46527,37.68222]]],"type":"Polygon"},"properties":{"bbox":{"roads":{"area":869.35,"pct":4.44},"sidewalks":{"area":1.63,"pct":0.01}},"city_same":1,"id":"hex:3647:24079"},"type":"Feature"},{"geometry":{"coordinates":[[[-122.46421,37.67128],[-122.46365,37.6705],[-122.46394,37.67011],[-122.46459,37.67062],[-122.46506,37.67111],[-122.46522,37.67129],[-122.46421,37.67128]]],"type":"Polygon"},"properties":{"bbox":{"parking":{"area":97.13,"pct":1.14},"roads":{"area":5340.73,"pct":62.7},"sidewalks":{"area":250.59,"pct":2.94}},"city":{"parking":{"area":97.13,"pct":1.14},"roads":{"area":711.7,"pct":8.35},"sidewalks":{"area":250.59,"pct":2.94}},"id":"hex:3648:24072"},"type":"Feature"},{"geometry":{"coordinates":[[[-122.46591,37.67207],[-122.46534,37.67285],[-122.4642,37.67284],[-122.46364,37.67206],[-122.46421,37.67128],[-122.46522,37.67129],[-122.46579,37.67192],[-122.46587,37.67202],[-122.46591,37.67207]]],"type":"Polygon"},"properties":{"bbox":{"parking":{"area":9134.05,"pct":35.72},"roads":{"area":7820.66,"pct":30.58},"sidewalks":{"area":512.38,"pct":2}},"city":{"parking":{"area":9134.05,"pct":35.72},"roads":{"area":3675.22,"pct":14.37},"sidewalks":{"area":512.38,"pct":2}},"id":"hex:3648:24073"},"type":"Feature"},{"geometry":{"coordinates":[[[-122.46363,37.67362],[-122.46419,37.67441],[-122.46532,37.67441],[-122.4659,37.67363],[-122.46534,37.67285],[-122.4642,37.67284],[-122.46363,37.67362]]],"type":"Polygon"},"properties":{"bbox":{"parking":{"area":9345.05,"pct":35.97},"roads":{"area":2526.1,"pct":9.72}},"city_same":1,"id":"hex:3648:24074"},"type":"Feature"},{"geometry":{"coordinates":[[[-122.46362,37.67518],[-122.46418,37.67597],[-122.46531,37.67597],[-122.46589,37.67519],[-122.46532,37.67441],[-122.46419,37.67441],[-122.46362,37.67518]]],"type":"Polygon"},"properties":{"bbox":{"roads":{"area":1619.76,"pct":6.23}},"city_same":1,"id":"hex:3648:24075"},"type":"Feature"},{"geometry":{"coordinates":[[[-122.46361,37.67675],[-122.46417,37.67753],[-122.4653,37.67753],[-122.46588,37.67676],[-122.46531,37.67597],[-122.46418,37.67597],[-122.46361,37.67675]]],"type":"Polygon"},"properties":{"bbox":{"parking":{"area":4715.4,"pct":18.15},"roads":{"area":3227.88,"pct":12.42}},"city_same":1,"id":"hex:3648:24076"},"type":"Feature"},{"geometry":{"coordinates":[[[-122.4636,37.67831],[-122.46416,37.67909],[-122.46529,37.67909],[-122.46586,37.67832],[-122.4653,37.67753],[-122.46417,37.67753],[-122.4636,37.67831]]],"type":"Polygon"},"properties":{"bbox":{"parking":{"area":8617,"pct":33.17},"roads":{"area":2288.76,"pct":8.81}},"city_same":1,"id":"hex:3648:24077"},"type":"Feature"},{"geometry":{"coordinates":[[[-122.46358,37.67987],[-122.46415,37.68065],[-122.46528,37.68066],[-122.46585,37.67988],[-122.46529,37.67909],[-122.46416,37.67909],[-122.46358,37.67987]]],"type":"Polygon"},"properties":{"bbox":{"roads":{"area":863.01,"pct":3.32}},"city_same":1,"id":"hex:3648:24078"},"type":"Feature"},{"geometry":{"coordinates":[[[-122.46357,37.68143],[-122.46413,37.68221],[-122.46527,37.68222],[-122.46584,37.68144],[-122.46528,37.68066],[-122.46415,37.68065],[-122.46357,37.68143]]],"type":"Polygon"},"properties":{"bbox":{"roads":{"area":2335.74,"pct":8.99}},"city_same":1,"id":"hex:3648:24079"},"type":"Feature"},{"geometry":{"coordinates":[[[[-122.46412,37.68377],[-122.46356,37.68299],[-122.46372,37.68277],[-122.46491,37.68361],[-122.46514,37.68378],[-122.46412,37.68377]]],[[[-122.46413,37.68221],[-122.46527,37.68222],[-122.46554,37.6826],[-122.46526,37.6826],[-122.4649,37.6826],[-122.46385,37.68261],[-122.46413,37.68221]]]],"type":"MultiPolygon"},"properties":{"bbox":{"roads":{"area":1412.54,"pct":12.29},"sidewalks":{"area":289.31,"pct":2.52}},"city":{"roads":{"area":1233.55,"pct":10.73},"sidewalks":{"area":289.31,"pct":2.52}},"id":"hex:3648:24080"},"type":"Feature"},{"geometry":{"coordinates":[[[[-122.46355,37.68455],[-122.46359,37.68449],[-122.4636,37.68451],[-122.46361,37.68454],[-122.46362,37.68457],[-122.46369,37.68474],[-122.4637,37.68476],[-122.46355,37.68455]]],[[[-122.46412,37.68377],[-122.46514,37.68378],[-122.46524,37.68385],[-122.46535,37.68392],[-122.46483,37.68393],[-122.46456,37.68393],[-122.46455,37.68393],[-122.46421,37.68394],[-122.464,37.68394],[-122.46412,37.68377]]]],"type":"MultiPolygon"},"properties":{"bbox":{"roads":{"area":78.78,"pct":4.18}},"city_same":1,"id":"hex:3648:24081"},"type":"Feature"},{"geometry":{"coordinates":[[[-122.46365,37.6705],[-122.46252,37.6705],[-122.46196,37.66971],[-122.46253,37.66893],[-122.46255,37.66893],[-122.46286,37.66923],[-122.4629,37.66927],[-122.46294,37.6693],[-122.46297,37.66932],[-122.46301,37.66935],[-122.46305,37.66938],[-122.46309,37.66941],[-122.46312,37.66944],[-122.46316,37.66947],[-122.4632,37.6695],[-122.46323,37.66952],[-122.46327,37.66955],[-122.4633,37.66959],[-122.46334,37.66962],[-122.46335,37.66962],[-122.46337,37.66965],[-122.4634,37.66968],[-122.46344,37.66971],[-122.46394,37.67011],[-122.46365,37.6705]]],"type":"Polygon"},"properties":{"bbox":{"roads":{"area":3583.95,"pct":20.79},"sidewalks":{"area":269.28,"pct":1.56}},"city":{"roads":{"area":665.17,"pct":3.86},"sidewalks":{"area":269.28,"pct":1.56}},"id":"hex:3649:24071"},"type":"Feature"},{"geometry":{"coordinates":[[[-122.46195,37.67127],[-122.46251,37.67206],[-122.46364,37.67206],[-122.46421,37.67128],[-122.46365,37.6705],[-122.46252,37.6705],[-122.46195,37.67127]]],"type":"Polygon"},"properties":{"bbox":{"roads":{"area":5212.89,"pct":20.06},"sidewalks":{"area":222.66,"pct":0.86}},"city":{"roads":{"area":4095.25,"pct":15.76},"sidewalks":{"area":222.66,"pct":0.86}},"id":"hex:3649:24072"},"type":"Feature"},{"geometry":{"coordinates":[[[-122.46193,37.67283],[-122.4625,37.67362],[-122.46363,37.67362],[-122.4642,37.67284],[-122.46364,37.67206],[-122.46251,37.67206],[-122.46193,37.67283]]],"type":"Polygon"},"properties":{"bbox":{"roads":{"area":5521.53,"pct":21.25},"sidewalks":{"area":426.93,"pct":1.64}},"city":{"roads":{"area":3292.28,"pct":12.67},"sidewalks":{"area":426.93,"pct":1.64}},"id":"hex:3649:24073"},"type":"Feature"},{"geometry":{"coordinates":[[[-122.46192,37.6744],[-122.46248,37.67518],[-122.46362,37.67518],[-122.46419,37.67441],[-122.46363,37.67362],[-122.4625,37.67362],[-122.46192,37.6744]]],"type":"Polygon"},"properties":{"bbox":{"roads":{"area":5346.77,"pct":20.58},"sidewalks":{"area":204.89,"pct":0.79}},"city":{"roads":{"area":4409.88,"pct":16.97},"sidewalks":{"area":204.89,"pct":0.79}},"id":"hex:3649:24074"},"type":"Feature"},{"geometry":{"coordinates":[[[-122.46191,37.67596],[-122.46247,37.67674],[-122.46361,37.67675],[-122.46418,37.67597],[-122.46362,37.67518],[-122.46248,37.67518],[-122.46191,37.67596]]],"type":"Polygon"},"properties":{"bbox":{"roads":{"area":1885.39,"pct":7.26}},"city_same":1,"id":"hex:3649:24075"},"type":"Feature"},{"geometry":{"coordinates":[[[-122.4619,37.67752],[-122.46246,37.6783],[-122.4636,37.67831],[-122.46417,37.67753],[-122.46361,37.67675],[-122.46247,37.67674],[-122.4619,37.67752]]],"type":"Polygon"},"properties":{"bbox":{"roads":{"area":2517.2,"pct":9.69}},"city_same":1,"id":"hex:3649:24076"},"type":"Feature"},{"geometry":{"coordinates":[[[-122.46189,37.67908],[-122.46245,37.67986],[-122.46358,37.67987],[-122.46416,37.67909],[-122.4636,37.67831],[-122.46246,37.6783],[-122.46189,37.67908]]],"type":"Polygon"},"properties":{"bbox":{"roads":{"area":1937.46,"pct":7.46}},"city_same":1,"id":"hex:3649:24077"},"type":"Feature"},{"geometry":{"coordinates":[[[-122.46188,37.68064],[-122.46244,37.68142],[-122.46357,37.68143],[-122.46415,37.68065],[-122.46358,37.67987],[-122.46245,37.67986],[-122.46188,37.68064]]],"type":"Polygon"},"properties":{"bbox":{"roads":{"area":4069.77,"pct":15.66},"sidewalks":{"area":239.36,"pct":0.92}},"city":{"roads":{"area":841.14,"pct":3.24},"sidewalks":{"area":239.36,"pct":0.92}},"id":"hex:3649:24078"},"type":"Feature"},{"geometry":{"coordinates":[[[-122.46356,37.68299],[-122.46243,37.68298],[-122.46187,37.6822],[-122.46244,37.68142],[-122.46357,37.68143],[-122.46413,37.68221],[-122.46385,37.68261],[-122.46374,37.68261],[-122.46373,37.68261],[-122.46372,37.68261],[-122.46371,37.68261],[-122.46371,37.68261],[-122.4637,37.68261],[-122.46369,37.68261],[-122.46369,37.68262],[-122.46368,37.68262],[-122.46368,37.68262],[-122.46367,37.68263],[-122.46367,37.68263],[-122.46366,37.68264],[-122.46366,37.68264],[-122.46366,37.68265],[-122.46365,37.68265],[-122.46365,37.68266],[-122.46365,37.68266],[-122.46365,37.68267],[-122.46365,37.68268],[-122.46365,37.68268],[-122.46365,37.68269],[-122.46366,37.68273],[-122.46372,37.68277],[-122.46356,37.68299]]],"type":"Polygon"},"properties":{"bbox":{"roads":{"area":6103.73,"pct":23.66},"sidewalks":{"area":660.43,"pct":2.56}},"city":{"roads":{"area":1812.1,"pct":7.03},"sidewalks":{"area":660.43,"pct":2.56}},"id":"hex:3649:24079"},"type":"Feature"},{"geometry":{"coordinates":[[[-122.46355,37.68455],[-122.46242,37.68455],[-122.46186,37.68376],[-122.46243,37.68298],[-122.46356,37.68299],[-122.46412,37.68377],[-122.464,37.68394],[-122.4639,37.68394],[-122.46346,37.68394],[-122.46347,37.68401],[-122.46348,37.68405],[-122.46348,37.68409],[-122.46349,37.68412],[-122.4635,37.68416],[-122.4635,37.68419],[-122.46351,37.68423],[-122.46352,37.68427],[-122.46353,37.6843],[-122.46354,37.68434],[-122.46355,37.68437],[-122.46356,37.68441],[-122.46357,37.68444],[-122.46359,37.68447],[-122.46359,37.68449],[-122.46355,37.68455]]],"type":"Polygon"},"properties":{"bbox":{"roads":{"area":3400.63,"pct":13.91},"sidewalks":{"area":289.2,"pct":1.18}},"city":{"roads":{"area":1003.7,"pct":4.1},"sidewalks":{"area":289.2,"pct":1.18}},"id":"hex:3649:24080"},"type":"Feature"},{"geometry":{"coordinates":[[[-122.46184,37.68532],[-122.46242,37.68455],[-122.46355,37.68455],[-122.4637,37.68476],[-122.46371,37.68478],[-122.46373,37.68483],[-122.46376,37.68488],[-122.46378,37.68492],[-122.46383,37.68502],[-122.46397,37.68528],[-122.46405,37.68542],[-122.46383,37.68572],[-122.46368,37.68572],[-122.46368,37.68572],[-122.46356,37.68572],[-122.4635,37.68572],[-122.46345,37.68572],[-122.46341,37.68572],[-122.46333,37.68572],[-122.46324,37.68572],[-122.46322,37.68572],[-122.4631,37.68572],[-122.46299,37.68572],[-122.46298,37.68572],[-122.46287,37.68572],[-122.4628,37.68572],[-122.46276,37.68572],[-122.46272,37.68572],[-122.46264,37.68572],[-122.46258,37.68573],[-122.46253,37.68573],[-122.46242,37.68573],[-122.46241,37.68573],[-122.4623,37.68573],[-122.46229,37.68573],[-122.46219,37.68573],[-122.46213,37.68573],[-122.46184,37.68532]]],"type":"Polygon"},"properties":{"bbox":{"roads":{"area":1667.92,"pct":8.24}},"city_same":1,"id":"hex:3649:24081"},"type":"Feature"},{"geometry":{"coordinates":[[[-122.46083,37.66815],[-122.46027,37.66736],[-122.46046,37.66711],[-122.46048,37.66712],[-122.46053,37.66716],[-122.46058,37.6672],[-122.46063,37.66724],[-122.46068,37.66728],[-122.46073,37.66732],[-122.46078,37.66736],[-122.46083,37.6674],[-122.46088,37.66744],[-122.46093,37.66748],[-122.46097,37.66752],[-122.46102,37.66756],[-122.46107,37.6676],[-122.46147,37.66796],[-122.46168,37.66815],[-122.46083,37.66815]]],"type":"Polygon"},"properties":{"bbox":{"roads":{"area":1890.08,"pct":32.12},"sidewalks":{"area":158.13,"pct":2.69}},"city":{"roads":{"area":3.58,"pct":0.06},"sidewalks":{"area":158.13,"pct":2.69}},"id":"hex:3650:24070"},"type":"Feature"},{"geometry":{"coordinates":[[[-122.46253,37.66893],[-122.46196,37.66971],[-122.46082,37.66971],[-122.46026,37.66892],[-122.46083,37.66815],[-122.46168,37.66815],[-122.46249,37.66888],[-122.46253,37.66893]]],"type":"Polygon"},"properties":{"bbox":{"roads":{"area":3670.39,"pct":14.72},"sidewalks":{"area":241.72,"pct":0.97}},"city":{"roads":{"area":1506.25,"pct":6.04},"sidewalks":{"area":241.72,"pct":0.97}},"id":"hex:3650:24071"},"type":"Feature"},{"geometry":{"coordinates":[[[-122.46025,37.67049],[-122.46081,37.67127],[-122.46195,37.67127],[-122.46252,37.6705],[-122.46196,37.66971],[-122.46082,37.66971],[-122.46025,37.67049]]],"type":"Polygon"},"properties":{"bbox":{"roads":{"area":1290.48,"pct":4.97}},"city_same":1,"id":"hex:3650:24072"},"type":"Feature"},{"geometry":{"coordinates":[[[-122.46024,37.67205],[-122.4608,37.67283],[-122.46193,37.67283],[-122.46251,37.67206],[-122.46195,37.67127],[-122.46081,37.67127],[-122.46024,37.67205]]],"type":"Polygon"},"properties":{"bbox":{"roads":{"area":2991.41,"pct":11.51}},"city_same":1,"id":"hex:3650:24073"},"type":"Feature"},{"geometry":{"coordinates":[[[-122.46023,37.67361],[-122.46079,37.67439],[-122.46192,37.6744],[-122.4625,37.67362],[-122.46193,37.67283],[-122.4608,37.67283],[-122.46023,37.67361]]],"type":"Polygon"},"properties":{"bbox":{"roads":{"area":4999.4,"pct":19.24},"sidewalks":{"area":183.87,"pct":0.71}},"city":{"roads":{"area":4222.63,"pct":16.25},"sidewalks":{"area":183.87,"pct":0.71}},"id":"hex:3650:24074"},"type":"Feature"},{"geometry":{"coordinates":[[[-122.46022,37.67517],[-122.46078,37.67595],[-122.46191,37.67596],[-122.46248,37.67518],[-122.46192,37.6744],[-122.46079,37.67439],[-122.46022,37.67517]]],"type":"Polygon"},"properties":{"bbox":{"roads":{"area":5884.65,"pct":22.65},"sidewalks":{"area":471.1,"pct":1.81}},"city":{"roads":{"area":3724.75,"pct":14.34},"sidewalks":{"area":471.1,"pct":1.81}},"id":"hex:3650:24075"},"type":"Feature"},{"geometry":{"coordinates":[[[-122.46021,37.67673],[-122.46077,37.67751],[-122.4619,37.67752],[-122.46247,37.67674],[-122.46191,37.67596],[-122.46078,37.67595],[-122.46021,37.67673]]],"type":"Polygon"},"properties":{"bbox":{"roads":{"area":1505.64,"pct":5.8}},"city_same":1,"id":"hex:3650:24076"},"type":"Feature"},{"geometry":{"coordinates":[[[-122.46019,37.67829],[-122.46076,37.67907],[-122.46189,37.67908],[-122.46246,37.6783],[-122.4619,37.67752],[-122.46077,37.67751],[-122.46019,37.67829]]],"type":"Polygon"},"properties":{"bbox":{"roads":{"area":2821.12,"pct":10.86}},"city":{"roads":{"area":1917.49,"pct":7.38}},"id":"hex:3650:24077"},"type":"Feature"},{"geometry":{"coordinates":[[[-122.46018,37.67985],[-122.46074,37.68063],[-122.46188,37.68064],[-122.46245,37.67986],[-122.46189,37.67908],[-122.46076,37.67907],[-122.46018,37.67985]]],"type":"Polygon"},"properties":{"bbox":{"roads":{"area":5848.5,"pct":22.51},"sidewalks":{"area":317.39,"pct":1.22}},"city":{"roads":{"area":1403.27,"pct":5.4},"sidewalks":{"area":317.39,"pct":1.22}},"id":"hex:3650:24078"},"type":"Feature"},{"geometry":{"coordinates":[[[-122.46017,37.68141],[-122.46073,37.6822],[-122.46187,37.6822],[-122.46244,37.68142],[-122.46188,37.68064],[-122.46074,37.68063],[-122.46017,37.68141]]],"type":"Polygon"},"properties":{"bbox":{"roads":{"area":1212.52,"pct":4.67}},"city_same":1,"id":"hex:3650:24079"},"type":"Feature"},{"geometry":{"coordinates":[[[-122.46016,37.68297],[-122.46072,37.68376],[-122.46186,37.68376],[-122.46243,37.68298],[-122.46187,37.6822],[-122.46073,37.6822],[-122.46016,37.68297]]],"type":"Polygon"},"properties":{"bbox":{"roads":{"area":2312.26,"pct":8.9},"sidewalks":{"area":362.44,"pct":1.4}},"city_same":1,"id":"hex:3650:24080"},"type":"Feature"},{"geometry":{"coordinates":[[[-122.46015,37.68453],[-122.46071,37.68532],[-122.46184,37.68532],[-122.46242,37.68455],[-122.46186,37.68376],[-122.46072,37.68376],[-122.46015,37.68453]]],"type":"Polygon"},"properties":{"bbox":{"roads":{"area":2590.75,"pct":9.97}},"city_same":1,"id":"hex:3650:24081"},"type":"Feature"},{"geometry":{"coordinates":[[[-122.46071,37.68532],[-122.46184,37.68532],[-122.46213,37.68573],[-122.46211,37.68573],[-122.46209,37.68573],[-122.46197,37.68573],[-122.46185,37.68573],[-122.46185,37.68573],[-122.46174,37.68573],[-122.46167,37.68573],[-122.46157,37.68573],[-122.46144,37.68573],[-122.46131,37.68573],[-122.46118,37.68573],[-122.46106,37.68573],[-122.4609,37.68573],[-122.46069,37.68575],[-122.46058,37.68575],[-122.46047,37.68575],[-122.46039,37.68575],[-122.46071,37.68532]]],"type":"Polygon"},"properties":{"bbox":{"roads":{"area":817.07,"pct":14.09}},"city_same":1,"id":"hex:3650:24082"},"type":"Feature"},{"geometry":{"coordinates":[[[-122.46027,37.66736],[-122.45914,37.66736],[-122.45903,37.6672],[-122.45915,37.66712],[-122.45929,37.66704],[-122.45942,37.66695],[-122.45968,37.66679],[-122.45968,37.66679],[-122.45975,37.6668],[-122.46028,37.66678],[-122.4603,37.66685],[-122.46042,37.66708],[-122.46046,37.66711],[-122.46027,37.66736]]],"type":"Polygon"},"properties":{"bbox":{"roads":{"area":1184.99,"pct":19.62},"sidewalks":{"area":103.81,"pct":1.72}},"city":{"sidewalks":{"area":103.81,"pct":1.72}},"id":"hex:3651:24069"},"type":"Feature"},{"geometry":{"coordinates":[[[-122.45857,37.66814],[-122.45913,37.66892],[-122.46026,37.66892],[-122.46083,37.66815],[-122.46027,37.66736],[-122.45914,37.66736],[-122.45857,37.66814]]],"type":"Polygon"},"properties":{"bbox":{"roads":{"area":1609.34,"pct":6.19},"sidewalks":{"area":10.29,"pct":0.04}},"city_same":1,"id":"hex:3651:24070"},"type":"Feature"},{"geometry":{"coordinates":[[[-122.45856,37.6697],[-122.45912,37.67048],[-122.46025,37.67049],[-122.46082,37.66971],[-122.46026,37.66892],[-122.45913,37.66892],[-122.45856,37.6697]]],"type":"Polygon"},"properties":{"bbox":{"roads":{"area":1561.28,"pct":6.01}},"city_same":1,"id":"hex:3651:24071"},"type":"Feature"},{"geometry":{"coordinates":[[[-122.45854,37.67126],[-122.45911,37.67204],[-122.46024,37.67205],[-122.46081,37.67127],[-122.46025,37.67049],[-122.45912,37.67048],[-122.45854,37.67126]]],"type":"Polygon"},"properties":{"bbox":{"roads":{"area":1111.24,"pct":4.28}},"city_same":1,"id":"hex:3651:24072"},"type":"Feature"},{"geometry":{"coordinates":[[[-122.45853,37.67282],[-122.45909,37.6736],[-122.46023,37.67361],[-122.4608,37.67283],[-122.46024,37.67205],[-122.45911,37.67204],[-122.45853,37.67282]]],"type":"Polygon"},"properties":{"bbox":{"roads":{"area":2326.68,"pct":8.96},"sidewalks":{"area":427.85,"pct":1.65}},"city_same":1,"id":"hex:3651:24073"},"type":"Feature"},{"geometry":{"coordinates":[[[-122.45852,37.67438],[-122.45908,37.67516],[-122.46022,37.67517],[-122.46079,37.67439],[-122.46023,37.67361],[-122.45909,37.6736],[-122.45852,37.67438]]],"type":"Polygon"},"properties":{"bbox":{"parking":{"area":2047.55,"pct":7.88},"roads":{"area":3559.28,"pct":13.7}},"city_same":1,"id":"hex:3651:24074"},"type":"Feature"},{"geometry":{"coordinates":[[[-122.45851,37.67594],[-122.45907,37.67672],[-122.46021,37.67673],[-122.46078,37.67595],[-122.46022,37.67517],[-122.45908,37.67516],[-122.45851,37.67594]]],"type":"Polygon"},"properties":{"bbox":{"parking":{"area":2961.42,"pct":11.4},"roads":{"area":4875.24,"pct":18.76},"sidewalks":{"area":506.11,"pct":1.95}},"city":{"parking":{"area":2961.42,"pct":11.4},"roads":{"area":2365.16,"pct":9.1},"sidewalks":{"area":506.11,"pct":1.95}},"id":"hex:3651:24075"},"type":"Feature"},{"geometry":{"coordinates":[[[-122.4585,37.6775],[-122.45906,37.67829],[-122.46019,37.67829],[-122.46077,37.67751],[-122.46021,37.67673],[-122.45907,37.67672],[-122.4585,37.6775]]],"type":"Polygon"},"properties":{"bbox":{"parking":{"area":639.72,"pct":2.46},"roads":{"area":5473.82,"pct":21.07},"sidewalks":{"area":193.89,"pct":0.75}},"city":{"parking":{"area":639.72,"pct":2.46},"roads":{"area":1689.73,"pct":6.5},"sidewalks":{"area":193.89,"pct":0.75}},"id":"hex:3651:24076"},"type":"Feature"},{"geometry":{"coordinates":[[[-122.45849,37.67906],[-122.45905,37.67985],[-122.46018,37.67985],[-122.46076,37.67907],[-122.46019,37.67829],[-122.45906,37.67829],[-122.45849,37.67906]]],"type":"Polygon"},"properties":{"bbox":{"roads":{"area":3330.41,"pct":12.82},"sidewalks":{"area":193.83,"pct":0.75}},"city":{"roads":{"area":1771.89,"pct":6.82},"sidewalks":{"area":193.83,"pct":0.75}},"id":"hex:3651:24077"},"type":"Feature"},{"geometry":{"coordinates":[[[-122.45848,37.68062],[-122.45904,37.68141],[-122.46017,37.68141],[-122.46074,37.68063],[-122.46018,37.67985],[-122.45905,37.67985],[-122.45848,37.68062]]],"type":"Polygon"},"properties":{"bbox":{"roads":{"area":2575.26,"pct":9.91}},"city_same":1,"id":"hex:3651:24078"},"type":"Feature"},{"geometry":{"coordinates":[[[-122.45846,37.68219],[-122.45903,37.68297],[-122.46016,37.68297],[-122.46073,37.6822],[-122.46017,37.68141],[-122.45904,37.68141],[-122.45846,37.68219]]],"type":"Polygon"},"properties":{"bbox":{"roads":{"area":4532,"pct":17.44}},"city_same":1,"id":"hex:3651:24079"},"type":"Feature"},{"geometry":{"coordinates":[[[-122.45845,37.68375],[-122.45901,37.68453],[-122.46015,37.68453],[-122.46072,37.68376],[-122.46016,37.68297],[-122.45903,37.68297],[-122.45845,37.68375]]],"type":"Polygon"},"properties":{"bbox":{"roads":{"area":1899.73,"pct":7.31}},"city_same":1,"id":"hex:3651:24080"},"type":"Feature"},{"geometry":{"coordinates":[[[-122.45901,37.68453],[-122.46015,37.68453],[-122.46071,37.68532],[-122.46039,37.68575],[-122.46037,37.68575],[-122.46026,37.68575],[-122.46015,37.68575],[-122.46011,37.68575],[-122.46004,37.68575],[-122.45994,37.68575],[-122.45992,37.68575],[-122.45973,37.68548],[-122.45973,37.68548],[-122.45972,37.68546],[-122.45966,37.68537],[-122.45961,37.6853],[-122.45958,37.68527],[-122.45951,37.68515],[-122.45948,37.68511],[-122.45943,37.68506],[-122.4594,37.68504],[-122.45933,37.68497],[-122.45924,37.68488],[-122.45911,37.68475],[-122.45896,37.6846],[-122.45901,37.68453]]],"type":"Polygon"},"properties":{"bbox":{"roads":{"area":946.51,"pct":7.83}},"city_same":1,"id":"hex:3651:24081"},"type":"Feature"},{"geometry":{"coordinates":[[[-122.45857,37.66814],[-122.45913,37.66892],[-122.45856,37.6697],[-122.45742,37.66969],[-122.45686,37.66891],[-122.45733,37.66827],[-122.45739,37.66823],[-122.45753,37.66815],[-122.45755,37.66813],[-122.45857,37.66814]]],"type":"Polygon"},"properties":{"bbox":{"roads":{"area":1452.55,"pct":5.61}},"city_same":1,"id":"hex:3652:24071"},"type":"Feature"},{"geometry":{"coordinates":[[[-122.45685,37.67047],[-122.45741,37.67125],[-122.45854,37.67126],[-122.45912,37.67048],[-122.45856,37.6697],[-122.45742,37.66969],[-122.45685,37.67047]]],"type":"Polygon"},"properties":{"bbox":{"roads":{"area":1791.25,"pct":6.89}},"city_same":1,"id":"hex:3652:24072"},"type":"Feature"},{"geometry":{"coordinates":[[[-122.45684,37.67203],[-122.4574,37.67281],[-122.45853,37.67282],[-122.45911,37.67204],[-122.45854,37.67126],[-122.45741,37.67125],[-122.45684,37.67203]]],"type":"Polygon"},"properties":{"bbox":{"roads":{"area":1600.65,"pct":6.16}},"city_same":1,"id":"hex:3652:24073"},"type":"Feature"},{"geometry":{"coordinates":[[[-122.45683,37.67359],[-122.45739,37.67437],[-122.45852,37.67438],[-122.45909,37.6736],[-122.45853,37.67282],[-122.4574,37.67281],[-122.45683,37.67359]]],"type":"Polygon"},"properties":{"bbox":{"parking":{"area":5296.04,"pct":20.38},"roads":{"area":3557.87,"pct":13.69}},"city_same":1,"id":"hex:3652:24074"},"type":"Feature"},{"geometry":{"coordinates":[[[-122.45681,37.67515],[-122.45738,37.67594],[-122.45851,37.67594],[-122.45908,37.67516],[-122.45852,37.67438],[-122.45739,37.67437],[-122.45681,37.67515]]],"type":"Polygon"},"properties":{"bbox":{"parking":{"area":11376.34,"pct":43.79},"roads":{"area":4548.6,"pct":17.51}},"city":{"parking":{"area":11376.34,"pct":43.79},"roads":{"area":3452.01,"pct":13.29}},"id":"hex:3652:24075"},"type":"Feature"},{"geometry":{"coordinates":[[[-122.4568,37.67671],[-122.45736,37.6775],[-122.4585,37.6775],[-122.45907,37.67672],[-122.45851,37.67594],[-122.45738,37.67594],[-122.4568,37.67671]]],"type":"Polygon"},"properties":{"bbox":{"parking":{"area":2020.96,"pct":7.78},"roads":{"area":8915.62,"pct":34.32},"sidewalks":{"area":206.4,"pct":0.79}},"city":{"parking":{"area":2020.96,"pct":7.78},"roads":{"area":1586.29,"pct":6.11},"sidewalks":{"area":206.4,"pct":0.79}},"id":"hex:3652:24076"},"type":"Feature"},{"geometry":{"coordinates":[[[-122.45679,37.67827],[-122.45735,37.67906],[-122.45849,37.67906],[-122.45906,37.67829],[-122.4585,37.6775],[-122.45736,37.6775],[-122.45679,37.67827]]],"type":"Polygon"},"properties":{"bbox":{"roads":{"area":1720.28,"pct":6.62}},"city_same":1,"id":"hex:3652:24077"},"type":"Feature"},{"geometry":{"coordinates":[[[-122.45678,37.67984],[-122.45734,37.68062],[-122.45848,37.68062],[-122.45905,37.67985],[-122.45849,37.67906],[-122.45735,37.67906],[-122.45678,37.67984]]],"type":"Polygon"},"properties":{"bbox":{"roads":{"area":1682,"pct":6.47}},"city_same":1,"id":"hex:3652:24078"},"type":"Feature"},{"geometry":{"coordinates":[[[-122.45677,37.6814],[-122.45733,37.68218],[-122.45846,37.68219],[-122.45904,37.68141],[-122.45848,37.68062],[-122.45734,37.68062],[-122.45677,37.6814]]],"type":"Polygon"},"properties":{"bbox":{"roads":{"area":2029.25,"pct":7.81}},"city_same":1,"id":"hex:3652:24079"},"type":"Feature"},{"geometry":{"coordinates":[[[-122.45676,37.68296],[-122.45732,37.68374],[-122.45845,37.68375],[-122.45903,37.68297],[-122.45846,37.68219],[-122.45733,37.68218],[-122.45676,37.68296]]],"type":"Polygon"},"properties":{"bbox":{"roads":{"area":2248,"pct":8.65}},"city":{"roads":{"area":1152.07,"pct":4.43}},"id":"hex:3652:24080"},"type":"Feature"},{"geometry":{"coordinates":[[[-122.45731,37.6853],[-122.45675,37.68452],[-122.45732,37.68374],[-122.45845,37.68375],[-122.45901,37.68453],[-122.45896,37.6846],[-122.45894,37.68459],[-122.45892,37.68456],[-122.45872,37.68482],[-122.45869,37.68494],[-122.45838,37.68531],[-122.45731,37.6853]]],"type":"Polygon"},"properties":{"bbox":{"roads":{"area":3616.15,"pct":14.14}},"city":{"roads":{"area":1157.45,"pct":4.52}},"id":"hex:3652:24081"},"type":"Feature"},{"geometry":{"coordinates":[[[-122.45674,37.68608],[-122.45731,37.6853],[-122.45838,37.68531],[-122.45718,37.6867],[-122.45674,37.68608]]],"type":"Polygon"},"properties":{"bbox":{"roads":{"area":977.79,"pct":9.1}},"city_same":1,"id":"hex:3652:24082"},"type":"Feature"},{"geometry":{"coordinates":[[[-122.45686,37.66891],[-122.45742,37.66969],[-122.45685,37.67047],[-122.45571,37.67046],[-122.45515,37.66968],[-122.45521,37.6696],[-122.45541,37.66948],[-122.45542,37.66947],[-122.45543,37.66946],[-122.45563,37.66934],[-122.45576,37.66925],[-122.4559,37.66917],[-122.45604,37.66908],[-122.45617,37.669],[-122.45631,37.66891],[-122.45632,37.66891],[-122.45686,37.66891]]],"type":"Polygon"},"properties":{"bbox":{"roads":{"area":1014.08,"pct":4.23}},"city_same":1,"id":"hex:3653:24071"},"type":"Feature"},{"geometry":{"coordinates":[[[-122.45514,37.67124],[-122.4557,37.67203],[-122.45684,37.67203],[-122.45741,37.67125],[-122.45685,37.67047],[-122.45571,37.67046],[-122.45514,37.67124]]],"type":"Polygon"},"properties":{"bbox":{"roads":{"area":1119.95,"pct":4.31}},"city_same":1,"id":"hex:3653:24072"},"type":"Feature"},{"geometry":{"coordinates":[[[-122.45513,37.6728],[-122.45569,37.67359],[-122.45683,37.67359],[-122.4574,37.67281],[-122.45684,37.67203],[-122.4557,37.67203],[-122.45513,37.6728]]],"type":"Polygon"},"properties":{"bbox":{"roads":{"area":1465.73,"pct":5.64}},"city_same":1,"id":"hex:3653:24073"},"type":"Feature"},{"geometry":{"coordinates":[[[-122.45512,37.67436],[-122.45568,37.67515],[-122.45681,37.67515],[-122.45739,37.67437],[-122.45683,37.67359],[-122.45569,37.67359],[-122.45512,37.67436]]],"type":"Polygon"},"properties":{"bbox":{"parking":{"area":44.09,"pct":0.17},"roads":{"area":6257.85,"pct":24.09}},"city":{"parking":{"area":44.09,"pct":0.17},"roads":{"area":3137.65,"pct":12.08}},"id":"hex:3653:24074"},"type":"Feature"},{"geometry":{"coordinates":[[[-122.45511,37.67593],[-122.45567,37.67671],[-122.4568,37.67671],[-122.45738,37.67594],[-122.45681,37.67515],[-122.45568,37.67515],[-122.45511,37.67593]]],"type":"Polygon"},"properties":{"bbox":{"roads":{"area":3396.03,"pct":13.07}},"city":{"roads":{"area":1507.35,"pct":5.8}},"id":"hex:3653:24075"},"type":"Feature"},{"geometry":{"coordinates":[[[-122.4551,37.67749],[-122.45566,37.67827],[-122.45679,37.67827],[-122.45736,37.6775],[-122.4568,37.67671],[-122.45567,37.67671],[-122.4551,37.67749]]],"type":"Polygon"},"properties":{"bbox":{"roads":{"area":5144.76,"pct":19.8}},"city":{"roads":{"area":3406.37,"pct":13.11}},"id":"hex:3653:24076"},"type":"Feature"},{"geometry":{"coordinates":[[[-122.45509,37.67905],[-122.45565,37.67983],[-122.45678,37.67984],[-122.45735,37.67906],[-122.45679,37.67827],[-122.45566,37.67827],[-122.45509,37.67905]]],"type":"Polygon"},"properties":{"bbox":{"roads":{"area":3517.91,"pct":13.54}},"city":{"roads":{"area":1504.62,"pct":5.79}},"id":"hex:3653:24077"},"type":"Feature"},{"geometry":{"coordinates":[[[-122.45507,37.68061],[-122.45564,37.68139],[-122.45677,37.6814],[-122.45734,37.68062],[-122.45678,37.67984],[-122.45565,37.67983],[-122.45507,37.68061]]],"type":"Polygon"},"properties":{"bbox":{"roads":{"area":1439.68,"pct":5.54}},"city_same":1,"id":"hex:3653:24078"},"type":"Feature"},{"geometry":{"coordinates":[[[-122.45506,37.68217],[-122.45562,37.68295],[-122.45676,37.68296],[-122.45733,37.68218],[-122.45677,37.6814],[-122.45564,37.68139],[-122.45506,37.68217]]],"type":"Polygon"},"properties":{"bbox":{"parking":{"area":1192.94,"pct":4.59},"roads":{"area":2983.16,"pct":11.48}},"city":{"parking":{"area":1192.94,"pct":4.59},"roads":{"area":1460.87,"pct":5.62}},"id":"hex:3653:24079"},"type":"Feature"},{"geometry":{"coordinates":[[[-122.45505,37.68373],[-122.45561,37.68451],[-122.45675,37.68452],[-122.45732,37.68374],[-122.45676,37.68296],[-122.45562,37.68295],[-122.45505,37.68373]]],"type":"Polygon"},"properties":{"bbox":{"roads":{"area":2422.4,"pct":9.32}},"city":{"roads":{"area":1848.68,"pct":7.12}},"id":"hex:3653:24080"},"type":"Feature"},{"geometry":{"coordinates":[[[-122.45504,37.68529],[-122.4556,37.68608],[-122.45674,37.68608],[-122.45731,37.6853],[-122.45675,37.68452],[-122.45561,37.68451],[-122.45504,37.68529]]],"type":"Polygon"},"properties":{"bbox":{"roads":{"area":1934.8,"pct":7.45}},"city_same":1,"id":"hex:3653:24081"},"type":"Feature"},{"geometry":{"coordinates":[[[-122.45559,37.68764],[-122.45503,37.68685],[-122.4556,37.68608],[-122.45674,37.68608],[-122.45718,37.6867],[-122.45637,37.68764],[-122.45559,37.68764]]],"type":"Polygon"},"properties":{"bbox":{"roads":{"area":1453.51,"pct":6.19}},"city_same":1,"id":"hex:3653:24082"},"type":"Feature"},{"geometry":{"coordinates":[[[-122.45502,37.68841],[-122.45559,37.68764],[-122.45637,37.68764],[-122.45603,37.68804],[-122.45575,37.68836],[-122.45562,37.68839],[-122.45528,37.68879],[-122.45502,37.68841]]],"type":"Polygon"},"properties":{"bbox":{"roads":{"area":861.99,"pct":12.99}},"city_same":1,"id":"hex:3653:24083"},"type":"Feature"},{"geometry":{"coordinates":[[[-122.45515,37.66968],[-122.45571,37.67046],[-122.45514,37.67124],[-122.45401,37.67124],[-122.45357,37.67063],[-122.45373,37.67053],[-122.45387,37.67045],[-122.454,37.67036],[-122.45414,37.67028],[-122.45427,37.67019],[-122.45441,37.67011],[-122.45454,37.67002],[-122.45468,37.66994],[-122.45481,37.66985],[-122.45495,37.66977],[-122.45509,37.66968],[-122.45509,37.66968],[-122.45515,37.66968]]],"type":"Polygon"},"properties":{"bbox":{"roads":{"area":1142.91,"pct":5.71}},"city_same":1,"id":"hex:3654:24072"},"type":"Feature"},{"geometry":{"coordinates":[[[-122.45344,37.67201],[-122.454,37.6728],[-122.45513,37.6728],[-122.4557,37.67203],[-122.45514,37.67124],[-122.45401,37.67124],[-122.45344,37.67201]]],"type":"Polygon"},"properties":{"bbox":{"roads":{"area":3349.06,"pct":12.89}},"city":{"roads":{"area":1625.94,"pct":6.26}},"id":"hex:3654:24073"},"type":"Feature"},{"geometry":{"coordinates":[[[-122.454,37.6728],[-122.45513,37.6728],[-122.45569,37.67359],[-122.45512,37.67436],[-122.45399,37.67436],[-122.45342,37.67358],[-122.45348,37.6735],[-122.45348,37.6735],[-122.45356,37.67352],[-122.45369,37.67359],[-122.45397,37.67341],[-122.45401,37.67335],[-122.45403,37.67329],[-122.45395,37.67317],[-122.45386,37.67307],[-122.45382,37.67304],[-122.454,37.6728]],[[-122.45402,37.67392],[-122.45408,37.6739],[-122.45416,37.67394],[-122.45421,37.67392],[-122.45421,37.67389],[-122.4542,37.67385],[-122.45415,37.67384],[-122.45413,37.6738],[-122.45413,37.67376],[-122.45407,37.67377],[-122.45404,37.67379],[-122.454,37.67383],[-122.45397,37.67384],[-122.45392,37.67385],[-122.45391,37.6739],[-122.45395,37.67393],[-122.45402,37.67392]],[[-122.45423,37.67371],[-122.45418,37.67372],[-122.45417,37.67374],[-122.45419,37.67375],[-122.45422,37.67376],[-122.45425,37.67375],[-122.45428,37.67375],[-122.45431,37.67373],[-122.45443,37.67371],[-122.45443,37.67367],[-122.45431,37.67365],[-122.45428,37.67363],[-122.45425,37.67363],[-122.45424,37.67365],[-122.45425,37.67369],[-122.45423,37.67371]],[[-122.45447,37.67404],[-122.45441,37.67401],[-122.45439,37.674],[-122.45434,37.67406],[-122.45428,37.67413],[-122.45432,37.67415],[-122.45436,37.67415],[-122.45437,37.67412],[-122.45439,37.6741],[-122.45446,37.6741],[-122.4545,37.6741],[-122.45453,37.67409],[-122.45458,37.67408],[-122.45459,37.67406],[-122.45459,37.67405],[-122.45456,37.67404],[-122.45457,37.67402],[-122.45454,37.67398],[-122.45449,37.67399],[-122.45448,37.67402],[-122.45447,37.67404]],[[-122.45457,37.67396],[-122.45465,37.67398],[-122.45469,37.67396],[-122.4547,37.67392],[-122.45468,37.67385],[-122.45469,37.67382],[-122.45471,37.67382],[-122.45466,37.67377],[-122.45463,37.67381],[-122.45458,37.67382],[-122.45456,37.67383],[-122.45449,37.67382],[-122.45446,37.67384],[-122.45443,37.67391],[-122.45446,37.67392],[-122.45449,37.67393],[-122.45451,37.67394],[-122.45454,37.67393],[-122.45457,37.67396]]],"type":"Polygon"},"properties":{"bbox":{"roads":{"area":5015.71,"pct":21.39}},"city":{"roads":{"area":1526.76,"pct":6.51}},"id":"hex:3654:24074"},"type":"Feature"},{"geometry":{"coordinates":[[[-122.45341,37.67514],[-122.45397,37.67592],[-122.45511,37.67593],[-122.45568,37.67515],[-122.45512,37.67436],[-122.45399,37.67436],[-122.45341,37.67514]]],"type":"Polygon"},"properties":{"bbox":{"roads":{"area":1739.12,"pct":6.69},"sidewalks":{"area":6.29,"pct":0.02}},"city_same":1,"id":"hex:3654:24075"},"type":"Feature"},{"geometry":{"coordinates":[[[-122.4534,37.6767],[-122.45396,37.67748],[-122.4551,37.67749],[-122.45567,37.67671],[-122.45511,37.67593],[-122.45397,37.67592],[-122.4534,37.6767]]],"type":"Polygon"},"properties":{"bbox":{"roads":{"area":4125.36,"pct":15.88},"sidewalks":{"area":232.49,"pct":0.89}},"city_same":1,"id":"hex:3654:24076"},"type":"Feature"},{"geometry":{"coordinates":[[[-122.45339,37.67826],[-122.45395,37.67904],[-122.45509,37.67905],[-122.45566,37.67827],[-122.4551,37.67749],[-122.45396,37.67748],[-122.45339,37.67826]]],"type":"Polygon"},"properties":{"bbox":{"roads":{"area":4035.33,"pct":15.53}},"city_same":1,"id":"hex:3654:24077"},"type":"Feature"},{"geometry":{"coordinates":[[[-122.45338,37.67982],[-122.45394,37.6806],[-122.45507,37.68061],[-122.45565,37.67983],[-122.45509,37.67905],[-122.45395,37.67904],[-122.45338,37.67982]]],"type":"Polygon"},"properties":{"bbox":{"parking":{"area":698.79,"pct":2.69},"roads":{"area":4862.78,"pct":18.72}},"city":{"parking":{"area":698.79,"pct":2.69},"roads":{"area":2416.67,"pct":9.3}},"id":"hex:3654:24078"},"type":"Feature"},{"geometry":{"coordinates":[[[-122.45337,37.68138],[-122.45393,37.68216],[-122.45506,37.68217],[-122.45564,37.68139],[-122.45507,37.68061],[-122.45394,37.6806],[-122.45337,37.68138]]],"type":"Polygon"},"properties":{"bbox":{"parking":{"area":2038.39,"pct":7.85},"roads":{"area":3736.09,"pct":14.38}},"city":{"parking":{"area":2038.39,"pct":7.85},"roads":{"area":2324.26,"pct":8.95}},"id":"hex:3654:24079"},"type":"Feature"},{"geometry":{"coordinates":[[[-122.45336,37.68294],[-122.45392,37.68373],[-122.45505,37.68373],[-122.45562,37.68295],[-122.45506,37.68217],[-122.45393,37.68216],[-122.45336,37.68294]]],"type":"Polygon"},"properties":{"bbox":{"roads":{"area":1560.69,"pct":6.01}},"city_same":1,"id":"hex:3654:24080"},"type":"Feature"},{"geometry":{"coordinates":[[[-122.45334,37.6845],[-122.45391,37.68529],[-122.45504,37.68529],[-122.45561,37.68451],[-122.45505,37.68373],[-122.45392,37.68373],[-122.45334,37.6845]]],"type":"Polygon"},"properties":{"bbox":{"roads":{"area":2711.55,"pct":10.44}},"city_same":1,"id":"hex:3654:24081"},"type":"Feature"},{"geometry":{"coordinates":[[[-122.45333,37.68606],[-122.45389,37.68685],[-122.45503,37.68685],[-122.4556,37.68608],[-122.45504,37.68529],[-122.45391,37.68529],[-122.45333,37.68606]]],"type":"Polygon"},"properties":{"bbox":{"roads":{"area":1576.9,"pct":6.07}},"city_same":1,"id":"hex:3654:24082"},"type":"Feature"},{"geometry":{"coordinates":[[[-122.45332,37.68763],[-122.45389,37.68685],[-122.45503,37.68685],[-122.45559,37.68764],[-122.45502,37.68841],[-122.45446,37.68841],[-122.45352,37.6879],[-122.45332,37.68763]]],"type":"Polygon"},"properties":{"bbox":{"roads":{"area":1368.55,"pct":5.57}},"city_same":1,"id":"hex:3654:24083"},"type":"Feature"},{"geometry":{"coordinates":[[[-122.45502,37.68841],[-122.45528,37.68879],[-122.45525,37.68882],[-122.45524,37.68883],[-122.45516,37.68879],[-122.45449,37.68842],[-122.45446,37.68841],[-122.45502,37.68841]]],"type":"Polygon"},"properties":{"bbox":{"roads":{"area":240.78,"pct":19.14}},"city_same":1,"id":"hex:3654:24084"},"type":"Feature"},{"geometry":{"coordinates":[[[-122.45231,37.67045],[-122.45175,37.66967],[-122.45194,37.66941],[-122.45229,37.6697],[-122.45234,37.66974],[-122.45273,37.67008],[-122.45275,37.6701],[-122.45278,37.67012],[-122.45281,37.67015],[-122.45284,37.67018],[-122.45287,37.6702],[-122.4529,37.67023],[-122.45292,37.67026],[-122.45295,37.67028],[-122.45297,37.67031],[-122.453,37.67034],[-122.45302,37.67037],[-122.45305,37.6704],[-122.45307,37.67043],[-122.45309,37.67045],[-122.45231,37.67045]]],"type":"Polygon"},"properties":{"bbox":{"roads":{"area":116.86,"pct":2.05}},"city":{"roads":{"area":116.4,"pct":2.04}},"id":"hex:3655:24071"},"type":"Feature"},{"geometry":{"coordinates":[[[-122.45401,37.67124],[-122.45344,37.67201],[-122.4523,37.67201],[-122.45174,37.67123],[-122.45231,37.67045],[-122.45309,37.67045],[-122.45309,37.67046],[-122.45312,37.67049],[-122.45314,37.67052],[-122.45316,37.67055],[-122.45318,37.67058],[-122.4532,37.67061],[-122.45322,37.67064],[-122.45324,37.67067],[-122.45326,37.6707],[-122.45327,37.67073],[-122.45329,37.67076],[-122.45331,37.67079],[-122.4535,37.67068],[-122.45357,37.67063],[-122.45401,37.67124]]],"type":"Polygon"},"properties":{"bbox":{"parking":{"area":390.83,"pct":1.56},"roads":{"area":3398.6,"pct":13.55},"sidewalks":{"area":416.75,"pct":1.66}},"city":{"parking":{"area":390.83,"pct":1.56},"roads":{"area":1950.5,"pct":7.78},"sidewalks":{"area":416.75,"pct":1.66}},"id":"hex:3655:24072"},"type":"Feature"},{"geometry":{"coordinates":[[[-122.45342,37.67358],[-122.45229,37.67357],[-122.45173,37.67279],[-122.4523,37.67201],[-122.45344,37.67201],[-122.454,37.6728],[-122.45382,37.67304],[-122.4538,37.67302],[-122.45358,37.67289],[-122.45348,37.67279],[-122.45318,37.67266],[-122.45284,37.67247],[-122.45268,37.67253],[-122.45265,37.6725],[-122.45259,37.67243],[-122.45254,37.67244],[-122.45248,37.67245],[-122.45242,37.67248],[-122.4524,37.67251],[-122.45241,37.67255],[-122.45245,37.67259],[-122.45248,37.67261],[-122.45256,37.67263],[-122.45261,37.67266],[-122.45263,37.67271],[-122.45266,37.67282],[-122.4527,37.67289],[-122.45272,37.67296],[-122.4528,37.67306],[-122.45286,37.67314],[-122.45301,37.67324],[-122.45309,37.6733],[-122.45316,37.67335],[-122.45325,37.67344],[-122.45348,37.6735],[-122.45342,37.67358]]],"type":"Polygon"},"properties":{"bbox":{"parking":{"area":214.23,"pct":1.12},"roads":{"area":2177.49,"pct":11.39},"sidewalks":{"area":121.53,"pct":0.64}},"city":{"parking":{"area":214.23,"pct":1.12},"roads":{"area":2079.19,"pct":10.88},"sidewalks":{"area":121.53,"pct":0.64}},"id":"hex:3655:24073"},"type":"Feature"},{"geometry":{"coordinates":[[[-122.45172,37.67435],[-122.45228,37.67513],[-122.45341,37.67514],[-122.45399,37.67436],[-122.45342,37.67358],[-122.45229,37.67357],[-122.45172,37.67435]]],"type":"Polygon"},"properties":{"bbox":{"roads":{"area":2353.57,"pct":9.06}},"city_same":1,"id":"hex:3655:24074"},"type":"Feature"},{"geometry":{"coordinates":[[[-122.45171,37.67591],[-122.45227,37.67669],[-122.4534,37.6767],[-122.45397,37.67592],[-122.45341,37.67514],[-122.45228,37.67513],[-122.45171,37.67591]]],"type":"Polygon"},"properties":{"bbox":{"roads":{"area":2992.12,"pct":11.52}},"city_same":1,"id":"hex:3655:24075"},"type":"Feature"},{"geometry":{"coordinates":[[[-122.45169,37.67747],[-122.45226,37.67825],[-122.45339,37.67826],[-122.45396,37.67748],[-122.4534,37.6767],[-122.45227,37.67669],[-122.45169,37.67747]]],"type":"Polygon"},"properties":{"bbox":{"roads":{"area":2970.98,"pct":11.44},"sidewalks":{"area":264.65,"pct":1.02}},"city_same":1,"id":"hex:3655:24076"},"type":"Feature"},{"geometry":{"coordinates":[[[-122.45168,37.67903],[-122.45224,37.67982],[-122.45338,37.67982],[-122.45395,37.67904],[-122.45339,37.67826],[-122.45226,37.67825],[-122.45168,37.67903]]],"type":"Polygon"},"properties":{"bbox":{"roads":{"area":2622.5,"pct":10.09}},"city_same":1,"id":"hex:3655:24077"},"type":"Feature"},{"geometry":{"coordinates":[[[-122.45224,37.67982],[-122.45338,37.67982],[-122.45394,37.6806],[-122.45337,37.68138],[-122.45223,37.68138],[-122.45167,37.68059],[-122.45224,37.67982]],[[-122.45309,37.68129],[-122.4531,37.68129],[-122.45312,37.68128],[-122.45314,37.68126],[-122.45315,37.68125],[-122.45315,37.68123],[-122.45316,37.68121],[-122.45317,37.6812],[-122.45318,37.68118],[-122.45319,37.68117],[-122.45319,37.68116],[-122.4532,37.68115],[-122.4532,37.68114],[-122.45319,37.68114],[-122.45319,37.68113],[-122.45319,37.68113],[-122.45319,37.68112],[-122.45319,37.68113],[-122.45318,37.68112],[-122.4532,37.68112],[-122.45319,37.6811],[-122.45318,37.68108],[-122.45316,37.68107],[-122.45313,37.68106],[-122.45311,37.68105],[-122.45308,37.68105],[-122.45305,37.68105],[-122.45302,37.68104],[-122.45299,37.68103],[-122.45298,37.68101],[-122.45296,37.681],[-122.45294,37.68099],[-122.45293,37.68099],[-122.45291,37.68098],[-122.45289,37.68098],[-122.45287,37.68096],[-122.45262,37.68083],[-122.4526,37.68082],[-122.45259,37.68081],[-122.45258,37.6808],[-122.45256,37.68078],[-122.45253,37.68074],[-122.45252,37.68073],[-122.45251,37.68072],[-122.45249,37.68071],[-122.45248,37.68071],[-122.45247,37.68071],[-122.45244,37.68071],[-122.45242,37.68071],[-122.4524,37.68071],[-122.45238,37.68071],[-122.45238,37.68071],[-122.45239,37.6807],[-122.45238,37.68069],[-122.45237,37.68068],[-122.45236,37.68067],[-122.45235,37.68065],[-122.45234,37.68063],[-122.45233,37.68062],[-122.45232,37.68061],[-122.4523,37.68061],[-122.45228,37.68061],[-122.4522,37.6806],[-122.45216,37.68059],[-122.45213,37.68059],[-122.4521,37.68058],[-122.45207,37.68056],[-122.45205,37.68055],[-122.45203,37.68053],[-122.45201,37.68051],[-122.452,37.68049],[-122.45199,37.68047],[-122.45197,37.68046],[-122.45194,37.68045],[-122.45192,37.68044],[-122.45189,37.68045],[-122.45187,37.68046],[-122.45185,37.68047],[-122.45184,37.68049],[-122.45186,37.6805],[-122.45182,37.68054],[-122.4518,37.68053],[-122.4518,37.68055],[-122.4518,37.68057],[-122.45181,37.68059],[-122.45183,37.68062],[-122.45184,37.68063],[-122.45186,37.68065],[-122.45188,37.68066],[-122.45191,37.68067],[-122.45194,37.68067],[-122.45196,37.68069],[-122.45197,37.6807],[-122.45198,37.68072],[-122.452,37.68071],[-122.45201,37.68076],[-122.452,37.68076],[-122.452,37.68078],[-122.45202,37.6808],[-122.45203,37.68081],[-122.45205,37.68082],[-122.45206,37.68083],[-122.45208,37.68084],[-122.45209,37.68084],[-122.45213,37.68085],[-122.45214,37.68085],[-122.45215,37.68086],[-122.45216,37.68087],[-122.45217,37.68087],[-122.45218,37.68087],[-122.45219,37.68088],[-122.4522,37.68087],[-122.4522,37.68086],[-122.45221,37.68085],[-122.45222,37.68084],[-122.45224,37.68083],[-122.45225,37.68082],[-122.45227,37.68082],[-122.45229,37.68081],[-122.45231,37.68081],[-122.45233,37.6808],[-122.45235,37.6808],[-122.45238,37.6808],[-122.45237,37.68079],[-122.45237,37.68079],[-122.45239,37.68079],[-122.4524,37.68079],[-122.45241,37.68079],[-122.45244,37.6808],[-122.45248,37.68082],[-122.45251,37.68082],[-122.45253,37.68083],[-122.45255,37.68084],[-122.45257,37.68086],[-122.4526,37.68088],[-122.45263,37.6809],[-122.4527,37.68094],[-122.45272,37.68097],[-122.45275,37.68099],[-122.45277,37.681],[-122.4528,37.68101],[-122.45283,37.68102],[-122.45285,37.68102],[-122.45287,37.68103],[-122.45288,37.68104],[-122.45288,37.68106],[-122.45287,37.68107],[-122.45286,37.68109],[-122.45286,37.6811],[-122.45286,37.68112],[-122.45286,37.68113],[-122.45287,37.68115],[-122.45289,37.68114],[-122.45292,37.68118],[-122.4529,37.68119],[-122.45291,37.6812],[-122.45293,37.68122],[-122.45296,37.68122],[-122.45298,37.68123],[-122.453,37.68125],[-122.45301,37.68126],[-122.45302,37.68127],[-122.45303,37.68128],[-122.45303,37.68129],[-122.45304,37.68129],[-122.45305,37.68128],[-122.45306,37.68129],[-122.45309,37.68129]],[[-122.45217,37.68096],[-122.45217,37.68097],[-122.45217,37.68097],[-122.45218,37.68098],[-122.4522,37.68098],[-122.45221,37.68098],[-122.45222,37.68097],[-122.45222,37.68096],[-122.45221,37.68095],[-122.4522,37.68095],[-122.45219,37.68094],[-122.45218,37.68094],[-122.45217,37.68095],[-122.45217,37.68096]]],"type":"Polygon"},"properties":{"bbox":{"parking":{"area":3115.61,"pct":13.15},"roads":{"area":6303.59,"pct":26.61}},"city":{"parking":{"area":3115.61,"pct":13.15},"roads":{"area":2037.98,"pct":8.6}},"id":"hex:3655:24078"},"type":"Feature"},{"geometry":{"coordinates":[[[-122.45166,37.68215],[-122.45222,37.68294],[-122.45336,37.68294],[-122.45393,37.68216],[-122.45337,37.68138],[-122.45223,37.68138],[-122.45166,37.68215]]],"type":"Polygon"},"properties":{"bbox":{"roads":{"area":1459.17,"pct":5.62}},"city_same":1,"id":"hex:3655:24079"},"type":"Feature"},{"geometry":{"coordinates":[[[-122.45165,37.68372],[-122.45221,37.6845],[-122.45334,37.6845],[-122.45392,37.68373],[-122.45336,37.68294],[-122.45222,37.68294],[-122.45165,37.68372]]],"type":"Polygon"},"properties":{"bbox":{"roads":{"area":1327.7,"pct":5.11}},"city_same":1,"id":"hex:3655:24080"},"type":"Feature"},{"geometry":{"coordinates":[[[-122.45164,37.68528],[-122.4522,37.68606],[-122.45333,37.68606],[-122.45391,37.68529],[-122.45334,37.6845],[-122.45221,37.6845],[-122.45164,37.68528]]],"type":"Polygon"},"properties":{"bbox":{"roads":{"area":956.19,"pct":3.68}},"city_same":1,"id":"hex:3655:24081"},"type":"Feature"},{"geometry":{"coordinates":[[[-122.45163,37.68684],[-122.4522,37.68606],[-122.45333,37.68606],[-122.45389,37.68685],[-122.45332,37.68763],[-122.453,37.68762],[-122.45204,37.68711],[-122.45168,37.68691],[-122.45163,37.68684]]],"type":"Polygon"},"properties":{"bbox":{"roads":{"area":806.53,"pct":3.48}},"city_same":1,"id":"hex:3655:24082"},"type":"Feature"},{"geometry":{"coordinates":[[[-122.45175,37.66967],[-122.45231,37.67045],[-122.45174,37.67123],[-122.45061,37.67122],[-122.45005,37.67044],[-122.45047,37.66986],[-122.45057,37.66994],[-122.45063,37.66999],[-122.45113,37.66966],[-122.45175,37.66967]]],"type":"Polygon"},"properties":{"bbox":{"parking":{"area":1971.02,"pct":7.91},"roads":{"area":2301.49,"pct":9.24},"sidewalks":{"area":460,"pct":1.85}},"city_same":1,"id":"hex:3656:24072"},"type":"Feature"},{"geometry":{"coordinates":[[[-122.45003,37.672],[-122.4506,37.67278],[-122.45173,37.67279],[-122.4523,37.67201],[-122.45174,37.67123],[-122.45061,37.67122],[-122.45003,37.672]]],"type":"Polygon"},"properties":{"bbox":{"parking":{"area":454.96,"pct":1.75},"roads":{"area":749.82,"pct":2.89}},"city_same":1,"id":"hex:3656:24073"},"type":"Feature"},{"geometry":{"coordinates":[[[-122.45002,37.67356],[-122.45058,37.67434],[-122.45172,37.67435],[-122.45229,37.67357],[-122.45173,37.67279],[-122.4506,37.67278],[-122.45002,37.67356]]],"type":"Polygon"},"properties":{"bbox":{"roads":{"area":1502.97,"pct":5.78}},"city_same":1,"id":"hex:3656:24074"},"type":"Feature"},{"geometry":{"coordinates":[[[-122.45001,37.67512],[-122.45057,37.6759],[-122.45171,37.67591],[-122.45228,37.67513],[-122.45172,37.67435],[-122.45058,37.67434],[-122.45001,37.67512]]],"type":"Polygon"},"properties":{"bbox":{"roads":{"area":2335.84,"pct":8.99}},"city_same":1,"id":"hex:3656:24075"},"type":"Feature"},{"geometry":{"coordinates":[[[-122.45,37.67668],[-122.45056,37.67747],[-122.45169,37.67747],[-122.45227,37.67669],[-122.45171,37.67591],[-122.45057,37.6759],[-122.45,37.67668]]],"type":"Polygon"},"properties":{"bbox":{"roads":{"area":1750.35,"pct":6.74}},"city_same":1,"id":"hex:3656:24076"},"type":"Feature"},{"geometry":{"coordinates":[[[-122.44999,37.67824],[-122.45055,37.67903],[-122.45168,37.67903],[-122.45226,37.67825],[-122.45169,37.67747],[-122.45056,37.67747],[-122.44999,37.67824]]],"type":"Polygon"},"properties":{"bbox":{"roads":{"area":1493.86,"pct":5.75},"sidewalks":{"area":265.98,"pct":1.02}},"city_same":1,"id":"hex:3656:24077"},"type":"Feature"},{"geometry":{"coordinates":[[[-122.44998,37.6798],[-122.45054,37.68059],[-122.45167,37.68059],[-122.45224,37.67982],[-122.45168,37.67903],[-122.45055,37.67903],[-122.44998,37.6798]]],"type":"Polygon"},"properties":{"bbox":{"roads":{"area":3202.13,"pct":12.32}},"city":{"roads":{"area":1610.07,"pct":6.2}},"id":"hex:3656:24078"},"type":"Feature"},{"geometry":{"coordinates":[[[-122.45054,37.68059],[-122.45167,37.68059],[-122.45223,37.68138],[-122.45166,37.68215],[-122.45053,37.68215],[-122.44996,37.68137],[-122.45054,37.68059]],[[-122.45188,37.68096],[-122.45188,37.68095],[-122.45188,37.68094],[-122.45189,37.68093],[-122.45188,37.68092],[-122.45187,37.68092],[-122.45186,37.68091],[-122.45185,37.68091],[-122.45184,37.68091],[-122.45183,37.6809],[-122.45182,37.68089],[-122.45182,37.68088],[-122.45181,37.68087],[-122.4518,37.68087],[-122.45179,37.68086],[-122.45178,37.68085],[-122.45177,37.68085],[-122.45176,37.68085],[-122.45174,37.68086],[-122.45174,37.68087],[-122.45173,37.68087],[-122.45173,37.68088],[-122.45173,37.68089],[-122.45172,37.6809],[-122.45171,37.68091],[-122.4517,37.68092],[-122.45169,37.68093],[-122.4517,37.68094],[-122.4517,37.68095],[-122.45171,37.68096],[-122.45172,37.68097],[-122.45173,37.68097],[-122.45175,37.68097],[-122.45176,37.68098],[-122.45177,37.68099],[-122.45178,37.681],[-122.45179,37.68101],[-122.4518,37.68102],[-122.45181,37.68103],[-122.45183,37.68104],[-122.45185,37.68104],[-122.45187,37.68104],[-122.45188,37.68103],[-122.4519,37.68102],[-122.4519,37.681],[-122.4519,37.68099],[-122.45189,37.68098],[-122.45188,37.68096]]],"type":"Polygon"},"properties":{"bbox":{"roads":{"area":1127.63,"pct":4.38}},"city_same":1,"id":"hex:3656:24079"},"type":"Feature"},{"geometry":{"coordinates":[[[-122.44995,37.68293],[-122.45051,37.68371],[-122.45165,37.68372],[-122.45222,37.68294],[-122.45166,37.68215],[-122.45053,37.68215],[-122.44995,37.68293]]],"type":"Polygon"},"properties":{"bbox":{"roads":{"area":1510.9,"pct":5.82}},"city_same":1,"id":"hex:3656:24080"},"type":"Feature"},{"geometry":{"coordinates":[[[-122.44994,37.68449],[-122.4505,37.68527],[-122.45164,37.68528],[-122.45221,37.6845],[-122.45165,37.68372],[-122.45051,37.68371],[-122.44994,37.68449]]],"type":"Polygon"},"properties":{"bbox":{"roads":{"area":1682.88,"pct":6.48}},"city_same":1,"id":"hex:3656:24081"},"type":"Feature"},{"geometry":{"coordinates":[[[-122.4505,37.68527],[-122.45164,37.68528],[-122.4522,37.68606],[-122.45163,37.68684],[-122.45154,37.68684],[-122.44997,37.68599],[-122.4505,37.68527]]],"type":"Polygon"},"properties":{"bbox":{"roads":{"area":230.55,"pct":1.08}},"city_same":1,"id":"hex:3656:24082"},"type":"Feature"},{"geometry":{"coordinates":[[[-122.44892,37.66887],[-122.44836,37.66809],[-122.44874,37.66757],[-122.44875,37.66758],[-122.44879,37.66763],[-122.44884,37.66768],[-122.44888,37.66773],[-122.44892,37.66778],[-122.44896,37.66783],[-122.449,37.66788],[-122.44904,37.66793],[-122.44908,37.66798],[-122.44912,37.66803],[-122.44916,37.66808],[-122.44919,37.66814],[-122.44923,37.66819],[-122.44927,37.66824],[-122.4493,37.66829],[-122.44967,37.66888],[-122.44892,37.66887]]],"type":"Polygon"},"properties":{"bbox":{"roads":{"area":662.35,"pct":8.26},"sidewalks":{"area":221.83,"pct":2.77}},"city_same":1,"id":"hex:3657:24070"},"type":"Feature"},{"geometry":{"coordinates":[[[-122.45005,37.67044],[-122.44891,37.67043],[-122.44835,37.66965],[-122.44892,37.66887],[-122.44967,37.66888],[-122.45006,37.66949],[-122.45012,37.66955],[-122.45019,37.66961],[-122.45047,37.66986],[-122.45005,37.67044]]],"type":"Polygon"},"properties":{"bbox":{"roads":{"area":2140.78,"pct":9.54},"sidewalks":{"area":286.32,"pct":1.28}},"city_same":1,"id":"hex:3657:24071"},"type":"Feature"},{"geometry":{"coordinates":[[[-122.44834,37.67121],[-122.4489,37.67199],[-122.45003,37.672],[-122.45061,37.67122],[-122.45005,37.67044],[-122.44891,37.67043],[-122.44834,37.67121]]],"type":"Polygon"},"properties":{"bbox":{"roads":{"area":822.56,"pct":3.17}},"city_same":1,"id":"hex:3657:24072"},"type":"Feature"},{"geometry":{"coordinates":[[[-122.44833,37.67277],[-122.44889,37.67355],[-122.45002,37.67356],[-122.4506,37.67278],[-122.45003,37.672],[-122.4489,37.67199],[-122.44833,37.67277]]],"type":"Polygon"},"properties":{"bbox":{"roads":{"area":469.78,"pct":1.81}},"city_same":1,"id":"hex:3657:24073"},"type":"Feature"},{"geometry":{"coordinates":[[[-122.44832,37.67433],[-122.44888,37.67512],[-122.45001,37.67512],[-122.45058,37.67434],[-122.45002,37.67356],[-122.44889,37.67355],[-122.44832,37.67433]]],"type":"Polygon"},"properties":{"bbox":{"roads":{"area":1746.61,"pct":6.72}},"city_same":1,"id":"hex:3657:24074"},"type":"Feature"},{"geometry":{"coordinates":[[[-122.4483,37.67589],[-122.44887,37.67668],[-122.45,37.67668],[-122.45057,37.6759],[-122.45001,37.67512],[-122.44888,37.67512],[-122.4483,37.67589]]],"type":"Polygon"},"properties":{"bbox":{"roads":{"area":1489.12,"pct":5.73}},"city_same":1,"id":"hex:3657:24075"},"type":"Feature"},{"geometry":{"coordinates":[[[-122.44829,37.67745],[-122.44885,37.67824],[-122.44999,37.67824],[-122.45056,37.67747],[-122.45,37.67668],[-122.44887,37.67668],[-122.44829,37.67745]]],"type":"Polygon"},"properties":{"bbox":{"roads":{"area":1744.89,"pct":6.72}},"city_same":1,"id":"hex:3657:24076"},"type":"Feature"},{"geometry":{"coordinates":[[[-122.44828,37.67902],[-122.44884,37.6798],[-122.44998,37.6798],[-122.45055,37.67903],[-122.44999,37.67824],[-122.44885,37.67824],[-122.44828,37.67902]]],"type":"Polygon"},"properties":{"bbox":{"roads":{"area":2478,"pct":9.54},"sidewalks":{"area":15.98,"pct":0.06}},"city":{"roads":{"area":1218.57,"pct":4.69},"sidewalks":{"area":15.98,"pct":0.06}},"id":"hex:3657:24077"},"type":"Feature"},{"geometry":{"coordinates":[[[-122.44827,37.68058],[-122.44883,37.68136],[-122.44996,37.68137],[-122.45054,37.68059],[-122.44998,37.6798],[-122.44884,37.6798],[-122.44827,37.68058]]],"type":"Polygon"},"properties":{"bbox":{"roads":{"area":1279.09,"pct":4.92}},"city_same":1,"id":"hex:3657:24078"},"type":"Feature"},{"geometry":{"coordinates":[[[-122.44826,37.68214],[-122.44882,37.68292],[-122.44995,37.68293],[-122.45053,37.68215],[-122.44996,37.68137],[-122.44883,37.68136],[-122.44826,37.68214]]],"type":"Polygon"},"properties":{"bbox":{"roads":{"area":756.16,"pct":2.91}},"city_same":1,"id":"hex:3657:24079"},"type":"Feature"},{"geometry":{"coordinates":[[[-122.44825,37.6837],[-122.44881,37.68448],[-122.44994,37.68449],[-122.45051,37.68371],[-122.44995,37.68293],[-122.44882,37.68292],[-122.44825,37.6837]]],"type":"Polygon"},"properties":{"bbox":{"roads":{"area":878.3,"pct":3.38}},"city_same":1,"id":"hex:3657:24080"},"type":"Feature"},{"geometry":{"coordinates":[[[-122.44881,37.68448],[-122.44994,37.68449],[-122.4505,37.68527],[-122.44997,37.68599],[-122.44834,37.68512],[-122.44881,37.68448]]],"type":"Polygon"},"properties":{"bbox":{"roads":{"area":123.98,"pct":0.64}},"city_same":1,"id":"hex:3657:24081"},"type":"Feature"},{"geometry":{"coordinates":[[[-122.44724,37.66652],[-122.44687,37.666],[-122.44712,37.66616],[-122.44718,37.6662],[-122.44723,37.66624],[-122.44729,37.66628],[-122.44735,37.66632],[-122.4474,37.66636],[-122.44746,37.6664],[-122.44752,37.66644],[-122.44757,37.66648],[-122.44763,37.66652],[-122.44724,37.66652]]],"type":"Polygon"},"properties":{"bbox":{"parking":{"area":28.87,"pct":2.75},"roads":{"area":72.87,"pct":6.95}},"city_same":1,"id":"hex:3658:24069"},"type":"Feature"},{"geometry":{"coordinates":[[[-122.44836,37.66809],[-122.44723,37.66808],[-122.44667,37.6673],[-122.44724,37.66652],[-122.44763,37.66652],[-122.44763,37.66652],[-122.44768,37.66657],[-122.44773,37.66661],[-122.44779,37.66665],[-122.44784,37.66669],[-122.44789,37.66674],[-122.44794,37.66678],[-122.44799,37.66683],[-122.44805,37.66687],[-122.4481,37.66692],[-122.44815,37.66696],[-122.4482,37.66701],[-122.44824,37.66705],[-122.44829,37.6671],[-122.44834,37.66714],[-122.44839,37.66719],[-122.44844,37.66724],[-122.44848,37.66729],[-122.44853,37.66733],[-122.44857,37.66738],[-122.44862,37.66743],[-122.44866,37.66748],[-122.44871,37.66753],[-122.44874,37.66757],[-122.44836,37.66809]]],"type":"Polygon"},"properties":{"bbox":{"parking":{"area":722.33,"pct":3.42},"roads":{"area":1930.18,"pct":9.15},"sidewalks":{"area":510.39,"pct":2.42}},"city_same":1,"id":"hex:3658:24070"},"type":"Feature"},{"geometry":{"coordinates":[[[-122.44666,37.66886],[-122.44722,37.66964],[-122.44835,37.66965],[-122.44892,37.66887],[-122.44836,37.66809],[-122.44723,37.66808],[-122.44666,37.66886]]],"type":"Polygon"},"properties":{"bbox":{"roads":{"area":1585.22,"pct":6.1},"sidewalks":{"area":105.46,"pct":0.41}},"city_same":1,"id":"hex:3658:24071"},"type":"Feature"},{"geometry":{"coordinates":[[[-122.44664,37.67042],[-122.44721,37.67121],[-122.44834,37.67121],[-122.44891,37.67043],[-122.44835,37.66965],[-122.44722,37.66964],[-122.44664,37.67042]]],"type":"Polygon"},"properties":{"bbox":{"roads":{"area":1263.53,"pct":4.86}},"city_same":1,"id":"hex:3658:24072"},"type":"Feature"},{"geometry":{"coordinates":[[[-122.44663,37.67198],[-122.44719,37.67277],[-122.44833,37.67277],[-122.4489,37.67199],[-122.44834,37.67121],[-122.44721,37.67121],[-122.44663,37.67198]]],"type":"Polygon"},"properties":{"bbox":{"roads":{"area":801.06,"pct":3.08}},"city_same":1,"id":"hex:3658:24073"},"type":"Feature"},{"geometry":{"coordinates":[[[-122.44662,37.67354],[-122.44718,37.67433],[-122.44832,37.67433],[-122.44889,37.67355],[-122.44833,37.67277],[-122.44719,37.67277],[-122.44662,37.67354]]],"type":"Polygon"},"properties":{"bbox":{"roads":{"area":1773.71,"pct":6.83}},"city_same":1,"id":"hex:3658:24074"},"type":"Feature"},{"geometry":{"coordinates":[[[-122.44661,37.67511],[-122.44717,37.67589],[-122.4483,37.67589],[-122.44888,37.67512],[-122.44832,37.67433],[-122.44718,37.67433],[-122.44661,37.67511]]],"type":"Polygon"},"properties":{"bbox":{"roads":{"area":2103.8,"pct":8.1}},"city_same":1,"id":"hex:3658:24075"},"type":"Feature"},{"geometry":{"coordinates":[[[-122.4466,37.67667],[-122.44716,37.67745],[-122.44829,37.67745],[-122.44887,37.67668],[-122.4483,37.67589],[-122.44717,37.67589],[-122.4466,37.67667]]],"type":"Polygon"},"properties":{"bbox":{"roads":{"area":1373.49,"pct":5.29}},"city_same":1,"id":"hex:3658:24076"},"type":"Feature"},{"geometry":{"coordinates":[[[-122.44659,37.67823],[-122.44715,37.67901],[-122.44828,37.67902],[-122.44885,37.67824],[-122.44829,37.67745],[-122.44716,37.67745],[-122.44659,37.67823]]],"type":"Polygon"},"properties":{"bbox":{"roads":{"area":2412.83,"pct":9.29}},"city":{"roads":{"area":1179.08,"pct":4.54}},"id":"hex:3658:24077"},"type":"Feature"},{"geometry":{"coordinates":[[[-122.44657,37.67979],[-122.44714,37.68057],[-122.44827,37.68058],[-122.44884,37.6798],[-122.44828,37.67902],[-122.44715,37.67901],[-122.44657,37.67979]]],"type":"Polygon"},"properties":{"bbox":{"roads":{"area":1558.12,"pct":6}},"city_same":1,"id":"hex:3658:24078"},"type":"Feature"},{"geometry":{"coordinates":[[[-122.44656,37.68135],[-122.44712,37.68213],[-122.44826,37.68214],[-122.44883,37.68136],[-122.44827,37.68058],[-122.44714,37.68057],[-122.44656,37.68135]]],"type":"Polygon"},"properties":{"bbox":{"parking":{"area":4874.7,"pct":18.76},"roads":{"area":2284.55,"pct":8.79}},"city_same":1,"id":"hex:3658:24079"},"type":"Feature"},{"geometry":{"coordinates":[[[-122.44655,37.68291],[-122.44711,37.68369],[-122.44825,37.6837],[-122.44882,37.68292],[-122.44826,37.68214],[-122.44712,37.68213],[-122.44655,37.68291]]],"type":"Polygon"},"properties":{"bbox":{"roads":{"area":339.36,"pct":1.31}},"city_same":1,"id":"hex:3658:24080"},"type":"Feature"},{"geometry":{"coordinates":[[[-122.44654,37.68447],[-122.44711,37.68369],[-122.44825,37.6837],[-122.44881,37.68448],[-122.44834,37.68512],[-122.44823,37.68505],[-122.44763,37.68487],[-122.44751,37.68483],[-122.44714,37.68471],[-122.44672,37.68473],[-122.44654,37.68447]],[[-122.44784,37.68452],[-122.44789,37.68452],[-122.44796,37.68451],[-122.44802,37.6845],[-122.44804,37.68448],[-122.44806,37.68448],[-122.44809,37.68446],[-122.44812,37.68444],[-122.44814,37.6844],[-122.44815,37.68435],[-122.44816,37.68429],[-122.44815,37.68422],[-122.44813,37.68417],[-122.44808,37.68412],[-122.44802,37.68409],[-122.44794,37.68407],[-122.44787,37.68407],[-122.44781,37.68408],[-122.44776,37.6841],[-122.44771,37.68413],[-122.44768,37.68418],[-122.44766,37.68423],[-122.44765,37.68429],[-122.44766,37.68434],[-122.44768,37.68439],[-122.44771,37.68444],[-122.44774,37.68448],[-122.44778,37.68451],[-122.44784,37.68452]]],"type":"Polygon"},"properties":{"bbox":{"roads":{"area":32.94,"pct":0.17}},"city_same":1,"id":"hex:3658:24081"},"type":"Feature"},{"geometry":{"coordinates":[[[-122.44554,37.66573],[-122.44552,37.6657],[-122.44572,37.6655],[-122.44572,37.6655],[-122.44584,37.66535],[-122.44611,37.66552],[-122.44645,37.66574],[-122.44554,37.66573]]],"type":"Polygon"},"properties":{"bbox":{"roads":{"area":21.63,"pct":1.22}},"city_same":1,"id":"hex:3659:24068"},"type":"Feature"},{"geometry":{"coordinates":[[[-122.44724,37.66652],[-122.44667,37.6673],[-122.44553,37.66729],[-122.44497,37.66651],[-122.44554,37.66573],[-122.44645,37.66574],[-122.44687,37.666],[-122.44724,37.66652]]],"type":"Polygon"},"properties":{"bbox":{"parking":{"area":260.61,"pct":1.01},"roads":{"area":3826.35,"pct":14.9},"sidewalks":{"area":275.58,"pct":1.07}},"city_same":1,"id":"hex:3659:24069"},"type":"Feature"},{"geometry":{"coordinates":[[[-122.44496,37.66807],[-122.44552,37.66886],[-122.44666,37.66886],[-122.44723,37.66808],[-122.44667,37.6673],[-122.44553,37.66729],[-122.44496,37.66807]]],"type":"Polygon"},"properties":{"bbox":{"roads":{"area":436.17,"pct":1.68}},"city_same":1,"id":"hex:3659:24070"},"type":"Feature"},{"geometry":{"coordinates":[[[-122.44495,37.66963],[-122.44551,37.67042],[-122.44664,37.67042],[-122.44722,37.66964],[-122.44666,37.66886],[-122.44552,37.66886],[-122.44495,37.66963]]],"type":"Polygon"},"properties":{"bbox":{"roads":{"area":951.27,"pct":3.66}},"city_same":1,"id":"hex:3659:24071"},"type":"Feature"},{"geometry":{"coordinates":[[[-122.44494,37.67119],[-122.4455,37.67198],[-122.44663,37.67198],[-122.44721,37.67121],[-122.44664,37.67042],[-122.44551,37.67042],[-122.44494,37.67119]]],"type":"Polygon"},"properties":{"bbox":{"roads":{"area":1030.24,"pct":3.97}},"city_same":1,"id":"hex:3659:24072"},"type":"Feature"},{"geometry":{"coordinates":[[[-122.44493,37.67276],[-122.44549,37.67354],[-122.44662,37.67354],[-122.44719,37.67277],[-122.44663,37.67198],[-122.4455,37.67198],[-122.44493,37.67276]]],"type":"Polygon"},"properties":{"bbox":{"roads":{"area":1466.33,"pct":5.64}},"city_same":1,"id":"hex:3659:24073"},"type":"Feature"},{"geometry":{"coordinates":[[[-122.44491,37.67432],[-122.44548,37.6751],[-122.44661,37.67511],[-122.44718,37.67433],[-122.44662,37.67354],[-122.44549,37.67354],[-122.44491,37.67432]]],"type":"Polygon"},"properties":{"bbox":{"roads":{"area":1916.21,"pct":7.38}},"city_same":1,"id":"hex:3659:24074"},"type":"Feature"},{"geometry":{"coordinates":[[[-122.4449,37.67588],[-122.44546,37.67666],[-122.4466,37.67667],[-122.44717,37.67589],[-122.44661,37.67511],[-122.44548,37.6751],[-122.4449,37.67588]]],"type":"Polygon"},"properties":{"bbox":{"roads":{"area":491.65,"pct":1.89}},"city_same":1,"id":"hex:3659:24075"},"type":"Feature"},{"geometry":{"coordinates":[[[-122.44489,37.67744],[-122.44545,37.67822],[-122.44659,37.67823],[-122.44716,37.67745],[-122.4466,37.67667],[-122.44546,37.67666],[-122.44489,37.67744]]],"type":"Polygon"},"properties":{"bbox":{"roads":{"area":2582.49,"pct":9.94}},"city":{"roads":{"area":1335.91,"pct":5.14}},"id":"hex:3659:24076"},"type":"Feature"},{"geometry":{"coordinates":[[[-122.44488,37.679],[-122.44544,37.67978],[-122.44657,37.67979],[-122.44715,37.67901],[-122.44659,37.67823],[-122.44545,37.67822],[-122.44488,37.679]]],"type":"Polygon"},"properties":{"bbox":{"roads":{"area":1264.09,"pct":4.87}},"city_same":1,"id":"hex:3659:24077"},"type":"Feature"},{"geometry":{"coordinates":[[[-122.44487,37.68056],[-122.44543,37.68134],[-122.44656,37.68135],[-122.44714,37.68057],[-122.44657,37.67979],[-122.44544,37.67978],[-122.44487,37.68056]]],"type":"Polygon"},"properties":{"bbox":{"roads":{"area":1780.97,"pct":6.85}},"city_same":1,"id":"hex:3659:24078"},"type":"Feature"},{"geometry":{"coordinates":[[[-122.44486,37.68212],[-122.44542,37.68291],[-122.44655,37.68291],[-122.44712,37.68213],[-122.44656,37.68135],[-122.44543,37.68134],[-122.44486,37.68212]]],"type":"Polygon"},"properties":{"bbox":{"roads":{"area":622.99,"pct":2.4}},"city_same":1,"id":"hex:3659:24079"},"type":"Feature"},{"geometry":{"coordinates":[[[-122.44542,37.68291],[-122.44655,37.68291],[-122.44711,37.68369],[-122.44654,37.68447],[-122.44541,37.68447],[-122.44484,37.68368],[-122.44542,37.68291]],[[-122.44678,37.68352],[-122.4468,37.68352],[-122.44684,37.68352],[-122.44687,37.68352],[-122.4469,37.68351],[-122.44691,37.68349],[-122.44692,37.68348],[-122.44692,37.68347],[-122.44691,37.68346],[-122.44689,37.68344],[-122.44687,37.68343],[-122.44685,37.68342],[-122.44682,37.68342],[-122.4468,37.68343],[-122.44678,37.68344],[-122.44675,37.68345],[-122.44674,37.68347],[-122.44674,37.68349],[-122.44676,37.68351],[-122.44678,37.68352]]],"type":"Polygon"},"properties":{"bbox":{"roads":{"area":558.34,"pct":2.16}},"city_same":1,"id":"hex:3659:24080"},"type":"Feature"},{"geometry":{"coordinates":[[[-122.44554,37.66573],[-122.44497,37.66651],[-122.44384,37.66651],[-122.44359,37.66617],[-122.44447,37.66551],[-122.44462,37.6654],[-122.44509,37.66571],[-122.44516,37.66576],[-122.44533,37.66588],[-122.44552,37.6657],[-122.44554,37.66573]]],"type":"Polygon"},"properties":{"bbox":{"roads":{"area":2485.38,"pct":20.17},"sidewalks":{"area":256.54,"pct":2.08}},"city":{"roads":{"area":2298.04,"pct":18.65},"sidewalks":{"area":256.54,"pct":2.08}},"id":"hex:3660:24069"},"type":"Feature"},{"geometry":{"coordinates":[[[-122.44327,37.66728],[-122.44383,37.66807],[-122.44496,37.66807],[-122.44553,37.66729],[-122.44497,37.66651],[-122.44384,37.66651],[-122.44327,37.66728]]],"type":"Polygon"},"properties":{"bbox":{"roads":{"area":1502.56,"pct":5.78}},"city_same":1,"id":"hex:3660:24070"},"type":"Feature"},{"geometry":{"coordinates":[[[-122.44325,37.66884],[-122.44382,37.66963],[-122.44495,37.66963],[-122.44552,37.66886],[-122.44496,37.66807],[-122.44383,37.66807],[-122.44325,37.66884]]],"type":"Polygon"},"properties":{"bbox":{"roads":{"area":517.74,"pct":1.99}},"city_same":1,"id":"hex:3660:24071"},"type":"Feature"},{"geometry":{"coordinates":[[[-122.44324,37.67041],[-122.4438,37.67119],[-122.44494,37.67119],[-122.44551,37.67042],[-122.44495,37.66963],[-122.44382,37.66963],[-122.44324,37.67041]]],"type":"Polygon"},"properties":{"bbox":{"roads":{"area":1558.23,"pct":6}},"city_same":1,"id":"hex:3660:24072"},"type":"Feature"},{"geometry":{"coordinates":[[[-122.44323,37.67197],[-122.44379,37.67275],[-122.44493,37.67276],[-122.4455,37.67198],[-122.44494,37.67119],[-122.4438,37.67119],[-122.44323,37.67197]]],"type":"Polygon"},"properties":{"bbox":{"roads":{"area":1540.5,"pct":5.93}},"city_same":1,"id":"hex:3660:24073"},"type":"Feature"},{"geometry":{"coordinates":[[[-122.44322,37.67353],[-122.44378,37.67431],[-122.44491,37.67432],[-122.44549,37.67354],[-122.44493,37.67276],[-122.44379,37.67275],[-122.44322,37.67353]]],"type":"Polygon"},"properties":{"bbox":{"roads":{"area":1753.97,"pct":6.75}},"city_same":1,"id":"hex:3660:24074"},"type":"Feature"},{"geometry":{"coordinates":[[[-122.44321,37.67509],[-122.44377,37.67587],[-122.4449,37.67588],[-122.44548,37.6751],[-122.44491,37.67432],[-122.44378,37.67431],[-122.44321,37.67509]]],"type":"Polygon"},"properties":{"bbox":{"roads":{"area":1225.44,"pct":4.72}},"city":{"roads":{"area":1043.08,"pct":4.01}},"id":"hex:3660:24075"},"type":"Feature"},{"geometry":{"coordinates":[[[-122.4432,37.67665],[-122.44376,37.67743],[-122.44489,37.67744],[-122.44546,37.67666],[-122.4449,37.67588],[-122.44377,37.67587],[-122.4432,37.67665]]],"type":"Polygon"},"properties":{"bbox":{"roads":{"area":1512.11,"pct":5.82}},"city":{"roads":{"area":326,"pct":1.25}},"id":"hex:3660:24076"},"type":"Feature"},{"geometry":{"coordinates":[[[-122.44376,37.67743],[-122.44489,37.67744],[-122.44545,37.67822],[-122.44488,37.679],[-122.44375,37.67899],[-122.44371,37.67894],[-122.4441,37.67809],[-122.44377,37.67762],[-122.44366,37.67756],[-122.44376,37.67743]]],"type":"Polygon"},"properties":{"bbox":{"roads":{"area":1886.26,"pct":9.62}},"city_same":1,"id":"hex:3660:24077"},"type":"Feature"},{"geometry":{"coordinates":[[[-122.44375,37.67899],[-122.44488,37.679],[-122.44544,37.67978],[-122.44487,37.68056],[-122.44373,37.68056],[-122.44329,37.67993],[-122.44358,37.67922],[-122.44375,37.67899]]],"type":"Polygon"},"properties":{"bbox":{"roads":{"area":2653.34,"pct":10.46}},"city_same":1,"id":"hex:3660:24078"},"type":"Feature"},{"geometry":{"coordinates":[[[-122.44316,37.68133],[-122.44372,37.68212],[-122.44486,37.68212],[-122.44543,37.68134],[-122.44487,37.68056],[-122.44373,37.68056],[-122.44316,37.68133]]],"type":"Polygon"},"properties":{"bbox":{"roads":{"area":1260.76,"pct":4.85}},"city_same":1,"id":"hex:3660:24079"},"type":"Feature"},{"geometry":{"coordinates":[[[-122.44315,37.68289],[-122.44371,37.68368],[-122.44484,37.68368],[-122.44542,37.68291],[-122.44486,37.68212],[-122.44372,37.68212],[-122.44315,37.68289]]],"type":"Polygon"},"properties":{"bbox":{"roads":{"area":110.71,"pct":0.43}},"city_same":1,"id":"hex:3660:24080"},"type":"Feature"},{"geometry":{"coordinates":[[[-122.44314,37.68446],[-122.44371,37.68368],[-122.44484,37.68368],[-122.44541,37.68447],[-122.44486,37.68521],[-122.44398,37.68491],[-122.4437,37.68472],[-122.44346,37.68464],[-122.44328,37.68458],[-122.44322,37.68457],[-122.44314,37.68446]]],"type":"Polygon"},"properties":{"bbox":{"roads":{"area":697.79,"pct":3.18}},"city_same":1,"id":"hex:3660:24081"},"type":"Feature"},{"geometry":{"coordinates":[[[-122.44384,37.66651],[-122.44327,37.66728],[-122.44213,37.66728],[-122.44213,37.66727],[-122.44359,37.66617],[-122.44384,37.66651]]],"type":"Polygon"},"properties":{"bbox":{"roads":{"area":1206.96,"pct":14.75},"sidewalks":{"area":216.72,"pct":2.65}},"city_same":1,"id":"hex:3661:24069"},"type":"Feature"},{"geometry":{"coordinates":[[[-122.44156,37.66806],[-122.44212,37.66884],[-122.44325,37.66884],[-122.44383,37.66807],[-122.44327,37.66728],[-122.44213,37.66728],[-122.44156,37.66806]]],"type":"Polygon"},"properties":{"bbox":{"roads":{"area":1248.13,"pct":4.8},"sidewalks":{"area":172.08,"pct":0.66}},"city_same":1,"id":"hex:3661:24070"},"type":"Feature"},{"geometry":{"coordinates":[[[-122.44155,37.66962],[-122.44211,37.6704],[-122.44324,37.67041],[-122.44382,37.66963],[-122.44325,37.66884],[-122.44212,37.66884],[-122.44155,37.66962]]],"type":"Polygon"},"properties":{"bbox":{"roads":{"area":1057.8,"pct":4.07}},"city_same":1,"id":"hex:3661:24071"},"type":"Feature"},{"geometry":{"coordinates":[[[-122.44154,37.67118],[-122.4421,37.67196],[-122.44323,37.67197],[-122.4438,37.67119],[-122.44324,37.67041],[-122.44211,37.6704],[-122.44154,37.67118]]],"type":"Polygon"},"properties":{"bbox":{"roads":{"area":1199.58,"pct":4.62}},"city_same":1,"id":"hex:3661:24072"},"type":"Feature"},{"geometry":{"coordinates":[[[-122.44152,37.67274],[-122.44209,37.67352],[-122.44322,37.67353],[-122.44379,37.67275],[-122.44323,37.67197],[-122.4421,37.67196],[-122.44152,37.67274]]],"type":"Polygon"},"properties":{"bbox":{"roads":{"area":568.05,"pct":2.19}},"city_same":1,"id":"hex:3661:24073"},"type":"Feature"},{"geometry":{"coordinates":[[[-122.44151,37.6743],[-122.44207,37.67508],[-122.44321,37.67509],[-122.44378,37.67431],[-122.44322,37.67353],[-122.44209,37.67352],[-122.44151,37.6743]]],"type":"Polygon"},"properties":{"bbox":{"roads":{"area":921.17,"pct":3.55}},"city":{"roads":{"area":405.63,"pct":1.56}},"id":"hex:3661:24074"},"type":"Feature"},{"geometry":{"coordinates":[[[-122.4415,37.67586],[-122.44206,37.67665],[-122.4432,37.67665],[-122.44377,37.67587],[-122.44321,37.67509],[-122.44207,37.67508],[-122.4415,37.67586]]],"type":"Polygon"},"properties":{"bbox":{"roads":{"area":949.92,"pct":3.66}},"id":"hex:3661:24075"},"type":"Feature"},{"geometry":{"coordinates":[[[-122.44373,37.68056],[-122.44316,37.68133],[-122.44271,37.68133],[-122.44329,37.67993],[-122.44373,37.68056]]],"type":"Polygon"},"properties":{"bbox":{"roads":{"area":395.02,"pct":6.07}},"city_same":1,"id":"hex:3661:24078"},"type":"Feature"},{"geometry":{"coordinates":[[[-122.44213,37.66728],[-122.44156,37.66806],[-122.44108,37.66805],[-122.44213,37.66727],[-122.44213,37.66728]]],"type":"Polygon"},"properties":{"bbox":{"roads":{"area":452.64,"pct":23.92},"sidewalks":{"area":16.22,"pct":0.86}},"city_same":1,"id":"hex:3662:24070"},"type":"Feature"},{"geometry":{"coordinates":[[[-122.44156,37.66806],[-122.44212,37.66884],[-122.44155,37.66962],[-122.44041,37.66961],[-122.43992,37.66893],[-122.44108,37.66805],[-122.44156,37.66806]]],"type":"Polygon"},"properties":{"bbox":{"roads":{"area":1792.48,"pct":7.92},"sidewalks":{"area":262.85,"pct":1.16}},"city_same":1,"id":"hex:3662:24071"},"type":"Feature"},{"geometry":{"coordinates":[[[-122.43984,37.67039],[-122.4404,37.67117],[-122.44154,37.67118],[-122.44211,37.6704],[-122.44155,37.66962],[-122.44041,37.66961],[-122.43984,37.67039]]],"type":"Polygon"},"properties":{"bbox":{"roads":{"area":1295.84,"pct":4.99}},"city_same":1,"id":"hex:3662:24072"},"type":"Feature"},{"geometry":{"coordinates":[[[-122.43983,37.67195],[-122.44039,37.67273],[-122.44152,37.67274],[-122.4421,37.67196],[-122.44154,37.67118],[-122.4404,37.67117],[-122.43983,37.67195]]],"type":"Polygon"},"properties":{"bbox":{"roads":{"area":1142.34,"pct":4.4}},"city_same":1,"id":"hex:3662:24073"},"type":"Feature"},{"geometry":{"coordinates":[[[-122.43982,37.67351],[-122.44038,37.6743],[-122.44151,37.6743],[-122.44209,37.67352],[-122.44152,37.67274],[-122.44039,37.67273],[-122.43982,37.67351]]],"type":"Polygon"},"properties":{"bbox":{"roads":{"area":2148.26,"pct":8.27}},"city":{"roads":{"area":1342.08,"pct":5.17}},"id":"hex:3662:24074"},"type":"Feature"},{"geometry":{"coordinates":[[[-122.44037,37.67586],[-122.43981,37.67507],[-122.44038,37.6743],[-122.44151,37.6743],[-122.44207,37.67508],[-122.4415,37.67586],[-122.44048,37.67586],[-122.44042,37.67583],[-122.44038,37.67586],[-122.44037,37.67586]]],"type":"Polygon"},"properties":{"bbox":{"roads":{"area":1323.59,"pct":5.1}},"city":{"roads":{"area":703.65,"pct":2.71}},"id":"hex:3662:24075"},"type":"Feature"},{"geometry":{"coordinates":[[[-122.44041,37.66961],[-122.43984,37.67039],[-122.43871,37.67038],[-122.43845,37.67003],[-122.43847,37.67001],[-122.4386,37.66992],[-122.43872,37.66983],[-122.43992,37.66893],[-122.44041,37.66961]]],"type":"Polygon"},"properties":{"bbox":{"roads":{"area":1917.84,"pct":12.09},"sidewalks":{"area":267.13,"pct":1.68}},"city_same":1,"id":"hex:3663:24071"},"type":"Feature"},{"geometry":{"coordinates":[[[-122.43813,37.67116],[-122.4387,37.67195],[-122.43983,37.67195],[-122.4404,37.67117],[-122.43984,37.67039],[-122.43871,37.67038],[-122.43813,37.67116]]],"type":"Polygon"},"properties":{"bbox":{"roads":{"area":1182.68,"pct":4.55}},"city_same":1,"id":"hex:3663:24072"},"type":"Feature"},{"geometry":{"coordinates":[[[-122.43812,37.67272],[-122.43868,37.67351],[-122.43982,37.67351],[-122.44039,37.67273],[-122.43983,37.67195],[-122.4387,37.67195],[-122.43812,37.67272]]],"type":"Polygon"},"properties":{"bbox":{"roads":{"area":2030.45,"pct":7.82}},"city":{"roads":{"area":894.13,"pct":3.44}},"id":"hex:3663:24073"},"type":"Feature"},{"geometry":{"coordinates":[[[-122.43811,37.67428],[-122.43867,37.67507],[-122.43981,37.67507],[-122.44038,37.6743],[-122.43982,37.67351],[-122.43868,37.67351],[-122.43811,37.67428]]],"type":"Polygon"},"properties":{"bbox":{"roads":{"area":519.62,"pct":2}},"city":{"roads":{"area":207.49,"pct":0.8}},"id":"hex:3663:24074"},"type":"Feature"},{"geometry":{"coordinates":[[[-122.43866,37.67663],[-122.4381,37.67585],[-122.43867,37.67507],[-122.43981,37.67507],[-122.44037,37.67586],[-122.44035,37.67588],[-122.4398,37.67626],[-122.43949,37.67663],[-122.43866,37.67663]]],"type":"Polygon"},"properties":{"bbox":{"roads":{"area":772.43,"pct":3.16}},"city_same":1,"id":"hex:3663:24075"},"type":"Feature"},{"geometry":{"coordinates":[[[-122.43871,37.67038],[-122.43813,37.67116],[-122.437,37.67116],[-122.43698,37.67113],[-122.43706,37.67107],[-122.4372,37.67097],[-122.43733,37.67087],[-122.43745,37.67077],[-122.43758,37.67068],[-122.4377,37.67059],[-122.43783,37.67049],[-122.43796,37.6704],[-122.43809,37.6703],[-122.43822,37.6702],[-122.43834,37.67011],[-122.43845,37.67003],[-122.43871,37.67038]]],"type":"Polygon"},"properties":{"bbox":{"roads":{"area":1370.79,"pct":15.97},"sidewalks":{"area":222.63,"pct":2.59}},"city_same":1,"id":"hex:3664:24072"},"type":"Feature"},{"geometry":{"coordinates":[[[-122.43643,37.67193],[-122.43699,37.67272],[-122.43812,37.67272],[-122.4387,37.67195],[-122.43813,37.67116],[-122.437,37.67116],[-122.43643,37.67193]]],"type":"Polygon"},"properties":{"bbox":{"roads":{"area":3317.67,"pct":12.77},"sidewalks":{"area":141.72,"pct":0.55}},"city":{"roads":{"area":1511.63,"pct":5.82},"sidewalks":{"area":141.72,"pct":0.55}},"id":"hex:3664:24073"},"type":"Feature"},{"geometry":{"coordinates":[[[-122.43642,37.6735],[-122.43698,37.67428],[-122.43811,37.67428],[-122.43868,37.67351],[-122.43812,37.67272],[-122.43699,37.67272],[-122.43642,37.6735]]],"type":"Polygon"},"properties":{"bbox":{"roads":{"area":21.84,"pct":0.08}},"id":"hex:3664:24074"},"type":"Feature"},{"geometry":{"coordinates":[[[-122.4364,37.67506],[-122.43696,37.67584],[-122.4381,37.67585],[-122.43867,37.67507],[-122.43811,37.67428],[-122.43698,37.67428],[-122.4364,37.67506]]],"type":"Polygon"},"properties":{"bbox":{"roads":{"area":341.76,"pct":1.32}},"city_same":1,"id":"hex:3664:24075"},"type":"Feature"},{"geometry":{"coordinates":[[[-122.43696,37.67584],[-122.4381,37.67585],[-122.43866,37.67663],[-122.43822,37.67722],[-122.4365,37.67647],[-122.43696,37.67584]]],"type":"Polygon"},"properties":{"bbox":{"roads":{"area":483.9,"pct":2.7}},"city_same":1,"id":"hex:3664:24076"},"type":"Feature"},{"geometry":{"coordinates":[[[-122.437,37.67116],[-122.43643,37.67193],[-122.43529,37.67193],[-122.43473,37.67115],[-122.43496,37.67084],[-122.43503,37.67088],[-122.43502,37.67088],[-122.43502,37.67089],[-122.43502,37.67089],[-122.43502,37.6709],[-122.43502,37.6709],[-122.43502,37.67091],[-122.43503,37.67091],[-122.43503,37.67092],[-122.43503,37.67092],[-122.43504,37.67092],[-122.43504,37.67093],[-122.43504,37.67093],[-122.43505,37.67094],[-122.43505,37.67094],[-122.43513,37.67098],[-122.43524,37.67104],[-122.43538,37.67112],[-122.43553,37.6712],[-122.43568,37.67128],[-122.43583,37.67136],[-122.43599,37.67145],[-122.43618,37.67123],[-122.43629,37.6713],[-122.43638,37.67135],[-122.4364,37.67136],[-122.43652,37.67142],[-122.43656,37.67144],[-122.43674,37.67131],[-122.43693,37.67117],[-122.43698,37.67113],[-122.437,37.67116]]],"type":"Polygon"},"properties":{"bbox":{"roads":{"area":3421.66,"pct":29.5},"sidewalks":{"area":234.44,"pct":2.02}},"city":{"roads":{"area":597.41,"pct":5.15},"sidewalks":{"area":234.44,"pct":2.02}},"id":"hex:3665:24072"},"type":"Feature"},{"geometry":{"coordinates":[[[-122.43472,37.67271],[-122.43528,37.67349],[-122.43642,37.6735],[-122.43699,37.67272],[-122.43643,37.67193],[-122.43529,37.67193],[-122.43472,37.67271]]],"type":"Polygon"},"properties":{"bbox":{"roads":{"area":0,"pct":0}},"id":"hex:3665:24073"},"type":"Feature"},{"geometry":{"coordinates":[[[-122.43473,37.67115],[-122.4336,37.67114],[-122.43313,37.67048],[-122.43321,37.67023],[-122.43336,37.67001],[-122.43405,37.67039],[-122.43422,37.67047],[-122.43436,37.67055],[-122.4345,37.67063],[-122.43466,37.67071],[-122.4348,37.67079],[-122.43481,37.67079],[-122.43481,37.67079],[-122.43482,37.67079],[-122.43483,37.67079],[-122.43483,37.67079],[-122.43484,37.67079],[-122.43484,37.67078],[-122.43496,37.67084],[-122.43473,37.67115]]],"type":"Polygon"},"properties":{"bbox":{"roads":{"area":2639.49,"pct":23.47},"sidewalks":{"area":243.16,"pct":2.16}},"city":{"roads":{"area":106.6,"pct":0.95},"sidewalks":{"area":243.16,"pct":2.16}},"id":"hex:3666:24072"},"type":"Feature"}],"type":"FeatureCollection","v":2}