{"features":[{"geometry":{"coordinates":[[[[-122.41608,38.29587],[-122.41617,38.29561],[-122.41652,38.29568],[-122.41642,38.29593],[-122.41608,38.29587]]],[[[-122.42066,38.28478],[-122.42168,38.28475],[-122.42133,38.2853],[-122.42003,38.28485],[-122.42066,38.28478]]],[[[-122.43369,38.28579],[-122.43392,38.28454],[-122.43509,38.28465],[-122.43498,38.28538],[-122.434,38.28529],[-122.43392,38.28582],[-122.43369,38.28579]]],[[[-122.44107,38.28092],[-122.441,38.28135],[-122.43853,38.28113],[-122.43868,38.28008],[-122.44116,38.28032],[-122.44107,38.28092]]],[[[-122.47716,38.29932],[-122.47746,38.29986],[-122.47763,38.30082],[-122.47492,38.30055],[-122.47471,38.30158],[-122.47406,38.3015],[-122.47411,38.30105],[-122.47218,38.30091],[-122.47194,38.3024],[-122.47012,38.30222],[-122.47021,38.30163],[-122.46981,38.30162],[-122.46971,38.30218],[-122.46797,38.30201],[-122.46782,38.30311],[-122.46657,38.30293],[-122.46669,38.30196],[-122.4576,38.30092],[-122.45742,38.30289],[-122.45697,38.30449],[-122.45667,38.30774],[-122.45208,38.30624],[-122.45294,38.30039],[-122.45087,38.30019],[-122.4509,38.30004],[-122.44867,38.30015],[-122.44866,38.30003],[-122.44635,38.29978],[-122.44714,38.29449],[-122.44266,38.29399],[-122.44288,38.2928],[-122.4461,38.29313],[-122.4462,38.29269],[-122.44637,38.2927],[-122.44652,38.29175],[-122.44546,38.29164],[-122.44553,38.29073],[-122.44211,38.29041],[-122.44249,38.28799],[-122.44395,38.28799],[-122.44413,38.28681],[-122.4425,38.28669],[-122.44264,38.28578],[-122.44214,38.28573],[-122.44255,38.28314],[-122.44586,38.28346],[-122.4462,38.28122],[-122.44784,38.28138],[-122.44789,38.28104],[-122.44915,38.28117],[-122.4492,38.28084],[-122.44857,38.28078],[-122.44867,38.28012],[-122.4509,38.28033],[-122.45076,38.28122],[-122.45153,38.2813],[-122.45167,38.2804],[-122.45275,38.2805],[-122.45303,38.27865],[-122.45198,38.27855],[-122.45189,38.27933],[-122.44947,38.27909],[-122.45,38.2757],[-122.45155,38.27583],[-122.45169,38.27495],[-122.45318,38.2751],[-122.45304,38.27602],[-122.45333,38.27605],[-122.45349,38.27513],[-122.45503,38.27528],[-122.4551,38.27553],[-122.45524,38.2753],[-122.45741,38.27551],[-122.4576,38.27444],[-122.4605,38.27473],[-122.46033,38.27581],[-122.46609,38.27639],[-122.4654,38.28091],[-122.46683,38.28105],[-122.46712,38.28135],[-122.46886,38.28154],[-122.46898,38.28107],[-122.46885,38.28091],[-122.46992,38.28103],[-122.46971,38.2822],[-122.47481,38.28278],[-122.47398,38.2835],[-122.47323,38.28502],[-122.47335,38.2857],[-122.47409,38.28709],[-122.47446,38.28924],[-122.4751,38.29001],[-122.47739,38.29149],[-122.47756,38.29202],[-122.47692,38.29354],[-122.4769,38.2946],[-122.47637,38.29589],[-122.47706,38.29652],[-122.47728,38.29739],[-122.47776,38.2977],[-122.4799,38.29701],[-122.48064,38.29698],[-122.48128,38.29744],[-122.48189,38.29838],[-122.47691,38.29885],[-122.47716,38.29932]],[[-122.45628,38.27658],[-122.45631,38.27725],[-122.45658,38.27787],[-122.45993,38.27801],[-122.46019,38.27698],[-122.45628,38.27658]],[[-122.45832,38.2927],[-122.45864,38.29243],[-122.45818,38.29264],[-122.45818,38.29274],[-122.45832,38.2927]],[[-122.46229,38.29913],[-122.46231,38.29914],[-122.46276,38.29928],[-122.46278,38.29928],[-122.46279,38.29926],[-122.46281,38.29922],[-122.46281,38.2992],[-122.4628,38.29917],[-122.46277,38.29916],[-122.46254,38.29909],[-122.46246,38.29908],[-122.4624,38.29907],[-122.46235,38.29908],[-122.4623,38.29909],[-122.46229,38.29911],[-122.46228,38.29912],[-122.46229,38.29913]]]],"type":"MultiPolygon"},"properties":{"type":"boundary"},"type":"Feature"}],"type":"FeatureCollection"}