{"features":[{"geometry":{"coordinates":[[[[-122.47244,37.88364],[-122.47239,37.88407],[-122.47191,37.88361],[-122.47016,37.8827],[-122.46653,37.88124],[-122.46513,37.88021],[-122.46282,37.87739],[-122.46085,37.87614],[-122.46016,37.87476],[-122.45975,37.87431],[-122.4598,37.87417],[-122.4612,37.87392],[-122.46228,37.87332],[-122.46256,37.87294],[-122.4634,37.87237],[-122.46317,37.8722],[-122.46321,37.8719],[-122.46257,37.87067],[-122.46259,37.87032],[-122.46278,37.87032],[-122.46233,37.86854],[-122.46091,37.86791],[-122.4603,37.86653],[-122.45926,37.86617],[-122.45825,37.8652],[-122.45827,37.86417],[-122.45864,37.86375],[-122.45826,37.86287],[-122.45793,37.86261],[-122.45795,37.86211],[-122.45877,37.86229],[-122.46012,37.86299],[-122.4626,37.86473],[-122.46318,37.86486],[-122.4641,37.86545],[-122.46406,37.86562],[-122.46436,37.86572],[-122.46463,37.86615],[-122.46641,37.86761],[-122.46755,37.86814],[-122.46765,37.86838],[-122.46883,37.86863],[-122.47099,37.87092],[-122.47158,37.87205],[-122.47386,37.87505],[-122.47413,37.87597],[-122.47429,37.87764],[-122.4733,37.879],[-122.47282,37.87928],[-122.47125,37.88096],[-122.47164,37.88222],[-122.47244,37.88364]]],[[[-122.45958,37.87376],[-122.45913,37.87377],[-122.45909,37.87348],[-122.45798,37.8729],[-122.45773,37.87252],[-122.45257,37.86832],[-122.45705,37.8719],[-122.45688,37.87153],[-122.45727,37.87132],[-122.45932,37.87276],[-122.45963,37.87378],[-122.46,37.87413],[-122.45958,37.87376]]]],"type":"MultiPolygon"},"properties":{"type":"boundary"},"type":"Feature"}],"type":"FeatureCollection"}