{"features":[{"geometry":{"coordinates":[[[-122.47297,37.87583],[-122.47241,37.87505],[-122.47298,37.87427],[-122.47324,37.87427],[-122.47368,37.87486],[-122.47378,37.875],[-122.47386,37.87505],[-122.47394,37.87521],[-122.4739,37.87523],[-122.47398,37.87537],[-122.4741,37.87584],[-122.47297,37.87583]]],"type":"Polygon"},"properties":{"bbox":{"roads":{"area":1042.73,"pct":6.39}},"city_same":1,"id":"hex:3642:24203"},"type":"Feature"},{"geometry":{"coordinates":[[[-122.47409,37.8774],[-122.47296,37.87739],[-122.47239,37.87661],[-122.47297,37.87583],[-122.4741,37.87584],[-122.47413,37.87597],[-122.47421,37.8765],[-122.47427,37.87683],[-122.47431,37.8771],[-122.47409,37.8774]]],"type":"Polygon"},"properties":{"bbox":{"roads":{"area":1890.64,"pct":8.12}},"city_same":1,"id":"hex:3642:24204"},"type":"Feature"},{"geometry":{"coordinates":[[[-122.47295,37.87895],[-122.47238,37.87817],[-122.47296,37.87739],[-122.47409,37.8774],[-122.47428,37.87765],[-122.47379,37.87823],[-122.47369,37.87854],[-122.47348,37.8788],[-122.47334,37.87895],[-122.47295,37.87895]]],"type":"Polygon"},"properties":{"bbox":{"roads":{"area":1319.95,"pct":7.26}},"city_same":1,"id":"hex:3642:24205"},"type":"Feature"},{"geometry":{"coordinates":[[[-122.47237,37.87973],[-122.47295,37.87895],[-122.47334,37.87895],[-122.4733,37.879],[-122.473,37.87922],[-122.47282,37.87928],[-122.47247,37.87968],[-122.47239,37.87975],[-122.47237,37.87973]]],"type":"Polygon"},"properties":{"bbox":{"roads":{"area":37.27,"pct":2.84}},"city_same":1,"id":"hex:3642:24206"},"type":"Feature"},{"geometry":{"coordinates":[[[-122.47129,37.87192],[-122.47073,37.87114],[-122.47093,37.87087],[-122.47099,37.87092],[-122.47132,37.87149],[-122.47141,37.87172],[-122.47151,37.87192],[-122.47129,37.87192]]],"type":"Polygon"},"properties":{"bbox":{"roads":{"area":242.6,"pct":8.18}},"city_same":1,"id":"hex:3643:24200"},"type":"Feature"},{"geometry":{"coordinates":[[[-122.47242,37.87349],[-122.47128,37.87348],[-122.47072,37.8727],[-122.47129,37.87192],[-122.47151,37.87192],[-122.47158,37.87205],[-122.47233,37.87308],[-122.47247,37.8731],[-122.47257,37.87328],[-122.47242,37.87349]]],"type":"Polygon"},"properties":{"bbox":{"roads":{"area":1012.54,"pct":6.26}},"city_same":1,"id":"hex:3643:24201"},"type":"Feature"},{"geometry":{"coordinates":[[[-122.47071,37.87426],[-122.47127,37.87504],[-122.47241,37.87505],[-122.47298,37.87427],[-122.47242,37.87349],[-122.47128,37.87348],[-122.47071,37.87426]]],"type":"Polygon"},"properties":{"bbox":{"roads":{"area":2459.45,"pct":9.47}},"city_same":1,"id":"hex:3643:24202"},"type":"Feature"},{"geometry":{"coordinates":[[[-122.47069,37.87582],[-122.47126,37.8766],[-122.47239,37.87661],[-122.47297,37.87583],[-122.47241,37.87505],[-122.47127,37.87504],[-122.47069,37.87582]]],"type":"Polygon"},"properties":{"bbox":{"roads":{"area":2203.47,"pct":8.48}},"city_same":1,"id":"hex:3643:24203"},"type":"Feature"},{"geometry":{"coordinates":[[[-122.47068,37.87738],[-122.47125,37.87816],[-122.47238,37.87817],[-122.47296,37.87739],[-122.47239,37.87661],[-122.47126,37.8766],[-122.47068,37.87738]]],"type":"Polygon"},"properties":{"bbox":{"parking":{"area":928.39,"pct":3.57},"roads":{"area":3413.3,"pct":13.14}},"city_same":1,"id":"hex:3643:24204"},"type":"Feature"},{"geometry":{"coordinates":[[[-122.47067,37.87894],[-122.47124,37.87973],[-122.47237,37.87973],[-122.47295,37.87895],[-122.47238,37.87817],[-122.47125,37.87816],[-122.47067,37.87894]]],"type":"Polygon"},"properties":{"bbox":{"roads":{"area":2060.94,"pct":7.93}},"city_same":1,"id":"hex:3643:24205"},"type":"Feature"},{"geometry":{"coordinates":[[[-122.47122,37.88129],[-122.47066,37.8805],[-122.47124,37.87973],[-122.47237,37.87973],[-122.47239,37.87975],[-122.47203,37.88011],[-122.4713,37.88079],[-122.47126,37.88088],[-122.47125,37.88096],[-122.47125,37.88107],[-122.47128,37.88123],[-122.4713,37.88129],[-122.47122,37.88129]]],"type":"Polygon"},"properties":{"bbox":{"roads":{"area":1789.79,"pct":16.19}},"city_same":1,"id":"hex:3643:24206"},"type":"Feature"},{"geometry":{"coordinates":[[[-122.47121,37.88285],[-122.47065,37.88206],[-122.47122,37.88129],[-122.4713,37.88129],[-122.47145,37.88172],[-122.47164,37.88222],[-122.47193,37.8827],[-122.47199,37.88285],[-122.47121,37.88285]]],"type":"Polygon"},"properties":{"bbox":{"roads":{"area":1731.54,"pct":16.84}},"city_same":1,"id":"hex:3643:24207"},"type":"Feature"},{"geometry":{"coordinates":[[[-122.47121,37.88285],[-122.47199,37.88285],[-122.47207,37.88304],[-122.47239,37.88347],[-122.47247,37.88361],[-122.47248,37.88363],[-122.47244,37.88364],[-122.47246,37.88381],[-122.47239,37.88407],[-122.47191,37.88361],[-122.47102,37.88312],[-122.47121,37.88285]]],"type":"Polygon"},"properties":{"bbox":{"roads":{"area":1032.25,"pct":13.23}},"city_same":1,"id":"hex:3643:24208"},"type":"Feature"},{"geometry":{"coordinates":[[[-122.47073,37.87114],[-122.46959,37.87113],[-122.46903,37.87035],[-122.4696,37.86957],[-122.46981,37.86957],[-122.46995,37.86976],[-122.47025,37.87012],[-122.47077,37.87074],[-122.47093,37.87087],[-122.47073,37.87114]]],"type":"Polygon"},"properties":{"bbox":{"roads":{"area":1048.9,"pct":6.21}},"city_same":1,"id":"hex:3644:24200"},"type":"Feature"},{"geometry":{"coordinates":[[[-122.46902,37.87191],[-122.46958,37.87269],[-122.47072,37.8727],[-122.47129,37.87192],[-122.47073,37.87114],[-122.46959,37.87113],[-122.46902,37.87191]]],"type":"Polygon"},"properties":{"bbox":{"roads":{"area":2190.96,"pct":8.43}},"city_same":1,"id":"hex:3644:24201"},"type":"Feature"},{"geometry":{"coordinates":[[[-122.46901,37.87347],[-122.46957,37.87425],[-122.47071,37.87426],[-122.47128,37.87348],[-122.47072,37.8727],[-122.46958,37.87269],[-122.46901,37.87347]]],"type":"Polygon"},"properties":{"bbox":{"roads":{"area":3296.3,"pct":12.69}},"city_same":1,"id":"hex:3644:24202"},"type":"Feature"},{"geometry":{"coordinates":[[[-122.46899,37.87503],[-122.46956,37.87582],[-122.47069,37.87582],[-122.47127,37.87504],[-122.47071,37.87426],[-122.46957,37.87425],[-122.46899,37.87503]]],"type":"Polygon"},"properties":{"bbox":{"roads":{"area":2590.1,"pct":9.97}},"city_same":1,"id":"hex:3644:24203"},"type":"Feature"},{"geometry":{"coordinates":[[[-122.46898,37.87659],[-122.46955,37.87738],[-122.47068,37.87738],[-122.47126,37.8766],[-122.47069,37.87582],[-122.46956,37.87582],[-122.46898,37.87659]]],"type":"Polygon"},"properties":{"bbox":{"roads":{"area":2341.61,"pct":9.01}},"city_same":1,"id":"hex:3644:24204"},"type":"Feature"},{"geometry":{"coordinates":[[[-122.46897,37.87815],[-122.46954,37.87894],[-122.47067,37.87894],[-122.47125,37.87816],[-122.47068,37.87738],[-122.46955,37.87738],[-122.46897,37.87815]]],"type":"Polygon"},"properties":{"bbox":{"roads":{"area":630.81,"pct":2.43}},"city_same":1,"id":"hex:3644:24205"},"type":"Feature"},{"geometry":{"coordinates":[[[-122.46896,37.87972],[-122.46952,37.8805],[-122.47066,37.8805],[-122.47124,37.87973],[-122.47067,37.87894],[-122.46954,37.87894],[-122.46896,37.87972]]],"type":"Polygon"},"properties":{"bbox":{"roads":{"area":850.52,"pct":3.27}},"city_same":1,"id":"hex:3644:24206"},"type":"Feature"},{"geometry":{"coordinates":[[[-122.46895,37.88128],[-122.46951,37.88206],[-122.47065,37.88206],[-122.47122,37.88129],[-122.47066,37.8805],[-122.46952,37.8805],[-122.46895,37.88128]]],"type":"Polygon"},"properties":{"bbox":{"roads":{"area":695.88,"pct":2.68}},"city_same":1,"id":"hex:3644:24207"},"type":"Feature"},{"geometry":{"coordinates":[[[-122.46951,37.88206],[-122.47065,37.88206],[-122.47121,37.88285],[-122.47102,37.88312],[-122.47089,37.88304],[-122.47016,37.8827],[-122.4693,37.88235],[-122.46951,37.88206]]],"type":"Polygon"},"properties":{"bbox":{"roads":{"area":1000.64,"pct":9.75}},"city_same":1,"id":"hex:3644:24208"},"type":"Feature"},{"geometry":{"coordinates":[[[-122.4696,37.86957],[-122.46903,37.87035],[-122.46789,37.87034],[-122.46733,37.86956],[-122.4679,37.86878],[-122.46895,37.86879],[-122.46916,37.86906],[-122.46923,37.86905],[-122.4696,37.86957]]],"type":"Polygon"},"properties":{"bbox":{"roads":{"area":2047.9,"pct":7.95}},"city_same":1,"id":"hex:3645:24199"},"type":"Feature"},{"geometry":{"coordinates":[[[-122.46732,37.87112],[-122.46788,37.8719],[-122.46902,37.87191],[-122.46959,37.87113],[-122.46903,37.87035],[-122.46789,37.87034],[-122.46732,37.87112]]],"type":"Polygon"},"properties":{"bbox":{"roads":{"area":2990.02,"pct":11.51}},"city_same":1,"id":"hex:3645:24200"},"type":"Feature"},{"geometry":{"coordinates":[[[-122.46731,37.87268],[-122.46787,37.87347],[-122.46901,37.87347],[-122.46958,37.87269],[-122.46902,37.87191],[-122.46788,37.8719],[-122.46731,37.87268]]],"type":"Polygon"},"properties":{"bbox":{"roads":{"area":3118.94,"pct":12}},"city_same":1,"id":"hex:3645:24201"},"type":"Feature"},{"geometry":{"coordinates":[[[-122.46729,37.87424],[-122.46786,37.87503],[-122.46899,37.87503],[-122.46957,37.87425],[-122.46901,37.87347],[-122.46787,37.87347],[-122.46729,37.87424]]],"type":"Polygon"},"properties":{"bbox":{"roads":{"area":2877.95,"pct":11.08}},"city_same":1,"id":"hex:3645:24202"},"type":"Feature"},{"geometry":{"coordinates":[[[-122.46728,37.8758],[-122.46785,37.87659],[-122.46898,37.87659],[-122.46956,37.87582],[-122.46899,37.87503],[-122.46786,37.87503],[-122.46728,37.8758]]],"type":"Polygon"},"properties":{"bbox":{"roads":{"area":1298.3,"pct":5}},"city_same":1,"id":"hex:3645:24203"},"type":"Feature"},{"geometry":{"coordinates":[[[-122.46726,37.87893],[-122.46782,37.87971],[-122.46896,37.87972],[-122.46954,37.87894],[-122.46897,37.87815],[-122.46784,37.87815],[-122.46726,37.87893]]],"type":"Polygon"},"properties":{"bbox":{"roads":{"area":360.26,"pct":1.39}},"city_same":1,"id":"hex:3645:24205"},"type":"Feature"},{"geometry":{"coordinates":[[[-122.46725,37.88049],[-122.46781,37.88127],[-122.46895,37.88128],[-122.46952,37.8805],[-122.46896,37.87972],[-122.46782,37.87971],[-122.46725,37.88049]]],"type":"Polygon"},"properties":{"bbox":{"roads":{"area":401.46,"pct":1.55}},"city_same":1,"id":"hex:3645:24206"},"type":"Feature"},{"geometry":{"coordinates":[[[-122.46781,37.88127],[-122.46895,37.88128],[-122.46951,37.88206],[-122.4693,37.88235],[-122.46754,37.88164],[-122.46781,37.88127]]],"type":"Polygon"},"properties":{"bbox":{"roads":{"area":954.4,"pct":8.11}},"city_same":1,"id":"hex:3645:24207"},"type":"Feature"},{"geometry":{"coordinates":[[[-122.4679,37.86878],[-122.46733,37.86956],[-122.46619,37.86956],[-122.46563,37.86877],[-122.4662,37.86799],[-122.46711,37.868],[-122.46727,37.8681],[-122.46743,37.86812],[-122.4679,37.86878]]],"type":"Polygon"},"properties":{"bbox":{"roads":{"area":1885.24,"pct":7.31}},"city_same":1,"id":"hex:3646:24199"},"type":"Feature"},{"geometry":{"coordinates":[[[-122.46562,37.87033],[-122.46618,37.87112],[-122.46732,37.87112],[-122.46789,37.87034],[-122.46733,37.86956],[-122.46619,37.86956],[-122.46562,37.87033]]],"type":"Polygon"},"properties":{"bbox":{"roads":{"area":2324.76,"pct":8.95}},"city_same":1,"id":"hex:3646:24200"},"type":"Feature"},{"geometry":{"coordinates":[[[-122.46561,37.87189],[-122.46617,37.87268],[-122.46731,37.87268],[-122.46788,37.8719],[-122.46732,37.87112],[-122.46618,37.87112],[-122.46561,37.87189]]],"type":"Polygon"},"properties":{"bbox":{"roads":{"area":2935.43,"pct":11.3}},"city_same":1,"id":"hex:3646:24201"},"type":"Feature"},{"geometry":{"coordinates":[[[-122.4656,37.87346],[-122.46616,37.87424],[-122.46729,37.87424],[-122.46787,37.87347],[-122.46731,37.87268],[-122.46617,37.87268],[-122.4656,37.87346]]],"type":"Polygon"},"properties":{"bbox":{"roads":{"area":3122.05,"pct":12.02}},"city_same":1,"id":"hex:3646:24202"},"type":"Feature"},{"geometry":{"coordinates":[[[-122.46558,37.87502],[-122.46615,37.8758],[-122.46728,37.8758],[-122.46786,37.87503],[-122.46729,37.87424],[-122.46616,37.87424],[-122.46558,37.87502]]],"type":"Polygon"},"properties":{"bbox":{"roads":{"area":2724.76,"pct":10.49}},"city_same":1,"id":"hex:3646:24203"},"type":"Feature"},{"geometry":{"coordinates":[[[-122.46557,37.87658],[-122.46614,37.87736],[-122.46727,37.87737],[-122.46785,37.87659],[-122.46728,37.8758],[-122.46615,37.8758],[-122.46557,37.87658]]],"type":"Polygon"},"properties":{"bbox":{"roads":{"area":609.68,"pct":2.35}},"city_same":1,"id":"hex:3646:24204"},"type":"Feature"},{"geometry":{"coordinates":[[[-122.46556,37.87814],[-122.46612,37.87892],[-122.46726,37.87893],[-122.46784,37.87815],[-122.46727,37.87737],[-122.46614,37.87736],[-122.46556,37.87814]]],"type":"Polygon"},"properties":{"bbox":{"roads":{"area":660.41,"pct":2.54}},"city_same":1,"id":"hex:3646:24205"},"type":"Feature"},{"geometry":{"coordinates":[[[-122.46555,37.8797],[-122.46611,37.88048],[-122.46725,37.88049],[-122.46782,37.87971],[-122.46726,37.87893],[-122.46612,37.87892],[-122.46555,37.8797]]],"type":"Polygon"},"properties":{"bbox":{"roads":{"area":817.34,"pct":3.15}},"city_same":1,"id":"hex:3646:24206"},"type":"Feature"},{"geometry":{"coordinates":[[[-122.46611,37.88048],[-122.46725,37.88049],[-122.46781,37.88127],[-122.46754,37.88164],[-122.46653,37.88124],[-122.46585,37.88083],[-122.46611,37.88048]]],"type":"Polygon"},"properties":{"bbox":{"roads":{"area":981.83,"pct":7.54}},"city_same":1,"id":"hex:3646:24207"},"type":"Feature"},{"geometry":{"coordinates":[[[-122.46564,37.86721],[-122.4645,37.86721],[-122.46394,37.86642],[-122.46441,37.86579],[-122.46442,37.86582],[-122.46463,37.86615],[-122.46484,37.86634],[-122.46515,37.86657],[-122.46522,37.86665],[-122.46549,37.86679],[-122.46559,37.86691],[-122.46577,37.86699],[-122.46578,37.86702],[-122.46564,37.86721]]],"type":"Polygon"},"properties":{"bbox":{"roads":{"area":1003.1,"pct":8.22}},"city_same":1,"id":"hex:3647:24197"},"type":"Feature"},{"geometry":{"coordinates":[[[-122.46393,37.86798],[-122.46449,37.86877],[-122.46563,37.86877],[-122.4662,37.86799],[-122.46564,37.86721],[-122.4645,37.86721],[-122.46393,37.86798]]],"type":"Polygon"},"properties":{"bbox":{"roads":{"area":2779.83,"pct":10.7}},"city_same":1,"id":"hex:3647:24198"},"type":"Feature"},{"geometry":{"coordinates":[[[-122.46392,37.86955],[-122.46448,37.87033],[-122.46562,37.87033],[-122.46619,37.86956],[-122.46563,37.86877],[-122.46449,37.86877],[-122.46392,37.86955]]],"type":"Polygon"},"properties":{"bbox":{"roads":{"area":3202.96,"pct":12.33}},"city_same":1,"id":"hex:3647:24199"},"type":"Feature"},{"geometry":{"coordinates":[[[-122.46391,37.87111],[-122.46447,37.87189],[-122.46561,37.87189],[-122.46618,37.87112],[-122.46562,37.87033],[-122.46448,37.87033],[-122.46391,37.87111]]],"type":"Polygon"},"properties":{"bbox":{"roads":{"area":3467.52,"pct":13.35}},"city_same":1,"id":"hex:3647:24200"},"type":"Feature"},{"geometry":{"coordinates":[[[-122.4639,37.87267],[-122.46446,37.87345],[-122.4656,37.87346],[-122.46617,37.87268],[-122.46561,37.87189],[-122.46447,37.87189],[-122.4639,37.87267]]],"type":"Polygon"},"properties":{"bbox":{"roads":{"area":2272.51,"pct":8.75}},"city_same":1,"id":"hex:3647:24201"},"type":"Feature"},{"geometry":{"coordinates":[[[-122.46388,37.87423],[-122.46445,37.87501],[-122.46558,37.87502],[-122.46616,37.87424],[-122.4656,37.87346],[-122.46446,37.87345],[-122.46388,37.87423]]],"type":"Polygon"},"properties":{"bbox":{"roads":{"area":3397.92,"pct":13.08}},"city_same":1,"id":"hex:3647:24202"},"type":"Feature"},{"geometry":{"coordinates":[[[-122.46387,37.87579],[-122.46444,37.87657],[-122.46557,37.87658],[-122.46615,37.8758],[-122.46558,37.87502],[-122.46445,37.87501],[-122.46387,37.87579]]],"type":"Polygon"},"properties":{"bbox":{"roads":{"area":523.3,"pct":2.01}},"city_same":1,"id":"hex:3647:24203"},"type":"Feature"},{"geometry":{"coordinates":[[[-122.46386,37.87735],[-122.46442,37.87813],[-122.46556,37.87814],[-122.46614,37.87736],[-122.46557,37.87658],[-122.46444,37.87657],[-122.46386,37.87735]]],"type":"Polygon"},"properties":{"bbox":{"roads":{"area":936.9,"pct":3.61}},"city_same":1,"id":"hex:3647:24204"},"type":"Feature"},{"geometry":{"coordinates":[[[-122.46442,37.87813],[-122.46556,37.87814],[-122.46612,37.87892],[-122.46555,37.8797],[-122.46474,37.8797],[-122.46413,37.8789],[-122.46398,37.87873],[-122.46442,37.87813]]],"type":"Polygon"},"properties":{"bbox":{"roads":{"area":1108.87,"pct":4.74}},"city_same":1,"id":"hex:3647:24205"},"type":"Feature"},{"geometry":{"coordinates":[[[-122.46555,37.8797],[-122.46611,37.88048],[-122.46585,37.88083],[-122.46576,37.88077],[-122.46513,37.88021],[-122.46474,37.8797],[-122.46555,37.8797]]],"type":"Polygon"},"properties":{"bbox":{"roads":{"area":848.49,"pct":11.88}},"city_same":1,"id":"hex:3647:24206"},"type":"Feature"},{"geometry":{"coordinates":[[[-122.46394,37.86642],[-122.4628,37.86642],[-122.46224,37.86563],[-122.46281,37.86486],[-122.46318,37.86486],[-122.46381,37.86534],[-122.4641,37.86545],[-122.46406,37.86562],[-122.46436,37.86572],[-122.46441,37.86579],[-122.46394,37.86642]]],"type":"Polygon"},"properties":{"bbox":{"roads":{"area":1405.41,"pct":6.47}},"city_same":1,"id":"hex:3648:24197"},"type":"Feature"},{"geometry":{"coordinates":[[[-122.46223,37.8672],[-122.46279,37.86798],[-122.46393,37.86798],[-122.4645,37.86721],[-122.46394,37.86642],[-122.4628,37.86642],[-122.46223,37.8672]]],"type":"Polygon"},"properties":{"bbox":{"roads":{"area":2396.39,"pct":9.22}},"city_same":1,"id":"hex:3648:24198"},"type":"Feature"},{"geometry":{"coordinates":[[[-122.46279,37.86798],[-122.46393,37.86798],[-122.46449,37.86877],[-122.46392,37.86955],[-122.46278,37.86954],[-122.4625,37.86915],[-122.46234,37.86859],[-122.46279,37.86798]]],"type":"Polygon"},"properties":{"bbox":{"roads":{"area":3058.33,"pct":11.99}},"city_same":1,"id":"hex:3648:24199"},"type":"Feature"},{"geometry":{"coordinates":[[[-122.46278,37.86954],[-122.46392,37.86955],[-122.46448,37.87033],[-122.46391,37.87111],[-122.4628,37.8711],[-122.46266,37.87085],[-122.46261,37.87075],[-122.46257,37.87067],[-122.46259,37.87033],[-122.46259,37.87032],[-122.46278,37.87032],[-122.46277,37.86993],[-122.46277,37.86983],[-122.46272,37.8698],[-122.46268,37.86975],[-122.46264,37.86973],[-122.46278,37.86954]]],"type":"Polygon"},"properties":{"bbox":{"parking":{"area":1689.25,"pct":7.37},"roads":{"area":2250.55,"pct":9.82}},"city_same":1,"id":"hex:3648:24200"},"type":"Feature"},{"geometry":{"coordinates":[[[-122.46391,37.87111],[-122.46447,37.87189],[-122.4639,37.87267],[-122.46304,37.87266],[-122.46314,37.87259],[-122.4633,37.87248],[-122.4634,37.87237],[-122.46317,37.8722],[-122.46321,37.8719],[-122.46293,37.87133],[-122.4628,37.8711],[-122.46391,37.87111]]],"type":"Polygon"},"properties":{"bbox":{"parking":{"area":3270.69,"pct":20.11},"roads":{"area":1843.11,"pct":11.33}},"city_same":1,"id":"hex:3648:24201"},"type":"Feature"},{"geometry":{"coordinates":[[[-122.4639,37.87267],[-122.46446,37.87345],[-122.46388,37.87423],[-122.46275,37.87422],[-122.46218,37.87344],[-122.46227,37.87332],[-122.46228,37.87332],[-122.46256,37.87294],[-122.46297,37.87271],[-122.46304,37.87266],[-122.4639,37.87267]]],"type":"Polygon"},"properties":{"bbox":{"roads":{"area":4335.06,"pct":16.98}},"city_same":1,"id":"hex:3648:24202"},"type":"Feature"},{"geometry":{"coordinates":[[[-122.46217,37.875],[-122.46274,37.87578],[-122.46387,37.87579],[-122.46445,37.87501],[-122.46388,37.87423],[-122.46275,37.87422],[-122.46217,37.875]]],"type":"Polygon"},"properties":{"bbox":{"roads":{"area":985.99,"pct":3.8}},"city_same":1,"id":"hex:3648:24203"},"type":"Feature"},{"geometry":{"coordinates":[[[-122.46216,37.87656],[-122.46274,37.87578],[-122.46387,37.87579],[-122.46444,37.87657],[-122.46386,37.87735],[-122.46277,37.87735],[-122.46266,37.87726],[-122.46216,37.87656]]],"type":"Polygon"},"properties":{"bbox":{"roads":{"area":817.28,"pct":3.15}},"city_same":1,"id":"hex:3648:24204"},"type":"Feature"},{"geometry":{"coordinates":[[[-122.46386,37.87735],[-122.46442,37.87813],[-122.46398,37.87873],[-122.46387,37.8786],[-122.46349,37.87828],[-122.46329,37.87795],[-122.46282,37.87739],[-122.46277,37.87735],[-122.46386,37.87735]]],"type":"Polygon"},"properties":{"bbox":{"roads":{"area":955.17,"pct":8.68}},"city_same":1,"id":"hex:3648:24205"},"type":"Feature"},{"geometry":{"coordinates":[[[-122.46281,37.86486],[-122.46224,37.86563],[-122.4611,37.86563],[-122.46054,37.86485],[-122.46112,37.86407],[-122.46174,37.86407],[-122.4619,37.86414],[-122.46199,37.86428],[-122.4626,37.86473],[-122.46275,37.86476],[-122.46281,37.86486]]],"type":"Polygon"},"properties":{"bbox":{"roads":{"area":1826.45,"pct":7.63}},"city_same":1,"id":"hex:3649:24196"},"type":"Feature"},{"geometry":{"coordinates":[[[-122.46053,37.86641],[-122.46109,37.86719],[-122.46223,37.8672],[-122.4628,37.86642],[-122.46224,37.86563],[-122.4611,37.86563],[-122.46053,37.86641]]],"type":"Polygon"},"properties":{"bbox":{"roads":{"area":3067.32,"pct":11.81}},"city_same":1,"id":"hex:3649:24197"},"type":"Feature"},{"geometry":{"coordinates":[[[-122.46109,37.86719],[-122.46223,37.8672],[-122.46279,37.86798],[-122.46234,37.86859],[-122.46233,37.86854],[-122.46184,37.86825],[-122.46143,37.86816],[-122.46091,37.86791],[-122.46084,37.86758],[-122.46083,37.86755],[-122.46109,37.86719]]],"type":"Polygon"},"properties":{"bbox":{"roads":{"area":1546.87,"pct":9.2}},"city_same":1,"id":"hex:3649:24198"},"type":"Feature"},{"geometry":{"coordinates":[[[-122.46218,37.87344],[-122.46275,37.87422],[-122.46217,37.875],[-122.46104,37.875],[-122.46047,37.87421],[-122.46054,37.87412],[-122.46072,37.87409],[-122.4612,37.87392],[-122.46148,37.87377],[-122.46206,37.87344],[-122.46218,37.87344]]],"type":"Polygon"},"properties":{"bbox":{"roads":{"area":4505.38,"pct":20.67}},"city_same":1,"id":"hex:3649:24202"},"type":"Feature"},{"geometry":{"coordinates":[[[-122.46104,37.875],[-122.46217,37.875],[-122.46274,37.87578],[-122.46216,37.87656],[-122.46158,37.87656],[-122.46085,37.87614],[-122.46056,37.87564],[-122.46104,37.875]]],"type":"Polygon"},"properties":{"bbox":{"roads":{"area":1897.99,"pct":7.94}},"city_same":1,"id":"hex:3649:24203"},"type":"Feature"},{"geometry":{"coordinates":[[[-122.46216,37.87656],[-122.46266,37.87726],[-122.46236,37.87701],[-122.46158,37.87656],[-122.46216,37.87656]]],"type":"Polygon"},"properties":{"bbox":{"roads":{"area":422.27,"pct":25.17}},"city_same":1,"id":"hex:3649:24204"},"type":"Feature"},{"geometry":{"coordinates":[[[-122.45942,37.86328],[-122.45885,37.8625],[-122.45893,37.86239],[-122.45915,37.86251],[-122.45926,37.86264],[-122.46004,37.86296],[-122.46012,37.86299],[-122.46035,37.8632],[-122.46047,37.86323],[-122.4605,37.86329],[-122.45942,37.86328]]],"type":"Polygon"},"properties":{"bbox":{"roads":{"area":87.51,"pct":1.62}},"city_same":1,"id":"hex:3650:24195"},"type":"Feature"},{"geometry":{"coordinates":[[[-122.46112,37.86407],[-122.46054,37.86485],[-122.4594,37.86484],[-122.45884,37.86406],[-122.45942,37.86328],[-122.4605,37.86329],[-122.46054,37.86336],[-122.46063,37.8634],[-122.46073,37.86354],[-122.46073,37.86354],[-122.46073,37.86354],[-122.46112,37.86407]]],"type":"Polygon"},"properties":{"bbox":{"roads":{"area":1990.34,"pct":7.68}},"city_same":1,"id":"hex:3650:24196"},"type":"Feature"},{"geometry":{"coordinates":[[[-122.45883,37.86562],[-122.4594,37.86484],[-122.46054,37.86485],[-122.4611,37.86563],[-122.46053,37.86641],[-122.46002,37.86641],[-122.45984,37.86633],[-122.45926,37.86617],[-122.45918,37.8661],[-122.45883,37.86562]]],"type":"Polygon"},"properties":{"bbox":{"roads":{"area":2424.06,"pct":9.64}},"city_same":1,"id":"hex:3650:24197"},"type":"Feature"},{"geometry":{"coordinates":[[[[-122.46047,37.87421],[-122.45979,37.87421],[-122.4598,37.87417],[-122.46,37.87413],[-122.45999,37.87413],[-122.46001,37.87415],[-122.46028,37.87417],[-122.46054,37.87412],[-122.46047,37.87421]]],[[[-122.45929,37.87273],[-122.45932,37.87276],[-122.45945,37.87293],[-122.4596,37.87333],[-122.45966,37.87353],[-122.45963,37.87378],[-122.45978,37.87394],[-122.46,37.87413],[-122.45958,37.87376],[-122.45913,37.87377],[-122.45909,37.87348],[-122.45887,37.87335],[-122.45884,37.87338],[-122.45881,37.87337],[-122.45929,37.87273]]]],"type":"MultiPolygon"},"properties":{"bbox":{"roads":{"area":1081.15,"pct":20.32}},"city_same":1,"id":"hex:3650:24202"},"type":"Feature"},{"geometry":{"coordinates":[[[-122.46047,37.87421],[-122.46104,37.875],[-122.46056,37.87564],[-122.46019,37.87498],[-122.46016,37.87476],[-122.45975,37.87431],[-122.45979,37.87421],[-122.46047,37.87421]]],"type":"Polygon"},"properties":{"bbox":{"roads":{"area":1105.93,"pct":13.14}},"city_same":1,"id":"hex:3650:24203"},"type":"Feature"},{"geometry":{"coordinates":[[[-122.45884,37.86406],[-122.4594,37.86484],[-122.45883,37.86562],[-122.4586,37.86562],[-122.45847,37.86547],[-122.45825,37.8652],[-122.45824,37.86448],[-122.45827,37.86417],[-122.45837,37.86406],[-122.45884,37.86406]]],"type":"Polygon"},"properties":{"bbox":{"roads":{"area":650.21,"pct":5.19}},"city_same":1,"id":"hex:3651:24196"},"type":"Feature"},{"geometry":{"coordinates":[[[-122.45765,37.87186],[-122.45726,37.87132],[-122.45727,37.87132],[-122.45742,37.87146],[-122.45781,37.87159],[-122.45821,37.87186],[-122.45821,37.87186],[-122.45765,37.87186]]],"type":"Polygon"},"properties":{"bbox":{"parking":{"area":9.78,"pct":0.64},"roads":{"area":150.98,"pct":9.95}},"city_same":1,"id":"hex:3651:24200"},"type":"Feature"},{"geometry":{"coordinates":[[[-122.45881,37.87337],[-122.45834,37.87316],[-122.45844,37.87305],[-122.45833,37.87299],[-122.4583,37.87302],[-122.45818,37.87296],[-122.45816,37.87299],[-122.45798,37.8729],[-122.45798,37.87282],[-122.45788,37.87275],[-122.45781,37.87263],[-122.45772,37.8726],[-122.45773,37.87252],[-122.45748,37.87244],[-122.45758,37.87232],[-122.4575,37.87234],[-122.45743,37.87221],[-122.45741,37.87219],[-122.45765,37.87186],[-122.45821,37.87186],[-122.4583,37.87205],[-122.45856,37.87222],[-122.45897,37.87241],[-122.45929,37.87273],[-122.45881,37.87337]]],"type":"Polygon"},"properties":{"bbox":{"roads":{"area":2056.07,"pct":14.24}},"city_same":1,"id":"hex:3651:24201"},"type":"Feature"},{"geometry":{"coordinates":[[[-122.45765,37.87186],[-122.45741,37.87219],[-122.45601,37.87107],[-122.45601,37.87107],[-122.45705,37.8719],[-122.45704,37.87189],[-122.45688,37.87153],[-122.45693,37.87145],[-122.45711,37.87138],[-122.45726,37.87132],[-122.45765,37.87186]]],"type":"Polygon"},"properties":{"bbox":{"parking":{"area":52.61,"pct":1.5},"roads":{"area":253.85,"pct":7.24}},"city_same":1,"id":"hex:3652:24201"},"type":"Feature"}],"type":"FeatureCollection","v":2}