{"features":[{"geometry":{"coordinates":[[[-118.34666,33.32054],[-118.34345,33.34025],[-118.33154,33.35352],[-118.33208,33.35405],[-118.33417,33.35398],[-118.33481,33.3545],[-118.33482,33.35494],[-118.33583,33.35504],[-118.33551,33.35622],[-118.33447,33.35591],[-118.33437,33.35647],[-118.33364,33.35649],[-118.33342,33.35606],[-118.33245,33.35621],[-118.33222,33.35657],[-118.33181,33.35647],[-118.33138,33.35584],[-118.33086,33.35592],[-118.33058,33.35524],[-118.33,33.35466],[-118.33012,33.35409],[-118.32976,33.35401],[-118.32983,33.35381],[-118.32926,33.35326],[-118.32848,33.35281],[-118.32834,33.35201],[-118.32855,33.35114],[-118.32807,33.35044],[-118.32674,33.3494],[-118.32649,33.34929],[-118.3258,33.34941],[-118.32521,33.34922],[-118.32401,33.34855],[-118.32381,33.34837],[-118.32392,33.34829],[-118.32472,33.34875],[-118.32592,33.34855],[-118.32629,33.34844],[-118.32636,33.34854],[-118.32689,33.34825],[-118.32735,33.34707],[-118.32734,33.34652],[-118.32675,33.34528],[-118.32593,33.3442],[-118.32482,33.34328],[-118.32391,33.34299],[-118.32277,33.34399],[-118.322,33.34417],[-118.32182,33.34444],[-118.32213,33.34514],[-118.3219,33.34511],[-118.32027,33.34304],[-118.31979,33.34279],[-118.31856,33.34268],[-118.31739,33.34364],[-118.31497,33.34102],[-118.31304,33.33818],[-118.31072,33.3365],[-118.31009,33.33409],[-118.30933,33.33333],[-118.30924,33.33284],[-118.30867,33.33258],[-118.30886,33.33223],[-118.30822,33.33098],[-118.30774,33.33048],[-118.31062,33.33046],[-118.3162,33.3269],[-118.31781,33.33048],[-118.31781,33.33962],[-118.32674,33.32968],[-118.32674,33.31758],[-118.34665,33.31758],[-118.34666,33.32054]]],"type":"Polygon"},"properties":{"type":"boundary"},"type":"Feature"}],"type":"FeatureCollection"}