{"features":[{"geometry":{"coordinates":[[[-118.34164,33.32363],[-118.34232,33.3246],[-118.34366,33.32459],[-118.34432,33.3236],[-118.34363,33.32264],[-118.34229,33.32265],[-118.34164,33.32363]]],"type":"Polygon"},"properties":{"bbox":{"roads":{"area":13.06,"pct":0.03}},"city_same":1,"id":"hex:2000:17034"},"type":"Feature"},{"geometry":{"coordinates":[[[-118.33964,33.32463],[-118.34032,33.3256],[-118.34167,33.32559],[-118.34232,33.3246],[-118.34164,33.32363],[-118.34029,33.32365],[-118.33964,33.32463]]],"type":"Polygon"},"properties":{"bbox":{"roads":{"area":1036.88,"pct":2.55}},"city_same":1,"id":"hex:2001:17034"},"type":"Feature"},{"geometry":{"coordinates":[[[-118.33967,33.32658],[-118.34035,33.32755],[-118.3417,33.32754],[-118.34235,33.32655],[-118.34167,33.32559],[-118.34032,33.3256],[-118.33967,33.32658]]],"type":"Polygon"},"properties":{"bbox":{"roads":{"area":1690.45,"pct":4.16}},"city_same":1,"id":"hex:2001:17035"},"type":"Feature"},{"geometry":{"coordinates":[[[-118.33764,33.32563],[-118.33832,33.3266],[-118.33967,33.32658],[-118.34032,33.3256],[-118.33964,33.32463],[-118.33829,33.32465],[-118.33764,33.32563]]],"type":"Polygon"},"properties":{"bbox":{"roads":{"area":309.65,"pct":0.76}},"city_same":1,"id":"hex:2002:17035"},"type":"Feature"},{"geometry":{"coordinates":[[[-118.33767,33.32758],[-118.33835,33.32855],[-118.3397,33.32854],[-118.34035,33.32755],[-118.33967,33.32658],[-118.33832,33.3266],[-118.33767,33.32758]]],"type":"Polygon"},"properties":{"bbox":{"roads":{"area":1282.05,"pct":3.16}},"city_same":1,"id":"hex:2002:17036"},"type":"Feature"},{"geometry":{"coordinates":[[[-118.3377,33.32953],[-118.33838,33.3305],[-118.33973,33.33049],[-118.34038,33.3295],[-118.3397,33.32854],[-118.33835,33.32855],[-118.3377,33.32953]]],"type":"Polygon"},"properties":{"bbox":{"roads":{"area":1254.78,"pct":3.09}},"city_same":1,"id":"hex:2002:17037"},"type":"Feature"},{"geometry":{"coordinates":[[[-118.3357,33.33053],[-118.33638,33.3315],[-118.33773,33.33149],[-118.33838,33.3305],[-118.3377,33.32953],[-118.33635,33.32955],[-118.3357,33.33053]]],"type":"Polygon"},"properties":{"bbox":{"roads":{"area":1886.75,"pct":4.65}},"city_same":1,"id":"hex:2003:17037"},"type":"Feature"},{"geometry":{"coordinates":[[[-118.33573,33.33248],[-118.33641,33.33345],[-118.33776,33.33344],[-118.33841,33.33246],[-118.33773,33.33149],[-118.33638,33.3315],[-118.33573,33.33248]]],"type":"Polygon"},"properties":{"bbox":{"roads":{"area":202.88,"pct":0.5}},"city_same":1,"id":"hex:2003:17038"},"type":"Feature"},{"geometry":{"coordinates":[[[-118.33662,33.34712],[-118.33594,33.34615],[-118.33659,33.34517],[-118.33794,33.34515],[-118.33843,33.34585],[-118.33729,33.34711],[-118.33662,33.34712]]],"type":"Polygon"},"properties":{"bbox":{"roads":{"area":122.22,"pct":0.36}},"city_same":1,"id":"hex:2003:17045"},"type":"Feature"},{"geometry":{"coordinates":[[[-118.33597,33.3481],[-118.33662,33.34712],[-118.33729,33.34711],[-118.33616,33.34838],[-118.33597,33.3481]]],"type":"Polygon"},"properties":{"bbox":{"roads":{"area":280.46,"pct":4.49}},"city_same":1,"id":"hex:2003:17046"},"type":"Feature"},{"geometry":{"coordinates":[[[-118.3337,33.33153],[-118.33438,33.3325],[-118.33573,33.33248],[-118.33638,33.3315],[-118.3357,33.33053],[-118.33436,33.33055],[-118.3337,33.33153]]],"type":"Polygon"},"properties":{"bbox":{"roads":{"area":992.84,"pct":2.45}},"city_same":1,"id":"hex:2004:17038"},"type":"Feature"},{"geometry":{"coordinates":[[[-118.33373,33.33348],[-118.33441,33.33445],[-118.33576,33.33444],[-118.33641,33.33345],[-118.33573,33.33248],[-118.33438,33.3325],[-118.33373,33.33348]]],"type":"Polygon"},"properties":{"bbox":{"roads":{"area":2087.6,"pct":5.14}},"city_same":1,"id":"hex:2004:17039"},"type":"Feature"},{"geometry":{"coordinates":[[[-118.33376,33.33543],[-118.33444,33.3364],[-118.33579,33.33639],[-118.33644,33.33541],[-118.33576,33.33444],[-118.33441,33.33445],[-118.33376,33.33543]]],"type":"Polygon"},"properties":{"bbox":{"roads":{"area":756.81,"pct":1.86}},"city_same":1,"id":"hex:2004:17040"},"type":"Feature"},{"geometry":{"coordinates":[[[-118.33382,33.33934],[-118.3345,33.34031],[-118.33585,33.34029],[-118.3365,33.33931],[-118.33582,33.33834],[-118.33447,33.33836],[-118.33382,33.33934]]],"type":"Polygon"},"properties":{"bbox":{"roads":{"area":467.64,"pct":1.15}},"city_same":1,"id":"hex:2004:17042"},"type":"Feature"},{"geometry":{"coordinates":[[[-118.33385,33.34129],[-118.33453,33.34226],[-118.33588,33.34225],[-118.33653,33.34126],[-118.33585,33.34029],[-118.3345,33.34031],[-118.33385,33.34129]]],"type":"Polygon"},"properties":{"bbox":{"roads":{"area":1373.64,"pct":3.38}},"city_same":1,"id":"hex:2004:17043"},"type":"Feature"},{"geometry":{"coordinates":[[[-118.33394,33.34715],[-118.33462,33.34812],[-118.33597,33.3481],[-118.33662,33.34712],[-118.33594,33.34615],[-118.33459,33.34616],[-118.33394,33.34715]]],"type":"Polygon"},"properties":{"bbox":{"roads":{"area":3948.16,"pct":9.73}},"city_same":1,"id":"hex:2004:17046"},"type":"Feature"},{"geometry":{"coordinates":[[[-118.33474,33.35593],[-118.33406,33.35496],[-118.33452,33.35426],[-118.33481,33.3545],[-118.33482,33.35494],[-118.33583,33.35504],[-118.33578,33.35548],[-118.33562,33.35592],[-118.33474,33.35593]]],"type":"Polygon"},"properties":{"bbox":{"roads":{"area":1531.18,"pct":9.23}},"city_same":1,"id":"hex:2004:17050"},"type":"Feature"},{"geometry":{"coordinates":[[[-118.3317,33.33253],[-118.33239,33.3335],[-118.33373,33.33348],[-118.33438,33.3325],[-118.3337,33.33153],[-118.33236,33.33154],[-118.3317,33.33253]]],"type":"Polygon"},"properties":{"bbox":{"roads":{"area":413.73,"pct":1.02}},"city_same":1,"id":"hex:2005:17038"},"type":"Feature"},{"geometry":{"coordinates":[[[-118.33173,33.33448],[-118.33242,33.33545],[-118.33376,33.33543],[-118.33441,33.33445],[-118.33373,33.33348],[-118.33239,33.3335],[-118.33173,33.33448]]],"type":"Polygon"},"properties":{"bbox":{"roads":{"area":3479.31,"pct":8.57}},"city_same":1,"id":"hex:2005:17039"},"type":"Feature"},{"geometry":{"coordinates":[[[-118.33176,33.33643],[-118.33244,33.3374],[-118.33379,33.33739],[-118.33444,33.3364],[-118.33376,33.33543],[-118.33242,33.33545],[-118.33176,33.33643]]],"type":"Polygon"},"properties":{"bbox":{"roads":{"area":182.29,"pct":0.45}},"city_same":1,"id":"hex:2005:17040"},"type":"Feature"},{"geometry":{"coordinates":[[[-118.33179,33.33838],[-118.33247,33.33935],[-118.33382,33.33934],[-118.33447,33.33836],[-118.33379,33.33739],[-118.33244,33.3374],[-118.33179,33.33838]]],"type":"Polygon"},"properties":{"bbox":{"roads":{"area":610.28,"pct":1.5}},"city_same":1,"id":"hex:2005:17041"},"type":"Feature"},{"geometry":{"coordinates":[[[-118.33182,33.34034],[-118.3325,33.34131],[-118.33385,33.34129],[-118.3345,33.34031],[-118.33382,33.33934],[-118.33247,33.33935],[-118.33182,33.34034]]],"type":"Polygon"},"properties":{"bbox":{"roads":{"area":3288.03,"pct":8.1}},"city_same":1,"id":"hex:2005:17042"},"type":"Feature"},{"geometry":{"coordinates":[[[-118.33185,33.34229],[-118.33253,33.34326],[-118.33388,33.34324],[-118.33453,33.34226],[-118.33385,33.34129],[-118.3325,33.34131],[-118.33185,33.34229]]],"type":"Polygon"},"properties":{"bbox":{"roads":{"area":1196.88,"pct":2.95}},"city_same":1,"id":"hex:2005:17043"},"type":"Feature"},{"geometry":{"coordinates":[[[-118.33188,33.34424],[-118.33256,33.34521],[-118.33391,33.3452],[-118.33456,33.34421],[-118.33388,33.34324],[-118.33253,33.34326],[-118.33188,33.34424]]],"type":"Polygon"},"properties":{"bbox":{"roads":{"area":3074.21,"pct":7.57}},"city_same":1,"id":"hex:2005:17044"},"type":"Feature"},{"geometry":{"coordinates":[[[-118.33191,33.34619],[-118.33259,33.34716],[-118.33394,33.34715],[-118.33459,33.34616],[-118.33391,33.3452],[-118.33256,33.34521],[-118.33191,33.34619]]],"type":"Polygon"},"properties":{"bbox":{"roads":{"area":2242.09,"pct":5.52}},"city_same":1,"id":"hex:2005:17045"},"type":"Feature"},{"geometry":{"coordinates":[[[-118.33194,33.34815],[-118.33262,33.34911],[-118.33397,33.3491],[-118.33462,33.34812],[-118.33394,33.34715],[-118.33259,33.34716],[-118.33194,33.34815]]],"type":"Polygon"},"properties":{"bbox":{"roads":{"area":1676.29,"pct":4.13}},"city_same":1,"id":"hex:2005:17046"},"type":"Feature"},{"geometry":{"coordinates":[[[-118.33265,33.35107],[-118.33197,33.3501],[-118.33262,33.34911],[-118.33397,33.3491],[-118.33465,33.35006],[-118.33376,33.35106],[-118.33265,33.35107]]],"type":"Polygon"},"properties":{"bbox":{"roads":{"area":1204.42,"pct":3.06}},"city_same":1,"id":"hex:2005:17047"},"type":"Feature"},{"geometry":{"coordinates":[[[-118.33406,33.35496],[-118.33271,33.35497],[-118.33203,33.354],[-118.33203,33.354],[-118.33208,33.35405],[-118.33258,33.35412],[-118.33417,33.35398],[-118.33452,33.35426],[-118.33406,33.35496]]],"type":"Polygon"},"properties":{"bbox":{"roads":{"area":2300.54,"pct":12.77}},"city_same":1,"id":"hex:2005:17049"},"type":"Feature"},{"geometry":{"coordinates":[[[-118.33206,33.35596],[-118.33271,33.35497],[-118.33406,33.35496],[-118.33474,33.35593],[-118.33472,33.35595],[-118.33447,33.35591],[-118.33437,33.35647],[-118.33364,33.35649],[-118.33342,33.35606],[-118.33245,33.35621],[-118.33235,33.35637],[-118.33206,33.35596]]],"type":"Polygon"},"properties":{"bbox":{"roads":{"area":3469.05,"pct":12.24}},"city_same":1,"id":"hex:2005:17050"},"type":"Feature"},{"geometry":{"coordinates":[[[-118.3297,33.33352],[-118.33039,33.33449],[-118.33173,33.33448],[-118.33239,33.3335],[-118.3317,33.33253],[-118.33036,33.33254],[-118.3297,33.33352]]],"type":"Polygon"},"properties":{"bbox":{"roads":{"area":1680.18,"pct":4.14}},"city_same":1,"id":"hex:2006:17039"},"type":"Feature"},{"geometry":{"coordinates":[[[-118.32973,33.33548],[-118.33042,33.33645],[-118.33176,33.33643],[-118.33242,33.33545],[-118.33173,33.33448],[-118.33039,33.33449],[-118.32973,33.33548]]],"type":"Polygon"},"properties":{"bbox":{"roads":{"area":3025.91,"pct":7.45}},"city_same":1,"id":"hex:2006:17040"},"type":"Feature"},{"geometry":{"coordinates":[[[-118.32976,33.33743],[-118.33045,33.3384],[-118.33179,33.33838],[-118.33244,33.3374],[-118.33176,33.33643],[-118.33042,33.33645],[-118.32976,33.33743]]],"type":"Polygon"},"properties":{"bbox":{"roads":{"area":2257.17,"pct":5.56}},"city_same":1,"id":"hex:2006:17041"},"type":"Feature"},{"geometry":{"coordinates":[[[-118.32979,33.33938],[-118.33048,33.34035],[-118.33182,33.34034],[-118.33247,33.33935],[-118.33179,33.33838],[-118.33045,33.3384],[-118.32979,33.33938]]],"type":"Polygon"},"properties":{"bbox":{"roads":{"area":4084.83,"pct":10.06}},"city_same":1,"id":"hex:2006:17042"},"type":"Feature"},{"geometry":{"coordinates":[[[-118.32982,33.34133],[-118.3305,33.3423],[-118.33185,33.34229],[-118.3325,33.34131],[-118.33182,33.34034],[-118.33048,33.34035],[-118.32982,33.34133]]],"type":"Polygon"},"properties":{"bbox":{"roads":{"area":3659.4,"pct":9.01}},"city_same":1,"id":"hex:2006:17043"},"type":"Feature"},{"geometry":{"coordinates":[[[-118.32985,33.34329],[-118.33053,33.34426],[-118.33188,33.34424],[-118.33253,33.34326],[-118.33185,33.34229],[-118.3305,33.3423],[-118.32985,33.34329]]],"type":"Polygon"},"properties":{"bbox":{"roads":{"area":5086.32,"pct":12.53}},"city_same":1,"id":"hex:2006:17044"},"type":"Feature"},{"geometry":{"coordinates":[[[-118.32988,33.34524],[-118.33056,33.34621],[-118.33191,33.34619],[-118.33256,33.34521],[-118.33188,33.34424],[-118.33053,33.34426],[-118.32988,33.34524]]],"type":"Polygon"},"properties":{"bbox":{"roads":{"area":3881.15,"pct":9.56}},"city_same":1,"id":"hex:2006:17045"},"type":"Feature"},{"geometry":{"coordinates":[[[-118.32991,33.34719],[-118.33059,33.34816],[-118.33194,33.34815],[-118.33259,33.34716],[-118.33191,33.34619],[-118.33056,33.34621],[-118.32991,33.34719]]],"type":"Polygon"},"properties":{"bbox":{"roads":{"area":1767.76,"pct":4.35}},"city_same":1,"id":"hex:2006:17046"},"type":"Feature"},{"geometry":{"coordinates":[[[-118.32994,33.34914],[-118.33062,33.35011],[-118.33197,33.3501],[-118.33262,33.34911],[-118.33194,33.34815],[-118.33059,33.34816],[-118.32994,33.34914]]],"type":"Polygon"},"properties":{"bbox":{"roads":{"area":1116.65,"pct":2.75}},"city_same":1,"id":"hex:2006:17047"},"type":"Feature"},{"geometry":{"coordinates":[[[-118.32997,33.3511],[-118.33065,33.35206],[-118.332,33.35205],[-118.33265,33.35107],[-118.33197,33.3501],[-118.33062,33.35011],[-118.32997,33.3511]]],"type":"Polygon"},"properties":{"bbox":{"roads":{"area":2259.8,"pct":5.57}},"city_same":1,"id":"hex:2006:17048"},"type":"Feature"},{"geometry":{"coordinates":[[[-118.33203,33.354],[-118.33068,33.35402],[-118.33,33.35305],[-118.33065,33.35206],[-118.332,33.35205],[-118.33238,33.35259],[-118.33154,33.35352],[-118.33203,33.354],[-118.33203,33.354]]],"type":"Polygon"},"properties":{"bbox":{"roads":{"area":1590.14,"pct":4.79}},"city_same":1,"id":"hex:2006:17049"},"type":"Feature"},{"geometry":{"coordinates":[[[-118.33068,33.35402],[-118.33203,33.354],[-118.33271,33.35497],[-118.33206,33.35596],[-118.33146,33.35596],[-118.33138,33.35584],[-118.33086,33.35592],[-118.33078,33.35575],[-118.33058,33.35524],[-118.33038,33.355],[-118.33029,33.3549],[-118.33025,33.35486],[-118.33017,33.35479],[-118.33068,33.35402]]],"type":"Polygon"},"properties":{"bbox":{"roads":{"area":4305.34,"pct":11.71}},"city_same":1,"id":"hex:2006:17050"},"type":"Feature"},{"geometry":{"coordinates":[[[-118.33206,33.35596],[-118.33235,33.35637],[-118.33222,33.35657],[-118.33181,33.35647],[-118.33146,33.35596],[-118.33206,33.35596]]],"type":"Polygon"},"properties":{"bbox":{"roads":{"area":430.23,"pct":12.85}},"city_same":1,"id":"hex:2006:17051"},"type":"Feature"},{"geometry":{"coordinates":[[[-118.32767,33.33257],[-118.32836,33.33354],[-118.3297,33.33352],[-118.33036,33.33254],[-118.32967,33.33157],[-118.32833,33.33159],[-118.32767,33.33257]]],"type":"Polygon"},"properties":{"bbox":{"roads":{"area":421.58,"pct":1.04}},"city_same":1,"id":"hex:2007:17038"},"type":"Feature"},{"geometry":{"coordinates":[[[-118.3277,33.33452],[-118.32839,33.33549],[-118.32973,33.33548],[-118.33039,33.33449],[-118.3297,33.33352],[-118.32836,33.33354],[-118.3277,33.33452]]],"type":"Polygon"},"properties":{"bbox":{"roads":{"area":6.05,"pct":0.01}},"city_same":1,"id":"hex:2007:17039"},"type":"Feature"},{"geometry":{"coordinates":[[[-118.32773,33.33648],[-118.32842,33.33744],[-118.32976,33.33743],[-118.33042,33.33645],[-118.32973,33.33548],[-118.32839,33.33549],[-118.32773,33.33648]]],"type":"Polygon"},"properties":{"bbox":{"roads":{"area":1184.22,"pct":2.92}},"city_same":1,"id":"hex:2007:17040"},"type":"Feature"},{"geometry":{"coordinates":[[[-118.32776,33.33843],[-118.32845,33.3394],[-118.32979,33.33938],[-118.33045,33.3384],[-118.32976,33.33743],[-118.32842,33.33744],[-118.32776,33.33843]]],"type":"Polygon"},"properties":{"bbox":{"roads":{"area":2359.14,"pct":5.81}},"city_same":1,"id":"hex:2007:17041"},"type":"Feature"},{"geometry":{"coordinates":[[[-118.32779,33.34038],[-118.32848,33.34135],[-118.32982,33.34133],[-118.33048,33.34035],[-118.32979,33.33938],[-118.32845,33.3394],[-118.32779,33.34038]]],"type":"Polygon"},"properties":{"bbox":{"roads":{"area":5207.44,"pct":12.83}},"city_same":1,"id":"hex:2007:17042"},"type":"Feature"},{"geometry":{"coordinates":[[[-118.32782,33.34233],[-118.32851,33.3433],[-118.32985,33.34329],[-118.3305,33.3423],[-118.32982,33.34133],[-118.32848,33.34135],[-118.32782,33.34233]]],"type":"Polygon"},"properties":{"bbox":{"roads":{"area":3586.57,"pct":8.84},"sidewalks":{"area":275.63,"pct":0.68}},"city_same":1,"id":"hex:2007:17043"},"type":"Feature"},{"geometry":{"coordinates":[[[-118.32785,33.34428],[-118.32853,33.34525],[-118.32988,33.34524],[-118.33053,33.34426],[-118.32985,33.34329],[-118.32851,33.3433],[-118.32785,33.34428]]],"type":"Polygon"},"properties":{"bbox":{"roads":{"area":4802.66,"pct":11.83}},"city_same":1,"id":"hex:2007:17044"},"type":"Feature"},{"geometry":{"coordinates":[[[-118.32788,33.34624],[-118.32856,33.34721],[-118.32991,33.34719],[-118.33056,33.34621],[-118.32988,33.34524],[-118.32853,33.34525],[-118.32788,33.34624]]],"type":"Polygon"},"properties":{"bbox":{"roads":{"area":4452.7,"pct":10.97}},"city_same":1,"id":"hex:2007:17045"},"type":"Feature"},{"geometry":{"coordinates":[[[-118.32791,33.34819],[-118.32859,33.34916],[-118.32994,33.34914],[-118.33059,33.34816],[-118.32991,33.34719],[-118.32856,33.34721],[-118.32791,33.34819]]],"type":"Polygon"},"properties":{"bbox":{"roads":{"area":1622.38,"pct":4}},"city_same":1,"id":"hex:2007:17046"},"type":"Feature"},{"geometry":{"coordinates":[[[-118.32794,33.35014],[-118.32862,33.35111],[-118.32997,33.3511],[-118.33062,33.35011],[-118.32994,33.34914],[-118.32859,33.34916],[-118.32794,33.35014]]],"type":"Polygon"},"properties":{"bbox":{"roads":{"area":1552.55,"pct":3.82},"sidewalks":{"area":33.42,"pct":0.08}},"city_same":1,"id":"hex:2007:17047"},"type":"Feature"},{"geometry":{"coordinates":[[[-118.32862,33.35111],[-118.32997,33.3511],[-118.33065,33.35206],[-118.33,33.35305],[-118.3289,33.35306],[-118.32886,33.35303],[-118.32848,33.35281],[-118.32833,33.35246],[-118.32833,33.35223],[-118.32834,33.35201],[-118.32854,33.35159],[-118.32856,33.35135],[-118.32857,33.35129],[-118.32856,33.3512],[-118.32862,33.35111]]],"type":"Polygon"},"properties":{"bbox":{"roads":{"area":846.74,"pct":2.28}},"city_same":1,"id":"hex:2007:17048"},"type":"Feature"},{"geometry":{"coordinates":[[[-118.33,33.35305],[-118.33068,33.35402],[-118.33017,33.35479],[-118.33,33.35466],[-118.33,33.35449],[-118.33002,33.35443],[-118.33007,33.35438],[-118.33016,33.35439],[-118.33017,33.3543],[-118.33012,33.35409],[-118.32997,33.354],[-118.3299,33.35397],[-118.32976,33.35401],[-118.32973,33.35393],[-118.3298,33.35385],[-118.32983,33.35381],[-118.32977,33.35371],[-118.32966,33.35357],[-118.32948,33.35344],[-118.32926,33.35326],[-118.32905,33.35318],[-118.3289,33.35306],[-118.33,33.35305]]],"type":"Polygon"},"properties":{"bbox":{"roads":{"area":1336.94,"pct":12.17}},"city_same":1,"id":"hex:2007:17049"},"type":"Feature"},{"geometry":{"coordinates":[[[-118.32576,33.33943],[-118.32645,33.34039],[-118.32779,33.34038],[-118.32845,33.3394],[-118.32776,33.33843],[-118.32642,33.33844],[-118.32576,33.33943]]],"type":"Polygon"},"properties":{"bbox":{"roads":{"area":2150.72,"pct":5.3}},"city_same":1,"id":"hex:2008:17042"},"type":"Feature"},{"geometry":{"coordinates":[[[-118.32579,33.34138],[-118.32648,33.34235],[-118.32782,33.34233],[-118.32848,33.34135],[-118.32779,33.34038],[-118.32645,33.34039],[-118.32579,33.34138]]],"type":"Polygon"},"properties":{"bbox":{"roads":{"area":8357.75,"pct":20.59},"sidewalks":{"area":230.87,"pct":0.57}},"city_same":1,"id":"hex:2008:17043"},"type":"Feature"},{"geometry":{"coordinates":[[[-118.32582,33.34333],[-118.32651,33.3443],[-118.32785,33.34428],[-118.32851,33.3433],[-118.32782,33.34233],[-118.32648,33.34235],[-118.32582,33.34333]]],"type":"Polygon"},"properties":{"bbox":{"parking":{"area":1106.32,"pct":2.73},"roads":{"area":4151.23,"pct":10.23},"sidewalks":{"area":1026.98,"pct":2.53}},"city_same":1,"id":"hex:2008:17044"},"type":"Feature"},{"geometry":{"coordinates":[[[-118.32651,33.3443],[-118.32785,33.34428],[-118.32853,33.34525],[-118.32788,33.34624],[-118.32723,33.34624],[-118.32711,33.34593],[-118.32692,33.34558],[-118.32675,33.34528],[-118.32635,33.34477],[-118.32628,33.34476],[-118.32623,33.34471],[-118.32651,33.3443]]],"type":"Polygon"},"properties":{"bbox":{"roads":{"area":4871.15,"pct":16.47},"sidewalks":{"area":341.19,"pct":1.15}},"city_same":1,"id":"hex:2008:17045"},"type":"Feature"},{"geometry":{"coordinates":[[[-118.32788,33.34624],[-118.32856,33.34721],[-118.32791,33.34819],[-118.32692,33.3482],[-118.32701,33.34802],[-118.32717,33.3477],[-118.32723,33.34748],[-118.32735,33.34707],[-118.32738,33.34671],[-118.32734,33.34652],[-118.32723,33.34624],[-118.32788,33.34624]]],"type":"Polygon"},"properties":{"bbox":{"roads":{"area":1357.15,"pct":6.8},"sidewalks":{"area":341.1,"pct":1.71}},"city_same":1,"id":"hex:2008:17046"},"type":"Feature"},{"geometry":{"coordinates":[[[-118.32591,33.34919],[-118.32635,33.34853],[-118.32636,33.34854],[-118.32677,33.34835],[-118.32689,33.34825],[-118.32692,33.3482],[-118.32791,33.34819],[-118.32859,33.34916],[-118.32794,33.35014],[-118.32776,33.35014],[-118.32736,33.3498],[-118.32705,33.34957],[-118.32674,33.3494],[-118.32649,33.34929],[-118.32616,33.34933],[-118.32606,33.34931],[-118.32601,33.34933],[-118.32591,33.34919]]],"type":"Polygon"},"properties":{"bbox":{"roads":{"area":2282.16,"pct":7.2},"sidewalks":{"area":481.82,"pct":1.52}},"city_same":1,"id":"hex:2008:17047"},"type":"Feature"},{"geometry":{"coordinates":[[[-118.32794,33.35014],[-118.32862,33.35111],[-118.32856,33.3512],[-118.32855,33.35114],[-118.32843,33.35092],[-118.32823,33.35064],[-118.32807,33.35044],[-118.328,33.35037],[-118.32782,33.3502],[-118.32776,33.35014],[-118.32794,33.35014]]],"type":"Polygon"},"properties":{"bbox":{"sidewalks":{"area":16.51,"pct":1.87}},"city_same":1,"id":"hex:2008:17048"},"type":"Feature"},{"geometry":{"coordinates":[[[-118.32376,33.34042],[-118.32445,33.34139],[-118.32579,33.34138],[-118.32645,33.34039],[-118.32576,33.33943],[-118.32442,33.33944],[-118.32376,33.34042]]],"type":"Polygon"},"properties":{"bbox":{"roads":{"area":4616.62,"pct":11.37}},"city_same":1,"id":"hex:2009:17042"},"type":"Feature"},{"geometry":{"coordinates":[[[-118.32379,33.34238],[-118.32445,33.34139],[-118.32579,33.34138],[-118.32648,33.34235],[-118.32582,33.34333],[-118.32486,33.34334],[-118.32482,33.34328],[-118.32446,33.34308],[-118.32424,33.34301],[-118.32379,33.34238]]],"type":"Polygon"},"properties":{"bbox":{"roads":{"area":5416.64,"pct":13.64},"sidewalks":{"area":351.63,"pct":0.89}},"city_same":1,"id":"hex:2009:17043"},"type":"Feature"},{"geometry":{"coordinates":[[[-118.32582,33.34333],[-118.32651,33.3443],[-118.32623,33.34471],[-118.32594,33.34438],[-118.32598,33.34427],[-118.32593,33.3442],[-118.32492,33.34343],[-118.32486,33.34334],[-118.32582,33.34333]]],"type":"Polygon"},"properties":{"bbox":{"roads":{"area":183.39,"pct":2.11},"sidewalks":{"area":72.11,"pct":0.83}},"city_same":1,"id":"hex:2009:17044"},"type":"Feature"},{"geometry":{"coordinates":[[[-118.32393,33.3483],[-118.32413,33.34845],[-118.32442,33.34862],[-118.32472,33.34875],[-118.32476,33.34872],[-118.32518,33.34863],[-118.32536,33.34868],[-118.32568,33.34857],[-118.32592,33.34855],[-118.32592,33.34846],[-118.32629,33.34844],[-118.32629,33.34851],[-118.32635,33.34853],[-118.32591,33.34919],[-118.32518,33.34919],[-118.32509,33.34913],[-118.32501,33.34909],[-118.32497,33.34902],[-118.32483,33.34899],[-118.32464,33.34889],[-118.32452,33.34882],[-118.32432,33.34875],[-118.32418,33.34866],[-118.32393,33.3483]]],"type":"Polygon"},"properties":{"bbox":{"roads":{"area":534.99,"pct":5.89},"sidewalks":{"area":31.15,"pct":0.34}},"city_same":1,"id":"hex:2009:17046"},"type":"Feature"},{"geometry":{"coordinates":[[[-118.32591,33.34919],[-118.32601,33.34933],[-118.326,33.34933],[-118.32596,33.34933],[-118.32588,33.3494],[-118.3258,33.34941],[-118.32572,33.34934],[-118.32563,33.3493],[-118.32544,33.34927],[-118.32532,33.34926],[-118.32521,33.34922],[-118.32518,33.34919],[-118.32591,33.34919]]],"type":"Polygon"},"properties":{"bbox":{"roads":{"area":109.54,"pct":11.76}},"city_same":1,"id":"hex:2009:17047"},"type":"Feature"},{"geometry":{"coordinates":[[[-118.32173,33.33947],[-118.32242,33.34044],[-118.32376,33.34042],[-118.32442,33.33944],[-118.32373,33.33847],[-118.32239,33.33848],[-118.32173,33.33947]]],"type":"Polygon"},"properties":{"bbox":{"roads":{"area":1997.58,"pct":4.92}},"city_same":1,"id":"hex:2010:17042"},"type":"Feature"},{"geometry":{"coordinates":[[[-118.32176,33.34142],[-118.32245,33.34239],[-118.32379,33.34238],[-118.32445,33.34139],[-118.32376,33.34042],[-118.32242,33.34044],[-118.32176,33.34142]]],"type":"Polygon"},"properties":{"bbox":{"roads":{"area":6296.31,"pct":15.51}},"city_same":1,"id":"hex:2010:17043"},"type":"Feature"},{"geometry":{"coordinates":[[[-118.32179,33.34337],[-118.32245,33.34239],[-118.32379,33.34238],[-118.32424,33.34301],[-118.32421,33.343],[-118.32391,33.34299],[-118.32387,33.34301],[-118.32382,33.34311],[-118.32372,33.34323],[-118.32281,33.34392],[-118.32282,33.34395],[-118.32277,33.34399],[-118.32271,33.34395],[-118.32242,33.34404],[-118.32229,33.34408],[-118.32179,33.34337]]],"type":"Polygon"},"properties":{"bbox":{"roads":{"area":2181.25,"pct":8.55},"sidewalks":{"area":538.65,"pct":2.11}},"city_same":1,"id":"hex:2010:17044"},"type":"Feature"},{"geometry":{"coordinates":[[[-118.31973,33.34047],[-118.32042,33.34143],[-118.32176,33.34142],[-118.32242,33.34044],[-118.32173,33.33947],[-118.32039,33.33948],[-118.31973,33.34047]]],"type":"Polygon"},"properties":{"bbox":{"roads":{"area":576.76,"pct":1.42}},"city_same":1,"id":"hex:2011:17042"},"type":"Feature"},{"geometry":{"coordinates":[[[-118.31976,33.34242],[-118.32042,33.34143],[-118.32176,33.34142],[-118.32245,33.34239],[-118.32179,33.34337],[-118.32046,33.34339],[-118.32027,33.34304],[-118.32016,33.34298],[-118.31976,33.34242]]],"type":"Polygon"},"properties":{"bbox":{"roads":{"area":2091.33,"pct":5.17}},"city_same":1,"id":"hex:2011:17043"},"type":"Feature"},{"geometry":{"coordinates":[[[-118.32194,33.34514],[-118.3219,33.34511],[-118.32126,33.34414],[-118.32124,33.34411],[-118.32118,33.34407],[-118.32099,33.34402],[-118.32092,33.344],[-118.32091,33.34393],[-118.32092,33.34385],[-118.3208,33.34375],[-118.32047,33.3434],[-118.32046,33.34339],[-118.32179,33.34337],[-118.32229,33.34408],[-118.322,33.34417],[-118.32182,33.34444],[-118.32206,33.34497],[-118.32194,33.34514]]],"type":"Polygon"},"properties":{"bbox":{"parking":{"area":1524.41,"pct":11.38},"roads":{"area":1397.61,"pct":10.43},"sidewalks":{"area":101.7,"pct":0.76}},"city_same":1,"id":"hex:2011:17044"},"type":"Feature"},{"geometry":{"coordinates":[[[-118.3197,33.33851],[-118.32039,33.33948],[-118.31973,33.34047],[-118.31839,33.34048],[-118.3177,33.33951],[-118.31781,33.33936],[-118.31781,33.33962],[-118.31879,33.33852],[-118.3197,33.33851]]],"type":"Polygon"},"properties":{"bbox":{"roads":{"area":817.84,"pct":2.18}},"city_same":1,"id":"hex:2012:17042"},"type":"Feature"},{"geometry":{"coordinates":[[[-118.31773,33.34146],[-118.31842,33.34243],[-118.31976,33.34242],[-118.32042,33.34143],[-118.31973,33.34047],[-118.31839,33.34048],[-118.31773,33.34146]]],"type":"Polygon"},"properties":{"bbox":{"roads":{"area":767.09,"pct":1.89}},"city_same":1,"id":"hex:2012:17043"},"type":"Feature"},{"geometry":{"coordinates":[[[-118.31842,33.34243],[-118.31976,33.34242],[-118.32016,33.34298],[-118.31979,33.34279],[-118.31927,33.34272],[-118.31882,33.34269],[-118.31856,33.34268],[-118.31838,33.34276],[-118.31813,33.34295],[-118.31796,33.34313],[-118.31842,33.34243]]],"type":"Polygon"},"properties":{"bbox":{"roads":{"area":1336.09,"pct":24.44}},"city_same":1,"id":"hex:2012:17044"},"type":"Feature"},{"geometry":{"coordinates":[[[-118.3177,33.33951],[-118.31636,33.33953],[-118.31567,33.33856],[-118.31633,33.33757],[-118.31767,33.33756],[-118.31781,33.33774],[-118.31781,33.33936],[-118.3177,33.33951]]],"type":"Polygon"},"properties":{"bbox":{"roads":{"area":902.06,"pct":2.51}},"city_same":1,"id":"hex:2013:17041"},"type":"Feature"},{"geometry":{"coordinates":[[[-118.3157,33.34051],[-118.31639,33.34148],[-118.31773,33.34146],[-118.31839,33.34048],[-118.3177,33.33951],[-118.31636,33.33953],[-118.3157,33.34051]]],"type":"Polygon"},"properties":{"bbox":{"roads":{"area":1487.48,"pct":3.66}},"city_same":1,"id":"hex:2013:17042"},"type":"Feature"},{"geometry":{"coordinates":[[[-118.3172,33.34342],[-118.31681,33.34303],[-118.31635,33.34265],[-118.31592,33.34217],[-118.31639,33.34148],[-118.31773,33.34146],[-118.31842,33.34243],[-118.31796,33.34313],[-118.31789,33.34319],[-118.31765,33.34342],[-118.3172,33.34342]]],"type":"Polygon"},"properties":{"bbox":{"roads":{"area":2001.41,"pct":5.95}},"city_same":1,"id":"hex:2013:17043"},"type":"Feature"},{"geometry":{"coordinates":[[[-118.31353,33.32979],[-118.31421,33.33076],[-118.31556,33.33075],[-118.31621,33.32976],[-118.31553,33.32879],[-118.31418,33.32881],[-118.31353,33.32979]]],"type":"Polygon"},"properties":{"bbox":{"roads":{"area":570.4,"pct":1.41}},"city_same":1,"id":"hex:2014:17037"},"type":"Feature"},{"geometry":{"coordinates":[[[-118.31362,33.33565],[-118.3143,33.33662],[-118.31564,33.3366],[-118.3163,33.33562],[-118.31561,33.33465],[-118.31427,33.33467],[-118.31362,33.33565]]],"type":"Polygon"},"properties":{"bbox":{"roads":{"area":1255.37,"pct":3.09}},"city_same":1,"id":"hex:2014:17040"},"type":"Feature"},{"geometry":{"coordinates":[[[-118.31364,33.3376],[-118.31433,33.33857],[-118.31567,33.33856],[-118.31633,33.33757],[-118.31564,33.3366],[-118.3143,33.33662],[-118.31364,33.3376]]],"type":"Polygon"},"properties":{"bbox":{"roads":{"area":1402.07,"pct":3.45}},"city_same":1,"id":"hex:2014:17041"},"type":"Feature"},{"geometry":{"coordinates":[[[-118.31433,33.33857],[-118.31567,33.33856],[-118.31636,33.33953],[-118.3157,33.34051],[-118.31462,33.34052],[-118.3145,33.34036],[-118.3143,33.34006],[-118.31401,33.33963],[-118.31385,33.33929],[-118.31433,33.33857]]],"type":"Polygon"},"properties":{"bbox":{"roads":{"area":1248.3,"pct":3.33}},"city_same":1,"id":"hex:2014:17042"},"type":"Feature"},{"geometry":{"coordinates":[[[-118.3157,33.34051],[-118.31639,33.34148],[-118.31592,33.34217],[-118.31591,33.34215],[-118.31572,33.34194],[-118.3157,33.34191],[-118.31497,33.34102],[-118.31478,33.34072],[-118.31462,33.34052],[-118.3157,33.34051]]],"type":"Polygon"},"properties":{"bbox":{"roads":{"area":1471.3,"pct":10.17}},"city_same":1,"id":"hex:2014:17043"},"type":"Feature"},{"geometry":{"coordinates":[[[-118.31418,33.32881],[-118.31353,33.32979],[-118.31218,33.32981],[-118.31199,33.32954],[-118.31387,33.32836],[-118.31418,33.32881]]],"type":"Polygon"},"properties":{"bbox":{"roads":{"area":470,"pct":2.81}},"city_same":1,"id":"hex:2015:17036"},"type":"Feature"},{"geometry":{"coordinates":[[[-118.31153,33.33079],[-118.31221,33.33176],[-118.31356,33.33174],[-118.31421,33.33076],[-118.31353,33.32979],[-118.31218,33.32981],[-118.31153,33.33079]]],"type":"Polygon"},"properties":{"bbox":{"roads":{"area":1009.91,"pct":2.49}},"city_same":1,"id":"hex:2015:17037"},"type":"Feature"},{"geometry":{"coordinates":[[[-118.31159,33.33469],[-118.31227,33.33566],[-118.31362,33.33565],[-118.31427,33.33467],[-118.31359,33.3337],[-118.31224,33.33371],[-118.31159,33.33469]]],"type":"Polygon"},"properties":{"bbox":{"roads":{"area":3600.5,"pct":8.87}},"city_same":1,"id":"hex:2015:17039"},"type":"Feature"},{"geometry":{"coordinates":[[[-118.31162,33.33665],[-118.3123,33.33762],[-118.31364,33.3376],[-118.3143,33.33662],[-118.31362,33.33565],[-118.31227,33.33566],[-118.31162,33.33665]]],"type":"Polygon"},"properties":{"bbox":{"parking":{"area":1145.38,"pct":2.82},"roads":{"area":2231.23,"pct":5.5}},"city_same":1,"id":"hex:2015:17040"},"type":"Feature"},{"geometry":{"coordinates":[[[-118.3123,33.33762],[-118.31364,33.3376],[-118.31433,33.33857],[-118.31385,33.33929],[-118.31384,33.33925],[-118.31364,33.33893],[-118.31338,33.33858],[-118.31304,33.33818],[-118.31254,33.33778],[-118.3123,33.33762],[-118.3123,33.33762]]],"type":"Polygon"},"properties":{"bbox":{"roads":{"area":1426.4,"pct":9.9}},"city_same":1,"id":"hex:2015:17041"},"type":"Feature"},{"geometry":{"coordinates":[[[-118.31218,33.32981],[-118.31153,33.33079],[-118.31019,33.3308],[-118.30994,33.33046],[-118.31062,33.33046],[-118.31141,33.32991],[-118.31199,33.32954],[-118.31218,33.32981]]],"type":"Polygon"},"properties":{"bbox":{"roads":{"area":687.5,"pct":5.6}},"city_same":1,"id":"hex:2016:17037"},"type":"Feature"},{"geometry":{"coordinates":[[[-118.30953,33.33179],[-118.31021,33.33276],[-118.31156,33.33274],[-118.31221,33.33176],[-118.31153,33.33079],[-118.31019,33.3308],[-118.30953,33.33179]]],"type":"Polygon"},"properties":{"bbox":{"roads":{"area":1996.1,"pct":4.92}},"city_same":1,"id":"hex:2016:17038"},"type":"Feature"},{"geometry":{"coordinates":[[[-118.31021,33.33276],[-118.31156,33.33274],[-118.31224,33.33371],[-118.31159,33.33469],[-118.31024,33.33471],[-118.31024,33.3347],[-118.31024,33.33448],[-118.31009,33.33409],[-118.30997,33.33409],[-118.30996,33.33401],[-118.30967,33.33357],[-118.31021,33.33276]]],"type":"Polygon"},"properties":{"bbox":{"roads":{"area":2454.82,"pct":6.36}},"city_same":1,"id":"hex:2016:17039"},"type":"Feature"},{"geometry":{"coordinates":[[[-118.31024,33.33471],[-118.31159,33.33469],[-118.31227,33.33566],[-118.31162,33.33665],[-118.31085,33.33665],[-118.31072,33.3365],[-118.31063,33.33578],[-118.31055,33.33576],[-118.31035,33.33534],[-118.31035,33.3351],[-118.31024,33.33479],[-118.31024,33.33472],[-118.31024,33.33471]]],"type":"Polygon"},"properties":{"bbox":{"parking":{"area":118.96,"pct":0.42},"roads":{"area":584.16,"pct":2.04}},"city_same":1,"id":"hex:2016:17040"},"type":"Feature"},{"geometry":{"coordinates":[[[-118.31019,33.3308],[-118.30953,33.33179],[-118.30866,33.3318],[-118.30854,33.33149],[-118.30822,33.33098],[-118.30774,33.33048],[-118.30774,33.33048],[-118.30994,33.33046],[-118.31019,33.3308]]],"type":"Polygon"},"properties":{"bbox":{"roads":{"area":947.13,"pct":4.25}},"city_same":1,"id":"hex:2017:17037"},"type":"Feature"},{"geometry":{"coordinates":[[[-118.30953,33.33179],[-118.31021,33.33276],[-118.30967,33.33357],[-118.30967,33.33356],[-118.30933,33.33333],[-118.30922,33.33307],[-118.30924,33.33284],[-118.30867,33.33258],[-118.30886,33.33223],[-118.30871,33.33192],[-118.30866,33.3318],[-118.30953,33.33179]]],"type":"Polygon"},"properties":{"bbox":{"roads":{"area":143.04,"pct":0.89}},"city_same":1,"id":"hex:2017:17038"},"type":"Feature"}],"type":"FeatureCollection","v":2}