{"features":[{"geometry":{"coordinates":[[[-117.80145,34.10135],[-117.79667,34.10135],[-117.79659,34.10276],[-117.79399,34.1021],[-117.79405,34.10306],[-117.79124,34.10305],[-117.79163,34.10394],[-117.79155,34.10671],[-117.79406,34.10672],[-117.79405,34.11028],[-117.79003,34.11027],[-117.78842,34.11004],[-117.7857,34.10943],[-117.78539,34.11022],[-117.78663,34.11056],[-117.78632,34.11134],[-117.785,34.11099],[-117.78409,34.11327],[-117.78556,34.11367],[-117.78574,34.1132],[-117.78855,34.11393],[-117.78968,34.11394],[-117.78968,34.11756],[-117.79187,34.11756],[-117.79188,34.11945],[-117.79161,34.11945],[-117.79157,34.12026],[-117.79114,34.1209],[-117.78963,34.12153],[-117.79132,34.12204],[-117.79298,34.12227],[-117.79296,34.12389],[-117.79427,34.12389],[-117.79427,34.12527],[-117.79381,34.12566],[-117.79207,34.1263],[-117.7912,34.12709],[-117.78771,34.12836],[-117.7877,34.12892],[-117.78554,34.12893],[-117.78397,34.12975],[-117.78383,34.13183],[-117.78408,34.13201],[-117.78287,34.13334],[-117.7809,34.13436],[-117.77674,34.13972],[-117.77422,34.13968],[-117.77364,34.14122],[-117.7725,34.14228],[-117.77248,34.1428],[-117.7729,34.14249],[-117.773,34.14272],[-117.77328,34.14262],[-117.77346,34.14295],[-117.77278,34.14352],[-117.77368,34.14479],[-117.77421,34.14414],[-117.77447,34.14407],[-117.776,34.14456],[-117.77648,34.14509],[-117.77612,34.14584],[-117.77611,34.14702],[-117.77582,34.14817],[-117.77446,34.14941],[-117.77471,34.1505],[-117.76769,34.15051],[-117.76792,34.15274],[-117.76776,34.15724],[-117.76351,34.15716],[-117.75877,34.15727],[-117.75868,34.1636],[-117.75548,34.16357],[-117.7556,34.15711],[-117.75052,34.15706],[-117.75043,34.15107],[-117.7507,34.15081],[-117.75294,34.15081],[-117.7536,34.15036],[-117.75554,34.14684],[-117.7558,34.14568],[-117.75381,34.14549],[-117.75417,34.14368],[-117.75262,34.14374],[-117.75174,34.14326],[-117.75119,34.14259],[-117.75056,34.14288],[-117.75015,34.14333],[-117.75018,34.14113],[-117.74918,34.14112],[-117.74772,34.13977],[-117.74782,34.13687],[-117.7482,34.13634],[-117.74824,34.13454],[-117.74889,34.13317],[-117.74891,34.1322],[-117.75049,34.13226],[-117.75055,34.12908],[-117.75956,34.1292],[-117.75943,34.11996],[-117.75485,34.11993],[-117.75485,34.12069],[-117.75076,34.12069],[-117.75076,34.10964],[-117.75095,34.10863],[-117.7562,34.11037],[-117.75614,34.09945],[-117.75641,34.09865],[-117.75592,34.09835],[-117.75606,34.09793],[-117.75613,34.08997],[-117.75767,34.09009],[-117.75896,34.09064],[-117.76214,34.09284],[-117.76449,34.08962],[-117.76576,34.09283],[-117.76702,34.0944],[-117.76843,34.09523],[-117.76996,34.09566],[-117.77689,34.08624],[-117.78023,34.08805],[-117.7844,34.08917],[-117.78446,34.08941],[-117.78578,34.09061],[-117.79464,34.09099],[-117.79466,34.09211],[-117.79324,34.09211],[-117.79314,34.09323],[-117.79266,34.09387],[-117.7916,34.09395],[-117.79009,34.09484],[-117.78945,34.09498],[-117.78753,34.09488],[-117.78731,34.0954],[-117.78967,34.09608],[-117.7909,34.09595],[-117.79307,34.09535],[-117.79443,34.09531],[-117.79472,34.09542],[-117.79515,34.09593],[-117.79591,34.09602],[-117.79652,34.09745],[-117.79625,34.09778],[-117.79635,34.09831],[-117.79563,34.09883],[-117.79546,34.09942],[-117.79663,34.09944],[-117.79768,34.09992],[-117.79871,34.09948],[-117.80148,34.0994],[-117.80145,34.10135]],[[-117.75126,34.14046],[-117.75186,34.14065],[-117.75337,34.14033],[-117.75407,34.13966],[-117.75518,34.13625],[-117.75509,34.13559],[-117.75376,34.13354],[-117.75339,34.13339],[-117.75281,34.13356],[-117.74865,34.1377],[-117.74847,34.13816],[-117.74871,34.13868],[-117.75126,34.14046]],[[-117.75583,34.14184],[-117.7561,34.14205],[-117.75596,34.14164],[-117.75575,34.14171],[-117.75583,34.14184]],[[-117.75791,34.13332],[-117.7587,34.13267],[-117.75795,34.13216],[-117.75692,34.13336],[-117.7572,34.13366],[-117.75791,34.13332]],[[-117.76541,34.13991],[-117.76527,34.13974],[-117.76472,34.13986],[-117.76481,34.14015],[-117.76541,34.13991]],[[-117.76913,34.13868],[-117.76911,34.13858],[-117.7685,34.1389],[-117.76885,34.13885],[-117.76912,34.13898],[-117.76913,34.13868]],[[-117.77049,34.13952],[-117.77059,34.13935],[-117.77041,34.13929],[-117.77011,34.13968],[-117.77031,34.13972],[-117.77049,34.13952]],[[-117.77032,34.13739],[-117.77079,34.13709],[-117.77045,34.13698],[-117.77032,34.13739]],[[-117.771,34.13646],[-117.77052,34.1364],[-117.77036,34.13673],[-117.77068,34.13692],[-117.77105,34.13661],[-117.771,34.13646]],[[-117.77965,34.13377],[-117.7797,34.13406],[-117.78036,34.13453],[-117.78235,34.13333],[-117.78274,34.1329],[-117.78289,34.13063],[-117.78268,34.1305],[-117.7793,34.13345],[-117.77965,34.13377]]],"type":"Polygon"},"properties":{"type":"boundary"},"type":"Feature"}],"type":"FeatureCollection"}