{"features":[{"geometry":{"coordinates":[[[-118.43002,33.917],[-118.42945,33.91632],[-118.42224,33.91633],[-118.42225,33.91996],[-118.42439,33.91996],[-118.4244,33.92177],[-118.42657,33.92177],[-118.42658,33.92358],[-118.42766,33.92358],[-118.42767,33.9272],[-118.42876,33.9272],[-118.4288,33.93082],[-118.42533,33.93123],[-118.40199,33.93126],[-118.39921,33.93103],[-118.39921,33.93093],[-118.39579,33.93081],[-118.37877,33.93085],[-118.37875,33.92901],[-118.3785,33.92902],[-118.3785,33.92457],[-118.37835,33.92423],[-118.37849,33.92],[-118.37654,33.92001],[-118.37653,33.91719],[-118.37447,33.91719],[-118.37447,33.91639],[-118.37848,33.91638],[-118.37874,33.9151],[-118.37876,33.9019],[-118.39618,33.90186],[-118.39845,33.90197],[-118.41446,33.90188],[-118.41554,33.90173],[-118.41567,33.90197],[-118.41755,33.90197],[-118.41969,33.90619],[-118.42328,33.90492],[-118.42481,33.90805],[-118.42599,33.90993],[-118.42641,33.91049],[-118.4271,33.91088],[-118.42822,33.9103],[-118.42842,33.91023],[-118.42848,33.91038],[-118.42752,33.91082],[-118.42815,33.91261],[-118.43028,33.917],[-118.43002,33.917]]],"type":"Polygon"},"properties":{"type":"boundary"},"type":"Feature"}],"type":"FeatureCollection"}