{"features":[{"geometry":{"coordinates":[[[-123.03512,38.78701],[-123.03502,38.79041],[-123.03068,38.7903],[-123.03038,38.79086],[-123.02552,38.79165],[-123.02588,38.79189],[-123.02638,38.79268],[-123.02665,38.79281],[-123.0283,38.79292],[-123.02911,38.79389],[-123.02587,38.79385],[-123.02588,38.79408],[-123.02515,38.79438],[-123.02468,38.79478],[-123.02499,38.79509],[-123.02504,38.79705],[-123.02627,38.79682],[-123.02854,38.79861],[-123.02685,38.80018],[-123.02561,38.80045],[-123.02638,38.80332],[-123.02685,38.80437],[-123.02705,38.80606],[-123.0273,38.8064],[-123.02993,38.80655],[-123.02986,38.80833],[-123.03025,38.81006],[-123.02847,38.8103],[-123.02905,38.81253],[-123.02935,38.81271],[-123.02969,38.81361],[-123.02972,38.81466],[-123.03045,38.8166],[-123.02883,38.81658],[-123.02793,38.81607],[-123.0269,38.81586],[-123.02567,38.8145],[-123.02535,38.81395],[-123.02541,38.8137],[-123.02503,38.81379],[-123.02526,38.81408],[-123.02493,38.81419],[-123.02511,38.81426],[-123.02514,38.81516],[-123.02408,38.81529],[-123.02306,38.81616],[-123.02285,38.81731],[-123.02423,38.81743],[-123.02412,38.81789],[-123.02382,38.8179],[-123.02348,38.81828],[-123.02312,38.81828],[-123.02256,38.81868],[-123.02187,38.81953],[-123.02158,38.81934],[-123.02144,38.81852],[-123.02169,38.81801],[-123.01932,38.81789],[-123.01941,38.81706],[-123.01107,38.81656],[-123.01111,38.81618],[-123.01064,38.81469],[-123.01005,38.81421],[-123.0097,38.8143],[-123.00861,38.81354],[-123.00928,38.81334],[-123.0086,38.81201],[-123.00925,38.81176],[-123.00819,38.80851],[-123.00872,38.80822],[-123.00858,38.80744],[-123.00688,38.80574],[-123.00662,38.80479],[-123.00752,38.80279],[-123.00849,38.80244],[-123.00667,38.80095],[-123.00629,38.79935],[-123.00666,38.79923],[-123.00664,38.79842],[-123.00615,38.7984],[-123.00613,38.79797],[-123.00891,38.79828],[-123.00956,38.79663],[-123.00941,38.79605],[-123.00538,38.79657],[-123.00521,38.79742],[-123.00481,38.79744],[-123.0046,38.79635],[-123.00502,38.79546],[-123.01063,38.79256],[-123.01202,38.79248],[-123.0118,38.79162],[-123.01285,38.79104],[-123.01464,38.79035],[-123.01675,38.78908],[-123.01306,38.78473],[-123.01092,38.78612],[-123.0091,38.78596],[-123.00491,38.78893],[-123.00519,38.78894],[-123.00523,38.78917],[-123.00552,38.78908],[-123.00605,38.78947],[-123.00554,38.78986],[-123.0043,38.78928],[-123.00147,38.79124],[-122.99542,38.78681],[-122.99528,38.78497],[-122.99384,38.78497],[-122.99358,38.78087],[-122.99319,38.7784],[-122.99261,38.77851],[-122.99074,38.77671],[-122.98814,38.77196],[-122.99115,38.77214],[-122.99343,38.77275],[-122.99265,38.77326],[-122.99411,38.77548],[-122.99352,38.77586],[-122.99652,38.78036],[-123.00294,38.77944],[-123.006,38.77804],[-123.00377,38.77625],[-123.00909,38.77149],[-123.01255,38.77457],[-123.01315,38.77387],[-123.0131,38.7749],[-123.0164,38.77742],[-123.01843,38.77848],[-123.0184,38.77923],[-123.01858,38.77911],[-123.02143,38.78012],[-123.02268,38.78077],[-123.02363,38.78065],[-123.02443,38.78133],[-123.02464,38.7813],[-123.02493,38.78153],[-123.0242,38.78268],[-123.0239,38.78378],[-123.02168,38.78683],[-123.02178,38.7878],[-123.02564,38.78653],[-123.03511,38.78676],[-123.03512,38.78701]]],"type":"Polygon"},"properties":{"type":"boundary"},"type":"Feature"}],"type":"FeatureCollection"}