{"features":[{"geometry":{"coordinates":[[[-118.45604,34.28492],[-118.44948,34.2897],[-118.45,34.29042],[-118.44543,34.29448],[-118.4447,34.29387],[-118.44357,34.29488],[-118.44346,34.29515],[-118.44256,34.29592],[-118.44248,34.29585],[-118.43257,34.30469],[-118.42141,34.29439],[-118.41858,34.29646],[-118.4158,34.29384],[-118.41865,34.29178],[-118.41715,34.29037],[-118.43066,34.28049],[-118.43273,34.2785],[-118.43381,34.27769],[-118.43561,34.27937],[-118.44382,34.27339],[-118.45604,34.28492]]],"type":"Polygon"},"properties":{"type":"boundary"},"type":"Feature"}],"type":"FeatureCollection"}