{"features":[{"geometry":{"coordinates":[[[-118.4545,34.28493],[-118.4551,34.28403],[-118.45604,34.28492],[-118.45502,34.28566],[-118.4545,34.28493]]],"type":"Polygon"},"properties":{"bbox":{"roads":{"area":949.6,"pct":7.4}},"city_same":1,"id":"hex:1952:17527"},"type":"Feature"},{"geometry":{"coordinates":[[[-118.45311,34.283],[-118.45241,34.28203],[-118.45264,34.28169],[-118.454,34.28299],[-118.45311,34.283]]],"type":"Polygon"},"properties":{"bbox":{"parking":{"area":1993.24,"pct":24.17},"roads":{"area":638.03,"pct":7.74}},"city_same":1,"id":"hex:1953:17525"},"type":"Feature"},{"geometry":{"coordinates":[[[-118.4545,34.28493],[-118.45314,34.28495],[-118.45245,34.28398],[-118.45311,34.283],[-118.454,34.28299],[-118.4551,34.28403],[-118.4545,34.28493]]],"type":"Polygon"},"properties":{"bbox":{"roads":{"area":2775.13,"pct":7.4}},"city_same":1,"id":"hex:1953:17526"},"type":"Feature"},{"geometry":{"coordinates":[[[-118.45318,34.2869],[-118.45248,34.28593],[-118.45314,34.28495],[-118.4545,34.28493],[-118.45502,34.28566],[-118.45333,34.2869],[-118.45318,34.2869]]],"type":"Polygon"},"properties":{"bbox":{"roads":{"area":2214.29,"pct":7.04}},"city_same":1,"id":"hex:1953:17527"},"type":"Feature"},{"geometry":{"coordinates":[[[-118.45241,34.28203],[-118.45105,34.28205],[-118.45036,34.28108],[-118.45099,34.28013],[-118.45237,34.28144],[-118.45264,34.28169],[-118.45241,34.28203]]],"type":"Polygon"},"properties":{"bbox":{"parking":{"area":2072.45,"pct":8.52},"roads":{"area":2698.58,"pct":11.1}},"city":{"parking":{"area":2072.45,"pct":8.52},"roads":{"area":2000.97,"pct":8.23}},"id":"hex:1954:17525"},"type":"Feature"},{"geometry":{"coordinates":[[[-118.45039,34.28303],[-118.45109,34.284],[-118.45245,34.28398],[-118.45311,34.283],[-118.45241,34.28203],[-118.45105,34.28205],[-118.45039,34.28303]]],"type":"Polygon"},"properties":{"bbox":{"parking":{"area":3878.81,"pct":9.55},"roads":{"area":5430,"pct":13.38},"sidewalks":{"area":322.55,"pct":0.79}},"city":{"parking":{"area":3878.81,"pct":9.55},"roads":{"area":4600.5,"pct":11.33},"sidewalks":{"area":322.55,"pct":0.79}},"id":"hex:1954:17526"},"type":"Feature"},{"geometry":{"coordinates":[[[-118.45043,34.28498],[-118.45112,34.28595],[-118.45248,34.28593],[-118.45314,34.28495],[-118.45245,34.28398],[-118.45109,34.284],[-118.45043,34.28498]]],"type":"Polygon"},"properties":{"bbox":{"roads":{"area":2212.07,"pct":5.45},"sidewalks":{"area":6.14,"pct":0.02}},"city_same":1,"id":"hex:1954:17527"},"type":"Feature"},{"geometry":{"coordinates":[[[-118.45116,34.2879],[-118.45046,34.28693],[-118.45112,34.28595],[-118.45248,34.28593],[-118.45318,34.2869],[-118.45303,34.28711],[-118.45196,34.28789],[-118.45116,34.2879]]],"type":"Polygon"},"properties":{"bbox":{"roads":{"area":1311.34,"pct":3.41},"sidewalks":{"area":131.41,"pct":0.34}},"city_same":1,"id":"hex:1954:17528"},"type":"Feature"},{"geometry":{"coordinates":[[[-118.45049,34.28888],[-118.45116,34.2879],[-118.45196,34.28789],[-118.45053,34.28893],[-118.45049,34.28888]]],"type":"Polygon"},"properties":{"bbox":{"roads":{"area":488.3,"pct":10.65},"sidewalks":{"area":129.71,"pct":2.83}},"city_same":1,"id":"hex:1954:17529"},"type":"Feature"},{"geometry":{"coordinates":[[[-118.44897,34.27914],[-118.44827,34.27817],[-118.44853,34.27779],[-118.44993,34.27913],[-118.44897,34.27914]]],"type":"Polygon"},"properties":{"bbox":{"roads":{"area":1593.75,"pct":17.18},"sidewalks":{"area":394.05,"pct":4.25}},"city":{"roads":{"area":1530.64,"pct":16.5},"sidewalks":{"area":394.05,"pct":4.25}},"id":"hex:1955:17523"},"type":"Feature"},{"geometry":{"coordinates":[[[-118.45036,34.28108],[-118.449,34.28109],[-118.44831,34.28013],[-118.44897,34.27914],[-118.44993,34.27913],[-118.45099,34.28013],[-118.45036,34.28108]]],"type":"Polygon"},"properties":{"bbox":{"roads":{"area":5506.34,"pct":14.39},"sidewalks":{"area":330.39,"pct":0.86}},"city":{"roads":{"area":2908.92,"pct":7.6},"sidewalks":{"area":330.39,"pct":0.86}},"id":"hex:1955:17524"},"type":"Feature"},{"geometry":{"coordinates":[[[-118.44834,34.28208],[-118.44903,34.28305],[-118.45039,34.28303],[-118.45105,34.28205],[-118.45036,34.28108],[-118.449,34.28109],[-118.44834,34.28208]]],"type":"Polygon"},"properties":{"bbox":{"roads":{"area":5484.02,"pct":13.51}},"city":{"roads":{"area":5176.87,"pct":12.75}},"id":"hex:1955:17525"},"type":"Feature"},{"geometry":{"coordinates":[[[-118.44837,34.28403],[-118.44907,34.285],[-118.45043,34.28498],[-118.45109,34.284],[-118.45039,34.28303],[-118.44903,34.28305],[-118.44837,34.28403]]],"type":"Polygon"},"properties":{"bbox":{"roads":{"area":5813.3,"pct":14.32},"sidewalks":{"area":281.6,"pct":0.69}},"city":{"roads":{"area":4433.09,"pct":10.92},"sidewalks":{"area":281.6,"pct":0.69}},"id":"hex:1955:17526"},"type":"Feature"},{"geometry":{"coordinates":[[[-118.44841,34.28598],[-118.4491,34.28695],[-118.45046,34.28693],[-118.45112,34.28595],[-118.45043,34.28498],[-118.44907,34.285],[-118.44841,34.28598]]],"type":"Polygon"},"properties":{"bbox":{"roads":{"area":2969.23,"pct":7.31},"sidewalks":{"area":806.95,"pct":1.99}},"city_same":1,"id":"hex:1955:17527"},"type":"Feature"},{"geometry":{"coordinates":[[[-118.44844,34.28793],[-118.44914,34.2889],[-118.45049,34.28888],[-118.45116,34.2879],[-118.45046,34.28693],[-118.4491,34.28695],[-118.44844,34.28793]]],"type":"Polygon"},"properties":{"bbox":{"roads":{"area":4836.64,"pct":11.91},"sidewalks":{"area":310.58,"pct":0.77}},"city_same":1,"id":"hex:1955:17528"},"type":"Feature"},{"geometry":{"coordinates":[[[-118.44917,34.29085],[-118.44847,34.28988],[-118.44914,34.2889],[-118.45049,34.28888],[-118.45053,34.28893],[-118.44948,34.2897],[-118.45,34.29042],[-118.44952,34.29085],[-118.44917,34.29085]]],"type":"Polygon"},"properties":{"bbox":{"roads":{"area":5646.57,"pct":26.89},"sidewalks":{"area":407.06,"pct":1.94}},"city":{"roads":{"area":2650.52,"pct":12.62},"sidewalks":{"area":407.06,"pct":1.94}},"id":"hex:1955:17529"},"type":"Feature"},{"geometry":{"coordinates":[[[-118.44917,34.29085],[-118.44952,34.29085],[-118.44864,34.29164],[-118.44917,34.29085]]],"type":"Polygon"},"properties":{"bbox":{"roads":{"area":573.93,"pct":40.31},"sidewalks":{"area":29.19,"pct":2.05}},"city":{"roads":{"area":224.71,"pct":15.78},"sidewalks":{"area":29.19,"pct":2.05}},"id":"hex:1955:17530"},"type":"Feature"},{"geometry":{"coordinates":[[[-118.44827,34.27817],[-118.44691,34.27819],[-118.44622,34.27722],[-118.44688,34.27624],[-118.44689,34.27624],[-118.44853,34.27779],[-118.44827,34.27817]]],"type":"Polygon"},"properties":{"bbox":{"roads":{"area":2660.01,"pct":10.41},"sidewalks":{"area":399.52,"pct":1.56}},"city_same":1,"id":"hex:1956:17523"},"type":"Feature"},{"geometry":{"coordinates":[[[-118.44625,34.27917],[-118.44695,34.28014],[-118.44831,34.28013],[-118.44897,34.27914],[-118.44827,34.27817],[-118.44691,34.27819],[-118.44625,34.27917]]],"type":"Polygon"},"properties":{"bbox":{"roads":{"area":3772.26,"pct":9.29},"sidewalks":{"area":539.73,"pct":1.33}},"city_same":1,"id":"hex:1956:17524"},"type":"Feature"},{"geometry":{"coordinates":[[[-118.44629,34.28113],[-118.44698,34.28209],[-118.44834,34.28208],[-118.449,34.28109],[-118.44831,34.28013],[-118.44695,34.28014],[-118.44629,34.28113]]],"type":"Polygon"},"properties":{"bbox":{"roads":{"area":6736.29,"pct":16.59},"sidewalks":{"area":58.61,"pct":0.14}},"city":{"roads":{"area":3794.06,"pct":9.35},"sidewalks":{"area":58.61,"pct":0.14}},"id":"hex:1956:17525"},"type":"Feature"},{"geometry":{"coordinates":[[[-118.44632,34.28308],[-118.44702,34.28405],[-118.44837,34.28403],[-118.44903,34.28305],[-118.44834,34.28208],[-118.44698,34.28209],[-118.44632,34.28308]]],"type":"Polygon"},"properties":{"bbox":{"roads":{"area":5572.82,"pct":13.73},"sidewalks":{"area":237.88,"pct":0.59}},"city_same":1,"id":"hex:1956:17526"},"type":"Feature"},{"geometry":{"coordinates":[[[-118.44635,34.28503],[-118.44705,34.286],[-118.44841,34.28598],[-118.44907,34.285],[-118.44837,34.28403],[-118.44702,34.28405],[-118.44635,34.28503]]],"type":"Polygon"},"properties":{"bbox":{"roads":{"area":4984.4,"pct":12.28},"sidewalks":{"area":861.73,"pct":2.12}},"city":{"roads":{"area":3509.91,"pct":8.65},"sidewalks":{"area":861.73,"pct":2.12}},"id":"hex:1956:17527"},"type":"Feature"},{"geometry":{"coordinates":[[[-118.44639,34.28698],[-118.44708,34.28795],[-118.44844,34.28793],[-118.4491,34.28695],[-118.44841,34.28598],[-118.44705,34.286],[-118.44639,34.28698]]],"type":"Polygon"},"properties":{"bbox":{"roads":{"area":5026.43,"pct":12.38},"sidewalks":{"area":204.92,"pct":0.5}},"city_same":1,"id":"hex:1956:17528"},"type":"Feature"},{"geometry":{"coordinates":[[[-118.44642,34.28893],[-118.44712,34.2899],[-118.44847,34.28988],[-118.44914,34.2889],[-118.44844,34.28793],[-118.44708,34.28795],[-118.44642,34.28893]]],"type":"Polygon"},"properties":{"bbox":{"parking":{"area":2035.6,"pct":5.01},"roads":{"area":9619.19,"pct":23.7}},"city":{"parking":{"area":2035.6,"pct":5.01},"roads":{"area":3512.58,"pct":8.65}},"id":"hex:1956:17529"},"type":"Feature"},{"geometry":{"coordinates":[[[-118.44715,34.29185],[-118.44645,34.29088],[-118.44712,34.2899],[-118.44847,34.28988],[-118.44917,34.29085],[-118.44864,34.29164],[-118.44844,34.29182],[-118.44842,34.29184],[-118.44715,34.29185]]],"type":"Polygon"},"properties":{"bbox":{"roads":{"area":7278.97,"pct":17.97},"sidewalks":{"area":446.42,"pct":1.1}},"city":{"roads":{"area":2670.99,"pct":6.59},"sidewalks":{"area":446.42,"pct":1.1}},"id":"hex:1956:17530"},"type":"Feature"},{"geometry":{"coordinates":[[[-118.44649,34.29284],[-118.44715,34.29185],[-118.44842,34.29184],[-118.4468,34.29327],[-118.44649,34.29284]]],"type":"Polygon"},"properties":{"bbox":{"roads":{"area":3431.03,"pct":28.08},"sidewalks":{"area":9.73,"pct":0.08}},"city":{"roads":{"area":1141.04,"pct":9.34},"sidewalks":{"area":9.73,"pct":0.08}},"id":"hex:1956:17531"},"type":"Feature"},{"geometry":{"coordinates":[[[-118.44483,34.27529],[-118.44413,34.27432],[-118.4444,34.27392],[-118.44586,34.27527],[-118.44483,34.27529]]],"type":"Polygon"},"properties":{"bbox":{"roads":{"area":607.45,"pct":6.13},"sidewalks":{"area":158.29,"pct":1.6}},"city_same":1,"id":"hex:1957:17521"},"type":"Feature"},{"geometry":{"coordinates":[[[-118.44688,34.27624],[-118.44622,34.27722],[-118.44486,34.27724],[-118.44417,34.27627],[-118.44483,34.27529],[-118.44586,34.27527],[-118.4463,34.27568],[-118.44687,34.27622],[-118.44688,34.27624]]],"type":"Polygon"},"properties":{"bbox":{"parking":{"area":1254.25,"pct":3.21},"roads":{"area":4565.65,"pct":11.7},"sidewalks":{"area":265.37,"pct":0.68}},"city":{"parking":{"area":1254.25,"pct":3.21},"roads":{"area":3110.29,"pct":7.97},"sidewalks":{"area":265.37,"pct":0.68}},"id":"hex:1957:17522"},"type":"Feature"},{"geometry":{"coordinates":[[[-118.4442,34.27822],[-118.4449,34.27919],[-118.44625,34.27917],[-118.44691,34.27819],[-118.44622,34.27722],[-118.44486,34.27724],[-118.4442,34.27822]]],"type":"Polygon"},"properties":{"bbox":{"roads":{"area":6564.78,"pct":16.17}},"city_same":1,"id":"hex:1957:17523"},"type":"Feature"},{"geometry":{"coordinates":[[[-118.44423,34.28017],[-118.44493,34.28114],[-118.44629,34.28113],[-118.44695,34.28014],[-118.44625,34.27917],[-118.4449,34.27919],[-118.44423,34.28017]]],"type":"Polygon"},"properties":{"bbox":{"roads":{"area":4985.39,"pct":12.28}},"city_same":1,"id":"hex:1957:17524"},"type":"Feature"},{"geometry":{"coordinates":[[[-118.44427,34.28213],[-118.44496,34.28309],[-118.44632,34.28308],[-118.44698,34.28209],[-118.44629,34.28113],[-118.44493,34.28114],[-118.44427,34.28213]]],"type":"Polygon"},"properties":{"bbox":{"parking":{"area":311.9,"pct":0.77},"roads":{"area":7711.01,"pct":19},"sidewalks":{"area":77.33,"pct":0.19}},"city":{"parking":{"area":311.9,"pct":0.77},"roads":{"area":4777.13,"pct":11.77},"sidewalks":{"area":77.33,"pct":0.19}},"id":"hex:1957:17525"},"type":"Feature"},{"geometry":{"coordinates":[[[-118.4443,34.28408],[-118.445,34.28505],[-118.44635,34.28503],[-118.44702,34.28405],[-118.44632,34.28308],[-118.44496,34.28309],[-118.4443,34.28408]]],"type":"Polygon"},"properties":{"bbox":{"parking":{"area":1848.9,"pct":4.55},"roads":{"area":5575.24,"pct":13.73},"sidewalks":{"area":364.89,"pct":0.9}},"city_same":1,"id":"hex:1957:17526"},"type":"Feature"},{"geometry":{"coordinates":[[[-118.44433,34.28603],[-118.44503,34.287],[-118.44639,34.28698],[-118.44705,34.286],[-118.44635,34.28503],[-118.445,34.28505],[-118.44433,34.28603]]],"type":"Polygon"},"properties":{"bbox":{"roads":{"area":6956.38,"pct":17.14},"sidewalks":{"area":1101.85,"pct":2.71}},"city":{"roads":{"area":2387.87,"pct":5.88},"sidewalks":{"area":1101.85,"pct":2.71}},"id":"hex:1957:17527"},"type":"Feature"},{"geometry":{"coordinates":[[[-118.44437,34.28798],[-118.44506,34.28895],[-118.44642,34.28893],[-118.44708,34.28795],[-118.44639,34.28698],[-118.44503,34.287],[-118.44437,34.28798]]],"type":"Polygon"},"properties":{"bbox":{"parking":{"area":791.26,"pct":1.95},"roads":{"area":7184.12,"pct":17.7},"sidewalks":{"area":133.69,"pct":0.33}},"city":{"parking":{"area":791.26,"pct":1.95},"roads":{"area":1925.45,"pct":4.74},"sidewalks":{"area":133.69,"pct":0.33}},"id":"hex:1957:17528"},"type":"Feature"},{"geometry":{"coordinates":[[[-118.4444,34.28993],[-118.4451,34.2909],[-118.44645,34.29088],[-118.44712,34.2899],[-118.44642,34.28893],[-118.44506,34.28895],[-118.4444,34.28993]]],"type":"Polygon"},"properties":{"bbox":{"roads":{"area":4323.16,"pct":10.65},"sidewalks":{"area":332.82,"pct":0.82}},"city_same":1,"id":"hex:1957:17529"},"type":"Feature"},{"geometry":{"coordinates":[[[-118.44443,34.29188],[-118.44513,34.29285],[-118.44649,34.29284],[-118.44715,34.29185],[-118.44645,34.29088],[-118.4451,34.2909],[-118.44443,34.29188]]],"type":"Polygon"},"properties":{"bbox":{"roads":{"area":3757.33,"pct":9.26}},"city_same":1,"id":"hex:1957:17530"},"type":"Feature"},{"geometry":{"coordinates":[[[-118.44447,34.29384],[-118.44513,34.29285],[-118.44649,34.29284],[-118.4468,34.29327],[-118.44543,34.29448],[-118.4447,34.29387],[-118.44457,34.29398],[-118.44447,34.29384]]],"type":"Polygon"},"properties":{"bbox":{"roads":{"area":3635.83,"pct":15.89}},"city":{"roads":{"area":1614.1,"pct":7.05}},"id":"hex:1957:17531"},"type":"Feature"},{"geometry":{"coordinates":[[[-118.44413,34.27432],[-118.44278,34.27433],[-118.44269,34.27421],[-118.44381,34.27339],[-118.44382,34.27339],[-118.44383,34.27339],[-118.4444,34.27392],[-118.44413,34.27432]]],"type":"Polygon"},"properties":{"bbox":{"roads":{"area":632.52,"pct":6.73},"sidewalks":{"area":152.36,"pct":1.62}},"city_same":1,"id":"hex:1958:17521"},"type":"Feature"},{"geometry":{"coordinates":[[[-118.44211,34.27532],[-118.44281,34.27629],[-118.44417,34.27627],[-118.44483,34.27529],[-118.44413,34.27432],[-118.44278,34.27433],[-118.44211,34.27532]]],"type":"Polygon"},"properties":{"bbox":{"roads":{"area":4426.08,"pct":10.9}},"city_same":1,"id":"hex:1958:17522"},"type":"Feature"},{"geometry":{"coordinates":[[[-118.44215,34.27727],[-118.44284,34.27824],[-118.4442,34.27822],[-118.44486,34.27724],[-118.44417,34.27627],[-118.44281,34.27629],[-118.44215,34.27727]]],"type":"Polygon"},"properties":{"bbox":{"roads":{"area":4766.56,"pct":11.74}},"city":{"roads":{"area":3266.64,"pct":8.05}},"id":"hex:1958:17523"},"type":"Feature"},{"geometry":{"coordinates":[[[-118.44218,34.27922],[-118.44288,34.28019],[-118.44423,34.28017],[-118.4449,34.27919],[-118.4442,34.27822],[-118.44284,34.27824],[-118.44218,34.27922]]],"type":"Polygon"},"properties":{"bbox":{"parking":{"area":239.97,"pct":0.59},"roads":{"area":7700.53,"pct":18.97},"sidewalks":{"area":31.21,"pct":0.08}},"city_same":1,"id":"hex:1958:17524"},"type":"Feature"},{"geometry":{"coordinates":[[[-118.44221,34.28117],[-118.44291,34.28214],[-118.44427,34.28213],[-118.44493,34.28114],[-118.44423,34.28017],[-118.44288,34.28019],[-118.44221,34.28117]]],"type":"Polygon"},"properties":{"bbox":{"parking":{"area":1759.46,"pct":4.33},"roads":{"area":5888.54,"pct":14.51},"sidewalks":{"area":1307.29,"pct":3.22}},"city_same":1,"id":"hex:1958:17525"},"type":"Feature"},{"geometry":{"coordinates":[[[-118.44225,34.28313],[-118.44294,34.28409],[-118.4443,34.28408],[-118.44496,34.28309],[-118.44427,34.28213],[-118.44291,34.28214],[-118.44225,34.28313]]],"type":"Polygon"},"properties":{"bbox":{"parking":{"area":12802.03,"pct":31.54},"roads":{"area":10184.19,"pct":25.09},"sidewalks":{"area":1579.56,"pct":3.89}},"city":{"parking":{"area":12802.03,"pct":31.54},"roads":{"area":6877.75,"pct":16.94},"sidewalks":{"area":1579.56,"pct":3.89}},"id":"hex:1958:17526"},"type":"Feature"},{"geometry":{"coordinates":[[[-118.44228,34.28508],[-118.44298,34.28605],[-118.44433,34.28603],[-118.445,34.28505],[-118.4443,34.28408],[-118.44294,34.28409],[-118.44228,34.28508]]],"type":"Polygon"},"properties":{"bbox":{"parking":{"area":4010.11,"pct":9.88},"roads":{"area":9988.51,"pct":24.61},"sidewalks":{"area":1370.23,"pct":3.38}},"city":{"parking":{"area":4010.11,"pct":9.88},"roads":{"area":3664.33,"pct":9.03},"sidewalks":{"area":1370.23,"pct":3.38}},"id":"hex:1958:17527"},"type":"Feature"},{"geometry":{"coordinates":[[[-118.44231,34.28703],[-118.44301,34.288],[-118.44437,34.28798],[-118.44503,34.287],[-118.44433,34.28603],[-118.44298,34.28605],[-118.44231,34.28703]]],"type":"Polygon"},"properties":{"bbox":{"roads":{"area":4166.55,"pct":10.26},"sidewalks":{"area":335,"pct":0.83}},"city":{"roads":{"area":2362.03,"pct":5.82},"sidewalks":{"area":335,"pct":0.83}},"id":"hex:1958:17528"},"type":"Feature"},{"geometry":{"coordinates":[[[-118.44235,34.28898],[-118.44304,34.28995],[-118.4444,34.28993],[-118.44506,34.28895],[-118.44437,34.28798],[-118.44301,34.288],[-118.44235,34.28898]]],"type":"Polygon"},"properties":{"bbox":{"roads":{"area":4499.79,"pct":11.08},"sidewalks":{"area":1129.33,"pct":2.78}},"city_same":1,"id":"hex:1958:17529"},"type":"Feature"},{"geometry":{"coordinates":[[[-118.44238,34.29093],[-118.44308,34.2919],[-118.44443,34.29188],[-118.4451,34.2909],[-118.4444,34.28993],[-118.44304,34.28995],[-118.44238,34.29093]]],"type":"Polygon"},"properties":{"bbox":{"roads":{"area":3555.75,"pct":8.76},"sidewalks":{"area":179.13,"pct":0.44}},"city_same":1,"id":"hex:1958:17530"},"type":"Feature"},{"geometry":{"coordinates":[[[-118.44241,34.29288],[-118.44311,34.29385],[-118.44447,34.29384],[-118.44513,34.29285],[-118.44443,34.29188],[-118.44308,34.2919],[-118.44241,34.29288]]],"type":"Polygon"},"properties":{"bbox":{"roads":{"area":2865.75,"pct":7.06}},"city_same":1,"id":"hex:1958:17531"},"type":"Feature"},{"geometry":{"coordinates":[[[-118.44245,34.29484],[-118.44311,34.29385],[-118.44447,34.29384],[-118.44457,34.29398],[-118.44357,34.29488],[-118.44358,34.29501],[-118.44344,34.29513],[-118.44346,34.29515],[-118.44297,34.29557],[-118.44245,34.29484]]],"type":"Polygon"},"properties":{"bbox":{"roads":{"area":698.21,"pct":3.71}},"city_same":1,"id":"hex:1958:17532"},"type":"Feature"},{"geometry":{"coordinates":[[[-118.44278,34.27433],[-118.44211,34.27532],[-118.44116,34.27533],[-118.44269,34.27421],[-118.44278,34.27433]]],"type":"Polygon"},"properties":{"bbox":{"roads":{"area":460.78,"pct":7.46}},"city_same":1,"id":"hex:1959:17521"},"type":"Feature"},{"geometry":{"coordinates":[[[-118.44211,34.27532],[-118.44281,34.27629],[-118.44215,34.27727],[-118.44079,34.27729],[-118.44009,34.27632],[-118.44037,34.2759],[-118.44116,34.27533],[-118.44211,34.27532]]],"type":"Polygon"},"properties":{"bbox":{"roads":{"area":4613.5,"pct":11.7}},"city_same":1,"id":"hex:1959:17522"},"type":"Feature"},{"geometry":{"coordinates":[[[-118.44013,34.27827],[-118.44082,34.27924],[-118.44218,34.27922],[-118.44284,34.27824],[-118.44215,34.27727],[-118.44079,34.27729],[-118.44013,34.27827]]],"type":"Polygon"},"properties":{"bbox":{"roads":{"area":6427.01,"pct":15.83}},"city":{"roads":{"area":5163.18,"pct":12.72}},"id":"hex:1959:17523"},"type":"Feature"},{"geometry":{"coordinates":[[[-118.44016,34.28022],[-118.44086,34.28119],[-118.44221,34.28117],[-118.44288,34.28019],[-118.44218,34.27922],[-118.44082,34.27924],[-118.44016,34.28022]]],"type":"Polygon"},"properties":{"bbox":{"parking":{"area":1876.66,"pct":4.62},"roads":{"area":10070.25,"pct":24.81},"sidewalks":{"area":457.4,"pct":1.13}},"city":{"parking":{"area":1876.66,"pct":4.62},"roads":{"area":9398.72,"pct":23.15},"sidewalks":{"area":457.4,"pct":1.13}},"id":"hex:1959:17524"},"type":"Feature"},{"geometry":{"coordinates":[[[-118.44019,34.28217],[-118.44089,34.28314],[-118.44225,34.28313],[-118.44291,34.28214],[-118.44221,34.28117],[-118.44086,34.28119],[-118.44019,34.28217]]],"type":"Polygon"},"properties":{"bbox":{"parking":{"area":9135.42,"pct":22.5},"roads":{"area":8516.65,"pct":20.98},"sidewalks":{"area":1662.43,"pct":4.1}},"city":{"parking":{"area":9135.42,"pct":22.5},"roads":{"area":6781.84,"pct":16.71},"sidewalks":{"area":1662.43,"pct":4.1}},"id":"hex:1959:17525"},"type":"Feature"},{"geometry":{"coordinates":[[[-118.44023,34.28413],[-118.44092,34.28509],[-118.44228,34.28508],[-118.44294,34.28409],[-118.44225,34.28313],[-118.44089,34.28314],[-118.44023,34.28413]]],"type":"Polygon"},"properties":{"bbox":{"parking":{"area":4018.15,"pct":9.9},"roads":{"area":11708.82,"pct":28.84},"sidewalks":{"area":1239.31,"pct":3.05}},"city":{"parking":{"area":4018.15,"pct":9.9},"roads":{"area":5230.55,"pct":12.88},"sidewalks":{"area":1239.31,"pct":3.05}},"id":"hex:1959:17526"},"type":"Feature"},{"geometry":{"coordinates":[[[-118.44026,34.28608],[-118.44096,34.28705],[-118.44231,34.28703],[-118.44298,34.28605],[-118.44228,34.28508],[-118.44092,34.28509],[-118.44026,34.28608]]],"type":"Polygon"},"properties":{"bbox":{"parking":{"area":514.23,"pct":1.27},"roads":{"area":4284.14,"pct":10.55},"sidewalks":{"area":823.7,"pct":2.03}},"city_same":1,"id":"hex:1959:17527"},"type":"Feature"},{"geometry":{"coordinates":[[[-118.44029,34.28803],[-118.44099,34.289],[-118.44235,34.28898],[-118.44301,34.288],[-118.44231,34.28703],[-118.44096,34.28705],[-118.44029,34.28803]]],"type":"Polygon"},"properties":{"bbox":{"roads":{"area":3936.96,"pct":9.7},"sidewalks":{"area":319.36,"pct":0.79}},"city_same":1,"id":"hex:1959:17528"},"type":"Feature"},{"geometry":{"coordinates":[[[-118.44033,34.28998],[-118.44102,34.29095],[-118.44238,34.29093],[-118.44304,34.28995],[-118.44235,34.28898],[-118.44099,34.289],[-118.44033,34.28998]]],"type":"Polygon"},"properties":{"bbox":{"roads":{"area":3289.72,"pct":8.1}},"city_same":1,"id":"hex:1959:17529"},"type":"Feature"},{"geometry":{"coordinates":[[[-118.44036,34.29193],[-118.44106,34.2929],[-118.44241,34.29288],[-118.44308,34.2919],[-118.44238,34.29093],[-118.44102,34.29095],[-118.44036,34.29193]]],"type":"Polygon"},"properties":{"bbox":{"roads":{"area":3728.41,"pct":9.18}},"city_same":1,"id":"hex:1959:17530"},"type":"Feature"},{"geometry":{"coordinates":[[[-118.44039,34.29388],[-118.44109,34.29485],[-118.44245,34.29484],[-118.44311,34.29385],[-118.44241,34.29288],[-118.44106,34.2929],[-118.44039,34.29388]]],"type":"Polygon"},"properties":{"bbox":{"roads":{"area":2573.1,"pct":6.34}},"city_same":1,"id":"hex:1959:17531"},"type":"Feature"},{"geometry":{"coordinates":[[[-118.44112,34.2968],[-118.44043,34.29584],[-118.44109,34.29485],[-118.44245,34.29484],[-118.44297,34.29557],[-118.44256,34.29592],[-118.44248,34.29585],[-118.44141,34.2968],[-118.44112,34.2968]]],"type":"Polygon"},"properties":{"bbox":{"roads":{"area":2900.14,"pct":9.12}},"city_same":1,"id":"hex:1959:17532"},"type":"Feature"},{"geometry":{"coordinates":[[[-118.44009,34.27632],[-118.4398,34.27632],[-118.44037,34.2759],[-118.44009,34.27632]]],"type":"Polygon"},"properties":{"bbox":{"roads":{"area":52.07,"pct":8.35}},"city_same":1,"id":"hex:1960:17522"},"type":"Feature"},{"geometry":{"coordinates":[[[-118.44009,34.27632],[-118.44079,34.27729],[-118.44013,34.27827],[-118.43877,34.27829],[-118.4382,34.27749],[-118.4398,34.27632],[-118.44009,34.27632]]],"type":"Polygon"},"properties":{"bbox":{"roads":{"area":3864.96,"pct":11.65}},"city_same":1,"id":"hex:1960:17523"},"type":"Feature"},{"geometry":{"coordinates":[[[-118.43811,34.27927],[-118.4388,34.28024],[-118.44016,34.28022],[-118.44082,34.27924],[-118.44013,34.27827],[-118.43877,34.27829],[-118.43811,34.27927]]],"type":"Polygon"},"properties":{"bbox":{"roads":{"area":6413.93,"pct":15.8},"sidewalks":{"area":433.96,"pct":1.07}},"city":{"roads":{"area":5817.39,"pct":14.33},"sidewalks":{"area":433.96,"pct":1.07}},"id":"hex:1960:17524"},"type":"Feature"},{"geometry":{"coordinates":[[[-118.43814,34.28122],[-118.43884,34.28219],[-118.44019,34.28217],[-118.44086,34.28119],[-118.44016,34.28022],[-118.4388,34.28024],[-118.43814,34.28122]]],"type":"Polygon"},"properties":{"bbox":{"parking":{"area":3277.72,"pct":8.07},"roads":{"area":11974.67,"pct":29.5},"sidewalks":{"area":1824.99,"pct":4.5}},"city":{"parking":{"area":3277.72,"pct":8.07},"roads":{"area":6695.07,"pct":16.49},"sidewalks":{"area":1824.99,"pct":4.5}},"id":"hex:1960:17525"},"type":"Feature"},{"geometry":{"coordinates":[[[-118.43817,34.28317],[-118.43887,34.28414],[-118.44023,34.28413],[-118.44089,34.28314],[-118.44019,34.28217],[-118.43884,34.28219],[-118.43817,34.28317]]],"type":"Polygon"},"properties":{"bbox":{"parking":{"area":10025.57,"pct":24.7},"roads":{"area":8685.37,"pct":21.4},"sidewalks":{"area":1514.14,"pct":3.73}},"city":{"parking":{"area":10025.57,"pct":24.7},"roads":{"area":6249.23,"pct":15.39},"sidewalks":{"area":1514.14,"pct":3.73}},"id":"hex:1960:17526"},"type":"Feature"},{"geometry":{"coordinates":[[[-118.43821,34.28513],[-118.4389,34.28609],[-118.44026,34.28608],[-118.44092,34.28509],[-118.44023,34.28413],[-118.43887,34.28414],[-118.43821,34.28513]]],"type":"Polygon"},"properties":{"bbox":{"parking":{"area":2035.46,"pct":5.01},"roads":{"area":7491.7,"pct":18.45},"sidewalks":{"area":1341.46,"pct":3.3}},"city_same":1,"id":"hex:1960:17527"},"type":"Feature"},{"geometry":{"coordinates":[[[-118.43824,34.28708],[-118.43894,34.28804],[-118.44029,34.28803],[-118.44096,34.28705],[-118.44026,34.28608],[-118.4389,34.28609],[-118.43824,34.28708]]],"type":"Polygon"},"properties":{"bbox":{"parking":{"area":236.53,"pct":0.58},"roads":{"area":5009.46,"pct":12.34},"sidewalks":{"area":85.61,"pct":0.21}},"city_same":1,"id":"hex:1960:17528"},"type":"Feature"},{"geometry":{"coordinates":[[[-118.43827,34.28903],[-118.43897,34.29],[-118.44033,34.28998],[-118.44099,34.289],[-118.44029,34.28803],[-118.43894,34.28804],[-118.43827,34.28903]]],"type":"Polygon"},"properties":{"bbox":{"parking":{"area":528.54,"pct":1.3},"roads":{"area":4045.34,"pct":9.97}},"city_same":1,"id":"hex:1960:17529"},"type":"Feature"},{"geometry":{"coordinates":[[[-118.43831,34.29098],[-118.439,34.29195],[-118.44036,34.29193],[-118.44102,34.29095],[-118.44033,34.28998],[-118.43897,34.29],[-118.43831,34.29098]]],"type":"Polygon"},"properties":{"bbox":{"roads":{"area":3210.77,"pct":7.91}},"city_same":1,"id":"hex:1960:17530"},"type":"Feature"},{"geometry":{"coordinates":[[[-118.43834,34.29293],[-118.43904,34.2939],[-118.44039,34.29388],[-118.44106,34.2929],[-118.44036,34.29193],[-118.439,34.29195],[-118.43834,34.29293]]],"type":"Polygon"},"properties":{"bbox":{"roads":{"area":3313.63,"pct":8.16}},"city_same":1,"id":"hex:1960:17531"},"type":"Feature"},{"geometry":{"coordinates":[[[-118.43837,34.29488],[-118.43907,34.29585],[-118.44043,34.29584],[-118.44109,34.29485],[-118.44039,34.29388],[-118.43904,34.2939],[-118.43837,34.29488]]],"type":"Polygon"},"properties":{"bbox":{"roads":{"area":4020.16,"pct":9.9}},"city_same":1,"id":"hex:1960:17532"},"type":"Feature"},{"geometry":{"coordinates":[[[-118.4391,34.2978],[-118.43841,34.29684],[-118.43907,34.29585],[-118.44043,34.29584],[-118.44112,34.2968],[-118.44069,34.29744],[-118.4403,34.29779],[-118.4391,34.2978]]],"type":"Polygon"},"properties":{"bbox":{"roads":{"area":1752.44,"pct":4.35}},"city_same":1,"id":"hex:1960:17533"},"type":"Feature"},{"geometry":{"coordinates":[[[-118.43844,34.29879],[-118.4391,34.2978],[-118.4403,34.29779],[-118.4403,34.2978],[-118.43882,34.29911],[-118.43873,34.29919],[-118.43844,34.29879]]],"type":"Polygon"},"properties":{"bbox":{"roads":{"area":1841.12,"pct":16.28}},"city":{"roads":{"area":1172.07,"pct":10.36}},"id":"hex:1960:17534"},"type":"Feature"},{"geometry":{"coordinates":[[[-118.43877,34.27829],[-118.43811,34.27927],[-118.43675,34.27929],[-118.4364,34.2788],[-118.4382,34.27749],[-118.43877,34.27829]]],"type":"Polygon"},"properties":{"bbox":{"roads":{"area":3939.06,"pct":15.92},"sidewalks":{"area":363.39,"pct":1.47}},"city":{"roads":{"area":2033.78,"pct":8.22},"sidewalks":{"area":363.39,"pct":1.47}},"id":"hex:1961:17523"},"type":"Feature"},{"geometry":{"coordinates":[[[-118.43609,34.28027],[-118.43678,34.28124],[-118.43814,34.28122],[-118.4388,34.28024],[-118.43811,34.27927],[-118.43675,34.27929],[-118.43609,34.28027]]],"type":"Polygon"},"properties":{"bbox":{"roads":{"area":8023.82,"pct":19.77},"sidewalks":{"area":1100.68,"pct":2.71}},"city":{"roads":{"area":2716.04,"pct":6.69},"sidewalks":{"area":1100.68,"pct":2.71}},"id":"hex:1961:17524"},"type":"Feature"},{"geometry":{"coordinates":[[[-118.43612,34.28222],[-118.43682,34.28319],[-118.43817,34.28317],[-118.43884,34.28219],[-118.43814,34.28122],[-118.43678,34.28124],[-118.43612,34.28222]]],"type":"Polygon"},"properties":{"bbox":{"roads":{"area":1594.94,"pct":3.93},"sidewalks":{"area":236.46,"pct":0.58}},"city_same":1,"id":"hex:1961:17525"},"type":"Feature"},{"geometry":{"coordinates":[[[-118.43615,34.28417],[-118.43685,34.28514],[-118.43821,34.28513],[-118.43887,34.28414],[-118.43817,34.28317],[-118.43682,34.28319],[-118.43615,34.28417]]],"type":"Polygon"},"properties":{"bbox":{"parking":{"area":1972.62,"pct":4.86},"roads":{"area":6646.92,"pct":16.37},"sidewalks":{"area":1100.66,"pct":2.71}},"city_same":1,"id":"hex:1961:17526"},"type":"Feature"},{"geometry":{"coordinates":[[[-118.43619,34.28612],[-118.43688,34.28709],[-118.43824,34.28708],[-118.4389,34.28609],[-118.43821,34.28513],[-118.43685,34.28514],[-118.43619,34.28612]]],"type":"Polygon"},"properties":{"bbox":{"parking":{"area":7811.56,"pct":19.24},"roads":{"area":7001.38,"pct":17.25},"sidewalks":{"area":1580.44,"pct":3.89}},"city_same":1,"id":"hex:1961:17527"},"type":"Feature"},{"geometry":{"coordinates":[[[-118.43622,34.28808],[-118.43692,34.28904],[-118.43827,34.28903],[-118.43894,34.28804],[-118.43824,34.28708],[-118.43688,34.28709],[-118.43622,34.28808]]],"type":"Polygon"},"properties":{"bbox":{"roads":{"area":4298.43,"pct":10.59},"sidewalks":{"area":305.17,"pct":0.75}},"city_same":1,"id":"hex:1961:17528"},"type":"Feature"},{"geometry":{"coordinates":[[[-118.43625,34.29003],[-118.43695,34.291],[-118.43831,34.29098],[-118.43897,34.29],[-118.43827,34.28903],[-118.43692,34.28904],[-118.43625,34.29003]]],"type":"Polygon"},"properties":{"bbox":{"roads":{"area":4389.06,"pct":10.81}},"city_same":1,"id":"hex:1961:17529"},"type":"Feature"},{"geometry":{"coordinates":[[[-118.43629,34.29198],[-118.43698,34.29295],[-118.43834,34.29293],[-118.439,34.29195],[-118.43831,34.29098],[-118.43695,34.291],[-118.43629,34.29198]]],"type":"Polygon"},"properties":{"bbox":{"roads":{"area":3442.84,"pct":8.48}},"city_same":1,"id":"hex:1961:17530"},"type":"Feature"},{"geometry":{"coordinates":[[[-118.43632,34.29393],[-118.43702,34.2949],[-118.43837,34.29488],[-118.43904,34.2939],[-118.43834,34.29293],[-118.43698,34.29295],[-118.43632,34.29393]]],"type":"Polygon"},"properties":{"bbox":{"roads":{"area":3286.67,"pct":8.1}},"city_same":1,"id":"hex:1961:17531"},"type":"Feature"},{"geometry":{"coordinates":[[[-118.43635,34.29588],[-118.43705,34.29685],[-118.43841,34.29684],[-118.43907,34.29585],[-118.43837,34.29488],[-118.43702,34.2949],[-118.43635,34.29588]]],"type":"Polygon"},"properties":{"bbox":{"roads":{"area":2443.47,"pct":6.02}},"city_same":1,"id":"hex:1961:17532"},"type":"Feature"},{"geometry":{"coordinates":[[[-118.43639,34.29784],[-118.43708,34.2988],[-118.43844,34.29879],[-118.4391,34.2978],[-118.43841,34.29684],[-118.43705,34.29685],[-118.43639,34.29784]]],"type":"Polygon"},"properties":{"bbox":{"roads":{"area":8135.01,"pct":20.04}},"city":{"roads":{"area":4647.27,"pct":11.45}},"id":"hex:1961:17533"},"type":"Feature"},{"geometry":{"coordinates":[[[-118.43642,34.29979],[-118.43708,34.2988],[-118.43844,34.29879],[-118.43873,34.29919],[-118.43872,34.2992],[-118.43824,34.29963],[-118.43731,34.30045],[-118.43706,34.30068],[-118.43642,34.29979]]],"type":"Polygon"},"properties":{"bbox":{"roads":{"area":2541.82,"pct":10.2}},"city":{"roads":{"area":2350.31,"pct":9.43}},"id":"hex:1961:17534"},"type":"Feature"},{"geometry":{"coordinates":[[[-118.43675,34.27929],[-118.43609,34.28027],[-118.43473,34.28028],[-118.43403,34.27932],[-118.43462,34.27845],[-118.43558,34.27935],[-118.43561,34.27937],[-118.43564,34.27935],[-118.4364,34.2788],[-118.43675,34.27929]]],"type":"Polygon"},"properties":{"bbox":{"roads":{"area":3315.44,"pct":11.27},"sidewalks":{"area":783.01,"pct":2.66}},"city":{"roads":{"area":2248.31,"pct":7.64},"sidewalks":{"area":783.01,"pct":2.66}},"id":"hex:1962:17524"},"type":"Feature"},{"geometry":{"coordinates":[[[-118.43407,34.28127],[-118.43476,34.28224],[-118.43612,34.28222],[-118.43678,34.28124],[-118.43609,34.28027],[-118.43473,34.28028],[-118.43407,34.28127]]],"type":"Polygon"},"properties":{"bbox":{"roads":{"area":3040.71,"pct":7.49},"sidewalks":{"area":654.67,"pct":1.61}},"city_same":1,"id":"hex:1962:17525"},"type":"Feature"},{"geometry":{"coordinates":[[[-118.4341,34.28322],[-118.4348,34.28419],[-118.43615,34.28417],[-118.43682,34.28319],[-118.43612,34.28222],[-118.43476,34.28224],[-118.4341,34.28322]]],"type":"Polygon"},"properties":{"bbox":{"parking":{"area":1932.13,"pct":4.76},"roads":{"area":3536.94,"pct":8.71},"sidewalks":{"area":344.39,"pct":0.85}},"city_same":1,"id":"hex:1962:17526"},"type":"Feature"},{"geometry":{"coordinates":[[[-118.43413,34.28517],[-118.43483,34.28614],[-118.43619,34.28612],[-118.43685,34.28514],[-118.43615,34.28417],[-118.4348,34.28419],[-118.43413,34.28517]]],"type":"Polygon"},"properties":{"bbox":{"parking":{"area":5028.59,"pct":12.39},"roads":{"area":6238.61,"pct":15.37},"sidewalks":{"area":167.83,"pct":0.41}},"city_same":1,"id":"hex:1962:17527"},"type":"Feature"},{"geometry":{"coordinates":[[[-118.43417,34.28712],[-118.43486,34.28809],[-118.43622,34.28808],[-118.43688,34.28709],[-118.43619,34.28612],[-118.43483,34.28614],[-118.43417,34.28712]]],"type":"Polygon"},"properties":{"bbox":{"parking":{"area":1430.43,"pct":3.52},"roads":{"area":6358.44,"pct":15.66},"sidewalks":{"area":892.5,"pct":2.2}},"city_same":1,"id":"hex:1962:17528"},"type":"Feature"},{"geometry":{"coordinates":[[[-118.4342,34.28908],[-118.4349,34.29004],[-118.43625,34.29003],[-118.43692,34.28904],[-118.43622,34.28808],[-118.43486,34.28809],[-118.4342,34.28908]]],"type":"Polygon"},"properties":{"bbox":{"roads":{"area":4242.68,"pct":10.45},"sidewalks":{"area":100.77,"pct":0.25}},"city_same":1,"id":"hex:1962:17529"},"type":"Feature"},{"geometry":{"coordinates":[[[-118.43423,34.29103],[-118.43493,34.292],[-118.43629,34.29198],[-118.43695,34.291],[-118.43625,34.29003],[-118.4349,34.29004],[-118.43423,34.29103]]],"type":"Polygon"},"properties":{"bbox":{"roads":{"area":4629.24,"pct":11.4}},"city_same":1,"id":"hex:1962:17530"},"type":"Feature"},{"geometry":{"coordinates":[[[-118.43427,34.29298],[-118.43496,34.29395],[-118.43632,34.29393],[-118.43698,34.29295],[-118.43629,34.29198],[-118.43493,34.292],[-118.43427,34.29298]]],"type":"Polygon"},"properties":{"bbox":{"roads":{"area":2493.36,"pct":6.14}},"city_same":1,"id":"hex:1962:17531"},"type":"Feature"},{"geometry":{"coordinates":[[[-118.4343,34.29493],[-118.435,34.2959],[-118.43635,34.29588],[-118.43702,34.2949],[-118.43632,34.29393],[-118.43496,34.29395],[-118.4343,34.29493]]],"type":"Polygon"},"properties":{"bbox":{"roads":{"area":3194.68,"pct":7.87}},"city":{"roads":{"area":1832.47,"pct":4.51}},"id":"hex:1962:17532"},"type":"Feature"},{"geometry":{"coordinates":[[[-118.43433,34.29688],[-118.43503,34.29785],[-118.43639,34.29784],[-118.43705,34.29685],[-118.43635,34.29588],[-118.435,34.2959],[-118.43433,34.29688]]],"type":"Polygon"},"properties":{"bbox":{"roads":{"area":6186.81,"pct":15.24}},"city":{"roads":{"area":3089.54,"pct":7.61}},"id":"hex:1962:17533"},"type":"Feature"},{"geometry":{"coordinates":[[[-118.43437,34.29884],[-118.43506,34.2998],[-118.43642,34.29979],[-118.43708,34.2988],[-118.43639,34.29784],[-118.43503,34.29785],[-118.43437,34.29884]]],"type":"Polygon"},"properties":{"bbox":{"roads":{"area":3878.17,"pct":9.55}},"city_same":1,"id":"hex:1962:17534"},"type":"Feature"},{"geometry":{"coordinates":[[[-118.43509,34.30176],[-118.4344,34.30079],[-118.43506,34.2998],[-118.43642,34.29979],[-118.43706,34.30068],[-118.43661,34.30108],[-118.43622,34.30143],[-118.43586,34.30175],[-118.43509,34.30176]]],"type":"Polygon"},"properties":{"bbox":{"roads":{"area":2972.36,"pct":8.05}},"city_same":1,"id":"hex:1962:17535"},"type":"Feature"},{"geometry":{"coordinates":[[[-118.43443,34.30274],[-118.43509,34.30176],[-118.43586,34.30175],[-118.43584,34.30177],[-118.4351,34.30243],[-118.43456,34.30291],[-118.43443,34.30274]]],"type":"Polygon"},"properties":{"bbox":{"roads":{"area":235.29,"pct":4.11}},"city_same":1,"id":"hex:1962:17536"},"type":"Feature"},{"geometry":{"coordinates":[[[-118.43403,34.27932],[-118.43268,34.27933],[-118.43234,34.27886],[-118.43273,34.2785],[-118.43369,34.27779],[-118.43376,34.27774],[-118.43381,34.27769],[-118.43462,34.27845],[-118.43403,34.27932]]],"type":"Polygon"},"properties":{"bbox":{"roads":{"area":1761.72,"pct":7.67},"sidewalks":{"area":113.57,"pct":0.49}},"city_same":1,"id":"hex:1963:17523"},"type":"Feature"},{"geometry":{"coordinates":[[[-118.43201,34.28032],[-118.43271,34.28128],[-118.43407,34.28127],[-118.43473,34.28028],[-118.43403,34.27932],[-118.43268,34.27933],[-118.43201,34.28032]]],"type":"Polygon"},"properties":{"bbox":{"roads":{"area":3193.87,"pct":7.87},"sidewalks":{"area":444.88,"pct":1.1}},"city_same":1,"id":"hex:1963:17524"},"type":"Feature"},{"geometry":{"coordinates":[[[-118.43205,34.28227],[-118.43274,34.28324],[-118.4341,34.28322],[-118.43476,34.28224],[-118.43407,34.28127],[-118.43271,34.28128],[-118.43205,34.28227]]],"type":"Polygon"},"properties":{"bbox":{"parking":{"area":2470.07,"pct":6.08},"roads":{"area":5559.48,"pct":13.7},"sidewalks":{"area":500.57,"pct":1.23}},"city_same":1,"id":"hex:1963:17525"},"type":"Feature"},{"geometry":{"coordinates":[[[-118.43208,34.28422],[-118.43278,34.28519],[-118.43413,34.28517],[-118.4348,34.28419],[-118.4341,34.28322],[-118.43274,34.28324],[-118.43208,34.28422]]],"type":"Polygon"},"properties":{"bbox":{"roads":{"area":3609.77,"pct":8.89}},"city_same":1,"id":"hex:1963:17526"},"type":"Feature"},{"geometry":{"coordinates":[[[-118.43211,34.28617],[-118.43281,34.28714],[-118.43417,34.28712],[-118.43483,34.28614],[-118.43413,34.28517],[-118.43278,34.28519],[-118.43211,34.28617]]],"type":"Polygon"},"properties":{"bbox":{"roads":{"area":3837.56,"pct":9.45}},"city_same":1,"id":"hex:1963:17527"},"type":"Feature"},{"geometry":{"coordinates":[[[-118.43215,34.28812],[-118.43284,34.28909],[-118.4342,34.28908],[-118.43486,34.28809],[-118.43417,34.28712],[-118.43281,34.28714],[-118.43215,34.28812]]],"type":"Polygon"},"properties":{"bbox":{"parking":{"area":330.37,"pct":0.81},"roads":{"area":4775.11,"pct":11.76}},"city_same":1,"id":"hex:1963:17528"},"type":"Feature"},{"geometry":{"coordinates":[[[-118.43218,34.29008],[-118.43288,34.29104],[-118.43423,34.29103],[-118.4349,34.29004],[-118.4342,34.28908],[-118.43284,34.28909],[-118.43218,34.29008]]],"type":"Polygon"},"properties":{"bbox":{"roads":{"area":5544.62,"pct":13.66}},"city_same":1,"id":"hex:1963:17529"},"type":"Feature"},{"geometry":{"coordinates":[[[-118.43221,34.29203],[-118.43291,34.293],[-118.43427,34.29298],[-118.43493,34.292],[-118.43423,34.29103],[-118.43288,34.29104],[-118.43221,34.29203]]],"type":"Polygon"},"properties":{"bbox":{"roads":{"area":3279.69,"pct":8.08}},"city_same":1,"id":"hex:1963:17530"},"type":"Feature"},{"geometry":{"coordinates":[[[-118.43225,34.29398],[-118.43294,34.29495],[-118.4343,34.29493],[-118.43496,34.29395],[-118.43427,34.29298],[-118.43291,34.293],[-118.43225,34.29398]]],"type":"Polygon"},"properties":{"bbox":{"roads":{"area":5429.43,"pct":13.37},"sidewalks":{"area":215.03,"pct":0.53}},"city":{"roads":{"area":2266.15,"pct":5.58},"sidewalks":{"area":215.03,"pct":0.53}},"id":"hex:1963:17531"},"type":"Feature"},{"geometry":{"coordinates":[[[-118.43228,34.29593],[-118.43297,34.2969],[-118.43433,34.29688],[-118.435,34.2959],[-118.4343,34.29493],[-118.43294,34.29495],[-118.43228,34.29593]]],"type":"Polygon"},"properties":{"bbox":{"roads":{"area":3610.81,"pct":8.89}},"city":{"roads":{"area":2969.06,"pct":7.31}},"id":"hex:1963:17532"},"type":"Feature"},{"geometry":{"coordinates":[[[-118.43231,34.29788],[-118.43301,34.29885],[-118.43437,34.29884],[-118.43503,34.29785],[-118.43433,34.29688],[-118.43297,34.2969],[-118.43231,34.29788]]],"type":"Polygon"},"properties":{"bbox":{"roads":{"area":4348.07,"pct":10.71}},"city_same":1,"id":"hex:1963:17533"},"type":"Feature"},{"geometry":{"coordinates":[[[-118.43235,34.29984],[-118.43304,34.3008],[-118.4344,34.30079],[-118.43506,34.2998],[-118.43437,34.29884],[-118.43301,34.29885],[-118.43235,34.29984]]],"type":"Polygon"},"properties":{"bbox":{"roads":{"area":3060.94,"pct":7.54}},"city_same":1,"id":"hex:1963:17534"},"type":"Feature"},{"geometry":{"coordinates":[[[-118.43238,34.30179],[-118.43307,34.30276],[-118.43443,34.30274],[-118.43509,34.30176],[-118.4344,34.30079],[-118.43304,34.3008],[-118.43238,34.30179]]],"type":"Polygon"},"properties":{"bbox":{"roads":{"area":2185.12,"pct":5.38}},"city_same":1,"id":"hex:1963:17535"},"type":"Feature"},{"geometry":{"coordinates":[[[-118.43241,34.30374],[-118.43307,34.30276],[-118.43443,34.30274],[-118.43456,34.30291],[-118.4336,34.30377],[-118.43289,34.3044],[-118.43241,34.30374]]],"type":"Polygon"},"properties":{"bbox":{"roads":{"area":864.27,"pct":4.68}},"city_same":1,"id":"hex:1963:17536"},"type":"Feature"},{"geometry":{"coordinates":[[[-118.43268,34.27933],[-118.43201,34.28032],[-118.43075,34.28033],[-118.43234,34.27886],[-118.43268,34.27933]]],"type":"Polygon"},"properties":{"bbox":{"roads":{"area":709.26,"pct":5.63}},"city_same":1,"id":"hex:1964:17524"},"type":"Feature"},{"geometry":{"coordinates":[[[-118.43201,34.28032],[-118.43271,34.28128],[-118.43205,34.28227],[-118.43069,34.28228],[-118.42999,34.28132],[-118.43044,34.28065],[-118.43066,34.28049],[-118.43062,34.28045],[-118.43075,34.28033],[-118.43201,34.28032]]],"type":"Polygon"},"properties":{"bbox":{"parking":{"area":2.34,"pct":0.01},"roads":{"area":5408.22,"pct":13.39},"sidewalks":{"area":1002.4,"pct":2.48}},"city_same":1,"id":"hex:1964:17525"},"type":"Feature"},{"geometry":{"coordinates":[[[-118.43003,34.28327],[-118.43072,34.28424],[-118.43208,34.28422],[-118.43274,34.28324],[-118.43205,34.28227],[-118.43069,34.28228],[-118.43003,34.28327]]],"type":"Polygon"},"properties":{"bbox":{"roads":{"area":4568.1,"pct":11.25},"sidewalks":{"area":169.4,"pct":0.42}},"city_same":1,"id":"hex:1964:17526"},"type":"Feature"},{"geometry":{"coordinates":[[[-118.43006,34.28522],[-118.43076,34.28619],[-118.43211,34.28617],[-118.43278,34.28519],[-118.43208,34.28422],[-118.43072,34.28424],[-118.43006,34.28522]]],"type":"Polygon"},"properties":{"bbox":{"roads":{"area":2899.34,"pct":7.14}},"city_same":1,"id":"hex:1964:17527"},"type":"Feature"},{"geometry":{"coordinates":[[[-118.43009,34.28717],[-118.43079,34.28814],[-118.43215,34.28812],[-118.43281,34.28714],[-118.43211,34.28617],[-118.43076,34.28619],[-118.43009,34.28717]]],"type":"Polygon"},"properties":{"bbox":{"roads":{"area":3693.55,"pct":9.1}},"city_same":1,"id":"hex:1964:17528"},"type":"Feature"},{"geometry":{"coordinates":[[[-118.43013,34.28912],[-118.43082,34.29009],[-118.43218,34.29008],[-118.43284,34.28909],[-118.43215,34.28812],[-118.43079,34.28814],[-118.43013,34.28912]]],"type":"Polygon"},"properties":{"bbox":{"roads":{"area":3392.89,"pct":8.36}},"city_same":1,"id":"hex:1964:17529"},"type":"Feature"},{"geometry":{"coordinates":[[[-118.43016,34.29108],[-118.43086,34.29204],[-118.43221,34.29203],[-118.43288,34.29104],[-118.43218,34.29008],[-118.43082,34.29009],[-118.43016,34.29108]]],"type":"Polygon"},"properties":{"bbox":{"parking":{"area":2408.77,"pct":5.93},"roads":{"area":7748,"pct":19.09}},"city":{"parking":{"area":2408.77,"pct":5.93},"roads":{"area":6051.11,"pct":14.91}},"id":"hex:1964:17530"},"type":"Feature"},{"geometry":{"coordinates":[[[-118.43019,34.29303],[-118.43089,34.294],[-118.43225,34.29398],[-118.43291,34.293],[-118.43221,34.29203],[-118.43086,34.29204],[-118.43019,34.29303]]],"type":"Polygon"},"properties":{"bbox":{"parking":{"area":1403.15,"pct":3.46},"roads":{"area":5452.36,"pct":13.43},"sidewalks":{"area":352.81,"pct":0.87}},"city":{"parking":{"area":1403.15,"pct":3.46},"roads":{"area":2518.78,"pct":6.2},"sidewalks":{"area":352.81,"pct":0.87}},"id":"hex:1964:17531"},"type":"Feature"},{"geometry":{"coordinates":[[[-118.43023,34.29498],[-118.43092,34.29595],[-118.43228,34.29593],[-118.43294,34.29495],[-118.43225,34.29398],[-118.43089,34.294],[-118.43023,34.29498]]],"type":"Polygon"},"properties":{"bbox":{"parking":{"area":1430.03,"pct":3.52},"roads":{"area":2429.98,"pct":5.99},"sidewalks":{"area":453.38,"pct":1.12}},"city_same":1,"id":"hex:1964:17532"},"type":"Feature"},{"geometry":{"coordinates":[[[-118.43026,34.29693],[-118.43095,34.2979],[-118.43231,34.29788],[-118.43297,34.2969],[-118.43228,34.29593],[-118.43092,34.29595],[-118.43026,34.29693]]],"type":"Polygon"},"properties":{"bbox":{"roads":{"area":3909.64,"pct":9.63}},"city_same":1,"id":"hex:1964:17533"},"type":"Feature"},{"geometry":{"coordinates":[[[-118.43029,34.29888],[-118.43099,34.29985],[-118.43235,34.29984],[-118.43301,34.29885],[-118.43231,34.29788],[-118.43095,34.2979],[-118.43029,34.29888]]],"type":"Polygon"},"properties":{"bbox":{"roads":{"area":3457.63,"pct":8.52}},"city_same":1,"id":"hex:1964:17534"},"type":"Feature"},{"geometry":{"coordinates":[[[-118.43033,34.30084],[-118.43102,34.3018],[-118.43238,34.30179],[-118.43304,34.3008],[-118.43235,34.29984],[-118.43099,34.29985],[-118.43033,34.30084]]],"type":"Polygon"},"properties":{"bbox":{"roads":{"area":3686.01,"pct":9.08}},"city_same":1,"id":"hex:1964:17535"},"type":"Feature"},{"geometry":{"coordinates":[[[-118.43102,34.3018],[-118.43238,34.30179],[-118.43307,34.30276],[-118.43241,34.30374],[-118.43155,34.30375],[-118.43042,34.3027],[-118.43102,34.3018]]],"type":"Polygon"},"properties":{"bbox":{"roads":{"area":2672.34,"pct":7.17}},"city_same":1,"id":"hex:1964:17536"},"type":"Feature"},{"geometry":{"coordinates":[[[-118.43241,34.30374],[-118.43289,34.3044],[-118.43257,34.30469],[-118.43155,34.30375],[-118.43241,34.30374]]],"type":"Polygon"},"properties":{"bbox":{"roads":{"area":721.26,"pct":12.18}},"city_same":1,"id":"hex:1964:17537"},"type":"Feature"},{"geometry":{"coordinates":[[[-118.42999,34.28132],[-118.42953,34.28132],[-118.43044,34.28065],[-118.42999,34.28132]]],"type":"Polygon"},"properties":{"bbox":{"parking":{"area":449.77,"pct":28.44},"roads":{"area":380.02,"pct":24.03}},"city_same":1,"id":"hex:1965:17524"},"type":"Feature"},{"geometry":{"coordinates":[[[-118.42999,34.28132],[-118.43069,34.28228],[-118.43003,34.28327],[-118.42867,34.28328],[-118.42804,34.28241],[-118.42806,34.2824],[-118.42953,34.28132],[-118.42999,34.28132]]],"type":"Polygon"},"properties":{"bbox":{"parking":{"area":179.61,"pct":0.51},"roads":{"area":2494.61,"pct":7.12},"sidewalks":{"area":533.48,"pct":1.52}},"city_same":1,"id":"hex:1965:17525"},"type":"Feature"},{"geometry":{"coordinates":[[[-118.42801,34.28427],[-118.4287,34.28524],[-118.43006,34.28522],[-118.43072,34.28424],[-118.43003,34.28327],[-118.42867,34.28328],[-118.42801,34.28427]]],"type":"Polygon"},"properties":{"bbox":{"roads":{"area":4191.88,"pct":10.33},"sidewalks":{"area":394,"pct":0.97}},"city_same":1,"id":"hex:1965:17526"},"type":"Feature"},{"geometry":{"coordinates":[[[-118.42804,34.28622],[-118.42874,34.28719],[-118.43009,34.28717],[-118.43076,34.28619],[-118.43006,34.28522],[-118.4287,34.28524],[-118.42804,34.28622]]],"type":"Polygon"},"properties":{"bbox":{"roads":{"area":3826.25,"pct":9.43}},"city_same":1,"id":"hex:1965:17527"},"type":"Feature"},{"geometry":{"coordinates":[[[-118.42807,34.28817],[-118.42877,34.28914],[-118.43013,34.28912],[-118.43079,34.28814],[-118.43009,34.28717],[-118.42874,34.28719],[-118.42807,34.28817]]],"type":"Polygon"},"properties":{"bbox":{"roads":{"area":3491.89,"pct":8.6}},"city_same":1,"id":"hex:1965:17528"},"type":"Feature"},{"geometry":{"coordinates":[[[-118.42811,34.29012],[-118.4288,34.29109],[-118.43016,34.29108],[-118.43082,34.29009],[-118.43013,34.28912],[-118.42877,34.28914],[-118.42811,34.29012]]],"type":"Polygon"},"properties":{"bbox":{"roads":{"area":6166.14,"pct":15.19}},"city":{"roads":{"area":2630.66,"pct":6.48}},"id":"hex:1965:17529"},"type":"Feature"},{"geometry":{"coordinates":[[[-118.42814,34.29208],[-118.42883,34.29304],[-118.43019,34.29303],[-118.43086,34.29204],[-118.43016,34.29108],[-118.4288,34.29109],[-118.42814,34.29208]]],"type":"Polygon"},"properties":{"bbox":{"roads":{"area":5955.3,"pct":14.67},"sidewalks":{"area":119.95,"pct":0.3}},"city":{"roads":{"area":5564.78,"pct":13.71},"sidewalks":{"area":119.95,"pct":0.3}},"id":"hex:1965:17530"},"type":"Feature"},{"geometry":{"coordinates":[[[-118.42817,34.29403],[-118.42887,34.295],[-118.43023,34.29498],[-118.43089,34.294],[-118.43019,34.29303],[-118.42883,34.29304],[-118.42817,34.29403]]],"type":"Polygon"},"properties":{"bbox":{"roads":{"area":2583.68,"pct":6.36},"sidewalks":{"area":729.01,"pct":1.8}},"city_same":1,"id":"hex:1965:17531"},"type":"Feature"},{"geometry":{"coordinates":[[[-118.42821,34.29598],[-118.4289,34.29695],[-118.43026,34.29693],[-118.43092,34.29595],[-118.43023,34.29498],[-118.42887,34.295],[-118.42821,34.29598]]],"type":"Polygon"},"properties":{"bbox":{"roads":{"area":3514.63,"pct":8.66},"sidewalks":{"area":138.25,"pct":0.34}},"city_same":1,"id":"hex:1965:17532"},"type":"Feature"},{"geometry":{"coordinates":[[[-118.42824,34.29793],[-118.42893,34.2989],[-118.43029,34.29888],[-118.43095,34.2979],[-118.43026,34.29693],[-118.4289,34.29695],[-118.42824,34.29793]]],"type":"Polygon"},"properties":{"bbox":{"roads":{"area":3143.72,"pct":7.74}},"city_same":1,"id":"hex:1965:17533"},"type":"Feature"},{"geometry":{"coordinates":[[[-118.42827,34.29988],[-118.42897,34.30085],[-118.43033,34.30084],[-118.43099,34.29985],[-118.43029,34.29888],[-118.42893,34.2989],[-118.42827,34.29988]]],"type":"Polygon"},"properties":{"bbox":{"roads":{"area":2257.51,"pct":5.56}},"city_same":1,"id":"hex:1965:17534"},"type":"Feature"},{"geometry":{"coordinates":[[[-118.42897,34.30085],[-118.43033,34.30084],[-118.43102,34.3018],[-118.43042,34.3027],[-118.42876,34.30117],[-118.42897,34.30085]]],"type":"Polygon"},"properties":{"bbox":{"roads":{"area":3020.58,"pct":12.89}},"city_same":1,"id":"hex:1965:17535"},"type":"Feature"},{"geometry":{"coordinates":[[[-118.42867,34.28328],[-118.42801,34.28427],[-118.42665,34.28428],[-118.42625,34.28372],[-118.42804,34.28241],[-118.42867,34.28328]]],"type":"Polygon"},"properties":{"bbox":{"roads":{"area":2380.2,"pct":8.89},"sidewalks":{"area":262.31,"pct":0.98}},"city_same":1,"id":"hex:1966:17526"},"type":"Feature"},{"geometry":{"coordinates":[[[-118.42599,34.28527],[-118.42668,34.28624],[-118.42804,34.28622],[-118.4287,34.28524],[-118.42801,34.28427],[-118.42665,34.28428],[-118.42599,34.28527]]],"type":"Polygon"},"properties":{"bbox":{"parking":{"area":4018.59,"pct":9.9},"roads":{"area":2864.03,"pct":7.06}},"city_same":1,"id":"hex:1966:17527"},"type":"Feature"},{"geometry":{"coordinates":[[[-118.42602,34.28722],[-118.42672,34.28819],[-118.42807,34.28817],[-118.42874,34.28719],[-118.42804,34.28622],[-118.42668,34.28624],[-118.42602,34.28722]]],"type":"Polygon"},"properties":{"bbox":{"parking":{"area":1127.36,"pct":2.78},"roads":{"area":4699.95,"pct":11.58}},"city":{"parking":{"area":1127.36,"pct":2.78},"roads":{"area":2810.41,"pct":6.92}},"id":"hex:1966:17528"},"type":"Feature"},{"geometry":{"coordinates":[[[-118.42605,34.28917],[-118.42675,34.29014],[-118.42811,34.29012],[-118.42877,34.28914],[-118.42807,34.28817],[-118.42672,34.28819],[-118.42605,34.28917]]],"type":"Polygon"},"properties":{"bbox":{"roads":{"area":6106.66,"pct":15.04}},"city":{"roads":{"area":2872.61,"pct":7.08}},"id":"hex:1966:17529"},"type":"Feature"},{"geometry":{"coordinates":[[[-118.42609,34.29112],[-118.42678,34.29209],[-118.42814,34.29208],[-118.4288,34.29109],[-118.42811,34.29012],[-118.42675,34.29014],[-118.42609,34.29112]]],"type":"Polygon"},"properties":{"bbox":{"roads":{"area":3149.36,"pct":7.76}},"city_same":1,"id":"hex:1966:17530"},"type":"Feature"},{"geometry":{"coordinates":[[[-118.42612,34.29308],[-118.42681,34.29404],[-118.42817,34.29403],[-118.42883,34.29304],[-118.42814,34.29208],[-118.42678,34.29209],[-118.42612,34.29308]]],"type":"Polygon"},"properties":{"bbox":{"roads":{"area":6573.03,"pct":16.19},"sidewalks":{"area":194.94,"pct":0.48}},"city_same":1,"id":"hex:1966:17531"},"type":"Feature"},{"geometry":{"coordinates":[[[-118.42615,34.29503],[-118.42685,34.296],[-118.42821,34.29598],[-118.42887,34.295],[-118.42817,34.29403],[-118.42681,34.29404],[-118.42615,34.29503]]],"type":"Polygon"},"properties":{"bbox":{"roads":{"area":3225.89,"pct":7.95}},"city_same":1,"id":"hex:1966:17532"},"type":"Feature"},{"geometry":{"coordinates":[[[-118.42619,34.29698],[-118.42688,34.29795],[-118.42824,34.29793],[-118.4289,34.29695],[-118.42821,34.29598],[-118.42685,34.296],[-118.42619,34.29698]]],"type":"Polygon"},"properties":{"bbox":{"roads":{"area":2825.27,"pct":6.96}},"city_same":1,"id":"hex:1966:17533"},"type":"Feature"},{"geometry":{"coordinates":[[[-118.42688,34.29795],[-118.42824,34.29793],[-118.42893,34.2989],[-118.42827,34.29988],[-118.42738,34.29989],[-118.42626,34.29887],[-118.42688,34.29795]]],"type":"Polygon"},"properties":{"bbox":{"roads":{"area":3404.55,"pct":9.04}},"city_same":1,"id":"hex:1966:17534"},"type":"Feature"},{"geometry":{"coordinates":[[[-118.42827,34.29988],[-118.42897,34.30085],[-118.42876,34.30117],[-118.42738,34.29989],[-118.42827,34.29988]]],"type":"Polygon"},"properties":{"bbox":{"roads":{"area":1282.59,"pct":15.94}},"city_same":1,"id":"hex:1966:17535"},"type":"Feature"},{"geometry":{"coordinates":[[[-118.42665,34.28428],[-118.42599,34.28527],[-118.42463,34.28528],[-118.42445,34.28504],[-118.42532,34.2844],[-118.42588,34.28399],[-118.42625,34.28372],[-118.42665,34.28428]]],"type":"Polygon"},"properties":{"bbox":{"parking":{"area":2733.88,"pct":15.16},"roads":{"area":3081.2,"pct":17.09}},"city_same":1,"id":"hex:1967:17526"},"type":"Feature"},{"geometry":{"coordinates":[[[-118.42397,34.28627],[-118.42466,34.28724],[-118.42602,34.28722],[-118.42668,34.28624],[-118.42599,34.28527],[-118.42463,34.28528],[-118.42397,34.28627]]],"type":"Polygon"},"properties":{"bbox":{"parking":{"area":11672.64,"pct":28.75},"roads":{"area":7180.87,"pct":17.69}},"city":{"parking":{"area":11672.64,"pct":28.75},"roads":{"area":3774.33,"pct":9.3}},"id":"hex:1967:17527"},"type":"Feature"},{"geometry":{"coordinates":[[[-118.424,34.28822],[-118.4247,34.28919],[-118.42605,34.28917],[-118.42672,34.28819],[-118.42602,34.28722],[-118.42466,34.28724],[-118.424,34.28822]]],"type":"Polygon"},"properties":{"bbox":{"parking":{"area":1959.02,"pct":4.83},"roads":{"area":3110.61,"pct":7.66}},"city":{"parking":{"area":1959.02,"pct":4.83},"roads":{"area":2970.87,"pct":7.32}},"id":"hex:1967:17528"},"type":"Feature"},{"geometry":{"coordinates":[[[-118.42403,34.29017],[-118.42473,34.29114],[-118.42609,34.29112],[-118.42675,34.29014],[-118.42605,34.28917],[-118.4247,34.28919],[-118.42403,34.29017]]],"type":"Polygon"},"properties":{"bbox":{"roads":{"area":3101.52,"pct":7.64}},"city_same":1,"id":"hex:1967:17529"},"type":"Feature"},{"geometry":{"coordinates":[[[-118.42407,34.29212],[-118.42476,34.29309],[-118.42612,34.29308],[-118.42678,34.29209],[-118.42609,34.29112],[-118.42473,34.29114],[-118.42407,34.29212]]],"type":"Polygon"},"properties":{"bbox":{"roads":{"area":3593.05,"pct":8.85}},"city_same":1,"id":"hex:1967:17530"},"type":"Feature"},{"geometry":{"coordinates":[[[-118.4241,34.29408],[-118.42479,34.29504],[-118.42615,34.29503],[-118.42681,34.29404],[-118.42612,34.29308],[-118.42476,34.29309],[-118.4241,34.29408]]],"type":"Polygon"},"properties":{"bbox":{"roads":{"area":6005.64,"pct":14.79}},"city_same":1,"id":"hex:1967:17531"},"type":"Feature"},{"geometry":{"coordinates":[[[-118.42413,34.29603],[-118.42483,34.297],[-118.42619,34.29698],[-118.42685,34.296],[-118.42615,34.29503],[-118.42479,34.29504],[-118.42413,34.29603]]],"type":"Polygon"},"properties":{"bbox":{"roads":{"area":3660.66,"pct":9.02}},"city_same":1,"id":"hex:1967:17532"},"type":"Feature"},{"geometry":{"coordinates":[[[-118.42483,34.297],[-118.42619,34.29698],[-118.42688,34.29795],[-118.42626,34.29887],[-118.4246,34.29733],[-118.42483,34.297]]],"type":"Polygon"},"properties":{"bbox":{"roads":{"area":2046.37,"pct":8.52}},"city_same":1,"id":"hex:1967:17533"},"type":"Feature"},{"geometry":{"coordinates":[[[-118.42463,34.28528],[-118.42397,34.28627],[-118.42275,34.28628],[-118.42445,34.28504],[-118.42463,34.28528]]],"type":"Polygon"},"properties":{"bbox":{"parking":{"area":1040.88,"pct":11.15},"roads":{"area":2327.75,"pct":24.94}},"city":{"parking":{"area":1040.88,"pct":11.15},"roads":{"area":1601.47,"pct":17.16}},"id":"hex:1968:17527"},"type":"Feature"},{"geometry":{"coordinates":[[[-118.42397,34.28627],[-118.42466,34.28724],[-118.424,34.28822],[-118.42264,34.28824],[-118.42195,34.28727],[-118.42248,34.28648],[-118.42275,34.28628],[-118.42397,34.28627]]],"type":"Polygon"},"properties":{"bbox":{"parking":{"area":20401.15,"pct":50.43},"roads":{"area":6824.37,"pct":16.87}},"city_same":1,"id":"hex:1968:17528"},"type":"Feature"},{"geometry":{"coordinates":[[[-118.42198,34.28922],[-118.42268,34.29019],[-118.42403,34.29017],[-118.4247,34.28919],[-118.424,34.28822],[-118.42264,34.28824],[-118.42198,34.28922]]],"type":"Polygon"},"properties":{"bbox":{"roads":{"area":1081.99,"pct":2.67}},"city_same":1,"id":"hex:1968:17529"},"type":"Feature"},{"geometry":{"coordinates":[[[-118.42201,34.29117],[-118.42271,34.29214],[-118.42407,34.29212],[-118.42473,34.29114],[-118.42403,34.29017],[-118.42268,34.29019],[-118.42201,34.29117]]],"type":"Polygon"},"properties":{"bbox":{"roads":{"area":2370.67,"pct":5.84}},"city_same":1,"id":"hex:1968:17530"},"type":"Feature"},{"geometry":{"coordinates":[[[-118.42205,34.29312],[-118.42274,34.29409],[-118.4241,34.29408],[-118.42476,34.29309],[-118.42407,34.29212],[-118.42271,34.29214],[-118.42205,34.29312]]],"type":"Polygon"},"properties":{"bbox":{"roads":{"area":2400.34,"pct":5.91}},"city_same":1,"id":"hex:1968:17531"},"type":"Feature"},{"geometry":{"coordinates":[[[-118.42274,34.29409],[-118.4241,34.29408],[-118.42479,34.29504],[-118.42413,34.29603],[-118.4232,34.29604],[-118.42211,34.29503],[-118.42274,34.29409]]],"type":"Polygon"},"properties":{"bbox":{"roads":{"area":4459.2,"pct":11.71}},"city_same":1,"id":"hex:1968:17532"},"type":"Feature"},{"geometry":{"coordinates":[[[-118.42413,34.29603],[-118.42483,34.297],[-118.4246,34.29733],[-118.4232,34.29604],[-118.42413,34.29603]]],"type":"Polygon"},"properties":{"bbox":{"roads":{"area":1649.85,"pct":19.33}},"city_same":1,"id":"hex:1968:17533"},"type":"Feature"},{"geometry":{"coordinates":[[[-118.42195,34.28727],[-118.42139,34.28727],[-118.42248,34.28648],[-118.42195,34.28727]]],"type":"Polygon"},"properties":{"bbox":{"roads":{"area":182.96,"pct":8.31}},"city_same":1,"id":"hex:1969:17527"},"type":"Feature"},{"geometry":{"coordinates":[[[-118.42195,34.28727],[-118.42264,34.28824],[-118.42198,34.28922],[-118.42062,34.28923],[-118.41996,34.28832],[-118.42139,34.28727],[-118.42195,34.28727]]],"type":"Polygon"},"properties":{"bbox":{"parking":{"area":5043.79,"pct":14},"roads":{"area":4242.45,"pct":11.78}},"city_same":1,"id":"hex:1969:17528"},"type":"Feature"},{"geometry":{"coordinates":[[[-118.41996,34.29022],[-118.42066,34.29119],[-118.42201,34.29117],[-118.42268,34.29019],[-118.42198,34.28922],[-118.42062,34.28923],[-118.41996,34.29022]]],"type":"Polygon"},"properties":{"bbox":{"roads":{"area":2454.58,"pct":6.05}},"city_same":1,"id":"hex:1969:17529"},"type":"Feature"},{"geometry":{"coordinates":[[[-118.41999,34.29217],[-118.42069,34.29314],[-118.42205,34.29312],[-118.42271,34.29214],[-118.42201,34.29117],[-118.42066,34.29119],[-118.41999,34.29217]]],"type":"Polygon"},"properties":{"bbox":{"roads":{"area":2789.61,"pct":6.87}},"city_same":1,"id":"hex:1969:17530"},"type":"Feature"},{"geometry":{"coordinates":[[[-118.42003,34.29412],[-118.42069,34.29314],[-118.42205,34.29312],[-118.42274,34.29409],[-118.42211,34.29503],[-118.42141,34.29439],[-118.42063,34.29496],[-118.42003,34.29412]]],"type":"Polygon"},"properties":{"bbox":{"roads":{"area":2258.02,"pct":6.5}},"city_same":1,"id":"hex:1969:17531"},"type":"Feature"},{"geometry":{"coordinates":[[[-118.42062,34.28923],[-118.41996,34.29022],[-118.4186,34.29023],[-118.41817,34.28963],[-118.41996,34.28832],[-118.42062,34.28923]]],"type":"Polygon"},"properties":{"bbox":{"roads":{"area":3172.02,"pct":11.32}},"city_same":1,"id":"hex:1970:17529"},"type":"Feature"},{"geometry":{"coordinates":[[[-118.4186,34.29023],[-118.41996,34.29022],[-118.42066,34.29119],[-118.41999,34.29217],[-118.41863,34.29219],[-118.41845,34.29193],[-118.41864,34.29178],[-118.41865,34.29178],[-118.41865,34.29177],[-118.41799,34.29115],[-118.4186,34.29023]]],"type":"Polygon"},"properties":{"bbox":{"roads":{"area":4234.93,"pct":10.83}},"city_same":1,"id":"hex:1970:17530"},"type":"Feature"},{"geometry":{"coordinates":[[[-118.41797,34.29317],[-118.41867,34.29414],[-118.42003,34.29412],[-118.42069,34.29314],[-118.41999,34.29217],[-118.41863,34.29219],[-118.41797,34.29317]]],"type":"Polygon"},"properties":{"bbox":{"roads":{"area":3202.7,"pct":7.89}},"city_same":1,"id":"hex:1970:17531"},"type":"Feature"},{"geometry":{"coordinates":[[[-118.4187,34.29609],[-118.41801,34.29512],[-118.41867,34.29414],[-118.42003,34.29412],[-118.42063,34.29496],[-118.41909,34.29609],[-118.4187,34.29609]]],"type":"Polygon"},"properties":{"bbox":{"roads":{"area":2358.88,"pct":6.89}},"city_same":1,"id":"hex:1970:17532"},"type":"Feature"},{"geometry":{"coordinates":[[[-118.4186,34.29023],[-118.41799,34.29115],[-118.41718,34.2904],[-118.41715,34.29037],[-118.41718,34.29035],[-118.41817,34.28963],[-118.4186,34.29023]]],"type":"Polygon"},"properties":{"bbox":{"roads":{"area":1868.9,"pct":16.83}},"city_same":1,"id":"hex:1971:17529"},"type":"Feature"},{"geometry":{"coordinates":[[[-118.41863,34.29219],[-118.41797,34.29317],[-118.41671,34.29318],[-118.41845,34.29193],[-118.41863,34.29219]]],"type":"Polygon"},"properties":{"bbox":{"roads":{"area":927.84,"pct":9.46}},"city_same":1,"id":"hex:1971:17530"},"type":"Feature"},{"geometry":{"coordinates":[[[-118.41797,34.29317],[-118.41867,34.29414],[-118.41801,34.29512],[-118.41717,34.29513],[-118.41603,34.29406],[-118.41652,34.29332],[-118.41671,34.29318],[-118.41797,34.29317]]],"type":"Polygon"},"properties":{"bbox":{"roads":{"area":6134.28,"pct":16.64}},"city_same":1,"id":"hex:1971:17531"},"type":"Feature"},{"geometry":{"coordinates":[[[-118.41801,34.29512],[-118.4187,34.29609],[-118.4185,34.29639],[-118.41717,34.29513],[-118.41801,34.29512]]],"type":"Polygon"},"properties":{"bbox":{"roads":{"area":833.55,"pct":11.1}},"city_same":1,"id":"hex:1971:17532"},"type":"Feature"},{"geometry":{"coordinates":[[[-118.41603,34.29406],[-118.4158,34.29384],[-118.41652,34.29332],[-118.41603,34.29406]]],"type":"Polygon"},"properties":{"bbox":{"roads":{"area":243.79,"pct":17.5}},"city_same":1,"id":"hex:1972:17531"},"type":"Feature"}],"type":"FeatureCollection","v":2}