{"features":[{"geometry":{"coordinates":[[[-122.58263,37.96829],[-122.58058,37.9698],[-122.5728,37.96784],[-122.57218,37.96802],[-122.57159,37.96779],[-122.57156,37.96763],[-122.57061,37.9676],[-122.56964,37.96779],[-122.56905,37.96751],[-122.56852,37.96745],[-122.56802,37.96757],[-122.56762,37.96786],[-122.56649,37.96771],[-122.56039,37.96958],[-122.56064,37.97029],[-122.55764,37.97071],[-122.5576,37.97059],[-122.5568,37.97088],[-122.55647,37.97084],[-122.55608,37.97108],[-122.55502,37.97252],[-122.55493,37.97306],[-122.55363,37.97293],[-122.55246,37.97207],[-122.55261,37.97245],[-122.55239,37.97288],[-122.55163,37.97231],[-122.55042,37.97204],[-122.5499,37.97205],[-122.54902,37.97247],[-122.54863,37.97228],[-122.54843,37.97182],[-122.54872,37.97116],[-122.54785,37.97032],[-122.54532,37.96862],[-122.54573,37.9686],[-122.54597,37.96761],[-122.54618,37.96764],[-122.54628,37.96725],[-122.54567,37.96728],[-122.54574,37.9669],[-122.54539,37.96643],[-122.54375,37.96526],[-122.543,37.965],[-122.54248,37.96446],[-122.54119,37.96426],[-122.54079,37.96407],[-122.54075,37.96384],[-122.54172,37.96324],[-122.54271,37.96288],[-122.54291,37.96307],[-122.54278,37.96321],[-122.54322,37.96333],[-122.54421,37.96273],[-122.544,37.96336],[-122.54428,37.96354],[-122.54456,37.96331],[-122.54493,37.96332],[-122.5481,37.95977],[-122.54923,37.96024],[-122.55102,37.96133],[-122.55284,37.9595],[-122.55338,37.95946],[-122.55316,37.95897],[-122.55339,37.95909],[-122.55374,37.95898],[-122.5533,37.95816],[-122.55459,37.95774],[-122.55471,37.95797],[-122.55551,37.95767],[-122.55531,37.95746],[-122.55557,37.95729],[-122.55605,37.95763],[-122.55667,37.95672],[-122.55722,37.95646],[-122.55795,37.95528],[-122.55919,37.9556],[-122.55956,37.95547],[-122.56067,37.95579],[-122.56102,37.95567],[-122.56164,37.95572],[-122.56161,37.95536],[-122.56358,37.95531],[-122.56612,37.95623],[-122.56714,37.95687],[-122.5677,37.95703],[-122.56876,37.95699],[-122.56871,37.95582],[-122.57017,37.95567],[-122.57385,37.95611],[-122.57365,37.95708],[-122.57251,37.95763],[-122.57225,37.9582],[-122.57552,37.95931],[-122.57897,37.96252],[-122.57773,37.96576],[-122.58264,37.96636],[-122.58263,37.96829]],[[-122.55451,37.96339],[-122.55455,37.96338],[-122.55453,37.96335],[-122.5545,37.96333],[-122.55446,37.96333],[-122.55442,37.96333],[-122.55439,37.96335],[-122.55438,37.96338],[-122.55438,37.96341],[-122.55439,37.96343],[-122.55441,37.96345],[-122.55444,37.96346],[-122.55446,37.96345],[-122.55449,37.96344],[-122.5545,37.96343],[-122.55451,37.96341],[-122.55451,37.96339]]],"type":"Polygon"},"properties":{"type":"boundary"},"type":"Feature"}],"type":"FeatureCollection"}