{"features":[{"geometry":{"coordinates":[[[-122.57423,37.96288],[-122.5748,37.96366],[-122.57594,37.96367],[-122.57651,37.96289],[-122.57595,37.96211],[-122.57481,37.9621],[-122.57423,37.96288]]],"type":"Polygon"},"properties":{"bbox":{"roads":{"area":195,"pct":0.75}},"city_same":1,"id":"hex:3582:24259"},"type":"Feature"},{"geometry":{"coordinates":[[[-122.57422,37.966],[-122.57478,37.96679],[-122.57592,37.96679],[-122.57649,37.96601],[-122.57593,37.96523],[-122.57479,37.96522],[-122.57422,37.966]]],"type":"Polygon"},"properties":{"bbox":{"roads":{"area":193.82,"pct":0.75}},"city_same":1,"id":"hex:3582:24261"},"type":"Feature"},{"geometry":{"coordinates":[[[-122.57421,37.96756],[-122.57478,37.96679],[-122.57592,37.96679],[-122.57648,37.96757],[-122.57591,37.96835],[-122.57491,37.96835],[-122.57474,37.96831],[-122.57421,37.96756]]],"type":"Polygon"},"properties":{"bbox":{"roads":{"area":490.69,"pct":1.89}},"city_same":1,"id":"hex:3582:24262"},"type":"Feature"},{"geometry":{"coordinates":[[[-122.57252,37.96366],[-122.57309,37.96444],[-122.57423,37.96444],[-122.5748,37.96366],[-122.57423,37.96288],[-122.5731,37.96288],[-122.57252,37.96366]]],"type":"Polygon"},"properties":{"bbox":{"roads":{"area":1704.45,"pct":6.56}},"city_same":1,"id":"hex:3583:24259"},"type":"Feature"},{"geometry":{"coordinates":[[[-122.57251,37.96522],[-122.57308,37.966],[-122.57422,37.966],[-122.57479,37.96522],[-122.57423,37.96444],[-122.57309,37.96444],[-122.57251,37.96522]]],"type":"Polygon"},"properties":{"bbox":{"roads":{"area":1441.03,"pct":5.55}},"city_same":1,"id":"hex:3583:24260"},"type":"Feature"},{"geometry":{"coordinates":[[[-122.5725,37.96678],[-122.57307,37.96756],[-122.57421,37.96756],[-122.57478,37.96679],[-122.57422,37.966],[-122.57308,37.966],[-122.5725,37.96678]]],"type":"Polygon"},"properties":{"bbox":{"roads":{"area":1557.72,"pct":6}},"city_same":1,"id":"hex:3583:24261"},"type":"Feature"},{"geometry":{"coordinates":[[[-122.57307,37.96756],[-122.57421,37.96756],[-122.57474,37.96831],[-122.57376,37.96805],[-122.57285,37.96785],[-122.57307,37.96756]]],"type":"Polygon"},"properties":{"bbox":{"roads":{"area":191.76,"pct":2.69}},"city_same":1,"id":"hex:3583:24262"},"type":"Feature"},{"geometry":{"coordinates":[[[-122.57255,37.95897],[-122.57141,37.95897],[-122.57085,37.95819],[-122.57142,37.95741],[-122.57256,37.95741],[-122.57268,37.95757],[-122.57264,37.95761],[-122.57251,37.95763],[-122.57225,37.9582],[-122.57253,37.95829],[-122.57295,37.95843],[-122.57255,37.95897]]],"type":"Polygon"},"properties":{"bbox":{"parking":{"area":288.6,"pct":1.32},"roads":{"area":857.93,"pct":3.91}},"city_same":1,"id":"hex:3584:24256"},"type":"Feature"},{"geometry":{"coordinates":[[[-122.57084,37.95975],[-122.5714,37.96053],[-122.57254,37.96053],[-122.57311,37.95975],[-122.57255,37.95897],[-122.57141,37.95897],[-122.57084,37.95975]]],"type":"Polygon"},"properties":{"bbox":{"roads":{"area":1377.3,"pct":5.3}},"city_same":1,"id":"hex:3584:24257"},"type":"Feature"},{"geometry":{"coordinates":[[[-122.57083,37.96131],[-122.57139,37.96209],[-122.57253,37.96209],[-122.57311,37.96132],[-122.57254,37.96053],[-122.5714,37.96053],[-122.57083,37.96131]]],"type":"Polygon"},"properties":{"bbox":{"roads":{"area":468.71,"pct":1.8}},"city_same":1,"id":"hex:3584:24258"},"type":"Feature"},{"geometry":{"coordinates":[[[-122.57082,37.96287],[-122.57138,37.96365],[-122.57252,37.96366],[-122.5731,37.96288],[-122.57253,37.96209],[-122.57139,37.96209],[-122.57082,37.96287]]],"type":"Polygon"},"properties":{"bbox":{"roads":{"area":1989.35,"pct":7.66}},"city_same":1,"id":"hex:3584:24259"},"type":"Feature"},{"geometry":{"coordinates":[[[-122.57081,37.96443],[-122.57137,37.96521],[-122.57251,37.96522],[-122.57309,37.96444],[-122.57252,37.96366],[-122.57138,37.96365],[-122.57081,37.96443]]],"type":"Polygon"},"properties":{"bbox":{"roads":{"area":2967.87,"pct":11.42}},"city_same":1,"id":"hex:3584:24260"},"type":"Feature"},{"geometry":{"coordinates":[[[-122.5708,37.96599],[-122.57137,37.96677],[-122.5725,37.96678],[-122.57308,37.966],[-122.57251,37.96522],[-122.57137,37.96521],[-122.5708,37.96599]]],"type":"Polygon"},"properties":{"bbox":{"roads":{"area":2887.18,"pct":11.11}},"city_same":1,"id":"hex:3584:24261"},"type":"Feature"},{"geometry":{"coordinates":[[[-122.57079,37.96755],[-122.57137,37.96677],[-122.5725,37.96678],[-122.57307,37.96756],[-122.57285,37.96785],[-122.5728,37.96784],[-122.5726,37.96799],[-122.57218,37.96802],[-122.57195,37.96787],[-122.57189,37.96783],[-122.57181,37.96778],[-122.57159,37.96779],[-122.57156,37.96763],[-122.57083,37.9676],[-122.57079,37.96755]]],"type":"Polygon"},"properties":{"bbox":{"roads":{"area":939.57,"pct":5.16}},"city_same":1,"id":"hex:3584:24262"},"type":"Feature"},{"geometry":{"coordinates":[[[-122.56913,37.96052],[-122.56969,37.9613],[-122.57083,37.96131],[-122.5714,37.96053],[-122.57084,37.95975],[-122.5697,37.95974],[-122.56913,37.96052]]],"type":"Polygon"},"properties":{"bbox":{"roads":{"area":606.99,"pct":2.34}},"city_same":1,"id":"hex:3585:24257"},"type":"Feature"},{"geometry":{"coordinates":[[[-122.56912,37.96208],[-122.56968,37.96286],[-122.57082,37.96287],[-122.57139,37.96209],[-122.57083,37.96131],[-122.56969,37.9613],[-122.56912,37.96208]]],"type":"Polygon"},"properties":{"bbox":{"roads":{"area":1492.26,"pct":5.74}},"city_same":1,"id":"hex:3585:24258"},"type":"Feature"},{"geometry":{"coordinates":[[[-122.56911,37.96364],[-122.56967,37.96443],[-122.57081,37.96443],[-122.57138,37.96365],[-122.57082,37.96287],[-122.56968,37.96286],[-122.56911,37.96364]]],"type":"Polygon"},"properties":{"bbox":{"roads":{"area":752.7,"pct":2.9}},"city_same":1,"id":"hex:3585:24259"},"type":"Feature"},{"geometry":{"coordinates":[[[-122.5691,37.9652],[-122.56966,37.96599],[-122.5708,37.96599],[-122.57137,37.96521],[-122.57081,37.96443],[-122.56967,37.96443],[-122.5691,37.9652]]],"type":"Polygon"},"properties":{"bbox":{"roads":{"area":996.17,"pct":3.83}},"city_same":1,"id":"hex:3585:24260"},"type":"Feature"},{"geometry":{"coordinates":[[[-122.56909,37.96676],[-122.56965,37.96755],[-122.57079,37.96755],[-122.57137,37.96677],[-122.5708,37.96599],[-122.56966,37.96599],[-122.56909,37.96676]]],"type":"Polygon"},"properties":{"bbox":{"roads":{"area":3711.98,"pct":14.29}},"city_same":1,"id":"hex:3585:24261"},"type":"Feature"},{"geometry":{"coordinates":[[[-122.56965,37.96755],[-122.57079,37.96755],[-122.57083,37.9676],[-122.57061,37.9676],[-122.56964,37.96779],[-122.56952,37.96773],[-122.56965,37.96755]]],"type":"Polygon"},"properties":{"bbox":{"roads":{"area":40.52,"pct":2.57}},"city_same":1,"id":"hex:3585:24262"},"type":"Feature"},{"geometry":{"coordinates":[[[-122.56915,37.95584],[-122.56871,37.95584],[-122.56871,37.95582],[-122.5692,37.95577],[-122.56915,37.95584]]],"type":"Polygon"},"properties":{"bbox":{"roads":{"area":13.06,"pct":7.45}},"city_same":1,"id":"hex:3586:24254"},"type":"Feature"},{"geometry":{"coordinates":[[[-122.56915,37.95584],[-122.56972,37.95662],[-122.56914,37.9574],[-122.56801,37.95739],[-122.56774,37.95703],[-122.56876,37.95699],[-122.56871,37.95584],[-122.56915,37.95584]]],"type":"Polygon"},"properties":{"bbox":{"roads":{"area":81.4,"pct":0.59}},"city_same":1,"id":"hex:3586:24255"},"type":"Feature"},{"geometry":{"coordinates":[[[-122.56741,37.96129],[-122.56798,37.96208],[-122.56912,37.96208],[-122.56969,37.9613],[-122.56913,37.96052],[-122.56799,37.96052],[-122.56741,37.96129]]],"type":"Polygon"},"properties":{"bbox":{"roads":{"area":1293.74,"pct":4.98}},"city_same":1,"id":"hex:3586:24258"},"type":"Feature"},{"geometry":{"coordinates":[[[-122.5674,37.96286],[-122.56797,37.96364],[-122.56911,37.96364],[-122.56968,37.96286],[-122.56912,37.96208],[-122.56798,37.96208],[-122.5674,37.96286]]],"type":"Polygon"},"properties":{"bbox":{"roads":{"area":1560.02,"pct":6}},"city_same":1,"id":"hex:3586:24259"},"type":"Feature"},{"geometry":{"coordinates":[[[-122.56739,37.96442],[-122.56796,37.9652],[-122.5691,37.9652],[-122.56967,37.96443],[-122.56911,37.96364],[-122.56797,37.96364],[-122.56739,37.96442]]],"type":"Polygon"},"properties":{"bbox":{"roads":{"area":1171.52,"pct":4.51}},"city_same":1,"id":"hex:3586:24260"},"type":"Feature"},{"geometry":{"coordinates":[[[-122.56739,37.96598],[-122.56795,37.96676],[-122.56909,37.96676],[-122.56966,37.96599],[-122.5691,37.9652],[-122.56796,37.9652],[-122.56739,37.96598]]],"type":"Polygon"},"properties":{"bbox":{"roads":{"area":2363,"pct":9.1}},"city_same":1,"id":"hex:3586:24261"},"type":"Feature"},{"geometry":{"coordinates":[[[-122.56738,37.96754],[-122.56795,37.96676],[-122.56909,37.96676],[-122.56965,37.96755],[-122.56952,37.96773],[-122.56905,37.96751],[-122.56852,37.96745],[-122.56802,37.96757],[-122.56762,37.96786],[-122.56761,37.96786],[-122.56738,37.96754]]],"type":"Polygon"},"properties":{"bbox":{"roads":{"area":1300.89,"pct":9.25}},"city_same":1,"id":"hex:3586:24262"},"type":"Feature"},{"geometry":{"coordinates":[[[-122.56801,37.95739],[-122.56743,37.95817],[-122.56629,37.95817],[-122.56573,37.95739],[-122.5663,37.95661],[-122.56673,37.95661],[-122.56714,37.95687],[-122.56739,37.95699],[-122.5677,37.95703],[-122.56774,37.95703],[-122.56801,37.95739]]],"type":"Polygon"},"properties":{"bbox":{"roads":{"area":476.46,"pct":1.99}},"city_same":1,"id":"hex:3587:24255"},"type":"Feature"},{"geometry":{"coordinates":[[[-122.56572,37.95895],[-122.56628,37.95973],[-122.56742,37.95973],[-122.568,37.95896],[-122.56743,37.95817],[-122.56629,37.95817],[-122.56572,37.95895]]],"type":"Polygon"},"properties":{"bbox":{"roads":{"area":63.67,"pct":0.25}},"city_same":1,"id":"hex:3587:24256"},"type":"Feature"},{"geometry":{"coordinates":[[[-122.56571,37.96051],[-122.56627,37.96129],[-122.56741,37.96129],[-122.56799,37.96052],[-122.56742,37.95973],[-122.56628,37.95973],[-122.56571,37.96051]]],"type":"Polygon"},"properties":{"bbox":{"roads":{"area":342.97,"pct":1.32}},"city_same":1,"id":"hex:3587:24257"},"type":"Feature"},{"geometry":{"coordinates":[[[-122.5657,37.96207],[-122.56627,37.96285],[-122.5674,37.96286],[-122.56798,37.96208],[-122.56741,37.96129],[-122.56627,37.96129],[-122.5657,37.96207]]],"type":"Polygon"},"properties":{"bbox":{"roads":{"area":2825.09,"pct":10.87}},"city_same":1,"id":"hex:3587:24258"},"type":"Feature"},{"geometry":{"coordinates":[[[-122.56569,37.96363],[-122.56626,37.96441],[-122.56739,37.96442],[-122.56797,37.96364],[-122.5674,37.96286],[-122.56627,37.96285],[-122.56569,37.96363]]],"type":"Polygon"},"properties":{"bbox":{"roads":{"area":1328.55,"pct":5.11}},"city_same":1,"id":"hex:3587:24259"},"type":"Feature"},{"geometry":{"coordinates":[[[-122.56568,37.96519],[-122.56625,37.96597],[-122.56739,37.96598],[-122.56796,37.9652],[-122.56739,37.96442],[-122.56626,37.96441],[-122.56568,37.96519]]],"type":"Polygon"},"properties":{"bbox":{"roads":{"area":1818.62,"pct":7}},"city_same":1,"id":"hex:3587:24260"},"type":"Feature"},{"geometry":{"coordinates":[[[-122.56567,37.96675],[-122.56624,37.96753],[-122.56738,37.96754],[-122.56795,37.96676],[-122.56739,37.96598],[-122.56625,37.96597],[-122.56567,37.96675]]],"type":"Polygon"},"properties":{"bbox":{"roads":{"area":1216.28,"pct":4.68}},"city_same":1,"id":"hex:3587:24261"},"type":"Feature"},{"geometry":{"coordinates":[[[-122.56624,37.96753],[-122.56738,37.96754],[-122.56761,37.96786],[-122.56735,37.96785],[-122.56678,37.96771],[-122.56649,37.96771],[-122.566,37.96786],[-122.56624,37.96753]]],"type":"Polygon"},"properties":{"bbox":{"roads":{"area":688.39,"pct":22.53}},"city_same":1,"id":"hex:3587:24262"},"type":"Feature"},{"geometry":{"coordinates":[[[-122.5646,37.95582],[-122.56446,37.95563],[-122.56499,37.95582],[-122.5646,37.95582]]],"type":"Polygon"},"properties":{"bbox":{"roads":{"area":28.17,"pct":7.86}},"city_same":1,"id":"hex:3588:24254"},"type":"Feature"},{"geometry":{"coordinates":[[[-122.5663,37.95661],[-122.56573,37.95739],[-122.56459,37.95738],[-122.56403,37.9566],[-122.5646,37.95582],[-122.56499,37.95582],[-122.56523,37.95591],[-122.56544,37.95603],[-122.566,37.95619],[-122.5663,37.95661]]],"type":"Polygon"},"properties":{"bbox":{"roads":{"area":465.27,"pct":1.9}},"city_same":1,"id":"hex:3588:24255"},"type":"Feature"},{"geometry":{"coordinates":[[[-122.564,37.96128],[-122.56456,37.96206],[-122.5657,37.96207],[-122.56627,37.96129],[-122.56571,37.96051],[-122.56457,37.9605],[-122.564,37.96128]]],"type":"Polygon"},"properties":{"bbox":{"roads":{"area":3156.23,"pct":12.15}},"city_same":1,"id":"hex:3588:24258"},"type":"Feature"},{"geometry":{"coordinates":[[[-122.56399,37.96284],[-122.56455,37.96363],[-122.56569,37.96363],[-122.56627,37.96285],[-122.5657,37.96207],[-122.56456,37.96206],[-122.56399,37.96284]]],"type":"Polygon"},"properties":{"bbox":{"roads":{"area":1988.87,"pct":7.66}},"city_same":1,"id":"hex:3588:24259"},"type":"Feature"},{"geometry":{"coordinates":[[[-122.56398,37.9644],[-122.56454,37.96519],[-122.56568,37.96519],[-122.56626,37.96441],[-122.56569,37.96363],[-122.56455,37.96363],[-122.56398,37.9644]]],"type":"Polygon"},"properties":{"bbox":{"roads":{"area":1995.8,"pct":7.68}},"city_same":1,"id":"hex:3588:24260"},"type":"Feature"},{"geometry":{"coordinates":[[[-122.56397,37.96597],[-122.56454,37.96675],[-122.56567,37.96675],[-122.56625,37.96597],[-122.56568,37.96519],[-122.56454,37.96519],[-122.56397,37.96597]]],"type":"Polygon"},"properties":{"bbox":{"roads":{"area":2825.55,"pct":10.88}},"city_same":1,"id":"hex:3588:24261"},"type":"Feature"},{"geometry":{"coordinates":[[[-122.56453,37.96831],[-122.56396,37.96753],[-122.56454,37.96675],[-122.56567,37.96675],[-122.56624,37.96753],[-122.566,37.96786],[-122.56453,37.96831],[-122.56453,37.96831]]],"type":"Polygon"},"properties":{"bbox":{"roads":{"area":351.68,"pct":1.5}},"city_same":1,"id":"hex:3588:24262"},"type":"Feature"},{"geometry":{"coordinates":[[[-122.5646,37.95582],[-122.56403,37.9566],[-122.56289,37.95659],[-122.56232,37.95581],[-122.56268,37.95533],[-122.56358,37.95531],[-122.56446,37.95563],[-122.5646,37.95582]]],"type":"Polygon"},"properties":{"bbox":{"roads":{"area":331.5,"pct":1.56}},"city_same":1,"id":"hex:3589:24254"},"type":"Feature"},{"geometry":{"coordinates":[[[-122.56231,37.95737],[-122.56288,37.95816],[-122.56402,37.95816],[-122.56459,37.95738],[-122.56403,37.9566],[-122.56289,37.95659],[-122.56231,37.95737]]],"type":"Polygon"},"properties":{"bbox":{"roads":{"area":162.36,"pct":0.62}},"city_same":1,"id":"hex:3589:24255"},"type":"Feature"},{"geometry":{"coordinates":[[[-122.5623,37.95893],[-122.56287,37.95972],[-122.56401,37.95972],[-122.56458,37.95894],[-122.56402,37.95816],[-122.56288,37.95816],[-122.5623,37.95893]]],"type":"Polygon"},"properties":{"bbox":{"roads":{"area":1616.64,"pct":6.22}},"city_same":1,"id":"hex:3589:24256"},"type":"Feature"},{"geometry":{"coordinates":[[[-122.5623,37.9605],[-122.56286,37.96128],[-122.564,37.96128],[-122.56457,37.9605],[-122.56401,37.95972],[-122.56287,37.95972],[-122.5623,37.9605]]],"type":"Polygon"},"properties":{"bbox":{"roads":{"area":2458.16,"pct":9.46}},"city_same":1,"id":"hex:3589:24257"},"type":"Feature"},{"geometry":{"coordinates":[[[-122.56229,37.96206],[-122.56285,37.96284],[-122.56399,37.96284],[-122.56456,37.96206],[-122.564,37.96128],[-122.56286,37.96128],[-122.56229,37.96206]]],"type":"Polygon"},"properties":{"bbox":{"roads":{"area":1591.67,"pct":6.13}},"city_same":1,"id":"hex:3589:24258"},"type":"Feature"},{"geometry":{"coordinates":[[[-122.56228,37.96362],[-122.56284,37.9644],[-122.56398,37.9644],[-122.56455,37.96363],[-122.56399,37.96284],[-122.56285,37.96284],[-122.56228,37.96362]]],"type":"Polygon"},"properties":{"bbox":{"roads":{"area":1670.1,"pct":6.43}},"city_same":1,"id":"hex:3589:24259"},"type":"Feature"},{"geometry":{"coordinates":[[[-122.56227,37.96518],[-122.56283,37.96596],[-122.56397,37.96597],[-122.56454,37.96519],[-122.56398,37.9644],[-122.56284,37.9644],[-122.56227,37.96518]]],"type":"Polygon"},"properties":{"bbox":{"roads":{"area":1959.9,"pct":7.54}},"city_same":1,"id":"hex:3589:24260"},"type":"Feature"},{"geometry":{"coordinates":[[[-122.56226,37.96674],[-122.56282,37.96752],[-122.56396,37.96753],[-122.56454,37.96675],[-122.56397,37.96597],[-122.56283,37.96596],[-122.56226,37.96674]]],"type":"Polygon"},"properties":{"bbox":{"roads":{"area":2056.07,"pct":7.91}},"city_same":1,"id":"hex:3589:24261"},"type":"Feature"},{"geometry":{"coordinates":[[[-122.56225,37.9683],[-122.56282,37.96752],[-122.56396,37.96753],[-122.56453,37.96831],[-122.56453,37.96831],[-122.56267,37.96888],[-122.56225,37.9683]]],"type":"Polygon"},"properties":{"bbox":{"roads":{"area":227.27,"pct":1.17}},"city_same":1,"id":"hex:3589:24262"},"type":"Feature"},{"geometry":{"coordinates":[[[-122.56232,37.95581],[-122.56118,37.95581],[-122.56109,37.95568],[-122.56144,37.95574],[-122.56164,37.95572],[-122.56161,37.95536],[-122.56268,37.95533],[-122.56232,37.95581]]],"type":"Polygon"},"properties":{"bbox":{"roads":{"area":360.89,"pct":8.29}},"city_same":1,"id":"hex:3590:24254"},"type":"Feature"},{"geometry":{"coordinates":[[[-122.56061,37.95659],[-122.56118,37.95737],[-122.56231,37.95737],[-122.56289,37.95659],[-122.56232,37.95581],[-122.56118,37.95581],[-122.56061,37.95659]]],"type":"Polygon"},"properties":{"bbox":{"roads":{"area":4,"pct":0.02}},"city_same":1,"id":"hex:3590:24255"},"type":"Feature"},{"geometry":{"coordinates":[[[-122.5606,37.95815],[-122.56117,37.95893],[-122.5623,37.95893],[-122.56288,37.95816],[-122.56231,37.95737],[-122.56118,37.95737],[-122.5606,37.95815]]],"type":"Polygon"},"properties":{"bbox":{"roads":{"area":930.47,"pct":3.58}},"city_same":1,"id":"hex:3590:24256"},"type":"Feature"},{"geometry":{"coordinates":[[[-122.56059,37.95971],[-122.56116,37.96049],[-122.5623,37.9605],[-122.56287,37.95972],[-122.5623,37.95893],[-122.56117,37.95893],[-122.56059,37.95971]]],"type":"Polygon"},"properties":{"bbox":{"roads":{"area":1110.43,"pct":4.27}},"city_same":1,"id":"hex:3590:24257"},"type":"Feature"},{"geometry":{"coordinates":[[[-122.56058,37.96127],[-122.56115,37.96205],[-122.56229,37.96206],[-122.56286,37.96128],[-122.5623,37.9605],[-122.56116,37.96049],[-122.56058,37.96127]]],"type":"Polygon"},"properties":{"bbox":{"roads":{"area":1519.2,"pct":5.85}},"city_same":1,"id":"hex:3590:24258"},"type":"Feature"},{"geometry":{"coordinates":[[[-122.56057,37.96283],[-122.56114,37.96361],[-122.56228,37.96362],[-122.56285,37.96284],[-122.56229,37.96206],[-122.56115,37.96205],[-122.56057,37.96283]]],"type":"Polygon"},"properties":{"bbox":{"roads":{"area":1415.95,"pct":5.45}},"city_same":1,"id":"hex:3590:24259"},"type":"Feature"},{"geometry":{"coordinates":[[[-122.56056,37.96439],[-122.56113,37.96517],[-122.56227,37.96518],[-122.56284,37.9644],[-122.56228,37.96362],[-122.56114,37.96361],[-122.56056,37.96439]]],"type":"Polygon"},"properties":{"bbox":{"roads":{"area":1278.19,"pct":4.92}},"city_same":1,"id":"hex:3590:24260"},"type":"Feature"},{"geometry":{"coordinates":[[[-122.56056,37.96595],[-122.56112,37.96674],[-122.56226,37.96674],[-122.56283,37.96596],[-122.56227,37.96518],[-122.56113,37.96517],[-122.56056,37.96595]]],"type":"Polygon"},"properties":{"bbox":{"roads":{"area":1734.52,"pct":6.68}},"city_same":1,"id":"hex:3590:24261"},"type":"Feature"},{"geometry":{"coordinates":[[[-122.56055,37.96751],[-122.56111,37.9683],[-122.56225,37.9683],[-122.56282,37.96752],[-122.56226,37.96674],[-122.56112,37.96674],[-122.56055,37.96751]]],"type":"Polygon"},"properties":{"bbox":{"roads":{"area":2094.65,"pct":8.06}},"city_same":1,"id":"hex:3590:24262"},"type":"Feature"},{"geometry":{"coordinates":[[[-122.56054,37.96907],[-122.56111,37.9683],[-122.56225,37.9683],[-122.56267,37.96888],[-122.56081,37.96945],[-122.56054,37.96907]]],"type":"Polygon"},"properties":{"bbox":{"roads":{"area":1542.74,"pct":10.37}},"city_same":1,"id":"hex:3590:24263"},"type":"Feature"},{"geometry":{"coordinates":[[[-122.56118,37.95581],[-122.56061,37.95659],[-122.55947,37.95658],[-122.55891,37.9558],[-122.55908,37.95557],[-122.55919,37.9556],[-122.55956,37.95547],[-122.56067,37.95579],[-122.56102,37.95567],[-122.56109,37.95568],[-122.56118,37.95581]]],"type":"Polygon"},"properties":{"bbox":{"roads":{"area":483.33,"pct":2.9}},"city_same":1,"id":"hex:3591:24254"},"type":"Feature"},{"geometry":{"coordinates":[[[-122.5589,37.95736],[-122.55946,37.95814],[-122.5606,37.95815],[-122.56118,37.95737],[-122.56061,37.95659],[-122.55947,37.95658],[-122.5589,37.95736]]],"type":"Polygon"},"properties":{"bbox":{"roads":{"area":307.8,"pct":1.18}},"city_same":1,"id":"hex:3591:24255"},"type":"Feature"},{"geometry":{"coordinates":[[[-122.55889,37.95892],[-122.55945,37.9597],[-122.56059,37.95971],[-122.56117,37.95893],[-122.5606,37.95815],[-122.55946,37.95814],[-122.55889,37.95892]]],"type":"Polygon"},"properties":{"bbox":{"roads":{"area":3204.67,"pct":12.33}},"city_same":1,"id":"hex:3591:24256"},"type":"Feature"},{"geometry":{"coordinates":[[[-122.55888,37.96048],[-122.55944,37.96127],[-122.56058,37.96127],[-122.56116,37.96049],[-122.56059,37.95971],[-122.55945,37.9597],[-122.55888,37.96048]]],"type":"Polygon"},"properties":{"bbox":{"roads":{"area":1982.25,"pct":7.63}},"city_same":1,"id":"hex:3591:24257"},"type":"Feature"},{"geometry":{"coordinates":[[[-122.55887,37.96204],[-122.55944,37.96283],[-122.56057,37.96283],[-122.56115,37.96205],[-122.56058,37.96127],[-122.55944,37.96127],[-122.55887,37.96204]]],"type":"Polygon"},"properties":{"bbox":{"roads":{"area":1231.9,"pct":4.74}},"city_same":1,"id":"hex:3591:24258"},"type":"Feature"},{"geometry":{"coordinates":[[[-122.55886,37.9636],[-122.55943,37.96439],[-122.56056,37.96439],[-122.56114,37.96361],[-122.56057,37.96283],[-122.55944,37.96283],[-122.55886,37.9636]]],"type":"Polygon"},"properties":{"bbox":{"roads":{"area":2416.84,"pct":9.3}},"city_same":1,"id":"hex:3591:24259"},"type":"Feature"},{"geometry":{"coordinates":[[[-122.55885,37.96517],[-122.55942,37.96595],[-122.56056,37.96595],[-122.56113,37.96517],[-122.56056,37.96439],[-122.55943,37.96439],[-122.55885,37.96517]]],"type":"Polygon"},"properties":{"bbox":{"roads":{"area":1830.6,"pct":7.05}},"city_same":1,"id":"hex:3591:24260"},"type":"Feature"},{"geometry":{"coordinates":[[[-122.55884,37.96673],[-122.55941,37.96751],[-122.56055,37.96751],[-122.56112,37.96674],[-122.56056,37.96595],[-122.55942,37.96595],[-122.55884,37.96673]]],"type":"Polygon"},"properties":{"bbox":{"roads":{"area":1020.58,"pct":3.93}},"city_same":1,"id":"hex:3591:24261"},"type":"Feature"},{"geometry":{"coordinates":[[[-122.55883,37.96829],[-122.5594,37.96907],[-122.56054,37.96907],[-122.56111,37.9683],[-122.56055,37.96751],[-122.55941,37.96751],[-122.55883,37.96829]]],"type":"Polygon"},"properties":{"bbox":{"roads":{"area":2090.92,"pct":8.05}},"city_same":1,"id":"hex:3591:24262"},"type":"Feature"},{"geometry":{"coordinates":[[[-122.55882,37.96985],[-122.5594,37.96907],[-122.56054,37.96907],[-122.56081,37.96945],[-122.56039,37.96958],[-122.56064,37.97029],[-122.55952,37.97048],[-122.5593,37.9705],[-122.55882,37.96985]]],"type":"Polygon"},"properties":{"bbox":{"roads":{"area":2303.4,"pct":11.8}},"city_same":1,"id":"hex:3591:24263"},"type":"Feature"},{"geometry":{"coordinates":[[[-122.55891,37.9558],[-122.55777,37.9558],[-122.55771,37.95571],[-122.55795,37.95528],[-122.55908,37.95557],[-122.55891,37.9558]]],"type":"Polygon"},"properties":{"bbox":{"roads":{"area":6.39,"pct":0.14}},"city_same":1,"id":"hex:3592:24254"},"type":"Feature"},{"geometry":{"coordinates":[[[-122.5572,37.95657],[-122.55776,37.95736],[-122.5589,37.95736],[-122.55947,37.95658],[-122.55891,37.9558],[-122.55777,37.9558],[-122.5572,37.95657]]],"type":"Polygon"},"properties":{"bbox":{"roads":{"area":1636.66,"pct":6.3}},"city_same":1,"id":"hex:3592:24255"},"type":"Feature"},{"geometry":{"coordinates":[[[-122.55719,37.95813],[-122.55775,37.95892],[-122.55889,37.95892],[-122.55946,37.95814],[-122.5589,37.95736],[-122.55776,37.95736],[-122.55719,37.95813]]],"type":"Polygon"},"properties":{"bbox":{"roads":{"area":2294.76,"pct":8.83}},"city_same":1,"id":"hex:3592:24256"},"type":"Feature"},{"geometry":{"coordinates":[[[-122.55718,37.9597],[-122.55774,37.96048],[-122.55888,37.96048],[-122.55945,37.9597],[-122.55889,37.95892],[-122.55775,37.95892],[-122.55718,37.9597]]],"type":"Polygon"},"properties":{"bbox":{"roads":{"area":1386.03,"pct":5.33}},"city_same":1,"id":"hex:3592:24257"},"type":"Feature"},{"geometry":{"coordinates":[[[-122.55717,37.96126],[-122.55773,37.96204],[-122.55887,37.96204],[-122.55944,37.96127],[-122.55888,37.96048],[-122.55774,37.96048],[-122.55717,37.96126]]],"type":"Polygon"},"properties":{"bbox":{"roads":{"area":3123.58,"pct":12.02},"sidewalks":{"area":128.69,"pct":0.5}},"city_same":1,"id":"hex:3592:24258"},"type":"Feature"},{"geometry":{"coordinates":[[[-122.55716,37.96282],[-122.55772,37.9636],[-122.55886,37.9636],[-122.55944,37.96283],[-122.55887,37.96204],[-122.55773,37.96204],[-122.55716,37.96282]]],"type":"Polygon"},"properties":{"bbox":{"roads":{"area":2009.42,"pct":7.73}},"city_same":1,"id":"hex:3592:24259"},"type":"Feature"},{"geometry":{"coordinates":[[[-122.55715,37.96438],[-122.55771,37.96516],[-122.55885,37.96517],[-122.55943,37.96439],[-122.55886,37.9636],[-122.55772,37.9636],[-122.55715,37.96438]]],"type":"Polygon"},"properties":{"bbox":{"roads":{"area":1589.33,"pct":6.12}},"city_same":1,"id":"hex:3592:24260"},"type":"Feature"},{"geometry":{"coordinates":[[[-122.55714,37.96594],[-122.5577,37.96672],[-122.55884,37.96673],[-122.55942,37.96595],[-122.55885,37.96517],[-122.55771,37.96516],[-122.55714,37.96594]]],"type":"Polygon"},"properties":{"bbox":{"roads":{"area":2162.41,"pct":8.32}},"city_same":1,"id":"hex:3592:24261"},"type":"Feature"},{"geometry":{"coordinates":[[[-122.55713,37.9675],[-122.5577,37.96828],[-122.55883,37.96829],[-122.55941,37.96751],[-122.55884,37.96673],[-122.5577,37.96672],[-122.55713,37.9675]]],"type":"Polygon"},"properties":{"bbox":{"roads":{"area":2430.67,"pct":9.36}},"city_same":1,"id":"hex:3592:24262"},"type":"Feature"},{"geometry":{"coordinates":[[[-122.55712,37.96906],[-122.55769,37.96984],[-122.55882,37.96985],[-122.5594,37.96907],[-122.55883,37.96829],[-122.5577,37.96828],[-122.55712,37.96906]]],"type":"Polygon"},"properties":{"bbox":{"roads":{"area":1663.01,"pct":6.4}},"city_same":1,"id":"hex:3592:24263"},"type":"Feature"},{"geometry":{"coordinates":[[[-122.55711,37.97062],[-122.55769,37.96984],[-122.55882,37.96985],[-122.5593,37.9705],[-122.55818,37.97062],[-122.55764,37.97071],[-122.5576,37.97059],[-122.55715,37.97067],[-122.55711,37.97062]]],"type":"Polygon"},"properties":{"bbox":{"roads":{"area":1052.99,"pct":8.48}},"city_same":1,"id":"hex:3592:24264"},"type":"Feature"},{"geometry":{"coordinates":[[[-122.55777,37.9558],[-122.5572,37.95657],[-122.55687,37.95657],[-122.55691,37.95654],[-122.55722,37.95646],[-122.55754,37.956],[-122.55771,37.95571],[-122.55777,37.9558]]],"type":"Polygon"},"properties":{"bbox":{"roads":{"area":25.19,"pct":3.15}},"city_same":1,"id":"hex:3593:24254"},"type":"Feature"},{"geometry":{"coordinates":[[[-122.5572,37.95657],[-122.55776,37.95736],[-122.55719,37.95813],[-122.55605,37.95813],[-122.55548,37.95735],[-122.55549,37.95735],[-122.55557,37.95729],[-122.55605,37.95763],[-122.55614,37.95736],[-122.55667,37.95672],[-122.55687,37.95657],[-122.5572,37.95657]]],"type":"Polygon"},"properties":{"bbox":{"roads":{"area":1444.8,"pct":7.22}},"city_same":1,"id":"hex:3593:24255"},"type":"Feature"},{"geometry":{"coordinates":[[[-122.55547,37.95891],[-122.55604,37.95969],[-122.55718,37.9597],[-122.55775,37.95892],[-122.55719,37.95813],[-122.55605,37.95813],[-122.55547,37.95891]]],"type":"Polygon"},"properties":{"bbox":{"roads":{"area":1365.79,"pct":5.26}},"city_same":1,"id":"hex:3593:24256"},"type":"Feature"},{"geometry":{"coordinates":[[[-122.55547,37.96047],[-122.55603,37.96125],[-122.55717,37.96126],[-122.55774,37.96048],[-122.55718,37.9597],[-122.55604,37.95969],[-122.55547,37.96047]]],"type":"Polygon"},"properties":{"bbox":{"roads":{"area":1562.38,"pct":6.01},"sidewalks":{"area":316.95,"pct":1.22}},"city_same":1,"id":"hex:3593:24257"},"type":"Feature"},{"geometry":{"coordinates":[[[-122.55546,37.96203],[-122.55602,37.96281],[-122.55716,37.96282],[-122.55773,37.96204],[-122.55717,37.96126],[-122.55603,37.96125],[-122.55546,37.96203]]],"type":"Polygon"},"properties":{"bbox":{"roads":{"area":3418.15,"pct":13.16},"sidewalks":{"area":255.27,"pct":0.98}},"city_same":1,"id":"hex:3593:24258"},"type":"Feature"},{"geometry":{"coordinates":[[[-122.55545,37.96359],[-122.55601,37.96437],[-122.55715,37.96438],[-122.55772,37.9636],[-122.55716,37.96282],[-122.55602,37.96281],[-122.55545,37.96359]]],"type":"Polygon"},"properties":{"bbox":{"parking":{"area":1374.73,"pct":5.29},"roads":{"area":2741.88,"pct":10.55}},"city_same":1,"id":"hex:3593:24259"},"type":"Feature"},{"geometry":{"coordinates":[[[-122.55544,37.96515],[-122.556,37.96594],[-122.55714,37.96594],[-122.55771,37.96516],[-122.55715,37.96438],[-122.55601,37.96437],[-122.55544,37.96515]]],"type":"Polygon"},"properties":{"bbox":{"roads":{"area":1091.47,"pct":4.2}},"city_same":1,"id":"hex:3593:24260"},"type":"Feature"},{"geometry":{"coordinates":[[[-122.55543,37.96671],[-122.55599,37.9675],[-122.55713,37.9675],[-122.5577,37.96672],[-122.55714,37.96594],[-122.556,37.96594],[-122.55543,37.96671]]],"type":"Polygon"},"properties":{"bbox":{"roads":{"area":0.96,"pct":0}},"city_same":1,"id":"hex:3593:24261"},"type":"Feature"},{"geometry":{"coordinates":[[[-122.55542,37.96827],[-122.55598,37.96906],[-122.55712,37.96906],[-122.5577,37.96828],[-122.55713,37.9675],[-122.55599,37.9675],[-122.55542,37.96827]]],"type":"Polygon"},"properties":{"bbox":{"roads":{"area":2510.21,"pct":9.66}},"city_same":1,"id":"hex:3593:24262"},"type":"Feature"},{"geometry":{"coordinates":[[[-122.55541,37.96984],[-122.55597,37.97062],[-122.55711,37.97062],[-122.55769,37.96984],[-122.55712,37.96906],[-122.55598,37.96906],[-122.55541,37.96984]]],"type":"Polygon"},"properties":{"bbox":{"roads":{"area":2174.29,"pct":8.37}},"city_same":1,"id":"hex:3593:24263"},"type":"Feature"},{"geometry":{"coordinates":[[[-122.5554,37.9714],[-122.55597,37.97062],[-122.55711,37.97062],[-122.55715,37.97067],[-122.5571,37.97068],[-122.5568,37.97088],[-122.55647,37.97084],[-122.55608,37.97108],[-122.55571,37.97172],[-122.55566,37.97176],[-122.5554,37.9714]]],"type":"Polygon"},"properties":{"bbox":{"roads":{"area":24.99,"pct":0.41}},"city_same":1,"id":"hex:3593:24264"},"type":"Feature"},{"geometry":{"coordinates":[[[-122.55548,37.95735],[-122.55605,37.95813],[-122.55547,37.95891],[-122.55434,37.9589],[-122.55377,37.95812],[-122.55388,37.95797],[-122.55407,37.95791],[-122.55459,37.95774],[-122.55471,37.95797],[-122.55488,37.95792],[-122.55551,37.95767],[-122.55531,37.95746],[-122.55548,37.95735],[-122.55548,37.95735]]],"type":"Polygon"},"properties":{"bbox":{"roads":{"area":1528.93,"pct":7.7}},"city_same":1,"id":"hex:3594:24256"},"type":"Feature"},{"geometry":{"coordinates":[[[-122.55376,37.95968],[-122.55433,37.96047],[-122.55547,37.96047],[-122.55604,37.95969],[-122.55547,37.95891],[-122.55434,37.9589],[-122.55376,37.95968]]],"type":"Polygon"},"properties":{"bbox":{"roads":{"area":2017.05,"pct":7.76},"sidewalks":{"area":37.17,"pct":0.14}},"city_same":1,"id":"hex:3594:24257"},"type":"Feature"},{"geometry":{"coordinates":[[[-122.55375,37.96124],[-122.55432,37.96203],[-122.55546,37.96203],[-122.55603,37.96125],[-122.55547,37.96047],[-122.55433,37.96047],[-122.55375,37.96124]]],"type":"Polygon"},"properties":{"bbox":{"roads":{"area":2538.36,"pct":9.77}},"city_same":1,"id":"hex:3594:24258"},"type":"Feature"},{"geometry":{"coordinates":[[[-122.55432,37.96203],[-122.55546,37.96203],[-122.55602,37.96281],[-122.55545,37.96359],[-122.55431,37.96359],[-122.55374,37.9628],[-122.55432,37.96203]],[[-122.55455,37.96338],[-122.55453,37.96335],[-122.5545,37.96333],[-122.55446,37.96333],[-122.55442,37.96333],[-122.55439,37.96335],[-122.55438,37.96338],[-122.55438,37.96341],[-122.55439,37.96343],[-122.55441,37.96345],[-122.55444,37.96346],[-122.55446,37.96345],[-122.55449,37.96344],[-122.5545,37.96343],[-122.55451,37.96341],[-122.55451,37.96339],[-122.55455,37.96338]]],"type":"Polygon"},"properties":{"bbox":{"parking":{"area":1772.97,"pct":6.86},"roads":{"area":1597.7,"pct":6.18}},"city_same":1,"id":"hex:3594:24259"},"type":"Feature"},{"geometry":{"coordinates":[[[-122.55373,37.96437],[-122.5543,37.96515],[-122.55544,37.96515],[-122.55601,37.96437],[-122.55545,37.96359],[-122.55431,37.96359],[-122.55373,37.96437]]],"type":"Polygon"},"properties":{"bbox":{"roads":{"area":2392.67,"pct":9.21}},"city_same":1,"id":"hex:3594:24260"},"type":"Feature"},{"geometry":{"coordinates":[[[-122.55372,37.96593],[-122.55429,37.96671],[-122.55543,37.96671],[-122.556,37.96594],[-122.55544,37.96515],[-122.5543,37.96515],[-122.55372,37.96593]]],"type":"Polygon"},"properties":{"bbox":{"roads":{"area":1093.04,"pct":4.21}},"city_same":1,"id":"hex:3594:24261"},"type":"Feature"},{"geometry":{"coordinates":[[[-122.55372,37.96749],[-122.55428,37.96827],[-122.55542,37.96827],[-122.55599,37.9675],[-122.55543,37.96671],[-122.55429,37.96671],[-122.55372,37.96749]]],"type":"Polygon"},"properties":{"bbox":{"roads":{"area":1349.35,"pct":5.19}},"city_same":1,"id":"hex:3594:24262"},"type":"Feature"},{"geometry":{"coordinates":[[[-122.55371,37.96905],[-122.55427,37.96983],[-122.55541,37.96984],[-122.55598,37.96906],[-122.55542,37.96827],[-122.55428,37.96827],[-122.55371,37.96905]]],"type":"Polygon"},"properties":{"bbox":{"roads":{"area":2134.47,"pct":8.22}},"city_same":1,"id":"hex:3594:24263"},"type":"Feature"},{"geometry":{"coordinates":[[[-122.5537,37.97061],[-122.55426,37.97139],[-122.5554,37.9714],[-122.55597,37.97062],[-122.55541,37.96984],[-122.55427,37.96983],[-122.5537,37.97061]]],"type":"Polygon"},"properties":{"bbox":{"roads":{"area":2885.83,"pct":11.11}},"city_same":1,"id":"hex:3594:24264"},"type":"Feature"},{"geometry":{"coordinates":[[[-122.55425,37.97295],[-122.55369,37.97217],[-122.55426,37.97139],[-122.5554,37.9714],[-122.55566,37.97176],[-122.55546,37.97192],[-122.55502,37.97252],[-122.55494,37.97296],[-122.55425,37.97295]]],"type":"Polygon"},"properties":{"bbox":{"roads":{"area":1149.91,"pct":5.84}},"city_same":1,"id":"hex:3594:24265"},"type":"Feature"},{"geometry":{"coordinates":[[[-122.55425,37.97295],[-122.55494,37.97296],[-122.55493,37.97306],[-122.55432,37.97304],[-122.5542,37.97302],[-122.55425,37.97295]]],"type":"Polygon"},"properties":{"bbox":{"roads":{"area":17.76,"pct":2.83}},"city_same":1,"id":"hex:3594:24266"},"type":"Feature"},{"geometry":{"coordinates":[[[-122.55377,37.95812],[-122.55434,37.9589],[-122.55376,37.95968],[-122.55266,37.95968],[-122.55284,37.9595],[-122.55338,37.95946],[-122.55316,37.95897],[-122.55324,37.95895],[-122.55339,37.95909],[-122.55374,37.95898],[-122.5533,37.95816],[-122.55343,37.95812],[-122.55377,37.95812]]],"type":"Polygon"},"properties":{"bbox":{"roads":{"area":674.23,"pct":6.37}},"city_same":1,"id":"hex:3595:24256"},"type":"Feature"},{"geometry":{"coordinates":[[[-122.55376,37.95968],[-122.55433,37.96047],[-122.55375,37.96124],[-122.55261,37.96124],[-122.55205,37.96046],[-122.55253,37.9598],[-122.55266,37.95968],[-122.55376,37.95968]]],"type":"Polygon"},"properties":{"bbox":{"roads":{"area":2741.08,"pct":10.56}},"city_same":1,"id":"hex:3595:24257"},"type":"Feature"},{"geometry":{"coordinates":[[[-122.55204,37.96202],[-122.55261,37.9628],[-122.55374,37.9628],[-122.55432,37.96203],[-122.55375,37.96124],[-122.55261,37.96124],[-122.55204,37.96202]]],"type":"Polygon"},"properties":{"bbox":{"roads":{"area":855.58,"pct":3.29}},"city_same":1,"id":"hex:3595:24258"},"type":"Feature"},{"geometry":{"coordinates":[[[-122.55203,37.96358],[-122.5526,37.96436],[-122.55373,37.96437],[-122.55431,37.96359],[-122.55374,37.9628],[-122.55261,37.9628],[-122.55203,37.96358]]],"type":"Polygon"},"properties":{"bbox":{"roads":{"area":71.66,"pct":0.28}},"city_same":1,"id":"hex:3595:24259"},"type":"Feature"},{"geometry":{"coordinates":[[[-122.55202,37.96514],[-122.55259,37.96592],[-122.55372,37.96593],[-122.5543,37.96515],[-122.55373,37.96437],[-122.5526,37.96436],[-122.55202,37.96514]]],"type":"Polygon"},"properties":{"bbox":{"roads":{"area":1861.86,"pct":7.17}},"city_same":1,"id":"hex:3595:24260"},"type":"Feature"},{"geometry":{"coordinates":[[[-122.55201,37.9667],[-122.55258,37.96748],[-122.55372,37.96749],[-122.55429,37.96671],[-122.55372,37.96593],[-122.55259,37.96592],[-122.55201,37.9667]]],"type":"Polygon"},"properties":{"bbox":{"roads":{"area":678.21,"pct":2.61}},"city_same":1,"id":"hex:3595:24261"},"type":"Feature"},{"geometry":{"coordinates":[[[-122.55199,37.96982],[-122.55256,37.97061],[-122.5537,37.97061],[-122.55427,37.96983],[-122.55371,37.96905],[-122.55257,37.96904],[-122.55199,37.96982]]],"type":"Polygon"},"properties":{"bbox":{"roads":{"area":2318.75,"pct":8.92}},"city_same":1,"id":"hex:3595:24263"},"type":"Feature"},{"geometry":{"coordinates":[[[-122.55198,37.97138],[-122.55256,37.97061],[-122.5537,37.97061],[-122.55426,37.97139],[-122.55369,37.97217],[-122.55262,37.97217],[-122.55249,37.97209],[-122.55198,37.97138]]],"type":"Polygon"},"properties":{"bbox":{"roads":{"area":1641.24,"pct":6.32}},"city_same":1,"id":"hex:3595:24264"},"type":"Feature"},{"geometry":{"coordinates":[[[[-122.55369,37.97217],[-122.55425,37.97295],[-122.5542,37.97302],[-122.55363,37.97293],[-122.55349,37.97286],[-122.55311,37.97247],[-122.55262,37.97217],[-122.55369,37.97217]]],[[[-122.55252,37.97221],[-122.55261,37.97245],[-122.55239,37.97288],[-122.55216,37.9727],[-122.55252,37.97221]]]],"type":"MultiPolygon"},"properties":{"bbox":{"roads":{"area":218.36,"pct":2.89}},"city_same":1,"id":"hex:3595:24265"},"type":"Feature"},{"geometry":{"coordinates":[[[-122.55205,37.96046],[-122.55185,37.96046],[-122.55253,37.9598],[-122.55205,37.96046]]],"type":"Polygon"},"properties":{"bbox":{"roads":{"area":12.56,"pct":1.97}},"city_same":1,"id":"hex:3596:24257"},"type":"Feature"},{"geometry":{"coordinates":[[[-122.55205,37.96046],[-122.55261,37.96124],[-122.55204,37.96202],[-122.5509,37.96201],[-122.55034,37.96123],[-122.55048,37.96103],[-122.5509,37.96129],[-122.55102,37.96133],[-122.55139,37.96097],[-122.55145,37.96079],[-122.55148,37.96081],[-122.55185,37.96046],[-122.55205,37.96046]]],"type":"Polygon"},"properties":{"bbox":{"roads":{"area":818.44,"pct":4.13}},"city_same":1,"id":"hex:3596:24258"},"type":"Feature"},{"geometry":{"coordinates":[[[-122.55033,37.96279],[-122.55089,37.96357],[-122.55203,37.96358],[-122.55261,37.9628],[-122.55204,37.96202],[-122.5509,37.96201],[-122.55033,37.96279]]],"type":"Polygon"},"properties":{"bbox":{"roads":{"area":2304.1,"pct":8.87}},"city_same":1,"id":"hex:3596:24259"},"type":"Feature"},{"geometry":{"coordinates":[[[-122.55032,37.96435],[-122.55088,37.96514],[-122.55202,37.96514],[-122.5526,37.96436],[-122.55203,37.96358],[-122.55089,37.96357],[-122.55032,37.96435]]],"type":"Polygon"},"properties":{"bbox":{"roads":{"area":1490.33,"pct":5.74}},"city_same":1,"id":"hex:3596:24260"},"type":"Feature"},{"geometry":{"coordinates":[[[-122.55031,37.96591],[-122.55087,37.9667],[-122.55201,37.9667],[-122.55259,37.96592],[-122.55202,37.96514],[-122.55088,37.96514],[-122.55031,37.96591]]],"type":"Polygon"},"properties":{"bbox":{"roads":{"area":1489.74,"pct":5.73}},"city_same":1,"id":"hex:3596:24261"},"type":"Feature"},{"geometry":{"coordinates":[[[-122.5503,37.96747],[-122.55086,37.96826],[-122.552,37.96826],[-122.55258,37.96748],[-122.55201,37.9667],[-122.55087,37.9667],[-122.5503,37.96747]]],"type":"Polygon"},"properties":{"bbox":{"roads":{"area":1292.36,"pct":4.97}},"city_same":1,"id":"hex:3596:24262"},"type":"Feature"},{"geometry":{"coordinates":[[[-122.55029,37.96904],[-122.55085,37.96982],[-122.55199,37.96982],[-122.55257,37.96904],[-122.552,37.96826],[-122.55086,37.96826],[-122.55029,37.96904]]],"type":"Polygon"},"properties":{"bbox":{"roads":{"area":866.59,"pct":3.34}},"city_same":1,"id":"hex:3596:24263"},"type":"Feature"},{"geometry":{"coordinates":[[[-122.55028,37.9706],[-122.55085,37.97138],[-122.55198,37.97138],[-122.55256,37.97061],[-122.55199,37.96982],[-122.55085,37.96982],[-122.55028,37.9706]]],"type":"Polygon"},"properties":{"bbox":{"roads":{"area":2889.25,"pct":11.12}},"city_same":1,"id":"hex:3596:24264"},"type":"Feature"},{"geometry":{"coordinates":[[[-122.55216,37.9727],[-122.5517,37.97236],[-122.55163,37.97231],[-122.55042,37.97204],[-122.55036,37.97204],[-122.55085,37.97138],[-122.55198,37.97138],[-122.55249,37.97209],[-122.55246,37.97207],[-122.55252,37.97221],[-122.55216,37.9727]]],"type":"Polygon"},"properties":{"bbox":{"roads":{"area":843.9,"pct":5.37}},"city_same":1,"id":"hex:3596:24265"},"type":"Feature"},{"geometry":{"coordinates":[[[-122.55034,37.96123],[-122.5492,37.96123],[-122.54864,37.96044],[-122.54887,37.96012],[-122.54923,37.96024],[-122.55048,37.96103],[-122.55034,37.96123]]],"type":"Polygon"},"properties":{"bbox":{"roads":{"area":804.29,"pct":7.48}},"city_same":1,"id":"hex:3597:24257"},"type":"Feature"},{"geometry":{"coordinates":[[[-122.54863,37.962],[-122.54919,37.96279],[-122.55033,37.96279],[-122.5509,37.96201],[-122.55034,37.96123],[-122.5492,37.96123],[-122.54863,37.962]]],"type":"Polygon"},"properties":{"bbox":{"roads":{"area":1202.62,"pct":4.63}},"city_same":1,"id":"hex:3597:24258"},"type":"Feature"},{"geometry":{"coordinates":[[[-122.54862,37.96357],[-122.54918,37.96435],[-122.55032,37.96435],[-122.55089,37.96357],[-122.55033,37.96279],[-122.54919,37.96279],[-122.54862,37.96357]]],"type":"Polygon"},"properties":{"bbox":{"roads":{"area":2219.4,"pct":8.54}},"city_same":1,"id":"hex:3597:24259"},"type":"Feature"},{"geometry":{"coordinates":[[[-122.54861,37.96513],[-122.54917,37.96591],[-122.55031,37.96591],[-122.55088,37.96514],[-122.55032,37.96435],[-122.54918,37.96435],[-122.54861,37.96513]]],"type":"Polygon"},"properties":{"bbox":{"roads":{"area":1824.31,"pct":7.02}},"city_same":1,"id":"hex:3597:24260"},"type":"Feature"},{"geometry":{"coordinates":[[[-122.5486,37.96669],[-122.54916,37.96747],[-122.5503,37.96747],[-122.55087,37.9667],[-122.55031,37.96591],[-122.54917,37.96591],[-122.5486,37.96669]]],"type":"Polygon"},"properties":{"bbox":{"roads":{"area":2294.09,"pct":8.83}},"city_same":1,"id":"hex:3597:24261"},"type":"Feature"},{"geometry":{"coordinates":[[[-122.54859,37.96825],[-122.54915,37.96903],[-122.55029,37.96904],[-122.55086,37.96826],[-122.5503,37.96747],[-122.54916,37.96747],[-122.54859,37.96825]]],"type":"Polygon"},"properties":{"bbox":{"roads":{"area":2338.27,"pct":9}},"city_same":1,"id":"hex:3597:24262"},"type":"Feature"},{"geometry":{"coordinates":[[[-122.54858,37.96981],[-122.54914,37.97059],[-122.55028,37.9706],[-122.55085,37.96982],[-122.55029,37.96904],[-122.54915,37.96903],[-122.54858,37.96981]]],"type":"Polygon"},"properties":{"bbox":{"roads":{"area":1243.68,"pct":4.79}},"city_same":1,"id":"hex:3597:24263"},"type":"Feature"},{"geometry":{"coordinates":[[[-122.54913,37.97215],[-122.5486,37.97142],[-122.54871,37.97118],[-122.54914,37.97059],[-122.55028,37.9706],[-122.55085,37.97138],[-122.55036,37.97204],[-122.55036,37.97204],[-122.5499,37.97205],[-122.54968,37.97216],[-122.54913,37.97215]]],"type":"Polygon"},"properties":{"bbox":{"roads":{"area":2001.37,"pct":7.9}},"city_same":1,"id":"hex:3597:24264"},"type":"Feature"},{"geometry":{"coordinates":[[[-122.54864,37.96044],[-122.5492,37.96123],[-122.54863,37.962],[-122.54749,37.962],[-122.54692,37.96122],[-122.54735,37.96064],[-122.54738,37.96061],[-122.54753,37.96044],[-122.54864,37.96044]]],"type":"Polygon"},"properties":{"bbox":{"roads":{"area":672.81,"pct":2.59}},"city_same":1,"id":"hex:3598:24258"},"type":"Feature"},{"geometry":{"coordinates":[[[-122.54691,37.96278],[-122.54748,37.96356],[-122.54862,37.96357],[-122.54919,37.96279],[-122.54863,37.962],[-122.54749,37.962],[-122.54691,37.96278]]],"type":"Polygon"},"properties":{"bbox":{"roads":{"area":3053.65,"pct":11.75}},"city_same":1,"id":"hex:3598:24259"},"type":"Feature"},{"geometry":{"coordinates":[[[-122.5469,37.96434],[-122.54747,37.96512],[-122.54861,37.96513],[-122.54918,37.96435],[-122.54862,37.96357],[-122.54748,37.96356],[-122.5469,37.96434]]],"type":"Polygon"},"properties":{"bbox":{"roads":{"area":3186.99,"pct":12.27}},"city_same":1,"id":"hex:3598:24260"},"type":"Feature"},{"geometry":{"coordinates":[[[-122.54689,37.9659],[-122.54746,37.96668],[-122.5486,37.96669],[-122.54917,37.96591],[-122.54861,37.96513],[-122.54747,37.96512],[-122.54689,37.9659]]],"type":"Polygon"},"properties":{"bbox":{"roads":{"area":1474.49,"pct":5.68}},"city_same":1,"id":"hex:3598:24261"},"type":"Feature"},{"geometry":{"coordinates":[[[-122.54688,37.96746],[-122.54745,37.96824],[-122.54859,37.96825],[-122.54916,37.96747],[-122.5486,37.96669],[-122.54746,37.96668],[-122.54688,37.96746]]],"type":"Polygon"},"properties":{"bbox":{"roads":{"area":1040.34,"pct":4}},"city_same":1,"id":"hex:3598:24262"},"type":"Feature"},{"geometry":{"coordinates":[[[-122.54687,37.96902],[-122.54744,37.96981],[-122.54858,37.96981],[-122.54915,37.96903],[-122.54859,37.96825],[-122.54745,37.96824],[-122.54687,37.96902]]],"type":"Polygon"},"properties":{"bbox":{"roads":{"area":660.72,"pct":2.54}},"city_same":1,"id":"hex:3598:24263"},"type":"Feature"},{"geometry":{"coordinates":[[[-122.54744,37.96981],[-122.54858,37.96981],[-122.54914,37.97059],[-122.54871,37.97118],[-122.54872,37.97116],[-122.54845,37.97081],[-122.54785,37.97032],[-122.54749,37.97008],[-122.54732,37.96997],[-122.54744,37.96981]]],"type":"Polygon"},"properties":{"bbox":{"roads":{"area":266.17,"pct":2.33}},"city_same":1,"id":"hex:3598:24264"},"type":"Feature"},{"geometry":{"coordinates":[[[-122.54913,37.97215],[-122.54892,37.97244],[-122.54882,37.97242],[-122.54863,37.97228],[-122.54843,37.97182],[-122.54853,37.9716],[-122.5486,37.97142],[-122.54913,37.97215]]],"type":"Polygon"},"properties":{"bbox":{"roads":{"area":0.21,"pct":0.01}},"city_same":1,"id":"hex:3598:24265"},"type":"Feature"},{"geometry":{"coordinates":[[[-122.54692,37.96122],[-122.54749,37.962],[-122.54691,37.96278],[-122.54577,37.96277],[-122.54559,37.96251],[-122.54581,37.96225],[-122.5466,37.96139],[-122.54677,37.96122],[-122.54692,37.96122]]],"type":"Polygon"},"properties":{"bbox":{"roads":{"area":1231.81,"pct":7.26}},"city_same":1,"id":"hex:3599:24258"},"type":"Feature"},{"geometry":{"coordinates":[[[-122.5452,37.96355],[-122.54577,37.96434],[-122.5469,37.96434],[-122.54748,37.96356],[-122.54691,37.96278],[-122.54577,37.96277],[-122.5452,37.96355]]],"type":"Polygon"},"properties":{"bbox":{"roads":{"area":941.68,"pct":3.62}},"city_same":1,"id":"hex:3599:24259"},"type":"Feature"},{"geometry":{"coordinates":[[[-122.54519,37.96511],[-122.54576,37.9659],[-122.54689,37.9659],[-122.54747,37.96512],[-122.5469,37.96434],[-122.54577,37.96434],[-122.54519,37.96511]]],"type":"Polygon"},"properties":{"bbox":{"roads":{"area":714.86,"pct":2.75}},"city_same":1,"id":"hex:3599:24260"},"type":"Feature"},{"geometry":{"coordinates":[[[-122.54576,37.9659],[-122.54689,37.9659],[-122.54746,37.96668],[-122.54688,37.96746],[-122.54623,37.96746],[-122.54628,37.96725],[-122.54596,37.96718],[-122.54588,37.96731],[-122.54567,37.96728],[-122.54564,37.96723],[-122.54574,37.9669],[-122.54539,37.96643],[-122.54537,37.96642],[-122.54576,37.9659]]],"type":"Polygon"},"properties":{"bbox":{"roads":{"area":346.72,"pct":1.53}},"city_same":1,"id":"hex:3599:24261"},"type":"Feature"},{"geometry":{"coordinates":[[[-122.54577,37.96277],[-122.5452,37.96355],[-122.54406,37.96355],[-122.5437,37.96304],[-122.54393,37.96281],[-122.54421,37.96273],[-122.54427,37.96275],[-122.54425,37.9629],[-122.54417,37.96306],[-122.544,37.96336],[-122.54428,37.96354],[-122.54456,37.96331],[-122.54469,37.96328],[-122.54493,37.96332],[-122.54506,37.96314],[-122.5455,37.96261],[-122.54559,37.96251],[-122.54577,37.96277]]],"type":"Polygon"},"properties":{"bbox":{"roads":{"area":603.2,"pct":8.45}},"city_same":1,"id":"hex:3600:24259"},"type":"Feature"},{"geometry":{"coordinates":[[[-122.54349,37.96433],[-122.54405,37.96511],[-122.54519,37.96511],[-122.54577,37.96434],[-122.5452,37.96355],[-122.54406,37.96355],[-122.54349,37.96433]]],"type":"Polygon"},"properties":{"bbox":{"roads":{"area":1982.35,"pct":7.63}},"city_same":1,"id":"hex:3600:24260"},"type":"Feature"},{"geometry":{"coordinates":[[[-122.54405,37.96511],[-122.54519,37.96511],[-122.54576,37.9659],[-122.54537,37.96642],[-122.54463,37.966],[-122.54454,37.96574],[-122.54435,37.96564],[-122.54399,37.96555],[-122.54385,37.96538],[-122.54405,37.96511]]],"type":"Polygon"},"properties":{"bbox":{"roads":{"area":162.94,"pct":1.22}},"city_same":1,"id":"hex:3600:24261"},"type":"Feature"},{"geometry":{"coordinates":[[[-122.54406,37.96355],[-122.54349,37.96433],[-122.54235,37.96432],[-122.54179,37.96354],[-122.54206,37.96316],[-122.54221,37.96314],[-122.54236,37.96307],[-122.54243,37.96305],[-122.54264,37.96292],[-122.54271,37.96288],[-122.54282,37.96295],[-122.54291,37.96307],[-122.54278,37.96321],[-122.54322,37.96333],[-122.5434,37.96322],[-122.54368,37.96307],[-122.5437,37.96304],[-122.54406,37.96355]]],"type":"Polygon"},"properties":{"bbox":{"roads":{"area":1318.29,"pct":6.29}},"city_same":1,"id":"hex:3601:24259"},"type":"Feature"},{"geometry":{"coordinates":[[[-122.54235,37.96432],[-122.54349,37.96433],[-122.54405,37.96511],[-122.54385,37.96538],[-122.54375,37.96526],[-122.54349,37.9651],[-122.54334,37.96505],[-122.543,37.965],[-122.54289,37.96476],[-122.54248,37.96446],[-122.54232,37.96443],[-122.54227,37.96443],[-122.54235,37.96432]]],"type":"Polygon"},"properties":{"bbox":{"roads":{"area":37.22,"pct":0.46}},"city_same":1,"id":"hex:3601:24260"},"type":"Feature"},{"geometry":{"coordinates":[[[-122.54179,37.96354],[-122.5413,37.96354],[-122.54136,37.96348],[-122.54154,37.96337],[-122.54172,37.96324],[-122.5418,37.96321],[-122.54194,37.96318],[-122.54206,37.96316],[-122.54179,37.96354]]],"type":"Polygon"},"properties":{"bbox":{"roads":{"area":122.07,"pct":9.61}},"city_same":1,"id":"hex:3602:24259"},"type":"Feature"},{"geometry":{"coordinates":[[[-122.54179,37.96354],[-122.54235,37.96432],[-122.54227,37.96443],[-122.54202,37.96447],[-122.54168,37.96426],[-122.54132,37.9643],[-122.54119,37.96426],[-122.54091,37.96415],[-122.54079,37.96407],[-122.54073,37.96399],[-122.54073,37.96393],[-122.54072,37.96391],[-122.54072,37.96387],[-122.54075,37.96384],[-122.54084,37.96379],[-122.54102,37.96375],[-122.54111,37.96371],[-122.54119,37.96364],[-122.5413,37.96354],[-122.54179,37.96354]]],"type":"Polygon"},"properties":{"bbox":{"roads":{"area":619.37,"pct":7.07}},"city_same":1,"id":"hex:3602:24260"},"type":"Feature"}],"type":"FeatureCollection","v":2}