{"features":[{"geometry":{"coordinates":[[[[-118.3644,33.76822],[-118.36334,33.76916],[-118.35954,33.76781],[-118.35787,33.76951],[-118.35039,33.7752],[-118.35001,33.77669],[-118.35005,33.77852],[-118.34869,33.77994],[-118.33817,33.77253],[-118.33685,33.77223],[-118.33265,33.77213],[-118.33398,33.76878],[-118.33717,33.76755],[-118.33772,33.76667],[-118.33863,33.76618],[-118.33858,33.76587],[-118.33889,33.76558],[-118.33866,33.76537],[-118.33888,33.76521],[-118.33773,33.76344],[-118.3375,33.76364],[-118.33486,33.76099],[-118.33047,33.75989],[-118.33027,33.75886],[-118.33173,33.75832],[-118.33154,33.75717],[-118.33188,33.75575],[-118.33025,33.75149],[-118.33244,33.75146],[-118.33406,33.75062],[-118.33631,33.74841],[-118.33629,33.74798],[-118.3373,33.74794],[-118.33822,33.74772],[-118.33802,33.74662],[-118.33812,33.74556],[-118.33864,33.74552],[-118.34001,33.74278],[-118.3451,33.74505],[-118.34628,33.74233],[-118.35028,33.74341],[-118.35299,33.74508],[-118.35533,33.74353],[-118.35618,33.74412],[-118.35653,33.74498],[-118.35681,33.7471],[-118.35617,33.74859],[-118.35379,33.75107],[-118.35477,33.75168],[-118.35532,33.75326],[-118.35509,33.75382],[-118.35581,33.75552],[-118.35551,33.75595],[-118.36156,33.75876],[-118.36458,33.75944],[-118.36431,33.76082],[-118.3652,33.76086],[-118.36553,33.76122],[-118.36609,33.76241],[-118.36576,33.76258],[-118.3653,33.7623],[-118.36563,33.76385],[-118.36504,33.7652],[-118.36467,33.76544],[-118.36524,33.76595],[-118.36568,33.76698],[-118.36481,33.76781],[-118.3643,33.76808],[-118.3644,33.76822]]]],"type":"MultiPolygon"},"properties":{"type":"boundary"},"type":"Feature"}],"type":"FeatureCollection"}