{"features":[{"geometry":{"coordinates":[[[-118.36529,33.76173],[-118.36466,33.76084],[-118.3652,33.76086],[-118.36553,33.76122],[-118.36577,33.76172],[-118.36529,33.76173]]],"type":"Polygon"},"properties":{"bbox":{"roads":{"area":62.03,"pct":1.25}},"city_same":1,"id":"hex:1992:17258"},"type":"Feature"},{"geometry":{"coordinates":[[[-118.36533,33.76368],[-118.36463,33.76271],[-118.36529,33.76173],[-118.36577,33.76172],[-118.36609,33.76241],[-118.36576,33.76258],[-118.3655,33.76235],[-118.36541,33.7624],[-118.3653,33.7623],[-118.36531,33.76252],[-118.36532,33.76289],[-118.36553,33.76325],[-118.3656,33.76368],[-118.36533,33.76368]]],"type":"Polygon"},"properties":{"bbox":{"roads":{"area":1515.68,"pct":11.62}},"city_same":1,"id":"hex:1992:17259"},"type":"Feature"},{"geometry":{"coordinates":[[[-118.36467,33.76467],[-118.36533,33.76368],[-118.3656,33.76368],[-118.36563,33.76385],[-118.36504,33.76519],[-118.36467,33.76467]]],"type":"Polygon"},"properties":{"bbox":{"roads":{"area":553.08,"pct":8.48}},"city_same":1,"id":"hex:1992:17260"},"type":"Feature"},{"geometry":{"coordinates":[[[-118.36325,33.76078],[-118.36256,33.75981],[-118.36304,33.75909],[-118.36458,33.75944],[-118.36448,33.75997],[-118.36432,33.76076],[-118.36325,33.76078]]],"type":"Polygon"},"properties":{"bbox":{"roads":{"area":82.68,"pct":0.33}},"city_same":1,"id":"hex:1993:17257"},"type":"Feature"},{"geometry":{"coordinates":[[[-118.36529,33.76173],[-118.36463,33.76271],[-118.36329,33.76273],[-118.3626,33.76176],[-118.36325,33.76078],[-118.36432,33.76076],[-118.36431,33.76082],[-118.36466,33.76084],[-118.36529,33.76173]]],"type":"Polygon"},"properties":{"bbox":{"roads":{"area":3393.23,"pct":8.4}},"city_same":1,"id":"hex:1993:17258"},"type":"Feature"},{"geometry":{"coordinates":[[[-118.36263,33.76371],[-118.36332,33.76468],[-118.36467,33.76467],[-118.36533,33.76368],[-118.36463,33.76271],[-118.36329,33.76273],[-118.36263,33.76371]]],"type":"Polygon"},"properties":{"bbox":{"roads":{"area":2494.33,"pct":6.14}},"city_same":1,"id":"hex:1993:17259"},"type":"Feature"},{"geometry":{"coordinates":[[[-118.3647,33.76662],[-118.36335,33.76663],[-118.36266,33.76566],[-118.36332,33.76468],[-118.36467,33.76467],[-118.36504,33.76519],[-118.36504,33.7652],[-118.36467,33.76544],[-118.36518,33.7659],[-118.3647,33.76662]]],"type":"Polygon"},"properties":{"bbox":{"roads":{"area":1614.9,"pct":4.22}},"city_same":1,"id":"hex:1993:17260"},"type":"Feature"},{"geometry":{"coordinates":[[[-118.36338,33.76858],[-118.36269,33.76762],[-118.36335,33.76663],[-118.3647,33.76662],[-118.36525,33.76739],[-118.36481,33.76781],[-118.3643,33.76808],[-118.3644,33.76822],[-118.36394,33.76858],[-118.36338,33.76858]]],"type":"Polygon"},"properties":{"bbox":{"roads":{"area":1034.58,"pct":3.01}},"city_same":1,"id":"hex:1993:17261"},"type":"Feature"},{"geometry":{"coordinates":[[[-118.36338,33.76858],[-118.36394,33.76858],[-118.36382,33.76868],[-118.36351,33.76894],[-118.36334,33.76916],[-118.36306,33.76906],[-118.36338,33.76858]]],"type":"Polygon"},"properties":{"bbox":{"roads":{"area":22.09,"pct":0.94}},"city_same":1,"id":"hex:1993:17262"},"type":"Feature"},{"geometry":{"coordinates":[[[-118.36256,33.75981],[-118.36121,33.75982],[-118.36052,33.75885],[-118.36082,33.75842],[-118.36156,33.75876],[-118.36304,33.75909],[-118.36256,33.75981]]],"type":"Polygon"},"properties":{"bbox":{"roads":{"area":775.31,"pct":3.63}},"city_same":1,"id":"hex:1994:17257"},"type":"Feature"},{"geometry":{"coordinates":[[[-118.36056,33.76081],[-118.36125,33.76177],[-118.3626,33.76176],[-118.36325,33.76078],[-118.36256,33.75981],[-118.36121,33.75982],[-118.36056,33.76081]]],"type":"Polygon"},"properties":{"bbox":{"roads":{"area":4096.61,"pct":10.09}},"city_same":1,"id":"hex:1994:17258"},"type":"Feature"},{"geometry":{"coordinates":[[[-118.36059,33.76276],[-118.36128,33.76373],[-118.36263,33.76371],[-118.36329,33.76273],[-118.3626,33.76176],[-118.36125,33.76177],[-118.36059,33.76276]]],"type":"Polygon"},"properties":{"bbox":{"roads":{"area":1314.85,"pct":3.24}},"city_same":1,"id":"hex:1994:17259"},"type":"Feature"},{"geometry":{"coordinates":[[[-118.36062,33.76471],[-118.36131,33.76568],[-118.36266,33.76566],[-118.36332,33.76468],[-118.36263,33.76371],[-118.36128,33.76373],[-118.36062,33.76471]]],"type":"Polygon"},"properties":{"bbox":{"roads":{"area":2775.18,"pct":6.84}},"city_same":1,"id":"hex:1994:17260"},"type":"Feature"},{"geometry":{"coordinates":[[[-118.36065,33.76666],[-118.36134,33.76763],[-118.36269,33.76762],[-118.36335,33.76663],[-118.36266,33.76566],[-118.36131,33.76568],[-118.36065,33.76666]]],"type":"Polygon"},"properties":{"bbox":{"roads":{"area":893.31,"pct":2.2}},"city_same":1,"id":"hex:1994:17261"},"type":"Feature"},{"geometry":{"coordinates":[[[-118.36134,33.76763],[-118.36269,33.76762],[-118.36338,33.76858],[-118.36306,33.76906],[-118.36089,33.76829],[-118.36134,33.76763]]],"type":"Polygon"},"properties":{"bbox":{"roads":{"area":585.58,"pct":2.6}},"city_same":1,"id":"hex:1994:17262"},"type":"Feature"},{"geometry":{"coordinates":[[[-118.35852,33.75985],[-118.35921,33.76082],[-118.36056,33.76081],[-118.36121,33.75982],[-118.36052,33.75885],[-118.35918,33.75887],[-118.35852,33.75985]]],"type":"Polygon"},"properties":{"bbox":{"roads":{"area":3188.28,"pct":7.85}},"city_same":1,"id":"hex:1995:17257"},"type":"Feature"},{"geometry":{"coordinates":[[[-118.35855,33.7618],[-118.35924,33.76277],[-118.36059,33.76276],[-118.36125,33.76177],[-118.36056,33.76081],[-118.35921,33.76082],[-118.35855,33.7618]]],"type":"Polygon"},"properties":{"bbox":{"roads":{"area":1234.79,"pct":3.04}},"city_same":1,"id":"hex:1995:17258"},"type":"Feature"},{"geometry":{"coordinates":[[[-118.35858,33.76376],[-118.35927,33.76473],[-118.36062,33.76471],[-118.36128,33.76373],[-118.36059,33.76276],[-118.35924,33.76277],[-118.35858,33.76376]]],"type":"Polygon"},"properties":{"bbox":{"roads":{"area":3382.14,"pct":8.33}},"city_same":1,"id":"hex:1995:17259"},"type":"Feature"},{"geometry":{"coordinates":[[[-118.35864,33.76766],[-118.3593,33.76668],[-118.36065,33.76666],[-118.36134,33.76763],[-118.36089,33.76829],[-118.35954,33.76781],[-118.35908,33.76828],[-118.35864,33.76766]]],"type":"Polygon"},"properties":{"bbox":{"roads":{"area":124.19,"pct":0.4}},"city_same":1,"id":"hex:1995:17261"},"type":"Feature"},{"geometry":{"coordinates":[[[-118.35849,33.7579],[-118.35714,33.75791],[-118.35645,33.75695],[-118.35672,33.75653],[-118.35699,33.75666],[-118.35877,33.75748],[-118.35849,33.7579]]],"type":"Polygon"},"properties":{"bbox":{"roads":{"area":108.97,"pct":0.6}},"city_same":1,"id":"hex:1996:17256"},"type":"Feature"},{"geometry":{"coordinates":[[[-118.35648,33.7589],[-118.35717,33.75987],[-118.35852,33.75985],[-118.35918,33.75887],[-118.35849,33.7579],[-118.35714,33.75791],[-118.35648,33.7589]]],"type":"Polygon"},"properties":{"bbox":{"roads":{"area":3771.98,"pct":9.29}},"city_same":1,"id":"hex:1996:17257"},"type":"Feature"},{"geometry":{"coordinates":[[[-118.35651,33.76085],[-118.3572,33.76182],[-118.35855,33.7618],[-118.35921,33.76082],[-118.35852,33.75985],[-118.35717,33.75987],[-118.35651,33.76085]]],"type":"Polygon"},"properties":{"bbox":{"roads":{"area":2756.28,"pct":6.79}},"city_same":1,"id":"hex:1996:17258"},"type":"Feature"},{"geometry":{"coordinates":[[[-118.35654,33.7628],[-118.35723,33.76377],[-118.35858,33.76376],[-118.35924,33.76277],[-118.35855,33.7618],[-118.3572,33.76182],[-118.35654,33.7628]]],"type":"Polygon"},"properties":{"bbox":{"roads":{"area":1586.95,"pct":3.91}},"city_same":1,"id":"hex:1996:17259"},"type":"Feature"},{"geometry":{"coordinates":[[[-118.35657,33.76475],[-118.35726,33.76572],[-118.35861,33.76571],[-118.35927,33.76473],[-118.35858,33.76376],[-118.35723,33.76377],[-118.35657,33.76475]]],"type":"Polygon"},"properties":{"bbox":{"roads":{"area":353.73,"pct":0.87}},"city_same":1,"id":"hex:1996:17260"},"type":"Feature"},{"geometry":{"coordinates":[[[-118.35497,33.74915],[-118.35428,33.74818],[-118.35494,33.7472],[-118.35629,33.74719],[-118.35659,33.74761],[-118.35616,33.74859],[-118.35617,33.74859],[-118.35564,33.74914],[-118.35497,33.74915]]],"type":"Polygon"},"properties":{"bbox":{"roads":{"area":356.98,"pct":1.09}},"city_same":1,"id":"hex:1997:17251"},"type":"Feature"},{"geometry":{"coordinates":[[[-118.35504,33.75306],[-118.35435,33.75209],[-118.35466,33.75162],[-118.35477,33.75168],[-118.35525,33.75305],[-118.35504,33.75306]]],"type":"Polygon"},"properties":{"bbox":{"roads":{"area":20.02,"pct":0.37}},"city_same":1,"id":"hex:1997:17253"},"type":"Feature"},{"geometry":{"coordinates":[[[-118.35645,33.75695],[-118.3551,33.75696],[-118.35441,33.75599],[-118.35507,33.75501],[-118.35561,33.755],[-118.35581,33.75552],[-118.35551,33.75595],[-118.35672,33.75653],[-118.35645,33.75695]]],"type":"Polygon"},"properties":{"bbox":{"roads":{"area":10.28,"pct":0.04}},"city_same":1,"id":"hex:1997:17255"},"type":"Feature"},{"geometry":{"coordinates":[[[-118.35444,33.75794],[-118.35513,33.75891],[-118.35648,33.7589],[-118.35714,33.75791],[-118.35645,33.75695],[-118.3551,33.75696],[-118.35444,33.75794]]],"type":"Polygon"},"properties":{"bbox":{"roads":{"area":2989.89,"pct":7.37}},"city_same":1,"id":"hex:1997:17256"},"type":"Feature"},{"geometry":{"coordinates":[[[-118.3545,33.76185],[-118.35519,33.76282],[-118.35654,33.7628],[-118.3572,33.76182],[-118.35651,33.76085],[-118.35516,33.76087],[-118.3545,33.76185]]],"type":"Polygon"},"properties":{"bbox":{"roads":{"area":167.88,"pct":0.41}},"city_same":1,"id":"hex:1997:17258"},"type":"Feature"},{"geometry":{"coordinates":[[[-118.35453,33.7638],[-118.35522,33.76477],[-118.35657,33.76475],[-118.35723,33.76377],[-118.35654,33.7628],[-118.35519,33.76282],[-118.35453,33.7638]]],"type":"Polygon"},"properties":{"bbox":{"roads":{"area":1188.59,"pct":2.93}},"city_same":1,"id":"hex:1997:17259"},"type":"Feature"},{"geometry":{"coordinates":[[[-118.35456,33.76575],[-118.35525,33.76672],[-118.3566,33.76671],[-118.35726,33.76572],[-118.35657,33.76475],[-118.35522,33.76477],[-118.35456,33.76575]]],"type":"Polygon"},"properties":{"bbox":{"roads":{"area":1623.42,"pct":4}},"city_same":1,"id":"hex:1997:17260"},"type":"Feature"},{"geometry":{"coordinates":[[[-118.35459,33.76771],[-118.35528,33.76867],[-118.35663,33.76866],[-118.35729,33.76768],[-118.3566,33.76671],[-118.35525,33.76672],[-118.35459,33.76771]]],"type":"Polygon"},"properties":{"bbox":{"roads":{"area":898.3,"pct":2.21}},"city_same":1,"id":"hex:1997:17261"},"type":"Feature"},{"geometry":{"coordinates":[[[-118.35224,33.74723],[-118.35293,33.7482],[-118.35428,33.74818],[-118.35494,33.7472],[-118.35425,33.74623],[-118.3529,33.74625],[-118.35224,33.74723]]],"type":"Polygon"},"properties":{"bbox":{"roads":{"area":1946.59,"pct":4.8}},"city_same":1,"id":"hex:1998:17251"},"type":"Feature"},{"geometry":{"coordinates":[[[-118.35228,33.74918],[-118.35297,33.75015],[-118.35431,33.75014],[-118.35497,33.74915],[-118.35428,33.74818],[-118.35293,33.7482],[-118.35228,33.74918]]],"type":"Polygon"},"properties":{"bbox":{"roads":{"area":1794.61,"pct":4.42}},"city_same":1,"id":"hex:1998:17252"},"type":"Feature"},{"geometry":{"coordinates":[[[-118.35435,33.75209],[-118.353,33.7521],[-118.35231,33.75113],[-118.35297,33.75015],[-118.35431,33.75014],[-118.35447,33.75036],[-118.35379,33.75107],[-118.35466,33.75162],[-118.35435,33.75209]]],"type":"Polygon"},"properties":{"bbox":{"roads":{"area":7.83,"pct":0.02}},"city_same":1,"id":"hex:1998:17253"},"type":"Feature"},{"geometry":{"coordinates":[[[-118.35234,33.75309],[-118.35303,33.75405],[-118.35438,33.75404],[-118.35504,33.75306],[-118.35435,33.75209],[-118.353,33.7521],[-118.35234,33.75309]]],"type":"Polygon"},"properties":{"bbox":{"roads":{"area":2927.03,"pct":7.21}},"city_same":1,"id":"hex:1998:17254"},"type":"Feature"},{"geometry":{"coordinates":[[[-118.35237,33.75504],[-118.35306,33.75601],[-118.35441,33.75599],[-118.35507,33.75501],[-118.35438,33.75404],[-118.35303,33.75405],[-118.35237,33.75504]]],"type":"Polygon"},"properties":{"bbox":{"roads":{"area":1892.43,"pct":4.66}},"city_same":1,"id":"hex:1998:17255"},"type":"Feature"},{"geometry":{"coordinates":[[[-118.3524,33.75699],[-118.35309,33.75796],[-118.35444,33.75794],[-118.3551,33.75696],[-118.35441,33.75599],[-118.35306,33.75601],[-118.3524,33.75699]]],"type":"Polygon"},"properties":{"bbox":{"roads":{"area":3409.35,"pct":8.4}},"city_same":1,"id":"hex:1998:17256"},"type":"Feature"},{"geometry":{"coordinates":[[[-118.35243,33.75894],[-118.35312,33.75991],[-118.35447,33.7599],[-118.35513,33.75891],[-118.35444,33.75794],[-118.35309,33.75796],[-118.35243,33.75894]]],"type":"Polygon"},"properties":{"bbox":{"roads":{"area":1814.68,"pct":4.47}},"city_same":1,"id":"hex:1998:17257"},"type":"Feature"},{"geometry":{"coordinates":[[[-118.35246,33.7609],[-118.35315,33.76186],[-118.3545,33.76185],[-118.35516,33.76087],[-118.35447,33.7599],[-118.35312,33.75991],[-118.35246,33.7609]]],"type":"Polygon"},"properties":{"bbox":{"roads":{"area":2118.56,"pct":5.22}},"city_same":1,"id":"hex:1998:17258"},"type":"Feature"},{"geometry":{"coordinates":[[[-118.35249,33.76285],[-118.35318,33.76382],[-118.35453,33.7638],[-118.35519,33.76282],[-118.3545,33.76185],[-118.35315,33.76186],[-118.35249,33.76285]]],"type":"Polygon"},"properties":{"bbox":{"roads":{"area":1730.44,"pct":4.26}},"city_same":1,"id":"hex:1998:17259"},"type":"Feature"},{"geometry":{"coordinates":[[[-118.35252,33.7648],[-118.35321,33.76577],[-118.35456,33.76575],[-118.35522,33.76477],[-118.35453,33.7638],[-118.35318,33.76382],[-118.35252,33.7648]]],"type":"Polygon"},"properties":{"bbox":{"roads":{"area":2037.38,"pct":5.02}},"city_same":1,"id":"hex:1998:17260"},"type":"Feature"},{"geometry":{"coordinates":[[[-118.35255,33.76675],[-118.35324,33.76772],[-118.35459,33.76771],[-118.35525,33.76672],[-118.35456,33.76575],[-118.35321,33.76577],[-118.35255,33.76675]]],"type":"Polygon"},"properties":{"bbox":{"roads":{"area":667.18,"pct":1.64}},"city_same":1,"id":"hex:1998:17261"},"type":"Feature"},{"geometry":{"coordinates":[[[-118.35258,33.7687],[-118.35327,33.76967],[-118.35462,33.76966],[-118.35528,33.76867],[-118.35459,33.76771],[-118.35324,33.76772],[-118.35258,33.7687]]],"type":"Polygon"},"properties":{"bbox":{"roads":{"area":334.55,"pct":0.82}},"city_same":1,"id":"hex:1998:17262"},"type":"Feature"},{"geometry":{"coordinates":[[[-118.35261,33.77066],[-118.3533,33.77162],[-118.35465,33.77161],[-118.35531,33.77063],[-118.35462,33.76966],[-118.35327,33.76967],[-118.35261,33.77066]]],"type":"Polygon"},"properties":{"bbox":{"roads":{"area":616.81,"pct":1.52}},"city_same":1,"id":"hex:1998:17263"},"type":"Feature"},{"geometry":{"coordinates":[[[-118.35021,33.74628],[-118.3509,33.74724],[-118.35224,33.74723],[-118.3529,33.74625],[-118.35221,33.74528],[-118.35086,33.74529],[-118.35021,33.74628]]],"type":"Polygon"},"properties":{"bbox":{"roads":{"area":322.34,"pct":0.79}},"city_same":1,"id":"hex:1999:17250"},"type":"Feature"},{"geometry":{"coordinates":[[[-118.35024,33.74823],[-118.35093,33.7492],[-118.35228,33.74918],[-118.35293,33.7482],[-118.35224,33.74723],[-118.3509,33.74724],[-118.35024,33.74823]]],"type":"Polygon"},"properties":{"bbox":{"roads":{"area":3269.82,"pct":8.05}},"city_same":1,"id":"hex:1999:17251"},"type":"Feature"},{"geometry":{"coordinates":[[[-118.35027,33.75018],[-118.35096,33.75115],[-118.35231,33.75113],[-118.35297,33.75015],[-118.35228,33.74918],[-118.35093,33.7492],[-118.35027,33.75018]]],"type":"Polygon"},"properties":{"bbox":{"roads":{"area":1323.3,"pct":3.26}},"city_same":1,"id":"hex:1999:17252"},"type":"Feature"},{"geometry":{"coordinates":[[[-118.3503,33.75213],[-118.35099,33.7531],[-118.35234,33.75309],[-118.353,33.7521],[-118.35231,33.75113],[-118.35096,33.75115],[-118.3503,33.75213]]],"type":"Polygon"},"properties":{"bbox":{"roads":{"area":599.83,"pct":1.48}},"city_same":1,"id":"hex:1999:17253"},"type":"Feature"},{"geometry":{"coordinates":[[[-118.35033,33.75408],[-118.35102,33.75505],[-118.35237,33.75504],[-118.35303,33.75405],[-118.35234,33.75309],[-118.35099,33.7531],[-118.35033,33.75408]]],"type":"Polygon"},"properties":{"bbox":{"roads":{"area":2494.45,"pct":6.14}},"city_same":1,"id":"hex:1999:17254"},"type":"Feature"},{"geometry":{"coordinates":[[[-118.35036,33.75604],[-118.35105,33.75701],[-118.3524,33.75699],[-118.35306,33.75601],[-118.35237,33.75504],[-118.35102,33.75505],[-118.35036,33.75604]]],"type":"Polygon"},"properties":{"bbox":{"roads":{"area":3606.42,"pct":8.88}},"city_same":1,"id":"hex:1999:17255"},"type":"Feature"},{"geometry":{"coordinates":[[[-118.35039,33.75799],[-118.35108,33.75896],[-118.35243,33.75894],[-118.35309,33.75796],[-118.3524,33.75699],[-118.35105,33.75701],[-118.35039,33.75799]]],"type":"Polygon"},"properties":{"bbox":{"roads":{"area":1218.07,"pct":3}},"city_same":1,"id":"hex:1999:17256"},"type":"Feature"},{"geometry":{"coordinates":[[[-118.35042,33.75994],[-118.35111,33.76091],[-118.35246,33.7609],[-118.35312,33.75991],[-118.35243,33.75894],[-118.35108,33.75896],[-118.35042,33.75994]]],"type":"Polygon"},"properties":{"bbox":{"roads":{"area":765.59,"pct":1.89}},"city_same":1,"id":"hex:1999:17257"},"type":"Feature"},{"geometry":{"coordinates":[[[-118.35048,33.76385],[-118.35117,33.76481],[-118.35252,33.7648],[-118.35318,33.76382],[-118.35249,33.76285],[-118.35114,33.76286],[-118.35048,33.76385]]],"type":"Polygon"},"properties":{"bbox":{"roads":{"area":969.95,"pct":2.39}},"city_same":1,"id":"hex:1999:17259"},"type":"Feature"},{"geometry":{"coordinates":[[[-118.35051,33.7658],[-118.3512,33.76677],[-118.35255,33.76675],[-118.35321,33.76577],[-118.35252,33.7648],[-118.35117,33.76481],[-118.35051,33.7658]]],"type":"Polygon"},"properties":{"bbox":{"roads":{"area":3095.58,"pct":7.63}},"city_same":1,"id":"hex:1999:17260"},"type":"Feature"},{"geometry":{"coordinates":[[[-118.35054,33.76775],[-118.35123,33.76872],[-118.35258,33.7687],[-118.35324,33.76772],[-118.35255,33.76675],[-118.3512,33.76677],[-118.35054,33.76775]]],"type":"Polygon"},"properties":{"bbox":{"roads":{"area":1035.85,"pct":2.55}},"city_same":1,"id":"hex:1999:17261"},"type":"Feature"},{"geometry":{"coordinates":[[[-118.35057,33.7697],[-118.35126,33.77067],[-118.35261,33.77066],[-118.35327,33.76967],[-118.35258,33.7687],[-118.35123,33.76872],[-118.35057,33.7697]]],"type":"Polygon"},"properties":{"bbox":{"roads":{"area":1525.25,"pct":3.76}},"city_same":1,"id":"hex:1999:17262"},"type":"Feature"},{"geometry":{"coordinates":[[[-118.3506,33.77165],[-118.35129,33.77262],[-118.35264,33.77261],[-118.3533,33.77162],[-118.35261,33.77066],[-118.35126,33.77067],[-118.3506,33.77165]]],"type":"Polygon"},"properties":{"bbox":{"roads":{"area":1751.32,"pct":4.31}},"city_same":1,"id":"hex:1999:17263"},"type":"Feature"},{"geometry":{"coordinates":[[[-118.35063,33.77361],[-118.35129,33.77262],[-118.35264,33.77261],[-118.35304,33.77316],[-118.35271,33.77341],[-118.35128,33.77451],[-118.35063,33.77361]]],"type":"Polygon"},"properties":{"bbox":{"roads":{"area":992.72,"pct":3.66}},"city_same":1,"id":"hex:1999:17264"},"type":"Feature"},{"geometry":{"coordinates":[[[-118.34817,33.74532],[-118.34886,33.74629],[-118.35021,33.74628],[-118.35086,33.74529],[-118.35017,33.74432],[-118.34883,33.74434],[-118.34817,33.74532]]],"type":"Polygon"},"properties":{"bbox":{"roads":{"area":1792.24,"pct":4.41}},"city_same":1,"id":"hex:2000:17250"},"type":"Feature"},{"geometry":{"coordinates":[[[-118.3482,33.74727],[-118.34889,33.74824],[-118.35024,33.74823],[-118.3509,33.74724],[-118.35021,33.74628],[-118.34886,33.74629],[-118.3482,33.74727]]],"type":"Polygon"},"properties":{"bbox":{"roads":{"area":274.02,"pct":0.68}},"city_same":1,"id":"hex:2000:17251"},"type":"Feature"},{"geometry":{"coordinates":[[[-118.34823,33.74923],[-118.34892,33.75019],[-118.35027,33.75018],[-118.35093,33.7492],[-118.35024,33.74823],[-118.34889,33.74824],[-118.34823,33.74923]]],"type":"Polygon"},"properties":{"bbox":{"roads":{"area":2545.6,"pct":6.27}},"city_same":1,"id":"hex:2000:17252"},"type":"Feature"},{"geometry":{"coordinates":[[[-118.34826,33.75118],[-118.34895,33.75215],[-118.3503,33.75213],[-118.35096,33.75115],[-118.35027,33.75018],[-118.34892,33.75019],[-118.34826,33.75118]]],"type":"Polygon"},"properties":{"bbox":{"roads":{"area":1518.98,"pct":3.74}},"city_same":1,"id":"hex:2000:17253"},"type":"Feature"},{"geometry":{"coordinates":[[[-118.34829,33.75313],[-118.34898,33.7541],[-118.35033,33.75408],[-118.35099,33.7531],[-118.3503,33.75213],[-118.34895,33.75215],[-118.34829,33.75313]]],"type":"Polygon"},"properties":{"bbox":{"roads":{"area":1819.78,"pct":4.48}},"city_same":1,"id":"hex:2000:17254"},"type":"Feature"},{"geometry":{"coordinates":[[[-118.34832,33.75508],[-118.34901,33.75605],[-118.35036,33.75604],[-118.35102,33.75505],[-118.35033,33.75408],[-118.34898,33.7541],[-118.34832,33.75508]]],"type":"Polygon"},"properties":{"bbox":{"roads":{"area":4122.37,"pct":10.15}},"city_same":1,"id":"hex:2000:17255"},"type":"Feature"},{"geometry":{"coordinates":[[[-118.34835,33.75703],[-118.34904,33.758],[-118.35039,33.75799],[-118.35105,33.75701],[-118.35036,33.75604],[-118.34901,33.75605],[-118.34835,33.75703]]],"type":"Polygon"},"properties":{"bbox":{"roads":{"area":2404.86,"pct":5.92}},"city_same":1,"id":"hex:2000:17256"},"type":"Feature"},{"geometry":{"coordinates":[[[-118.34838,33.75899],[-118.34907,33.75996],[-118.35042,33.75994],[-118.35108,33.75896],[-118.35039,33.75799],[-118.34904,33.758],[-118.34838,33.75899]]],"type":"Polygon"},"properties":{"bbox":{"roads":{"area":1984.39,"pct":4.89}},"city_same":1,"id":"hex:2000:17257"},"type":"Feature"},{"geometry":{"coordinates":[[[-118.34841,33.76094],[-118.3491,33.76191],[-118.35045,33.76189],[-118.35111,33.76091],[-118.35042,33.75994],[-118.34907,33.75996],[-118.34841,33.76094]]],"type":"Polygon"},"properties":{"bbox":{"roads":{"area":2867.49,"pct":7.06}},"city_same":1,"id":"hex:2000:17258"},"type":"Feature"},{"geometry":{"coordinates":[[[-118.34844,33.76289],[-118.34913,33.76386],[-118.35048,33.76385],[-118.35114,33.76286],[-118.35045,33.76189],[-118.3491,33.76191],[-118.34844,33.76289]]],"type":"Polygon"},"properties":{"bbox":{"roads":{"area":3235.93,"pct":7.97}},"city_same":1,"id":"hex:2000:17259"},"type":"Feature"},{"geometry":{"coordinates":[[[-118.34847,33.76484],[-118.34916,33.76581],[-118.35051,33.7658],[-118.35117,33.76481],[-118.35048,33.76385],[-118.34913,33.76386],[-118.34847,33.76484]]],"type":"Polygon"},"properties":{"bbox":{"roads":{"area":2207.19,"pct":5.44}},"city_same":1,"id":"hex:2000:17260"},"type":"Feature"},{"geometry":{"coordinates":[[[-118.3485,33.7668],[-118.34919,33.76776],[-118.35054,33.76775],[-118.3512,33.76677],[-118.35051,33.7658],[-118.34916,33.76581],[-118.3485,33.7668]]],"type":"Polygon"},"properties":{"bbox":{"roads":{"area":736.22,"pct":1.81}},"city_same":1,"id":"hex:2000:17261"},"type":"Feature"},{"geometry":{"coordinates":[[[-118.34853,33.76875],[-118.34922,33.76972],[-118.35057,33.7697],[-118.35123,33.76872],[-118.35054,33.76775],[-118.34919,33.76776],[-118.34853,33.76875]]],"type":"Polygon"},"properties":{"bbox":{"roads":{"area":1059.46,"pct":2.61}},"city_same":1,"id":"hex:2000:17262"},"type":"Feature"},{"geometry":{"coordinates":[[[-118.34856,33.7707],[-118.34925,33.77167],[-118.3506,33.77165],[-118.35126,33.77067],[-118.35057,33.7697],[-118.34922,33.76972],[-118.34856,33.7707]]],"type":"Polygon"},"properties":{"bbox":{"roads":{"area":600.65,"pct":1.48}},"city_same":1,"id":"hex:2000:17263"},"type":"Feature"},{"geometry":{"coordinates":[[[-118.34859,33.77265],[-118.34928,33.77362],[-118.35063,33.77361],[-118.35129,33.77262],[-118.3506,33.77165],[-118.34925,33.77167],[-118.34859,33.77265]]],"type":"Polygon"},"properties":{"bbox":{"roads":{"area":1997.23,"pct":4.92}},"city_same":1,"id":"hex:2000:17264"},"type":"Feature"},{"geometry":{"coordinates":[[[-118.34931,33.77557],[-118.34862,33.7746],[-118.34928,33.77362],[-118.35063,33.77361],[-118.35128,33.77451],[-118.35039,33.7752],[-118.3503,33.77556],[-118.34931,33.77557]]],"type":"Polygon"},"properties":{"bbox":{"roads":{"area":2682.03,"pct":7.28}},"city_same":1,"id":"hex:2000:17265"},"type":"Feature"},{"geometry":{"coordinates":[[[-118.34935,33.77753],[-118.34866,33.77656],[-118.34931,33.77557],[-118.3503,33.77556],[-118.35001,33.77669],[-118.35002,33.77733],[-118.35003,33.77752],[-118.34935,33.77753]]],"type":"Polygon"},"properties":{"bbox":{"roads":{"area":1203.61,"pct":5.44}},"city_same":1,"id":"hex:2000:17266"},"type":"Feature"},{"geometry":{"coordinates":[[[-118.34613,33.74437],[-118.34682,33.74534],[-118.34817,33.74532],[-118.34883,33.74434],[-118.34814,33.74337],[-118.34679,33.74338],[-118.34613,33.74437]]],"type":"Polygon"},"properties":{"bbox":{"roads":{"area":1891.66,"pct":4.66}},"city_same":1,"id":"hex:2001:17249"},"type":"Feature"},{"geometry":{"coordinates":[[[-118.34616,33.74632],[-118.34685,33.74729],[-118.3482,33.74727],[-118.34886,33.74629],[-118.34817,33.74532],[-118.34682,33.74534],[-118.34616,33.74632]]],"type":"Polygon"},"properties":{"bbox":{"roads":{"area":1591.49,"pct":3.92}},"city_same":1,"id":"hex:2001:17250"},"type":"Feature"},{"geometry":{"coordinates":[[[-118.34619,33.74827],[-118.34688,33.74924],[-118.34823,33.74923],[-118.34889,33.74824],[-118.3482,33.74727],[-118.34685,33.74729],[-118.34619,33.74827]]],"type":"Polygon"},"properties":{"bbox":{"roads":{"area":584.96,"pct":1.44}},"city_same":1,"id":"hex:2001:17251"},"type":"Feature"},{"geometry":{"coordinates":[[[-118.34622,33.75022],[-118.34691,33.75119],[-118.34826,33.75118],[-118.34892,33.75019],[-118.34823,33.74923],[-118.34688,33.74924],[-118.34622,33.75022]]],"type":"Polygon"},"properties":{"bbox":{"roads":{"area":1134.99,"pct":2.8}},"city_same":1,"id":"hex:2001:17252"},"type":"Feature"},{"geometry":{"coordinates":[[[-118.34625,33.75218],[-118.34694,33.75315],[-118.34829,33.75313],[-118.34895,33.75215],[-118.34826,33.75118],[-118.34691,33.75119],[-118.34625,33.75218]]],"type":"Polygon"},"properties":{"bbox":{"roads":{"area":2390.45,"pct":5.89}},"city_same":1,"id":"hex:2001:17253"},"type":"Feature"},{"geometry":{"coordinates":[[[-118.34628,33.75413],[-118.34697,33.7551],[-118.34832,33.75508],[-118.34898,33.7541],[-118.34829,33.75313],[-118.34694,33.75315],[-118.34628,33.75413]]],"type":"Polygon"},"properties":{"bbox":{"roads":{"area":2102.27,"pct":5.18}},"city_same":1,"id":"hex:2001:17254"},"type":"Feature"},{"geometry":{"coordinates":[[[-118.34631,33.75608],[-118.347,33.75705],[-118.34835,33.75703],[-118.34901,33.75605],[-118.34832,33.75508],[-118.34697,33.7551],[-118.34631,33.75608]]],"type":"Polygon"},"properties":{"bbox":{"roads":{"area":1371.72,"pct":3.38}},"city_same":1,"id":"hex:2001:17255"},"type":"Feature"},{"geometry":{"coordinates":[[[-118.34634,33.75803],[-118.34703,33.759],[-118.34838,33.75899],[-118.34904,33.758],[-118.34835,33.75703],[-118.347,33.75705],[-118.34634,33.75803]]],"type":"Polygon"},"properties":{"bbox":{"roads":{"area":706.68,"pct":1.74}},"city_same":1,"id":"hex:2001:17256"},"type":"Feature"},{"geometry":{"coordinates":[[[-118.34637,33.75999],[-118.34706,33.76095],[-118.34841,33.76094],[-118.34907,33.75996],[-118.34838,33.75899],[-118.34703,33.759],[-118.34637,33.75999]]],"type":"Polygon"},"properties":{"bbox":{"roads":{"area":171.53,"pct":0.42}},"city_same":1,"id":"hex:2001:17257"},"type":"Feature"},{"geometry":{"coordinates":[[[-118.3464,33.76194],[-118.34709,33.76291],[-118.34844,33.76289],[-118.3491,33.76191],[-118.34841,33.76094],[-118.34706,33.76095],[-118.3464,33.76194]]],"type":"Polygon"},"properties":{"bbox":{"roads":{"area":1328.29,"pct":3.27}},"city_same":1,"id":"hex:2001:17258"},"type":"Feature"},{"geometry":{"coordinates":[[[-118.34643,33.76389],[-118.34712,33.76486],[-118.34847,33.76484],[-118.34913,33.76386],[-118.34844,33.76289],[-118.34709,33.76291],[-118.34643,33.76389]]],"type":"Polygon"},"properties":{"bbox":{"roads":{"area":3148.85,"pct":7.76}},"city_same":1,"id":"hex:2001:17259"},"type":"Feature"},{"geometry":{"coordinates":[[[-118.34646,33.76584],[-118.34715,33.76681],[-118.3485,33.7668],[-118.34916,33.76581],[-118.34847,33.76484],[-118.34712,33.76486],[-118.34646,33.76584]]],"type":"Polygon"},"properties":{"bbox":{"roads":{"area":1660.15,"pct":4.09}},"city_same":1,"id":"hex:2001:17260"},"type":"Feature"},{"geometry":{"coordinates":[[[-118.34649,33.76779],[-118.34718,33.76876],[-118.34853,33.76875],[-118.34919,33.76776],[-118.3485,33.7668],[-118.34715,33.76681],[-118.34649,33.76779]]],"type":"Polygon"},"properties":{"bbox":{"roads":{"area":2734.99,"pct":6.74}},"city_same":1,"id":"hex:2001:17261"},"type":"Feature"},{"geometry":{"coordinates":[[[-118.34652,33.76975],[-118.34721,33.77071],[-118.34856,33.7707],[-118.34922,33.76972],[-118.34853,33.76875],[-118.34718,33.76876],[-118.34652,33.76975]]],"type":"Polygon"},"properties":{"bbox":{"roads":{"area":768,"pct":1.89}},"city_same":1,"id":"hex:2001:17262"},"type":"Feature"},{"geometry":{"coordinates":[[[-118.34655,33.7717],[-118.34724,33.77267],[-118.34859,33.77265],[-118.34925,33.77167],[-118.34856,33.7707],[-118.34721,33.77071],[-118.34655,33.7717]]],"type":"Polygon"},"properties":{"bbox":{"roads":{"area":1233.15,"pct":3.04}},"city_same":1,"id":"hex:2001:17263"},"type":"Feature"},{"geometry":{"coordinates":[[[-118.34659,33.77365],[-118.34728,33.77462],[-118.34862,33.7746],[-118.34928,33.77362],[-118.34859,33.77265],[-118.34724,33.77267],[-118.34659,33.77365]]],"type":"Polygon"},"properties":{"bbox":{"roads":{"area":2783.35,"pct":6.86}},"city_same":1,"id":"hex:2001:17264"},"type":"Feature"},{"geometry":{"coordinates":[[[-118.34662,33.7756],[-118.34731,33.77657],[-118.34866,33.77656],[-118.34931,33.77557],[-118.34862,33.7746],[-118.34728,33.77462],[-118.34662,33.7756]]],"type":"Polygon"},"properties":{"bbox":{"roads":{"area":1217.44,"pct":3}},"city_same":1,"id":"hex:2001:17265"},"type":"Feature"},{"geometry":{"coordinates":[[[-118.34665,33.77755],[-118.34734,33.77852],[-118.34869,33.77851],[-118.34935,33.77753],[-118.34866,33.77656],[-118.34731,33.77657],[-118.34665,33.77755]]],"type":"Polygon"},"properties":{"bbox":{"roads":{"area":987.26,"pct":2.43}},"city_same":1,"id":"hex:2001:17266"},"type":"Feature"},{"geometry":{"coordinates":[[[-118.34734,33.77852],[-118.34869,33.77851],[-118.34927,33.77933],[-118.34869,33.77994],[-118.34712,33.77884],[-118.34734,33.77852]]],"type":"Polygon"},"properties":{"bbox":{"roads":{"area":1369.77,"pct":7.63}},"city_same":1,"id":"hex:2001:17267"},"type":"Feature"},{"geometry":{"coordinates":[[[-118.34679,33.74338],[-118.34613,33.74437],[-118.34539,33.74438],[-118.34619,33.74254],[-118.34679,33.74338]]],"type":"Polygon"},"properties":{"bbox":{"roads":{"area":5.87,"pct":0.05}},"city_same":1,"id":"hex:2002:17249"},"type":"Feature"},{"geometry":{"coordinates":[[[-118.34613,33.74437],[-118.34682,33.74534],[-118.34616,33.74632],[-118.34481,33.74633],[-118.34412,33.74537],[-118.34451,33.74479],[-118.3451,33.74505],[-118.34539,33.74438],[-118.34613,33.74437]]],"type":"Polygon"},"properties":{"bbox":{"roads":{"area":875.4,"pct":2.38}},"city_same":1,"id":"hex:2002:17250"},"type":"Feature"},{"geometry":{"coordinates":[[[-118.34415,33.74732],[-118.34484,33.74829],[-118.34619,33.74827],[-118.34685,33.74729],[-118.34616,33.74632],[-118.34481,33.74633],[-118.34415,33.74732]]],"type":"Polygon"},"properties":{"bbox":{"roads":{"area":3208.42,"pct":7.9}},"city_same":1,"id":"hex:2002:17251"},"type":"Feature"},{"geometry":{"coordinates":[[[-118.34418,33.74927],[-118.34487,33.75024],[-118.34622,33.75022],[-118.34688,33.74924],[-118.34619,33.74827],[-118.34484,33.74829],[-118.34418,33.74927]]],"type":"Polygon"},"properties":{"bbox":{"roads":{"area":1458.59,"pct":3.59}},"city_same":1,"id":"hex:2002:17252"},"type":"Feature"},{"geometry":{"coordinates":[[[-118.34421,33.75122],[-118.3449,33.75219],[-118.34625,33.75218],[-118.34691,33.75119],[-118.34622,33.75022],[-118.34487,33.75024],[-118.34421,33.75122]]],"type":"Polygon"},"properties":{"bbox":{"roads":{"area":2891.23,"pct":7.12}},"city_same":1,"id":"hex:2002:17253"},"type":"Feature"},{"geometry":{"coordinates":[[[-118.34424,33.75317],[-118.34493,33.75414],[-118.34628,33.75413],[-118.34694,33.75315],[-118.34625,33.75218],[-118.3449,33.75219],[-118.34424,33.75317]]],"type":"Polygon"},"properties":{"bbox":{"roads":{"area":65.81,"pct":0.16}},"city_same":1,"id":"hex:2002:17254"},"type":"Feature"},{"geometry":{"coordinates":[[[-118.34427,33.75513],[-118.34496,33.7561],[-118.34631,33.75608],[-118.34697,33.7551],[-118.34628,33.75413],[-118.34493,33.75414],[-118.34427,33.75513]]],"type":"Polygon"},"properties":{"bbox":{"roads":{"area":1072.89,"pct":2.64}},"city_same":1,"id":"hex:2002:17255"},"type":"Feature"},{"geometry":{"coordinates":[[[-118.3443,33.75708],[-118.34499,33.75805],[-118.34634,33.75803],[-118.347,33.75705],[-118.34631,33.75608],[-118.34496,33.7561],[-118.3443,33.75708]]],"type":"Polygon"},"properties":{"bbox":{"roads":{"area":2196.19,"pct":5.41}},"city_same":1,"id":"hex:2002:17256"},"type":"Feature"},{"geometry":{"coordinates":[[[-118.34433,33.75903],[-118.34502,33.76],[-118.34637,33.75999],[-118.34703,33.759],[-118.34634,33.75803],[-118.34499,33.75805],[-118.34433,33.75903]]],"type":"Polygon"},"properties":{"bbox":{"roads":{"area":2639.08,"pct":6.5}},"city_same":1,"id":"hex:2002:17257"},"type":"Feature"},{"geometry":{"coordinates":[[[-118.34436,33.76098],[-118.34505,33.76195],[-118.3464,33.76194],[-118.34706,33.76095],[-118.34637,33.75999],[-118.34502,33.76],[-118.34436,33.76098]]],"type":"Polygon"},"properties":{"bbox":{"roads":{"area":787.12,"pct":1.94}},"city_same":1,"id":"hex:2002:17258"},"type":"Feature"},{"geometry":{"coordinates":[[[-118.34439,33.76294],[-118.34508,33.7639],[-118.34643,33.76389],[-118.34709,33.76291],[-118.3464,33.76194],[-118.34505,33.76195],[-118.34439,33.76294]]],"type":"Polygon"},"properties":{"bbox":{"roads":{"area":436.21,"pct":1.07}},"city_same":1,"id":"hex:2002:17259"},"type":"Feature"},{"geometry":{"coordinates":[[[-118.34442,33.76489],[-118.34511,33.76586],[-118.34646,33.76584],[-118.34712,33.76486],[-118.34643,33.76389],[-118.34508,33.7639],[-118.34442,33.76489]]],"type":"Polygon"},"properties":{"bbox":{"roads":{"area":3400.14,"pct":8.38}},"city_same":1,"id":"hex:2002:17260"},"type":"Feature"},{"geometry":{"coordinates":[[[-118.34445,33.76684],[-118.34514,33.76781],[-118.34649,33.76779],[-118.34715,33.76681],[-118.34646,33.76584],[-118.34511,33.76586],[-118.34445,33.76684]]],"type":"Polygon"},"properties":{"bbox":{"roads":{"area":1258.31,"pct":3.1}},"city_same":1,"id":"hex:2002:17261"},"type":"Feature"},{"geometry":{"coordinates":[[[-118.34448,33.76879],[-118.34517,33.76976],[-118.34652,33.76975],[-118.34718,33.76876],[-118.34649,33.76779],[-118.34514,33.76781],[-118.34448,33.76879]]],"type":"Polygon"},"properties":{"bbox":{"roads":{"area":1649.31,"pct":4.06}},"city_same":1,"id":"hex:2002:17262"},"type":"Feature"},{"geometry":{"coordinates":[[[-118.34451,33.77074],[-118.3452,33.77171],[-118.34655,33.7717],[-118.34721,33.77071],[-118.34652,33.76975],[-118.34517,33.76976],[-118.34451,33.77074]]],"type":"Polygon"},"properties":{"bbox":{"roads":{"area":2120.68,"pct":5.22}},"city_same":1,"id":"hex:2002:17263"},"type":"Feature"},{"geometry":{"coordinates":[[[-118.34455,33.7727],[-118.34524,33.77367],[-118.34659,33.77365],[-118.34724,33.77267],[-118.34655,33.7717],[-118.3452,33.77171],[-118.34455,33.7727]]],"type":"Polygon"},"properties":{"bbox":{"roads":{"area":2800.21,"pct":6.9}},"city_same":1,"id":"hex:2002:17264"},"type":"Feature"},{"geometry":{"coordinates":[[[-118.34458,33.77465],[-118.34527,33.77562],[-118.34662,33.7756],[-118.34728,33.77462],[-118.34659,33.77365],[-118.34524,33.77367],[-118.34458,33.77465]]],"type":"Polygon"},"properties":{"bbox":{"roads":{"area":4022.26,"pct":9.91}},"city_same":1,"id":"hex:2002:17265"},"type":"Feature"},{"geometry":{"coordinates":[[[-118.34461,33.7766],[-118.34527,33.77562],[-118.34662,33.7756],[-118.34731,33.77657],[-118.34665,33.77755],[-118.34536,33.77757],[-118.34523,33.77748],[-118.34461,33.7766]]],"type":"Polygon"},"properties":{"bbox":{"roads":{"area":1345.91,"pct":3.32}},"city_same":1,"id":"hex:2002:17266"},"type":"Feature"},{"geometry":{"coordinates":[[[-118.34665,33.77755],[-118.34734,33.77852],[-118.34712,33.77884],[-118.34691,33.77869],[-118.34536,33.77757],[-118.34665,33.77755]]],"type":"Polygon"},"properties":{"bbox":{"roads":{"area":1177.84,"pct":10.97}},"city_same":1,"id":"hex:2002:17267"},"type":"Feature"},{"geometry":{"coordinates":[[[-118.34211,33.74636],[-118.3428,33.74733],[-118.34415,33.74732],[-118.34481,33.74633],[-118.34412,33.74537],[-118.34277,33.74538],[-118.34211,33.74636]]],"type":"Polygon"},"properties":{"bbox":{"roads":{"area":1279.81,"pct":3.15}},"city_same":1,"id":"hex:2003:17250"},"type":"Feature"},{"geometry":{"coordinates":[[[-118.34214,33.74832],[-118.34283,33.74928],[-118.34418,33.74927],[-118.34484,33.74829],[-118.34415,33.74732],[-118.3428,33.74733],[-118.34214,33.74832]]],"type":"Polygon"},"properties":{"bbox":{"roads":{"area":2496.88,"pct":6.15}},"city_same":1,"id":"hex:2003:17251"},"type":"Feature"},{"geometry":{"coordinates":[[[-118.34217,33.75027],[-118.34286,33.75124],[-118.34421,33.75122],[-118.34487,33.75024],[-118.34418,33.74927],[-118.34283,33.74928],[-118.34217,33.75027]]],"type":"Polygon"},"properties":{"bbox":{"roads":{"area":4386.9,"pct":10.81}},"city_same":1,"id":"hex:2003:17252"},"type":"Feature"},{"geometry":{"coordinates":[[[-118.3422,33.75222],[-118.34289,33.75319],[-118.34424,33.75317],[-118.3449,33.75219],[-118.34421,33.75122],[-118.34286,33.75124],[-118.3422,33.75222]]],"type":"Polygon"},"properties":{"bbox":{"roads":{"area":2301.49,"pct":5.67}},"city_same":1,"id":"hex:2003:17253"},"type":"Feature"},{"geometry":{"coordinates":[[[-118.34223,33.75417],[-118.34292,33.75514],[-118.34427,33.75513],[-118.34493,33.75414],[-118.34424,33.75317],[-118.34289,33.75319],[-118.34223,33.75417]]],"type":"Polygon"},"properties":{"bbox":{"roads":{"area":1434.54,"pct":3.53}},"city_same":1,"id":"hex:2003:17254"},"type":"Feature"},{"geometry":{"coordinates":[[[-118.34226,33.75613],[-118.34295,33.75709],[-118.3443,33.75708],[-118.34496,33.7561],[-118.34427,33.75513],[-118.34292,33.75514],[-118.34226,33.75613]]],"type":"Polygon"},"properties":{"bbox":{"roads":{"area":536.47,"pct":1.32}},"city_same":1,"id":"hex:2003:17255"},"type":"Feature"},{"geometry":{"coordinates":[[[-118.34229,33.75808],[-118.34298,33.75905],[-118.34433,33.75903],[-118.34499,33.75805],[-118.3443,33.75708],[-118.34295,33.75709],[-118.34229,33.75808]]],"type":"Polygon"},"properties":{"bbox":{"roads":{"area":53.67,"pct":0.13}},"city_same":1,"id":"hex:2003:17256"},"type":"Feature"},{"geometry":{"coordinates":[[[-118.34232,33.76003],[-118.34301,33.761],[-118.34436,33.76098],[-118.34502,33.76],[-118.34433,33.75903],[-118.34298,33.75905],[-118.34232,33.76003]]],"type":"Polygon"},"properties":{"bbox":{"roads":{"area":1403.7,"pct":3.46}},"city_same":1,"id":"hex:2003:17257"},"type":"Feature"},{"geometry":{"coordinates":[[[-118.34235,33.76198],[-118.34304,33.76295],[-118.34439,33.76294],[-118.34505,33.76195],[-118.34436,33.76098],[-118.34301,33.761],[-118.34235,33.76198]]],"type":"Polygon"},"properties":{"bbox":{"roads":{"area":554.54,"pct":1.37}},"city_same":1,"id":"hex:2003:17258"},"type":"Feature"},{"geometry":{"coordinates":[[[-118.34238,33.76393],[-118.34307,33.7649],[-118.34442,33.76489],[-118.34508,33.7639],[-118.34439,33.76294],[-118.34304,33.76295],[-118.34238,33.76393]]],"type":"Polygon"},"properties":{"bbox":{"roads":{"area":2378.12,"pct":5.86}},"city_same":1,"id":"hex:2003:17259"},"type":"Feature"},{"geometry":{"coordinates":[[[-118.34241,33.76589],[-118.3431,33.76685],[-118.34445,33.76684],[-118.34511,33.76586],[-118.34442,33.76489],[-118.34307,33.7649],[-118.34241,33.76589]]],"type":"Polygon"},"properties":{"bbox":{"roads":{"area":3220.96,"pct":7.93}},"city_same":1,"id":"hex:2003:17260"},"type":"Feature"},{"geometry":{"coordinates":[[[-118.34244,33.76784],[-118.34313,33.76881],[-118.34448,33.76879],[-118.34514,33.76781],[-118.34445,33.76684],[-118.3431,33.76685],[-118.34244,33.76784]]],"type":"Polygon"},"properties":{"bbox":{"roads":{"area":2079.38,"pct":5.12}},"city_same":1,"id":"hex:2003:17261"},"type":"Feature"},{"geometry":{"coordinates":[[[-118.34248,33.76979],[-118.34317,33.77076],[-118.34451,33.77074],[-118.34517,33.76976],[-118.34448,33.76879],[-118.34313,33.76881],[-118.34248,33.76979]]],"type":"Polygon"},"properties":{"bbox":{"roads":{"area":2445.08,"pct":6.02}},"city_same":1,"id":"hex:2003:17262"},"type":"Feature"},{"geometry":{"coordinates":[[[-118.34251,33.77174],[-118.3432,33.77271],[-118.34455,33.7727],[-118.3452,33.77171],[-118.34451,33.77074],[-118.34317,33.77076],[-118.34251,33.77174]]],"type":"Polygon"},"properties":{"bbox":{"roads":{"area":151.72,"pct":0.37}},"city_same":1,"id":"hex:2003:17263"},"type":"Feature"},{"geometry":{"coordinates":[[[-118.34254,33.77369],[-118.34323,33.77466],[-118.34458,33.77465],[-118.34524,33.77367],[-118.34455,33.7727],[-118.3432,33.77271],[-118.34254,33.77369]]],"type":"Polygon"},"properties":{"bbox":{"roads":{"area":2077.96,"pct":5.12}},"city_same":1,"id":"hex:2003:17264"},"type":"Feature"},{"geometry":{"coordinates":[[[-118.34323,33.77466],[-118.34458,33.77465],[-118.34527,33.77562],[-118.34461,33.7766],[-118.34403,33.77661],[-118.34362,33.77632],[-118.3426,33.77559],[-118.34323,33.77466]]],"type":"Polygon"},"properties":{"bbox":{"roads":{"area":4142.85,"pct":11.48}},"city_same":1,"id":"hex:2003:17265"},"type":"Feature"},{"geometry":{"coordinates":[[[-118.34461,33.7766],[-118.34523,33.77748],[-118.34403,33.77661],[-118.34461,33.7766]]],"type":"Polygon"},"properties":{"bbox":{"roads":{"area":685.95,"pct":26.21}},"city_same":1,"id":"hex:2003:17266"},"type":"Feature"},{"geometry":{"coordinates":[[[-118.34208,33.74441],[-118.34073,33.74443],[-118.34004,33.74346],[-118.34038,33.74295],[-118.34244,33.74387],[-118.34208,33.74441]]],"type":"Polygon"},"properties":{"bbox":{"roads":{"area":221.94,"pct":1.04}},"city_same":1,"id":"hex:2004:17249"},"type":"Feature"},{"geometry":{"coordinates":[[[-118.34007,33.74541],[-118.34076,33.74638],[-118.34211,33.74636],[-118.34277,33.74538],[-118.34208,33.74441],[-118.34073,33.74443],[-118.34007,33.74541]]],"type":"Polygon"},"properties":{"bbox":{"roads":{"area":1161.78,"pct":2.86}},"city_same":1,"id":"hex:2004:17250"},"type":"Feature"},{"geometry":{"coordinates":[[[-118.3401,33.74736],[-118.34079,33.74833],[-118.34214,33.74832],[-118.3428,33.74733],[-118.34211,33.74636],[-118.34076,33.74638],[-118.3401,33.74736]]],"type":"Polygon"},"properties":{"bbox":{"roads":{"area":3827.64,"pct":9.43}},"city_same":1,"id":"hex:2004:17251"},"type":"Feature"},{"geometry":{"coordinates":[[[-118.34013,33.74931],[-118.34082,33.75028],[-118.34217,33.75027],[-118.34283,33.74928],[-118.34214,33.74832],[-118.34079,33.74833],[-118.34013,33.74931]]],"type":"Polygon"},"properties":{"bbox":{"roads":{"area":1139.04,"pct":2.81}},"city_same":1,"id":"hex:2004:17252"},"type":"Feature"},{"geometry":{"coordinates":[[[-118.34016,33.75127],[-118.34085,33.75224],[-118.3422,33.75222],[-118.34286,33.75124],[-118.34217,33.75027],[-118.34082,33.75028],[-118.34016,33.75127]]],"type":"Polygon"},"properties":{"bbox":{"roads":{"area":11.44,"pct":0.03}},"city_same":1,"id":"hex:2004:17253"},"type":"Feature"},{"geometry":{"coordinates":[[[-118.34019,33.75322],[-118.34088,33.75419],[-118.34223,33.75417],[-118.34289,33.75319],[-118.3422,33.75222],[-118.34085,33.75224],[-118.34019,33.75322]]],"type":"Polygon"},"properties":{"bbox":{"roads":{"area":1802.53,"pct":4.44}},"city_same":1,"id":"hex:2004:17254"},"type":"Feature"},{"geometry":{"coordinates":[[[-118.34022,33.75517],[-118.34091,33.75614],[-118.34226,33.75613],[-118.34292,33.75514],[-118.34223,33.75417],[-118.34088,33.75419],[-118.34022,33.75517]]],"type":"Polygon"},"properties":{"bbox":{"roads":{"area":2049.18,"pct":5.05}},"city_same":1,"id":"hex:2004:17255"},"type":"Feature"},{"geometry":{"coordinates":[[[-118.34025,33.75712],[-118.34094,33.75809],[-118.34229,33.75808],[-118.34295,33.75709],[-118.34226,33.75613],[-118.34091,33.75614],[-118.34025,33.75712]]],"type":"Polygon"},"properties":{"bbox":{"roads":{"area":2200.3,"pct":5.42}},"city_same":1,"id":"hex:2004:17256"},"type":"Feature"},{"geometry":{"coordinates":[[[-118.34028,33.75908],[-118.34097,33.76004],[-118.34232,33.76003],[-118.34298,33.75905],[-118.34229,33.75808],[-118.34094,33.75809],[-118.34028,33.75908]]],"type":"Polygon"},"properties":{"bbox":{"roads":{"area":981.7,"pct":2.42}},"city_same":1,"id":"hex:2004:17257"},"type":"Feature"},{"geometry":{"coordinates":[[[-118.34031,33.76103],[-118.341,33.762],[-118.34235,33.76198],[-118.34301,33.761],[-118.34232,33.76003],[-118.34097,33.76004],[-118.34031,33.76103]]],"type":"Polygon"},"properties":{"bbox":{"roads":{"area":638.56,"pct":1.57}},"city_same":1,"id":"hex:2004:17258"},"type":"Feature"},{"geometry":{"coordinates":[[[-118.34034,33.76298],[-118.34103,33.76395],[-118.34238,33.76393],[-118.34304,33.76295],[-118.34235,33.76198],[-118.341,33.762],[-118.34034,33.76298]]],"type":"Polygon"},"properties":{"bbox":{"roads":{"area":1733.29,"pct":4.27}},"city_same":1,"id":"hex:2004:17259"},"type":"Feature"},{"geometry":{"coordinates":[[[-118.34037,33.76493],[-118.34106,33.7659],[-118.34241,33.76589],[-118.34307,33.7649],[-118.34238,33.76393],[-118.34103,33.76395],[-118.34037,33.76493]]],"type":"Polygon"},"properties":{"bbox":{"roads":{"area":662.6,"pct":1.63}},"city_same":1,"id":"hex:2004:17260"},"type":"Feature"},{"geometry":{"coordinates":[[[-118.34041,33.76688],[-118.3411,33.76785],[-118.34244,33.76784],[-118.3431,33.76685],[-118.34241,33.76589],[-118.34106,33.7659],[-118.34041,33.76688]]],"type":"Polygon"},"properties":{"bbox":{"roads":{"area":2657.72,"pct":6.55}},"city_same":1,"id":"hex:2004:17261"},"type":"Feature"},{"geometry":{"coordinates":[[[-118.34044,33.76884],[-118.34113,33.76981],[-118.34248,33.76979],[-118.34313,33.76881],[-118.34244,33.76784],[-118.3411,33.76785],[-118.34044,33.76884]]],"type":"Polygon"},"properties":{"bbox":{"roads":{"area":1315.78,"pct":3.24}},"city_same":1,"id":"hex:2004:17262"},"type":"Feature"},{"geometry":{"coordinates":[[[-118.34047,33.77079],[-118.34116,33.77176],[-118.34251,33.77174],[-118.34317,33.77076],[-118.34248,33.76979],[-118.34113,33.76981],[-118.34047,33.77079]]],"type":"Polygon"},"properties":{"bbox":{"roads":{"area":2487.65,"pct":6.13}},"city_same":1,"id":"hex:2004:17263"},"type":"Feature"},{"geometry":{"coordinates":[[[-118.3405,33.77274],[-118.34119,33.77371],[-118.34254,33.77369],[-118.3432,33.77271],[-118.34251,33.77174],[-118.34116,33.77176],[-118.3405,33.77274]]],"type":"Polygon"},"properties":{"bbox":{"roads":{"area":3535.65,"pct":8.71}},"city_same":1,"id":"hex:2004:17264"},"type":"Feature"},{"geometry":{"coordinates":[[[-118.34119,33.77371],[-118.34254,33.77369],[-118.34323,33.77466],[-118.3426,33.77559],[-118.34079,33.7743],[-118.34119,33.77371]]],"type":"Polygon"},"properties":{"bbox":{"roads":{"area":813.69,"pct":2.94}},"city_same":1,"id":"hex:2004:17265"},"type":"Feature"},{"geometry":{"coordinates":[[[-118.33806,33.74641],[-118.33875,33.74738],[-118.3401,33.74736],[-118.34076,33.74638],[-118.34007,33.74541],[-118.33872,33.74542],[-118.33806,33.74641]]],"type":"Polygon"},"properties":{"bbox":{"roads":{"area":2343.48,"pct":5.77}},"city_same":1,"id":"hex:2005:17250"},"type":"Feature"},{"geometry":{"coordinates":[[[-118.33809,33.74836],[-118.33878,33.74933],[-118.34013,33.74931],[-118.34079,33.74833],[-118.3401,33.74736],[-118.33875,33.74738],[-118.33809,33.74836]]],"type":"Polygon"},"properties":{"bbox":{"roads":{"area":3061.98,"pct":7.54}},"city_same":1,"id":"hex:2005:17251"},"type":"Feature"},{"geometry":{"coordinates":[[[-118.33812,33.75031],[-118.33881,33.75128],[-118.34016,33.75127],[-118.34082,33.75028],[-118.34013,33.74931],[-118.33878,33.74933],[-118.33812,33.75031]]],"type":"Polygon"},"properties":{"bbox":{"roads":{"area":2335.43,"pct":5.75}},"city_same":1,"id":"hex:2005:17252"},"type":"Feature"},{"geometry":{"coordinates":[[[-118.33815,33.75226],[-118.33884,33.75323],[-118.34019,33.75322],[-118.34085,33.75224],[-118.34016,33.75127],[-118.33881,33.75128],[-118.33815,33.75226]]],"type":"Polygon"},"properties":{"bbox":{"roads":{"area":469.25,"pct":1.16}},"city_same":1,"id":"hex:2005:17253"},"type":"Feature"},{"geometry":{"coordinates":[[[-118.33818,33.75422],[-118.33887,33.75519],[-118.34022,33.75517],[-118.34088,33.75419],[-118.34019,33.75322],[-118.33884,33.75323],[-118.33818,33.75422]]],"type":"Polygon"},"properties":{"bbox":{"roads":{"area":197.69,"pct":0.49}},"city_same":1,"id":"hex:2005:17254"},"type":"Feature"},{"geometry":{"coordinates":[[[-118.33821,33.75617],[-118.3389,33.75714],[-118.34025,33.75712],[-118.34091,33.75614],[-118.34022,33.75517],[-118.33887,33.75519],[-118.33821,33.75617]]],"type":"Polygon"},"properties":{"bbox":{"roads":{"area":2705.59,"pct":6.66}},"city_same":1,"id":"hex:2005:17255"},"type":"Feature"},{"geometry":{"coordinates":[[[-118.33824,33.75812],[-118.33893,33.75909],[-118.34028,33.75908],[-118.34094,33.75809],[-118.34025,33.75712],[-118.3389,33.75714],[-118.33824,33.75812]]],"type":"Polygon"},"properties":{"bbox":{"roads":{"area":1098.55,"pct":2.71}},"city_same":1,"id":"hex:2005:17256"},"type":"Feature"},{"geometry":{"coordinates":[[[-118.33827,33.76007],[-118.33896,33.76104],[-118.34031,33.76103],[-118.34097,33.76004],[-118.34028,33.75908],[-118.33893,33.75909],[-118.33827,33.76007]]],"type":"Polygon"},"properties":{"bbox":{"roads":{"area":1597.39,"pct":3.93}},"city_same":1,"id":"hex:2005:17257"},"type":"Feature"},{"geometry":{"coordinates":[[[-118.33831,33.76203],[-118.339,33.76299],[-118.34034,33.76298],[-118.341,33.762],[-118.34031,33.76103],[-118.33896,33.76104],[-118.33831,33.76203]]],"type":"Polygon"},"properties":{"bbox":{"roads":{"area":973.15,"pct":2.4}},"city_same":1,"id":"hex:2005:17258"},"type":"Feature"},{"geometry":{"coordinates":[[[-118.33834,33.76398],[-118.33903,33.76495],[-118.34037,33.76493],[-118.34103,33.76395],[-118.34034,33.76298],[-118.339,33.76299],[-118.33834,33.76398]]],"type":"Polygon"},"properties":{"bbox":{"roads":{"area":1595.57,"pct":3.93}},"city_same":1,"id":"hex:2005:17259"},"type":"Feature"},{"geometry":{"coordinates":[[[-118.33903,33.76495],[-118.34037,33.76493],[-118.34106,33.7659],[-118.34041,33.76688],[-118.33906,33.7669],[-118.33857,33.76621],[-118.33863,33.76618],[-118.33858,33.76587],[-118.33889,33.76558],[-118.33871,33.76542],[-118.33882,33.76525],[-118.33888,33.76521],[-118.33886,33.76519],[-118.33903,33.76495]]],"type":"Polygon"},"properties":{"bbox":{"roads":{"area":370.94,"pct":0.95}},"city_same":1,"id":"hex:2005:17260"},"type":"Feature"},{"geometry":{"coordinates":[[[-118.3384,33.76788],[-118.33909,33.76885],[-118.34044,33.76884],[-118.3411,33.76785],[-118.34041,33.76688],[-118.33906,33.7669],[-118.3384,33.76788]]],"type":"Polygon"},"properties":{"bbox":{"roads":{"area":2557.6,"pct":6.3}},"city_same":1,"id":"hex:2005:17261"},"type":"Feature"},{"geometry":{"coordinates":[[[-118.33843,33.76983],[-118.33912,33.7708],[-118.34047,33.77079],[-118.34113,33.76981],[-118.34044,33.76884],[-118.33909,33.76885],[-118.33843,33.76983]]],"type":"Polygon"},"properties":{"bbox":{"roads":{"area":1777.57,"pct":4.38}},"city_same":1,"id":"hex:2005:17262"},"type":"Feature"},{"geometry":{"coordinates":[[[-118.33846,33.77179],[-118.33915,33.77276],[-118.3405,33.77274],[-118.34116,33.77176],[-118.34047,33.77079],[-118.33912,33.7708],[-118.33846,33.77179]]],"type":"Polygon"},"properties":{"bbox":{"roads":{"area":491.56,"pct":1.21}},"city_same":1,"id":"hex:2005:17263"},"type":"Feature"},{"geometry":{"coordinates":[[[-118.33915,33.77276],[-118.3405,33.77274],[-118.34119,33.77371],[-118.34079,33.7743],[-118.33898,33.77301],[-118.33915,33.77276]]],"type":"Polygon"},"properties":{"bbox":{"roads":{"area":1121.6,"pct":6.11}},"city_same":1,"id":"hex:2005:17264"},"type":"Feature"},{"geometry":{"coordinates":[[[-118.33806,33.74641],[-118.33875,33.74738],[-118.33809,33.74836],[-118.33674,33.74837],[-118.33646,33.74797],[-118.3373,33.74794],[-118.33822,33.74772],[-118.33802,33.74662],[-118.33804,33.74641],[-118.33806,33.74641]]],"type":"Polygon"},"properties":{"bbox":{"roads":{"area":1858.92,"pct":13.74}},"city_same":1,"id":"hex:2006:17251"},"type":"Feature"},{"geometry":{"coordinates":[[[-118.33608,33.74936],[-118.33677,33.75033],[-118.33812,33.75031],[-118.33878,33.74933],[-118.33809,33.74836],[-118.33674,33.74837],[-118.33608,33.74936]]],"type":"Polygon"},"properties":{"bbox":{"roads":{"area":2289.9,"pct":5.64}},"city_same":1,"id":"hex:2006:17252"},"type":"Feature"},{"geometry":{"coordinates":[[[-118.33611,33.75131],[-118.3368,33.75228],[-118.33815,33.75226],[-118.33881,33.75128],[-118.33812,33.75031],[-118.33677,33.75033],[-118.33611,33.75131]]],"type":"Polygon"},"properties":{"bbox":{"roads":{"area":1480.78,"pct":3.65}},"city_same":1,"id":"hex:2006:17253"},"type":"Feature"},{"geometry":{"coordinates":[[[-118.33614,33.75326],[-118.33683,33.75423],[-118.33818,33.75422],[-118.33884,33.75323],[-118.33815,33.75226],[-118.3368,33.75228],[-118.33614,33.75326]]],"type":"Polygon"},"properties":{"bbox":{"roads":{"area":2366.26,"pct":5.83}},"city_same":1,"id":"hex:2006:17254"},"type":"Feature"},{"geometry":{"coordinates":[[[-118.33617,33.75521],[-118.33686,33.75618],[-118.33821,33.75617],[-118.33887,33.75519],[-118.33818,33.75422],[-118.33683,33.75423],[-118.33617,33.75521]]],"type":"Polygon"},"properties":{"bbox":{"roads":{"area":1733.15,"pct":4.27}},"city_same":1,"id":"hex:2006:17255"},"type":"Feature"},{"geometry":{"coordinates":[[[-118.33621,33.75717],[-118.3369,33.75814],[-118.33824,33.75812],[-118.3389,33.75714],[-118.33821,33.75617],[-118.33686,33.75618],[-118.33621,33.75717]]],"type":"Polygon"},"properties":{"bbox":{"roads":{"area":655.41,"pct":1.61}},"city_same":1,"id":"hex:2006:17256"},"type":"Feature"},{"geometry":{"coordinates":[[[-118.33624,33.75912],[-118.33693,33.76009],[-118.33827,33.76007],[-118.33893,33.75909],[-118.33824,33.75812],[-118.3369,33.75814],[-118.33624,33.75912]]],"type":"Polygon"},"properties":{"bbox":{"roads":{"area":575.49,"pct":1.42}},"city_same":1,"id":"hex:2006:17257"},"type":"Feature"},{"geometry":{"coordinates":[[[-118.33627,33.76107],[-118.33696,33.76204],[-118.33831,33.76203],[-118.33896,33.76104],[-118.33827,33.76007],[-118.33693,33.76009],[-118.33627,33.76107]]],"type":"Polygon"},"properties":{"bbox":{"roads":{"area":897.65,"pct":2.21}},"city_same":1,"id":"hex:2006:17258"},"type":"Feature"},{"geometry":{"coordinates":[[[-118.33906,33.7669],[-118.3384,33.76788],[-118.33705,33.7679],[-118.33689,33.76768],[-118.33717,33.76755],[-118.33772,33.76667],[-118.33857,33.76621],[-118.33906,33.7669]]],"type":"Polygon"},"properties":{"bbox":{"roads":{"area":633.61,"pct":3.03}},"city_same":1,"id":"hex:2006:17261"},"type":"Feature"},{"geometry":{"coordinates":[[[-118.33639,33.76888],[-118.33708,33.76985],[-118.33843,33.76983],[-118.33909,33.76885],[-118.3384,33.76788],[-118.33705,33.7679],[-118.33639,33.76888]]],"type":"Polygon"},"properties":{"bbox":{"roads":{"area":2448.79,"pct":6.03}},"city_same":1,"id":"hex:2006:17262"},"type":"Feature"},{"geometry":{"coordinates":[[[-118.33642,33.77083],[-118.33711,33.7718],[-118.33846,33.77179],[-118.33912,33.7708],[-118.33843,33.76983],[-118.33708,33.76985],[-118.33642,33.77083]]],"type":"Polygon"},"properties":{"bbox":{"roads":{"area":872.6,"pct":2.15}},"city_same":1,"id":"hex:2006:17263"},"type":"Feature"},{"geometry":{"coordinates":[[[-118.33711,33.7718],[-118.33846,33.77179],[-118.33915,33.77276],[-118.33898,33.77301],[-118.33895,33.77299],[-118.33817,33.77253],[-118.33778,33.77239],[-118.33731,33.77228],[-118.33685,33.77223],[-118.33682,33.77223],[-118.33711,33.7718]]],"type":"Polygon"},"properties":{"bbox":{"roads":{"area":1615.13,"pct":11.93}},"city_same":1,"id":"hex:2006:17264"},"type":"Feature"},{"geometry":{"coordinates":[[[-118.33674,33.74837],[-118.33608,33.74936],[-118.33534,33.74937],[-118.33631,33.74841],[-118.33629,33.74798],[-118.33646,33.74797],[-118.33674,33.74837]]],"type":"Polygon"},"properties":{"bbox":{"roads":{"area":154.14,"pct":2.19}},"city_same":1,"id":"hex:2007:17251"},"type":"Feature"},{"geometry":{"coordinates":[[[-118.33608,33.74936],[-118.33677,33.75033],[-118.33611,33.75131],[-118.33477,33.75132],[-118.33418,33.7505],[-118.33534,33.74937],[-118.33608,33.74936]]],"type":"Polygon"},"properties":{"bbox":{"roads":{"area":125.66,"pct":0.35}},"city_same":1,"id":"hex:2007:17252"},"type":"Feature"},{"geometry":{"coordinates":[[[-118.33411,33.75231],[-118.3348,33.75328],[-118.33614,33.75326],[-118.3368,33.75228],[-118.33611,33.75131],[-118.33477,33.75132],[-118.33411,33.75231]]],"type":"Polygon"},"properties":{"bbox":{"roads":{"area":1827.2,"pct":4.5}},"city_same":1,"id":"hex:2007:17253"},"type":"Feature"},{"geometry":{"coordinates":[[[-118.33414,33.75426],[-118.33483,33.75523],[-118.33617,33.75521],[-118.33683,33.75423],[-118.33614,33.75326],[-118.3348,33.75328],[-118.33414,33.75426]]],"type":"Polygon"},"properties":{"bbox":{"roads":{"area":1995.3,"pct":4.92}},"city_same":1,"id":"hex:2007:17254"},"type":"Feature"},{"geometry":{"coordinates":[[[-118.33417,33.75621],[-118.33486,33.75718],[-118.33621,33.75717],[-118.33686,33.75618],[-118.33617,33.75521],[-118.33483,33.75523],[-118.33417,33.75621]]],"type":"Polygon"},"properties":{"bbox":{"roads":{"area":2326,"pct":5.73}},"city_same":1,"id":"hex:2007:17255"},"type":"Feature"},{"geometry":{"coordinates":[[[-118.3342,33.75816],[-118.33489,33.75913],[-118.33624,33.75912],[-118.3369,33.75814],[-118.33621,33.75717],[-118.33486,33.75718],[-118.3342,33.75816]]],"type":"Polygon"},"properties":{"bbox":{"roads":{"area":980.23,"pct":2.41}},"city_same":1,"id":"hex:2007:17256"},"type":"Feature"},{"geometry":{"coordinates":[[[-118.33423,33.76012],[-118.33489,33.75913],[-118.33624,33.75912],[-118.33693,33.76009],[-118.33627,33.76107],[-118.33496,33.76109],[-118.33486,33.76099],[-118.33484,33.76098],[-118.33423,33.76012]]],"type":"Polygon"},"properties":{"bbox":{"roads":{"area":224.44,"pct":0.55}},"city_same":1,"id":"hex:2007:17257"},"type":"Feature"},{"geometry":{"coordinates":[[[-118.33705,33.7679],[-118.33639,33.76888],[-118.33504,33.76889],[-118.33477,33.76852],[-118.3359,33.76813],[-118.33689,33.76768],[-118.33705,33.7679]]],"type":"Polygon"},"properties":{"bbox":{"roads":{"area":284.6,"pct":1.97}},"city_same":1,"id":"hex:2007:17261"},"type":"Feature"},{"geometry":{"coordinates":[[[-118.33438,33.76988],[-118.33507,33.77085],[-118.33642,33.77083],[-118.33708,33.76985],[-118.33639,33.76888],[-118.33504,33.76889],[-118.33438,33.76988]]],"type":"Polygon"},"properties":{"bbox":{"roads":{"area":1221.24,"pct":3.01}},"city_same":1,"id":"hex:2007:17262"},"type":"Feature"},{"geometry":{"coordinates":[[[-118.33441,33.77183],[-118.33507,33.77085],[-118.33642,33.77083],[-118.33711,33.7718],[-118.33682,33.77223],[-118.33465,33.77218],[-118.33441,33.77183]]],"type":"Polygon"},"properties":{"bbox":{"roads":{"area":1756.09,"pct":5.86}},"city_same":1,"id":"hex:2007:17263"},"type":"Feature"},{"geometry":{"coordinates":[[[-118.33477,33.75132],[-118.33411,33.75231],[-118.33276,33.75232],[-118.33215,33.75147],[-118.33244,33.75146],[-118.33406,33.75062],[-118.33418,33.7505],[-118.33477,33.75132]]],"type":"Polygon"},"properties":{"bbox":{"roads":{"area":377.06,"pct":1.33}},"city_same":1,"id":"hex:2008:17253"},"type":"Feature"},{"geometry":{"coordinates":[[[-118.3321,33.75331],[-118.33279,33.75428],[-118.33414,33.75426],[-118.3348,33.75328],[-118.33411,33.75231],[-118.33276,33.75232],[-118.3321,33.75331]]],"type":"Polygon"},"properties":{"bbox":{"roads":{"area":3969.01,"pct":9.78}},"city_same":1,"id":"hex:2008:17254"},"type":"Feature"},{"geometry":{"coordinates":[[[-118.33213,33.75526],[-118.33282,33.75623],[-118.33417,33.75621],[-118.33483,33.75523],[-118.33414,33.75426],[-118.33279,33.75428],[-118.33213,33.75526]]],"type":"Polygon"},"properties":{"bbox":{"roads":{"area":1803.25,"pct":4.44}},"city_same":1,"id":"hex:2008:17255"},"type":"Feature"},{"geometry":{"coordinates":[[[-118.33216,33.75721],[-118.33285,33.75818],[-118.3342,33.75816],[-118.33486,33.75718],[-118.33417,33.75621],[-118.33282,33.75623],[-118.33216,33.75721]]],"type":"Polygon"},"properties":{"bbox":{"roads":{"area":2488.47,"pct":6.13}},"city_same":1,"id":"hex:2008:17256"},"type":"Feature"},{"geometry":{"coordinates":[[[-118.33219,33.75916],[-118.33288,33.76013],[-118.33423,33.76012],[-118.33489,33.75913],[-118.3342,33.75816],[-118.33285,33.75818],[-118.33219,33.75916]]],"type":"Polygon"},"properties":{"bbox":{"roads":{"area":3146.22,"pct":7.75}},"city_same":1,"id":"hex:2008:17257"},"type":"Feature"},{"geometry":{"coordinates":[[[-118.33288,33.76013],[-118.33423,33.76012],[-118.33484,33.76098],[-118.33267,33.76044],[-118.33288,33.76013]]],"type":"Polygon"},"properties":{"bbox":{"roads":{"area":557.63,"pct":5.54}},"city_same":1,"id":"hex:2008:17258"},"type":"Feature"},{"geometry":{"coordinates":[[[-118.33504,33.76889],[-118.33438,33.76988],[-118.33354,33.76989],[-118.33398,33.76878],[-118.33477,33.76852],[-118.33504,33.76889]]],"type":"Polygon"},"properties":{"bbox":{"roads":{"area":633.11,"pct":5.14}},"city_same":1,"id":"hex:2008:17262"},"type":"Feature"},{"geometry":{"coordinates":[[[-118.33438,33.76988],[-118.33507,33.77085],[-118.33441,33.77183],[-118.33306,33.77184],[-118.33287,33.77158],[-118.33354,33.76989],[-118.33438,33.76988]]],"type":"Polygon"},"properties":{"bbox":{"roads":{"area":1052.58,"pct":3.37}},"city_same":1,"id":"hex:2008:17263"},"type":"Feature"},{"geometry":{"coordinates":[[[-118.33306,33.77184],[-118.33441,33.77183],[-118.33465,33.77218],[-118.33287,33.77213],[-118.33306,33.77184]]],"type":"Polygon"},"properties":{"bbox":{"roads":{"area":994.67,"pct":19.53}},"city_same":1,"id":"hex:2008:17264"},"type":"Feature"},{"geometry":{"coordinates":[[[-118.33276,33.75232],[-118.3321,33.75331],[-118.33093,33.75332],[-118.33039,33.75186],[-118.33064,33.75149],[-118.33215,33.75147],[-118.33276,33.75232]]],"type":"Polygon"},"properties":{"bbox":{"roads":{"area":331.52,"pct":0.97}},"city_same":1,"id":"hex:2009:17253"},"type":"Feature"},{"geometry":{"coordinates":[[[-118.3321,33.75331],[-118.33279,33.75428],[-118.33213,33.75526],[-118.33168,33.75526],[-118.33157,33.755],[-118.33093,33.75332],[-118.3321,33.75331]]],"type":"Polygon"},"properties":{"bbox":{"roads":{"area":28.05,"pct":0.12}},"city_same":1,"id":"hex:2009:17254"},"type":"Feature"},{"geometry":{"coordinates":[[[-118.33216,33.75721],[-118.33285,33.75818],[-118.33219,33.75916],[-118.33084,33.75918],[-118.33054,33.75876],[-118.33173,33.75832],[-118.33176,33.75789],[-118.33155,33.75722],[-118.33216,33.75721]]],"type":"Polygon"},"properties":{"bbox":{"roads":{"area":960.97,"pct":4.15}},"city_same":1,"id":"hex:2009:17256"},"type":"Feature"},{"geometry":{"coordinates":[[[-118.33084,33.75918],[-118.33219,33.75916],[-118.33288,33.76013],[-118.33267,33.76044],[-118.33047,33.75989],[-118.33045,33.75976],[-118.33084,33.75918]]],"type":"Polygon"},"properties":{"bbox":{"roads":{"area":1575.78,"pct":7.7}},"city_same":1,"id":"hex:2009:17257"},"type":"Feature"},{"geometry":{"coordinates":[[[-118.33306,33.77184],[-118.33287,33.77213],[-118.33265,33.77213],[-118.33287,33.77158],[-118.33306,33.77184]]],"type":"Polygon"},"properties":{"bbox":{"roads":{"area":76.39,"pct":6.71}},"city_same":1,"id":"hex:2009:17263"},"type":"Feature"}],"type":"FeatureCollection","v":2}