{"features":[{"geometry":{"coordinates":[[[-122.30098,37.84742],[-122.28873,37.84998],[-122.28462,37.8367],[-122.28187,37.83719],[-122.28172,37.83668],[-122.2786,37.83725],[-122.27809,37.83696],[-122.27626,37.83696],[-122.27555,37.83643],[-122.27772,37.83129],[-122.27852,37.82868],[-122.2779,37.82705],[-122.27874,37.82708],[-122.28201,37.82779],[-122.29606,37.83167],[-122.29667,37.83306],[-122.29643,37.83293],[-122.29619,37.83333],[-122.29528,37.83378],[-122.29689,37.83394],[-122.29693,37.83448],[-122.29722,37.83483],[-122.29753,37.83489],[-122.29766,37.83585],[-122.29803,37.83659],[-122.29899,37.8371],[-122.30029,37.83691],[-122.30083,37.83667],[-122.30185,37.83668],[-122.30227,37.83651],[-122.30381,37.83647],[-122.305,37.8369],[-122.31217,37.83694],[-122.31529,37.83719],[-122.31542,37.83973],[-122.31488,37.84176],[-122.31447,37.8425],[-122.31337,37.8423],[-122.31329,37.84202],[-122.3136,37.8415],[-122.31367,37.84091],[-122.31445,37.83969],[-122.31449,37.83889],[-122.31418,37.83838],[-122.3135,37.83826],[-122.31321,37.83841],[-122.31302,37.8383],[-122.31319,37.8378],[-122.31265,37.83735],[-122.30977,37.8374],[-122.30932,37.83753],[-122.30846,37.83735],[-122.30817,37.8375],[-122.30815,37.83831],[-122.30693,37.83831],[-122.30682,37.83941],[-122.30711,37.83956],[-122.30707,37.83969],[-122.30454,37.83946],[-122.30026,37.8396],[-122.2998,37.84006],[-122.29847,37.84018],[-122.29788,37.84151],[-122.29865,37.84515],[-122.29914,37.84582],[-122.30014,37.8462],[-122.30079,37.84587],[-122.30241,37.84564],[-122.3008,37.84624],[-122.30072,37.84689],[-122.30098,37.84742]],[[-122.29054,37.83514],[-122.29057,37.83508],[-122.29054,37.83506],[-122.2905,37.83504],[-122.29048,37.8351],[-122.29051,37.83512],[-122.29054,37.83514]],[[-122.29057,37.83493],[-122.29053,37.83492],[-122.29051,37.835],[-122.29055,37.83502],[-122.29059,37.83504],[-122.29061,37.83494],[-122.29057,37.83493]],[[-122.29063,37.83488],[-122.29064,37.83483],[-122.29066,37.83479],[-122.29069,37.83475],[-122.29073,37.83472],[-122.29071,37.83468],[-122.29068,37.83465],[-122.29065,37.83467],[-122.29063,37.83469],[-122.29059,37.83474],[-122.29057,37.83477],[-122.29056,37.8348],[-122.29055,37.83486],[-122.29059,37.83487],[-122.29063,37.83488]],[[-122.29077,37.83461],[-122.29074,37.83462],[-122.29077,37.83466],[-122.29079,37.83469],[-122.2908,37.83469],[-122.29078,37.83465],[-122.29077,37.83461]],[[-122.29105,37.8403],[-122.29105,37.8403],[-122.29106,37.8403],[-122.29107,37.8403],[-122.29108,37.8403],[-122.29108,37.8403],[-122.29109,37.84029],[-122.29109,37.84029],[-122.29109,37.84028],[-122.29109,37.84028],[-122.29109,37.84027],[-122.29109,37.84026],[-122.29109,37.84026],[-122.29108,37.84025],[-122.29108,37.84025],[-122.29107,37.84025],[-122.29106,37.84025],[-122.29106,37.84025],[-122.29105,37.84025],[-122.29104,37.84025],[-122.29104,37.84025],[-122.29103,37.84026],[-122.29103,37.84026],[-122.29102,37.84027],[-122.29102,37.84027],[-122.29102,37.84028],[-122.29102,37.84028],[-122.29103,37.84029],[-122.29103,37.84029],[-122.29103,37.8403],[-122.29104,37.8403],[-122.29105,37.8403]],[[-122.29133,37.83452],[-122.29134,37.83455],[-122.29141,37.83453],[-122.29161,37.83452],[-122.29208,37.83449],[-122.29207,37.83446],[-122.29207,37.83442],[-122.2916,37.83445],[-122.29153,37.83445],[-122.29146,37.83447],[-122.29139,37.83448],[-122.29132,37.8345],[-122.29133,37.83452]],[[-122.29239,37.83445],[-122.2924,37.83449],[-122.29274,37.83446],[-122.29274,37.83442],[-122.29273,37.83438],[-122.29239,37.8344],[-122.29239,37.83445]],[[-122.29307,37.83433],[-122.29294,37.83435],[-122.29294,37.8344],[-122.29295,37.83444],[-122.29301,37.83443],[-122.29304,37.83438],[-122.29307,37.83433]],[[-122.30614,37.83938],[-122.30649,37.83949],[-122.30667,37.83939],[-122.30631,37.8392],[-122.30614,37.83938]]],"type":"Polygon"},"properties":{"type":"boundary"},"type":"Feature"}],"type":"FeatureCollection"}