{"features":[{"geometry":{"coordinates":[[[-122.3147,37.83833],[-122.31414,37.83755],[-122.31448,37.83708],[-122.31462,37.83709],[-122.3147,37.83709],[-122.31516,37.83712],[-122.31522,37.83712],[-122.31526,37.83715],[-122.31529,37.83719],[-122.3153,37.83723],[-122.31531,37.83746],[-122.31529,37.83785],[-122.31528,37.83795],[-122.31531,37.83808],[-122.31535,37.83824],[-122.31538,37.83832],[-122.31538,37.83833],[-122.3147,37.83833]]],"type":"Polygon"},"properties":{"bbox":{"parking":{"area":3441.32,"pct":30.76},"roads":{"area":1457.08,"pct":13.02}},"city_same":1,"id":"hex:3735:24179"},"type":"Feature"},{"geometry":{"coordinates":[[[-122.31468,37.83989],[-122.31446,37.83958],[-122.31447,37.83949],[-122.31448,37.83916],[-122.3145,37.83902],[-122.31449,37.83894],[-122.31449,37.83889],[-122.31442,37.83871],[-122.3147,37.83833],[-122.31538,37.83833],[-122.31547,37.8386],[-122.31548,37.83868],[-122.31548,37.83878],[-122.31544,37.83914],[-122.31545,37.83936],[-122.31542,37.83973],[-122.31539,37.83989],[-122.31468,37.83989]]],"type":"Polygon"},"properties":{"bbox":{"parking":{"area":4708.21,"pct":33.29},"roads":{"area":2333.23,"pct":16.5}},"city_same":1,"id":"hex:3735:24180"},"type":"Feature"},{"geometry":{"coordinates":[[[-122.31467,37.84145],[-122.31411,37.84067],[-122.31468,37.83989],[-122.31539,37.83989],[-122.31534,37.84009],[-122.31531,37.84029],[-122.31525,37.84048],[-122.31525,37.84058],[-122.31521,37.8407],[-122.3151,37.84109],[-122.31497,37.84145],[-122.31467,37.84145]]],"type":"Polygon"},"properties":{"bbox":{"parking":{"area":3050.75,"pct":24.64},"roads":{"area":1553.54,"pct":12.55}},"city_same":1,"id":"hex:3735:24181"},"type":"Feature"},{"geometry":{"coordinates":[[[-122.31414,37.83755],[-122.313,37.83754],[-122.31259,37.83696],[-122.31271,37.83695],[-122.31356,37.83698],[-122.31383,37.83702],[-122.31448,37.83708],[-122.31414,37.83755]]],"type":"Polygon"},"properties":{"bbox":{"parking":{"area":2831.24,"pct":34.98},"roads":{"area":1585.36,"pct":19.59}},"city_same":1,"id":"hex:3736:24179"},"type":"Feature"},{"geometry":{"coordinates":[[[-122.313,37.83754],[-122.31414,37.83755],[-122.3147,37.83833],[-122.31442,37.83871],[-122.31437,37.83859],[-122.31436,37.83857],[-122.31428,37.83846],[-122.31418,37.83838],[-122.31366,37.83827],[-122.3135,37.83826],[-122.3134,37.83827],[-122.31334,37.83828],[-122.31321,37.83841],[-122.31319,37.83838],[-122.31316,37.83837],[-122.31302,37.8383],[-122.31305,37.83817],[-122.31318,37.83807],[-122.31322,37.83797],[-122.31319,37.8378],[-122.31296,37.83759],[-122.313,37.83754]]],"type":"Polygon"},"properties":{"bbox":{"parking":{"area":6007.97,"pct":55.96},"roads":{"area":1538.34,"pct":14.33}},"city_same":1,"id":"hex:3736:24180"},"type":"Feature"},{"geometry":{"coordinates":[[[-122.31468,37.83989],[-122.31411,37.84067],[-122.31388,37.84067],[-122.31405,37.84044],[-122.31413,37.84028],[-122.31424,37.84005],[-122.3143,37.83998],[-122.31434,37.83985],[-122.31445,37.83969],[-122.31446,37.83958],[-122.31468,37.83989]]],"type":"Polygon"},"properties":{"bbox":{"parking":{"area":48.98,"pct":1.94}},"city_same":1,"id":"hex:3736:24181"},"type":"Feature"},{"geometry":{"coordinates":[[[-122.31334,37.84222],[-122.31337,37.84218],[-122.31334,37.84216],[-122.31329,37.84208],[-122.31329,37.84202],[-122.31337,37.84182],[-122.31355,37.84159],[-122.3136,37.8415],[-122.31365,37.84129],[-122.31362,37.84114],[-122.31364,37.8411],[-122.31363,37.84105],[-122.31367,37.84099],[-122.31367,37.84091],[-122.31381,37.84076],[-122.31388,37.84067],[-122.31411,37.84067],[-122.31467,37.84145],[-122.31409,37.84223],[-122.31339,37.84223],[-122.31339,37.84222],[-122.31339,37.84222],[-122.31334,37.84222]]],"type":"Polygon"},"properties":{"bbox":{"parking":{"area":1454.52,"pct":11.44},"roads":{"area":1607.7,"pct":12.64}},"city_same":1,"id":"hex:3736:24182"},"type":"Feature"},{"geometry":{"coordinates":[[[[-122.31409,37.84223],[-122.31429,37.84251],[-122.31405,37.84242],[-122.31396,37.8424],[-122.31388,37.84236],[-122.31372,37.84229],[-122.31356,37.84225],[-122.31349,37.84225],[-122.31342,37.84226],[-122.31337,37.8423],[-122.31336,37.8423],[-122.31337,37.84227],[-122.31341,37.84223],[-122.31339,37.84223],[-122.31409,37.84223]]],[[[-122.31339,37.84222],[-122.31333,37.84227],[-122.31332,37.84227],[-122.31334,37.84223],[-122.31334,37.84222],[-122.31339,37.84222]]]],"type":"MultiPolygon"},"properties":{"bbox":{"roads":{"area":10.29,"pct":1.21}},"city_same":1,"id":"hex:3736:24183"},"type":"Feature"},{"geometry":{"coordinates":[[[-122.313,37.83754],[-122.31296,37.83759],[-122.31287,37.8375],[-122.31265,37.83735],[-122.31237,37.83732],[-122.31195,37.83734],[-122.31167,37.83731],[-122.31133,37.83733],[-122.31097,37.83737],[-122.31084,37.83737],[-122.31117,37.83693],[-122.31133,37.83693],[-122.312,37.83694],[-122.31217,37.83694],[-122.31236,37.83695],[-122.31255,37.83696],[-122.31259,37.83696],[-122.313,37.83754]]],"type":"Polygon"},"properties":{"bbox":{"parking":{"area":635.51,"pct":9.28},"roads":{"area":1218.09,"pct":17.78},"sidewalks":{"area":153.76,"pct":2.24}},"city_same":1,"id":"hex:3737:24179"},"type":"Feature"},{"geometry":{"coordinates":[[[-122.30916,37.83691],[-122.30919,37.83691],[-122.31117,37.83693],[-122.31084,37.83737],[-122.31077,37.83737],[-122.3106,37.8374],[-122.31028,37.83743],[-122.30977,37.8374],[-122.30963,37.83741],[-122.30953,37.83743],[-122.30916,37.83691]]],"type":"Polygon"},"properties":{"bbox":{"parking":{"area":2425.39,"pct":30.63},"roads":{"area":1577.91,"pct":19.93}},"city_same":1,"id":"hex:3738:24179"},"type":"Feature"},{"geometry":{"coordinates":[[[-122.30788,37.83829],[-122.30732,37.83751],[-122.30777,37.8369],[-122.30869,37.83693],[-122.30916,37.83691],[-122.30953,37.83743],[-122.30945,37.83744],[-122.30932,37.83753],[-122.30921,37.83751],[-122.30916,37.83745],[-122.30905,37.8374],[-122.30891,37.83737],[-122.30878,37.83736],[-122.30875,37.83736],[-122.30864,37.83734],[-122.30846,37.83735],[-122.30829,37.83742],[-122.30817,37.8375],[-122.30815,37.83773],[-122.30818,37.83797],[-122.30818,37.83797],[-122.3082,37.83825],[-122.30816,37.83829],[-122.30788,37.83829]]],"type":"Polygon"},"properties":{"bbox":{"parking":{"area":3200.66,"pct":23.38},"roads":{"area":3378.97,"pct":24.68},"sidewalks":{"area":84.54,"pct":0.62}},"city_same":1,"id":"hex:3739:24179"},"type":"Feature"},{"geometry":{"coordinates":[[[-122.30732,37.83751],[-122.30618,37.8375],[-122.30576,37.83692],[-122.30587,37.83692],[-122.30676,37.83691],[-122.30692,37.83689],[-122.30725,37.83688],[-122.3074,37.83689],[-122.30742,37.8369],[-122.30744,37.83691],[-122.30746,37.83691],[-122.30748,37.83689],[-122.30777,37.8369],[-122.30732,37.83751]]],"type":"Polygon"},"properties":{"bbox":{"parking":{"area":75.57,"pct":0.82},"roads":{"area":2401.16,"pct":25.94},"sidewalks":{"area":176.63,"pct":1.91}},"city_same":1,"id":"hex:3740:24179"},"type":"Feature"},{"geometry":{"coordinates":[[[-122.30617,37.83906],[-122.30561,37.83828],[-122.30618,37.8375],[-122.30732,37.83751],[-122.30788,37.83829],[-122.30783,37.83835],[-122.30777,37.83836],[-122.30767,37.83835],[-122.30743,37.83828],[-122.30701,37.83826],[-122.30693,37.83831],[-122.30693,37.83847],[-122.30684,37.83869],[-122.30682,37.83888],[-122.30683,37.83905],[-122.30683,37.83906],[-122.30617,37.83906]]],"type":"Polygon"},"properties":{"bbox":{"parking":{"area":1968.73,"pct":9.56},"roads":{"area":1166.74,"pct":5.66}},"city_same":1,"id":"hex:3740:24180"},"type":"Feature"},{"geometry":{"coordinates":[[[-122.30618,37.8375],[-122.30561,37.83828],[-122.30447,37.83827],[-122.30391,37.83749],[-122.30448,37.83671],[-122.30453,37.83671],[-122.30468,37.83678],[-122.305,37.8369],[-122.30576,37.83692],[-122.30618,37.8375]]],"type":"Polygon"},"properties":{"bbox":{"parking":{"area":2992.94,"pct":12.37},"roads":{"area":3124.02,"pct":12.91},"sidewalks":{"area":301.21,"pct":1.24}},"city_same":1,"id":"hex:3741:24179"},"type":"Feature"},{"geometry":{"coordinates":[[[-122.30389,37.83905],[-122.30447,37.83827],[-122.30561,37.83828],[-122.30617,37.83906],[-122.30578,37.83958],[-122.30559,37.83958],[-122.30454,37.83946],[-122.30418,37.83945],[-122.30389,37.83905]]],"type":"Polygon"},"properties":{"bbox":{"parking":{"area":2621.86,"pct":12.11},"roads":{"area":847.74,"pct":3.92}},"city_same":1,"id":"hex:3741:24180"},"type":"Feature"},{"geometry":{"coordinates":[[[-122.30448,37.83671],[-122.30391,37.83749],[-122.30277,37.83748],[-122.30221,37.8367],[-122.30235,37.8365],[-122.30289,37.83647],[-122.30341,37.83643],[-122.30381,37.83647],[-122.3042,37.83656],[-122.30446,37.83668],[-122.30448,37.83671]]],"type":"Polygon"},"properties":{"bbox":{"parking":{"area":843.87,"pct":4.83},"roads":{"area":2888.41,"pct":16.54},"sidewalks":{"area":329.89,"pct":1.89}},"city_same":1,"id":"hex:3742:24179"},"type":"Feature"},{"geometry":{"coordinates":[[[-122.3022,37.83826],[-122.30276,37.83904],[-122.30389,37.83905],[-122.30447,37.83827],[-122.30391,37.83749],[-122.30277,37.83748],[-122.3022,37.83826]]],"type":"Polygon"},"properties":{"bbox":{"parking":{"area":5841.76,"pct":22.48},"roads":{"area":3210.32,"pct":12.36}},"city_same":1,"id":"hex:3742:24180"},"type":"Feature"},{"geometry":{"coordinates":[[[-122.30276,37.83904],[-122.30389,37.83905],[-122.30418,37.83945],[-122.30347,37.83943],[-122.30313,37.8395],[-122.30293,37.83946],[-122.30251,37.83952],[-122.30241,37.83951],[-122.30276,37.83904]]],"type":"Polygon"},"properties":{"bbox":{"parking":{"area":2.8,"pct":0.05},"roads":{"area":283.99,"pct":4.8}},"city_same":1,"id":"hex:3742:24181"},"type":"Feature"},{"geometry":{"coordinates":[[[-122.3005,37.83747],[-122.30106,37.83825],[-122.3022,37.83826],[-122.30277,37.83748],[-122.30221,37.8367],[-122.30107,37.83669],[-122.3005,37.83747]]],"type":"Polygon"},"properties":{"bbox":{"parking":{"area":10091.84,"pct":38.84},"roads":{"area":5303.03,"pct":20.41},"sidewalks":{"area":245.38,"pct":0.94}},"city_same":1,"id":"hex:3743:24179"},"type":"Feature"},{"geometry":{"coordinates":[[[-122.30048,37.83903],[-122.30106,37.83825],[-122.3022,37.83826],[-122.30276,37.83904],[-122.30241,37.83951],[-122.30196,37.83947],[-122.30089,37.83957],[-122.30087,37.83957],[-122.30048,37.83903]]],"type":"Polygon"},"properties":{"bbox":{"parking":{"area":6098.64,"pct":27.73},"roads":{"area":5017.12,"pct":22.81}},"city_same":1,"id":"hex:3743:24180"},"type":"Feature"},{"geometry":{"coordinates":[[[[-122.30041,37.84683],[-122.30077,37.84634],[-122.30072,37.84689],[-122.30096,37.84732],[-122.30098,37.84742],[-122.30098,37.84742],[-122.30087,37.84747],[-122.30041,37.84683]]],[[[-122.30099,37.84605],[-122.30118,37.84606],[-122.3011,37.8461],[-122.30097,37.84616],[-122.30091,37.84621],[-122.30086,37.84622],[-122.30099,37.84605]]]],"type":"MultiPolygon"},"properties":{"bbox":{"roads":{"area":328.09,"pct":14.33}},"city_same":1,"id":"hex:3743:24185"},"type":"Feature"},{"geometry":{"coordinates":[[[-122.30107,37.83669],[-122.3005,37.83747],[-122.29936,37.83746],[-122.2991,37.83709],[-122.30029,37.83691],[-122.3004,37.83678],[-122.30083,37.83667],[-122.30106,37.83667],[-122.30107,37.83669]]],"type":"Polygon"},"properties":{"bbox":{"roads":{"area":1849.31,"pct":21.96},"sidewalks":{"area":50.8,"pct":0.6}},"city_same":1,"id":"hex:3744:24179"},"type":"Feature"},{"geometry":{"coordinates":[[[-122.29879,37.83824],[-122.29935,37.83902],[-122.30048,37.83903],[-122.30106,37.83825],[-122.3005,37.83747],[-122.29936,37.83746],[-122.29879,37.83824]]],"type":"Polygon"},"properties":{"bbox":{"parking":{"area":8828.86,"pct":33.98},"roads":{"area":5903.59,"pct":22.72},"sidewalks":{"area":81.87,"pct":0.32}},"city_same":1,"id":"hex:3744:24180"},"type":"Feature"},{"geometry":{"coordinates":[[[-122.29877,37.8398],[-122.29935,37.83902],[-122.30048,37.83903],[-122.30087,37.83957],[-122.30052,37.83958],[-122.30032,37.83959],[-122.30026,37.8396],[-122.30021,37.83962],[-122.30016,37.83964],[-122.30013,37.83967],[-122.29994,37.83988],[-122.2999,37.83994],[-122.29988,37.84001],[-122.29985,37.84003],[-122.2998,37.84006],[-122.29975,37.84007],[-122.29968,37.84008],[-122.29945,37.84011],[-122.29902,37.84014],[-122.29877,37.8398]]],"type":"Polygon"},"properties":{"bbox":{"parking":{"area":4400.69,"pct":31.08},"roads":{"area":2178.51,"pct":15.38}},"city_same":1,"id":"hex:3744:24181"},"type":"Feature"},{"geometry":{"coordinates":[[[-122.30041,37.84683],[-122.29927,37.84683],[-122.29871,37.84604],[-122.29899,37.84566],[-122.29916,37.84579],[-122.29913,37.84581],[-122.29914,37.84582],[-122.29916,37.84584],[-122.2992,37.84582],[-122.29983,37.84617],[-122.29997,37.8462],[-122.30014,37.8462],[-122.30028,37.84616],[-122.3004,37.84609],[-122.30046,37.84602],[-122.30064,37.84591],[-122.30079,37.84587],[-122.30085,37.84587],[-122.30099,37.84605],[-122.30086,37.84622],[-122.3008,37.84624],[-122.30078,37.8463],[-122.30077,37.84634],[-122.30041,37.84683]]],"type":"Polygon"},"properties":{"bbox":{"parking":{"area":791.49,"pct":5.54},"roads":{"area":3338.9,"pct":23.37}},"city":{"parking":{"area":791.49,"pct":5.54},"roads":{"area":2763.96,"pct":19.34}},"id":"hex:3744:24185"},"type":"Feature"},{"geometry":{"coordinates":[[[-122.2987,37.8476],[-122.29927,37.84683],[-122.30041,37.84683],[-122.30087,37.84747],[-122.3008,37.84751],[-122.29891,37.8479],[-122.2987,37.8476]]],"type":"Polygon"},"properties":{"bbox":{"roads":{"area":2451.47,"pct":16.44}},"city":{"roads":{"area":1491.85,"pct":10.01}},"id":"hex:3744:24186"},"type":"Feature"},{"geometry":{"coordinates":[[[-122.29936,37.83746],[-122.29879,37.83824],[-122.29765,37.83823],[-122.29709,37.83745],[-122.29767,37.83667],[-122.29833,37.83667],[-122.29892,37.83698],[-122.29899,37.8371],[-122.2991,37.83709],[-122.29936,37.83746]]],"type":"Polygon"},"properties":{"bbox":{"parking":{"area":2145.61,"pct":8.58},"roads":{"area":4089.99,"pct":16.36},"sidewalks":{"area":244.11,"pct":0.98}},"city":{"parking":{"area":2145.61,"pct":8.58},"roads":{"area":4070.65,"pct":16.28},"sidewalks":{"area":244.11,"pct":0.98}},"id":"hex:3745:24179"},"type":"Feature"},{"geometry":{"coordinates":[[[-122.29707,37.83901],[-122.29764,37.83979],[-122.29877,37.8398],[-122.29935,37.83902],[-122.29879,37.83824],[-122.29765,37.83823],[-122.29707,37.83901]]],"type":"Polygon"},"properties":{"bbox":{"parking":{"area":9267.37,"pct":35.67},"roads":{"area":5669.66,"pct":21.82}},"city":{"parking":{"area":9267.37,"pct":35.67},"roads":{"area":3639.17,"pct":14.01}},"id":"hex:3745:24180"},"type":"Feature"},{"geometry":{"coordinates":[[[-122.29762,37.84135],[-122.29706,37.84057],[-122.29764,37.83979],[-122.29877,37.8398],[-122.29902,37.84014],[-122.29847,37.84018],[-122.29815,37.84075],[-122.29809,37.84101],[-122.29798,37.84125],[-122.29794,37.84135],[-122.29762,37.84135]]],"type":"Polygon"},"properties":{"bbox":{"parking":{"area":36.9,"pct":0.24},"roads":{"area":5540.06,"pct":36.06}},"city":{"parking":{"area":36.9,"pct":0.24},"roads":{"area":3984.08,"pct":25.93}},"id":"hex:3745:24181"},"type":"Feature"},{"geometry":{"coordinates":[[[-122.29761,37.84291],[-122.29705,37.84213],[-122.29762,37.84135],[-122.29794,37.84135],[-122.29788,37.84151],[-122.29796,37.84234],[-122.29812,37.84251],[-122.29807,37.8428],[-122.2981,37.84292],[-122.29761,37.84291]]],"type":"Polygon"},"properties":{"bbox":{"roads":{"area":6618.33,"pct":67.1}},"city":{"roads":{"area":3007.88,"pct":30.5}},"id":"hex:3745:24182"},"type":"Feature"},{"geometry":{"coordinates":[[[-122.29759,37.84447],[-122.29703,37.84369],[-122.29761,37.84291],[-122.2981,37.84292],[-122.29849,37.84448],[-122.29759,37.84447]]],"type":"Polygon"},"properties":{"bbox":{"parking":{"area":605.59,"pct":4.06},"roads":{"area":9343.19,"pct":62.57}},"city":{"parking":{"area":605.59,"pct":4.06},"roads":{"area":4305.2,"pct":28.83}},"id":"hex:3745:24183"},"type":"Feature"},{"geometry":{"coordinates":[[[-122.29871,37.84604],[-122.29758,37.84603],[-122.29702,37.84525],[-122.29759,37.84447],[-122.29849,37.84448],[-122.29865,37.84515],[-122.29878,37.8454],[-122.29883,37.8455],[-122.29896,37.84564],[-122.29899,37.84566],[-122.29871,37.84604]]],"type":"Polygon"},"properties":{"bbox":{"parking":{"area":2824.06,"pct":13.13},"roads":{"area":11788.03,"pct":54.79}},"city":{"parking":{"area":2824.06,"pct":13.13},"roads":{"area":7292.11,"pct":33.89}},"id":"hex:3745:24184"},"type":"Feature"},{"geometry":{"coordinates":[[[-122.297,37.84681],[-122.29756,37.8476],[-122.2987,37.8476],[-122.29927,37.84683],[-122.29871,37.84604],[-122.29758,37.84603],[-122.297,37.84681]]],"type":"Polygon"},"properties":{"bbox":{"roads":{"area":8864.04,"pct":34.12}},"city":{"roads":{"area":4117.29,"pct":15.85}},"id":"hex:3745:24185"},"type":"Feature"},{"geometry":{"coordinates":[[[-122.29756,37.8476],[-122.2987,37.8476],[-122.29891,37.8479],[-122.29704,37.84829],[-122.29756,37.8476]]],"type":"Polygon"},"properties":{"bbox":{"roads":{"area":1394.36,"pct":19.81}},"city":{"roads":{"area":468.64,"pct":6.66}},"id":"hex:3745:24186"},"type":"Feature"},{"geometry":{"coordinates":[[[-122.2971,37.83588],[-122.29597,37.83588],[-122.29541,37.83509],[-122.29598,37.83432],[-122.29695,37.83432],[-122.29693,37.83448],[-122.29711,37.83458],[-122.29722,37.83483],[-122.29753,37.83489],[-122.29752,37.8352],[-122.29754,37.8353],[-122.2971,37.83588]]],"type":"Polygon"},"properties":{"bbox":{"roads":{"area":2195.02,"pct":8.99}},"city":{"roads":{"area":979.82,"pct":4.01}},"id":"hex:3746:24178"},"type":"Feature"},{"geometry":{"coordinates":[[[-122.29539,37.83665],[-122.29595,37.83744],[-122.29709,37.83745],[-122.29767,37.83667],[-122.2971,37.83588],[-122.29597,37.83588],[-122.29539,37.83665]]],"type":"Polygon"},"properties":{"bbox":{"parking":{"area":27.98,"pct":0.11},"roads":{"area":8679.57,"pct":33.41}},"city":{"parking":{"area":27.98,"pct":0.11},"roads":{"area":3304.14,"pct":12.72}},"id":"hex:3746:24179"},"type":"Feature"},{"geometry":{"coordinates":[[[-122.29538,37.83822],[-122.29594,37.839],[-122.29707,37.83901],[-122.29765,37.83823],[-122.29709,37.83745],[-122.29595,37.83744],[-122.29538,37.83822]]],"type":"Polygon"},"properties":{"bbox":{"parking":{"area":1300.92,"pct":5.01},"roads":{"area":15121.96,"pct":58.2},"sidewalks":{"area":357.04,"pct":1.37}},"city":{"parking":{"area":1300.92,"pct":5.01},"roads":{"area":6595.52,"pct":25.39},"sidewalks":{"area":357.04,"pct":1.37}},"id":"hex:3746:24180"},"type":"Feature"},{"geometry":{"coordinates":[[[-122.29536,37.83978],[-122.29592,37.84056],[-122.29706,37.84057],[-122.29764,37.83979],[-122.29707,37.83901],[-122.29594,37.839],[-122.29536,37.83978]]],"type":"Polygon"},"properties":{"bbox":{"parking":{"area":7011.27,"pct":26.99},"roads":{"area":10991.73,"pct":42.31}},"city":{"parking":{"area":7011.27,"pct":26.99},"roads":{"area":5246.15,"pct":20.19}},"id":"hex:3746:24181"},"type":"Feature"},{"geometry":{"coordinates":[[[-122.29535,37.84134],[-122.29591,37.84212],[-122.29705,37.84213],[-122.29762,37.84135],[-122.29706,37.84057],[-122.29592,37.84056],[-122.29535,37.84134]]],"type":"Polygon"},"properties":{"bbox":{"parking":{"area":5918.09,"pct":22.78},"roads":{"area":8499.45,"pct":32.71},"sidewalks":{"area":3.2,"pct":0.01}},"city":{"parking":{"area":5918.09,"pct":22.78},"roads":{"area":4532.76,"pct":17.45},"sidewalks":{"area":3.2,"pct":0.01}},"id":"hex:3746:24182"},"type":"Feature"},{"geometry":{"coordinates":[[[-122.29533,37.8429],[-122.29589,37.84368],[-122.29703,37.84369],[-122.29761,37.84291],[-122.29705,37.84213],[-122.29591,37.84212],[-122.29533,37.8429]]],"type":"Polygon"},"properties":{"bbox":{"parking":{"area":1442.76,"pct":5.55},"roads":{"area":5243.9,"pct":20.18},"sidewalks":{"area":52.73,"pct":0.2}},"city":{"parking":{"area":1442.76,"pct":5.55},"roads":{"area":4065.23,"pct":15.65},"sidewalks":{"area":52.73,"pct":0.2}},"id":"hex:3746:24183"},"type":"Feature"},{"geometry":{"coordinates":[[[-122.29532,37.84446],[-122.29588,37.84524],[-122.29702,37.84525],[-122.29759,37.84447],[-122.29703,37.84369],[-122.29589,37.84368],[-122.29532,37.84446]]],"type":"Polygon"},"properties":{"bbox":{"parking":{"area":8583.48,"pct":33.04},"roads":{"area":4202.02,"pct":16.17}},"city_same":1,"id":"hex:3746:24184"},"type":"Feature"},{"geometry":{"coordinates":[[[-122.2953,37.84602],[-122.29586,37.8468],[-122.297,37.84681],[-122.29758,37.84603],[-122.29702,37.84525],[-122.29588,37.84524],[-122.2953,37.84602]]],"type":"Polygon"},"properties":{"bbox":{"parking":{"area":2262.36,"pct":8.71},"roads":{"area":3963.65,"pct":15.26}},"city_same":1,"id":"hex:3746:24185"},"type":"Feature"},{"geometry":{"coordinates":[[[-122.29585,37.84837],[-122.29529,37.84758],[-122.29586,37.8468],[-122.297,37.84681],[-122.29756,37.8476],[-122.29704,37.84829],[-122.29668,37.84837],[-122.29585,37.84837]]],"type":"Polygon"},"properties":{"bbox":{"roads":{"area":3813.91,"pct":14.75}},"city":{"roads":{"area":3452.8,"pct":13.35}},"id":"hex:3746:24186"},"type":"Feature"},{"geometry":{"coordinates":[[[-122.29585,37.84837],[-122.29668,37.84837],[-122.29663,37.84838],[-122.2957,37.84857],[-122.29585,37.84837]]],"type":"Polygon"},"properties":{"bbox":{"roads":{"area":186.59,"pct":22.5}},"city":{"roads":{"area":179.6,"pct":21.65}},"id":"hex:3746:24187"},"type":"Feature"},{"geometry":{"coordinates":[[[-122.29544,37.83197],[-122.2943,37.83197],[-122.29374,37.83118],[-122.29383,37.83106],[-122.29573,37.83158],[-122.29544,37.83197]]],"type":"Polygon"},"properties":{"bbox":{"roads":{"area":2046.9,"pct":20.25}},"city":{"roads":{"area":1164.8,"pct":11.52}},"id":"hex:3747:24175"},"type":"Feature"},{"geometry":{"coordinates":[[[-122.29373,37.83274],[-122.29429,37.83353],[-122.29542,37.83353],[-122.296,37.83276],[-122.29544,37.83197],[-122.2943,37.83197],[-122.29373,37.83274]]],"type":"Polygon"},"properties":{"bbox":{"roads":{"area":6818.04,"pct":26.24}},"city":{"roads":{"area":2305.99,"pct":8.88}},"id":"hex:3747:24176"},"type":"Feature"},{"geometry":{"coordinates":[[[-122.29598,37.83432],[-122.29541,37.83509],[-122.29427,37.83509],[-122.29371,37.8343],[-122.29429,37.83353],[-122.29542,37.83353],[-122.29549,37.83362],[-122.29528,37.83372],[-122.29528,37.83378],[-122.29532,37.83381],[-122.29545,37.83387],[-122.29566,37.83386],[-122.29598,37.83432]]],"type":"Polygon"},"properties":{"bbox":{"parking":{"area":3816.06,"pct":14.99},"roads":{"area":11742.72,"pct":46.13}},"city":{"parking":{"area":3816.06,"pct":14.99},"roads":{"area":3971.63,"pct":15.6}},"id":"hex:3747:24177"},"type":"Feature"},{"geometry":{"coordinates":[[[-122.2937,37.83586],[-122.29426,37.83665],[-122.29539,37.83665],[-122.29597,37.83588],[-122.29541,37.83509],[-122.29427,37.83509],[-122.2937,37.83586]]],"type":"Polygon"},"properties":{"bbox":{"parking":{"area":6904.22,"pct":26.57},"roads":{"area":8420.86,"pct":32.41}},"city":{"parking":{"area":6904.22,"pct":26.57},"roads":{"area":4313.43,"pct":16.6}},"id":"hex:3747:24178"},"type":"Feature"},{"geometry":{"coordinates":[[[-122.29368,37.83743],[-122.29424,37.83821],[-122.29538,37.83822],[-122.29595,37.83744],[-122.29539,37.83665],[-122.29426,37.83665],[-122.29368,37.83743]]],"type":"Polygon"},"properties":{"bbox":{"parking":{"area":11879.46,"pct":45.72},"roads":{"area":5704.11,"pct":21.96},"sidewalks":{"area":276.11,"pct":1.06}},"city":{"parking":{"area":11879.46,"pct":45.72},"roads":{"area":4193.56,"pct":16.14},"sidewalks":{"area":276.11,"pct":1.06}},"id":"hex:3747:24179"},"type":"Feature"},{"geometry":{"coordinates":[[[-122.29367,37.83899],[-122.29423,37.83977],[-122.29536,37.83978],[-122.29594,37.839],[-122.29538,37.83822],[-122.29424,37.83821],[-122.29367,37.83899]]],"type":"Polygon"},"properties":{"bbox":{"parking":{"area":7259.63,"pct":27.94},"roads":{"area":9402.08,"pct":36.19},"sidewalks":{"area":426.1,"pct":1.64}},"city":{"parking":{"area":7259.63,"pct":27.94},"roads":{"area":5870.88,"pct":22.6},"sidewalks":{"area":426.1,"pct":1.64}},"id":"hex:3747:24180"},"type":"Feature"},{"geometry":{"coordinates":[[[-122.29365,37.84055],[-122.29421,37.84133],[-122.29535,37.84134],[-122.29592,37.84056],[-122.29536,37.83978],[-122.29423,37.83977],[-122.29365,37.84055]]],"type":"Polygon"},"properties":{"bbox":{"parking":{"area":4993.05,"pct":19.22},"roads":{"area":3996.43,"pct":15.38},"sidewalks":{"area":501.73,"pct":1.93}},"city_same":1,"id":"hex:3747:24181"},"type":"Feature"},{"geometry":{"coordinates":[[[-122.29364,37.84211],[-122.2942,37.84289],[-122.29533,37.8429],[-122.29591,37.84212],[-122.29535,37.84134],[-122.29421,37.84133],[-122.29364,37.84211]]],"type":"Polygon"},"properties":{"bbox":{"parking":{"area":1945.36,"pct":7.49},"roads":{"area":3665.19,"pct":14.11},"sidewalks":{"area":1029.31,"pct":3.96}},"city_same":1,"id":"hex:3747:24182"},"type":"Feature"},{"geometry":{"coordinates":[[[-122.29362,37.84367],[-122.29418,37.84445],[-122.29532,37.84446],[-122.29589,37.84368],[-122.29533,37.8429],[-122.2942,37.84289],[-122.29362,37.84367]]],"type":"Polygon"},"properties":{"bbox":{"roads":{"area":3468.4,"pct":13.35},"sidewalks":{"area":756.42,"pct":2.91}},"city_same":1,"id":"hex:3747:24183"},"type":"Feature"},{"geometry":{"coordinates":[[[-122.29361,37.84523],[-122.29417,37.84601],[-122.2953,37.84602],[-122.29588,37.84524],[-122.29532,37.84446],[-122.29418,37.84445],[-122.29361,37.84523]]],"type":"Polygon"},"properties":{"bbox":{"roads":{"area":2097.44,"pct":8.07}},"city_same":1,"id":"hex:3747:24184"},"type":"Feature"},{"geometry":{"coordinates":[[[-122.29359,37.84679],[-122.29415,37.84758],[-122.29529,37.84758],[-122.29586,37.8468],[-122.2953,37.84602],[-122.29417,37.84601],[-122.29359,37.84679]]],"type":"Polygon"},"properties":{"bbox":{"roads":{"area":3790.07,"pct":14.59}},"city_same":1,"id":"hex:3747:24185"},"type":"Feature"},{"geometry":{"coordinates":[[[-122.29358,37.84835],[-122.29415,37.84758],[-122.29529,37.84758],[-122.29585,37.84837],[-122.2957,37.84857],[-122.29536,37.84864],[-122.29481,37.84875],[-122.29482,37.84878],[-122.2947,37.84881],[-122.29469,37.84878],[-122.29398,37.84892],[-122.29358,37.84835]]],"type":"Polygon"},"properties":{"bbox":{"roads":{"area":2076.66,"pct":10}},"city_same":1,"id":"hex:3747:24186"},"type":"Feature"},{"geometry":{"coordinates":[[[-122.29374,37.83118],[-122.2926,37.83117],[-122.2922,37.8306],[-122.29383,37.83106],[-122.29374,37.83118]]],"type":"Polygon"},"properties":{"bbox":{"parking":{"area":601.52,"pct":13.79},"roads":{"area":2040.04,"pct":46.76},"sidewalks":{"area":65.31,"pct":1.5}},"city":{"parking":{"area":601.52,"pct":13.79},"roads":{"area":1098.3,"pct":25.18},"sidewalks":{"area":65.31,"pct":1.5}},"id":"hex:3748:24175"},"type":"Feature"},{"geometry":{"coordinates":[[[-122.29203,37.83195],[-122.29259,37.83274],[-122.29373,37.83274],[-122.2943,37.83197],[-122.29374,37.83118],[-122.2926,37.83117],[-122.29203,37.83195]]],"type":"Polygon"},"properties":{"bbox":{"parking":{"area":2825.96,"pct":10.88},"roads":{"area":12083.31,"pct":46.51},"sidewalks":{"area":322.41,"pct":1.24}},"city":{"parking":{"area":2825.96,"pct":10.88},"roads":{"area":5002.11,"pct":19.25},"sidewalks":{"area":322.41,"pct":1.24}},"id":"hex:3748:24176"},"type":"Feature"},{"geometry":{"coordinates":[[[-122.29201,37.83351],[-122.29257,37.8343],[-122.29371,37.8343],[-122.29429,37.83353],[-122.29373,37.83274],[-122.29259,37.83274],[-122.29201,37.83351]]],"type":"Polygon"},"properties":{"bbox":{"parking":{"area":5286.29,"pct":20.35},"roads":{"area":7305.51,"pct":28.12},"sidewalks":{"area":395.62,"pct":1.52}},"city":{"parking":{"area":5286.29,"pct":20.35},"roads":{"area":3623.8,"pct":13.95},"sidewalks":{"area":395.62,"pct":1.52}},"id":"hex:3748:24177"},"type":"Feature"},{"geometry":{"coordinates":[[[-122.29257,37.8343],[-122.29371,37.8343],[-122.29427,37.83509],[-122.2937,37.83586],[-122.29256,37.83586],[-122.292,37.83507],[-122.29243,37.83449],[-122.29274,37.83446],[-122.29274,37.83442],[-122.29273,37.83438],[-122.2925,37.8344],[-122.29257,37.8343]],[[-122.29294,37.83435],[-122.29294,37.8344],[-122.29295,37.83444],[-122.29301,37.83443],[-122.29304,37.83438],[-122.29307,37.83433],[-122.29294,37.83435]]],"type":"Polygon"},"properties":{"bbox":{"parking":{"area":3971.15,"pct":15.47},"roads":{"area":6220.59,"pct":24.23},"sidewalks":{"area":532.52,"pct":2.07}},"city":{"parking":{"area":3971.15,"pct":15.47},"roads":{"area":3965.18,"pct":15.44},"sidewalks":{"area":532.52,"pct":2.07}},"id":"hex:3748:24178"},"type":"Feature"},{"geometry":{"coordinates":[[[-122.29198,37.83663],[-122.29254,37.83742],[-122.29368,37.83743],[-122.29426,37.83665],[-122.2937,37.83586],[-122.29256,37.83586],[-122.29198,37.83663]]],"type":"Polygon"},"properties":{"bbox":{"parking":{"area":5497.46,"pct":21.16},"roads":{"area":6693.6,"pct":25.76},"sidewalks":{"area":842.43,"pct":3.24}},"city":{"parking":{"area":5497.46,"pct":21.16},"roads":{"area":4375.31,"pct":16.84},"sidewalks":{"area":842.43,"pct":3.24}},"id":"hex:3748:24179"},"type":"Feature"},{"geometry":{"coordinates":[[[-122.29197,37.8382],[-122.29253,37.83898],[-122.29367,37.83899],[-122.29424,37.83821],[-122.29368,37.83743],[-122.29254,37.83742],[-122.29197,37.8382]]],"type":"Polygon"},"properties":{"bbox":{"parking":{"area":6975.02,"pct":26.85},"roads":{"area":5994.65,"pct":23.07}},"city":{"parking":{"area":6975.02,"pct":26.85},"roads":{"area":4582.12,"pct":17.64}},"id":"hex:3748:24180"},"type":"Feature"},{"geometry":{"coordinates":[[[-122.29195,37.83976],[-122.29251,37.84054],[-122.29365,37.84055],[-122.29423,37.83977],[-122.29367,37.83899],[-122.29253,37.83898],[-122.29195,37.83976]]],"type":"Polygon"},"properties":{"bbox":{"parking":{"area":10521.41,"pct":40.5},"roads":{"area":5302,"pct":20.41},"sidewalks":{"area":218.53,"pct":0.84}},"city":{"parking":{"area":10521.41,"pct":40.5},"roads":{"area":4829.56,"pct":18.59},"sidewalks":{"area":218.53,"pct":0.84}},"id":"hex:3748:24181"},"type":"Feature"},{"geometry":{"coordinates":[[[-122.29194,37.84132],[-122.2925,37.8421],[-122.29364,37.84211],[-122.29421,37.84133],[-122.29365,37.84055],[-122.29251,37.84054],[-122.29194,37.84132]]],"type":"Polygon"},"properties":{"bbox":{"parking":{"area":3440.64,"pct":13.24},"roads":{"area":2561.9,"pct":9.86},"sidewalks":{"area":508.97,"pct":1.96}},"city_same":1,"id":"hex:3748:24182"},"type":"Feature"},{"geometry":{"coordinates":[[[-122.29192,37.84288],[-122.29248,37.84366],[-122.29362,37.84367],[-122.2942,37.84289],[-122.29364,37.84211],[-122.2925,37.8421],[-122.29192,37.84288]]],"type":"Polygon"},"properties":{"bbox":{"parking":{"area":3113.1,"pct":11.98},"roads":{"area":4158.88,"pct":16.01},"sidewalks":{"area":420.21,"pct":1.62}},"city_same":1,"id":"hex:3748:24183"},"type":"Feature"},{"geometry":{"coordinates":[[[-122.29191,37.84444],[-122.29247,37.84522],[-122.29361,37.84523],[-122.29418,37.84445],[-122.29362,37.84367],[-122.29248,37.84366],[-122.29191,37.84444]]],"type":"Polygon"},"properties":{"bbox":{"parking":{"area":4538.33,"pct":17.47},"roads":{"area":4218.16,"pct":16.24}},"city_same":1,"id":"hex:3748:24184"},"type":"Feature"},{"geometry":{"coordinates":[[[-122.29189,37.846],[-122.29245,37.84678],[-122.29359,37.84679],[-122.29417,37.84601],[-122.29361,37.84523],[-122.29247,37.84522],[-122.29189,37.846]]],"type":"Polygon"},"properties":{"bbox":{"parking":{"area":4664.58,"pct":17.95},"roads":{"area":2600.78,"pct":10.01}},"city_same":1,"id":"hex:3748:24185"},"type":"Feature"},{"geometry":{"coordinates":[[[-122.29188,37.84756],[-122.29244,37.84835],[-122.29358,37.84835],[-122.29415,37.84758],[-122.29359,37.84679],[-122.29245,37.84678],[-122.29188,37.84756]]],"type":"Polygon"},"properties":{"bbox":{"roads":{"area":1442.91,"pct":5.55}},"city_same":1,"id":"hex:3748:24186"},"type":"Feature"},{"geometry":{"coordinates":[[[-122.29186,37.84912],[-122.29244,37.84835],[-122.29358,37.84835],[-122.29398,37.84892],[-122.29375,37.84897],[-122.29374,37.84894],[-122.29314,37.84907],[-122.29315,37.8491],[-122.29284,37.84916],[-122.29238,37.84925],[-122.29219,37.84929],[-122.29218,37.84926],[-122.29199,37.8493],[-122.29186,37.84912]]],"type":"Polygon"},"properties":{"bbox":{"parking":{"area":1093.78,"pct":8.63},"roads":{"area":1642.64,"pct":12.96}},"city_same":1,"id":"hex:3748:24187"},"type":"Feature"},{"geometry":{"coordinates":[[[-122.29091,37.83038],[-122.29079,37.83021],[-122.29141,37.83039],[-122.29091,37.83038]]],"type":"Polygon"},"properties":{"bbox":{"parking":{"area":44.54,"pct":10.74},"roads":{"area":23.66,"pct":5.7}},"city_same":1,"id":"hex:3749:24174"},"type":"Feature"},{"geometry":{"coordinates":[[[-122.2926,37.83117],[-122.29203,37.83195],[-122.29089,37.83194],[-122.29033,37.83116],[-122.29091,37.83038],[-122.29141,37.83039],[-122.2922,37.8306],[-122.2926,37.83117]]],"type":"Polygon"},"properties":{"bbox":{"parking":{"area":3951.69,"pct":15.6},"roads":{"area":1837.26,"pct":7.25},"sidewalks":{"area":0.06,"pct":0}},"city_same":1,"id":"hex:3749:24175"},"type":"Feature"},{"geometry":{"coordinates":[[[-122.29032,37.83272],[-122.29088,37.83351],[-122.29201,37.83351],[-122.29259,37.83274],[-122.29203,37.83195],[-122.29089,37.83194],[-122.29032,37.83272]]],"type":"Polygon"},"properties":{"bbox":{"parking":{"area":9844.76,"pct":37.89},"roads":{"area":1130.36,"pct":4.35}},"city_same":1,"id":"hex:3749:24176"},"type":"Feature"},{"geometry":{"coordinates":[[[-122.2903,37.83428],[-122.29088,37.83351],[-122.29201,37.83351],[-122.29257,37.8343],[-122.2925,37.8344],[-122.29239,37.8344],[-122.29239,37.83445],[-122.2924,37.83449],[-122.29243,37.83449],[-122.292,37.83507],[-122.29086,37.83507],[-122.29066,37.83479],[-122.29069,37.83475],[-122.29073,37.83472],[-122.29071,37.83468],[-122.29068,37.83465],[-122.29065,37.83467],[-122.29063,37.83469],[-122.29061,37.83471],[-122.2903,37.83428]],[[-122.29074,37.83462],[-122.29077,37.83466],[-122.29079,37.83469],[-122.2908,37.83469],[-122.29078,37.83465],[-122.29077,37.83461],[-122.29074,37.83462]],[[-122.29134,37.83455],[-122.29141,37.83453],[-122.29161,37.83452],[-122.29208,37.83449],[-122.29207,37.83446],[-122.29207,37.83442],[-122.2916,37.83445],[-122.29153,37.83445],[-122.29146,37.83447],[-122.29139,37.83448],[-122.29132,37.8345],[-122.29133,37.83452],[-122.29134,37.83455]]],"type":"Polygon"},"properties":{"bbox":{"parking":{"area":3790.92,"pct":14.98},"roads":{"area":1391.89,"pct":5.5},"sidewalks":{"area":45.21,"pct":0.18}},"city_same":1,"id":"hex:3749:24177"},"type":"Feature"},{"geometry":{"coordinates":[[[-122.29029,37.83584],[-122.29085,37.83663],[-122.29198,37.83663],[-122.29256,37.83586],[-122.292,37.83507],[-122.29086,37.83507],[-122.29029,37.83584]]],"type":"Polygon"},"properties":{"bbox":{"parking":{"area":2765.19,"pct":10.64},"roads":{"area":1309.07,"pct":5.04},"sidewalks":{"area":210.01,"pct":0.81}},"city_same":1,"id":"hex:3749:24178"},"type":"Feature"},{"geometry":{"coordinates":[[[-122.29027,37.8374],[-122.29083,37.83819],[-122.29197,37.8382],[-122.29254,37.83742],[-122.29198,37.83663],[-122.29085,37.83663],[-122.29027,37.8374]]],"type":"Polygon"},"properties":{"bbox":{"parking":{"area":20.46,"pct":0.08},"roads":{"area":1861.34,"pct":7.16}},"city_same":1,"id":"hex:3749:24179"},"type":"Feature"},{"geometry":{"coordinates":[[[-122.29026,37.83897],[-122.29082,37.83975],[-122.29195,37.83976],[-122.29253,37.83898],[-122.29197,37.8382],[-122.29083,37.83819],[-122.29026,37.83897]]],"type":"Polygon"},"properties":{"bbox":{"parking":{"area":2416.3,"pct":9.3},"roads":{"area":4327.25,"pct":16.66},"sidewalks":{"area":327.75,"pct":1.26}},"city":{"parking":{"area":2416.3,"pct":9.3},"roads":{"area":3646.24,"pct":14.03},"sidewalks":{"area":327.75,"pct":1.26}},"id":"hex:3749:24180"},"type":"Feature"},{"geometry":{"coordinates":[[[-122.29082,37.83975],[-122.29195,37.83976],[-122.29251,37.84054],[-122.29194,37.84132],[-122.2908,37.84131],[-122.29024,37.84053],[-122.29082,37.83975]],[[-122.29105,37.8403],[-122.29106,37.8403],[-122.29107,37.8403],[-122.29108,37.8403],[-122.29108,37.8403],[-122.29109,37.84029],[-122.29109,37.84029],[-122.29109,37.84028],[-122.29109,37.84028],[-122.29109,37.84027],[-122.29109,37.84026],[-122.29109,37.84026],[-122.29108,37.84025],[-122.29108,37.84025],[-122.29107,37.84025],[-122.29106,37.84025],[-122.29106,37.84025],[-122.29105,37.84025],[-122.29104,37.84025],[-122.29104,37.84025],[-122.29103,37.84026],[-122.29103,37.84026],[-122.29102,37.84027],[-122.29102,37.84027],[-122.29102,37.84028],[-122.29102,37.84028],[-122.29103,37.84029],[-122.29103,37.84029],[-122.29103,37.8403],[-122.29104,37.8403],[-122.29105,37.8403],[-122.29105,37.8403]]],"type":"Polygon"},"properties":{"bbox":{"roads":{"area":3219.09,"pct":12.41},"sidewalks":{"area":658.92,"pct":2.54}},"city_same":1,"id":"hex:3749:24181"},"type":"Feature"},{"geometry":{"coordinates":[[[-122.29023,37.84209],[-122.29079,37.84287],[-122.29192,37.84288],[-122.2925,37.8421],[-122.29194,37.84132],[-122.2908,37.84131],[-122.29023,37.84209]]],"type":"Polygon"},"properties":{"bbox":{"parking":{"area":5942.82,"pct":22.87},"roads":{"area":3065.83,"pct":11.8}},"city_same":1,"id":"hex:3749:24182"},"type":"Feature"},{"geometry":{"coordinates":[[[-122.29021,37.84365],[-122.29077,37.84443],[-122.29191,37.84444],[-122.29248,37.84366],[-122.29192,37.84288],[-122.29079,37.84287],[-122.29021,37.84365]]],"type":"Polygon"},"properties":{"bbox":{"parking":{"area":1069.44,"pct":4.12},"roads":{"area":3395.8,"pct":13.07}},"city_same":1,"id":"hex:3749:24183"},"type":"Feature"},{"geometry":{"coordinates":[[[-122.2902,37.84521],[-122.29076,37.84599],[-122.29189,37.846],[-122.29247,37.84522],[-122.29191,37.84444],[-122.29077,37.84443],[-122.2902,37.84521]]],"type":"Polygon"},"properties":{"bbox":{"parking":{"area":161.05,"pct":0.62},"roads":{"area":3179.3,"pct":12.24}},"city_same":1,"id":"hex:3749:24184"},"type":"Feature"},{"geometry":{"coordinates":[[[-122.29018,37.84677],[-122.29074,37.84755],[-122.29188,37.84756],[-122.29245,37.84678],[-122.29189,37.846],[-122.29076,37.84599],[-122.29018,37.84677]]],"type":"Polygon"},"properties":{"bbox":{"roads":{"area":3630.94,"pct":13.98}},"city_same":1,"id":"hex:3749:24185"},"type":"Feature"},{"geometry":{"coordinates":[[[-122.29017,37.84833],[-122.29073,37.84912],[-122.29186,37.84912],[-122.29244,37.84835],[-122.29188,37.84756],[-122.29074,37.84755],[-122.29017,37.84833]]],"type":"Polygon"},"properties":{"bbox":{"parking":{"area":200.42,"pct":0.77},"roads":{"area":3900.92,"pct":15.01}},"city_same":1,"id":"hex:3749:24186"},"type":"Feature"},{"geometry":{"coordinates":[[[-122.29073,37.84912],[-122.29186,37.84912],[-122.29199,37.8493],[-122.29196,37.84931],[-122.29198,37.84936],[-122.29147,37.84947],[-122.29089,37.84958],[-122.29074,37.84961],[-122.29029,37.8497],[-122.29073,37.84912]]],"type":"Polygon"},"properties":{"bbox":{"parking":{"area":1362.41,"pct":24.81},"roads":{"area":679.87,"pct":12.38}},"city_same":1,"id":"hex:3749:24187"},"type":"Feature"},{"geometry":{"coordinates":[[[-122.29091,37.83038],[-122.29033,37.83116],[-122.28919,37.83115],[-122.28863,37.83037],[-122.2891,37.82975],[-122.29079,37.83021],[-122.29091,37.83038]]],"type":"Polygon"},"properties":{"bbox":{"parking":{"area":1325.91,"pct":6.3},"roads":{"area":3001.23,"pct":14.26}},"city_same":1,"id":"hex:3750:24175"},"type":"Feature"},{"geometry":{"coordinates":[[[-122.28862,37.83193],[-122.28918,37.83271],[-122.29032,37.83272],[-122.29089,37.83194],[-122.29033,37.83116],[-122.28919,37.83115],[-122.28862,37.83193]]],"type":"Polygon"},"properties":{"bbox":{"roads":{"area":2046.23,"pct":7.88},"sidewalks":{"area":149.55,"pct":0.58}},"city_same":1,"id":"hex:3750:24176"},"type":"Feature"},{"geometry":{"coordinates":[[[-122.2886,37.83349],[-122.28916,37.83428],[-122.2903,37.83428],[-122.29088,37.83351],[-122.29032,37.83272],[-122.28918,37.83271],[-122.2886,37.83349]]],"type":"Polygon"},"properties":{"bbox":{"parking":{"area":5179.49,"pct":19.94},"roads":{"area":1945.04,"pct":7.49}},"city_same":1,"id":"hex:3750:24177"},"type":"Feature"},{"geometry":{"coordinates":[[[-122.29086,37.83507],[-122.29029,37.83584],[-122.28915,37.83584],[-122.28859,37.83505],[-122.28916,37.83428],[-122.2903,37.83428],[-122.29061,37.83471],[-122.29059,37.83474],[-122.29057,37.83477],[-122.29056,37.8348],[-122.29055,37.83486],[-122.29059,37.83487],[-122.29063,37.83488],[-122.29064,37.83483],[-122.29066,37.83479],[-122.29066,37.83479],[-122.29086,37.83507]],[[-122.29057,37.83508],[-122.29054,37.83506],[-122.2905,37.83504],[-122.29048,37.8351],[-122.29051,37.83512],[-122.29054,37.83514],[-122.29057,37.83508]],[[-122.29053,37.83492],[-122.29051,37.835],[-122.29055,37.83502],[-122.29059,37.83504],[-122.29061,37.83494],[-122.29057,37.83493],[-122.29053,37.83492]]],"type":"Polygon"},"properties":{"bbox":{"parking":{"area":3790.35,"pct":14.72},"roads":{"area":1876.36,"pct":7.29}},"city_same":1,"id":"hex:3750:24178"},"type":"Feature"},{"geometry":{"coordinates":[[[-122.28857,37.83661],[-122.28914,37.8374],[-122.29027,37.8374],[-122.29085,37.83663],[-122.29029,37.83584],[-122.28915,37.83584],[-122.28857,37.83661]]],"type":"Polygon"},"properties":{"bbox":{"parking":{"area":3276.83,"pct":12.61},"roads":{"area":2513.46,"pct":9.67},"sidewalks":{"area":57.38,"pct":0.22}},"city_same":1,"id":"hex:3750:24179"},"type":"Feature"},{"geometry":{"coordinates":[[[-122.28856,37.83817],[-122.28912,37.83896],[-122.29026,37.83897],[-122.29083,37.83819],[-122.29027,37.8374],[-122.28914,37.8374],[-122.28856,37.83817]]],"type":"Polygon"},"properties":{"bbox":{"parking":{"area":3600.61,"pct":13.86},"roads":{"area":4920.81,"pct":18.94},"sidewalks":{"area":700.37,"pct":2.7}},"city_same":1,"id":"hex:3750:24180"},"type":"Feature"},{"geometry":{"coordinates":[[[-122.28854,37.83974],[-122.28911,37.84052],[-122.29024,37.84053],[-122.29082,37.83975],[-122.29026,37.83897],[-122.28912,37.83896],[-122.28854,37.83974]]],"type":"Polygon"},"properties":{"bbox":{"parking":{"area":1570.18,"pct":6.04},"roads":{"area":6049.51,"pct":23.28},"sidewalks":{"area":1063.24,"pct":4.09}},"city":{"parking":{"area":1570.18,"pct":6.04},"roads":{"area":4936.63,"pct":19},"sidewalks":{"area":1063.24,"pct":4.09}},"id":"hex:3750:24181"},"type":"Feature"},{"geometry":{"coordinates":[[[-122.28853,37.8413],[-122.28909,37.84208],[-122.29023,37.84209],[-122.2908,37.84131],[-122.29024,37.84053],[-122.28911,37.84052],[-122.28853,37.8413]]],"type":"Polygon"},"properties":{"bbox":{"parking":{"area":1623.04,"pct":6.25},"roads":{"area":3181.13,"pct":12.24},"sidewalks":{"area":502.35,"pct":1.93}},"city_same":1,"id":"hex:3750:24182"},"type":"Feature"},{"geometry":{"coordinates":[[[-122.28851,37.84286],[-122.28908,37.84364],[-122.29021,37.84365],[-122.29079,37.84287],[-122.29023,37.84209],[-122.28909,37.84208],[-122.28851,37.84286]]],"type":"Polygon"},"properties":{"bbox":{"roads":{"area":3133.23,"pct":12.06},"sidewalks":{"area":477.35,"pct":1.84}},"city_same":1,"id":"hex:3750:24183"},"type":"Feature"},{"geometry":{"coordinates":[[[-122.2885,37.84442],[-122.28906,37.8452],[-122.2902,37.84521],[-122.29077,37.84443],[-122.29021,37.84365],[-122.28908,37.84364],[-122.2885,37.84442]]],"type":"Polygon"},"properties":{"bbox":{"roads":{"area":2656.81,"pct":10.23}},"city_same":1,"id":"hex:3750:24184"},"type":"Feature"},{"geometry":{"coordinates":[[[-122.28848,37.84598],[-122.28905,37.84676],[-122.29018,37.84677],[-122.29076,37.84599],[-122.2902,37.84521],[-122.28906,37.8452],[-122.28848,37.84598]]],"type":"Polygon"},"properties":{"bbox":{"roads":{"area":3552.55,"pct":13.67}},"city_same":1,"id":"hex:3750:24185"},"type":"Feature"},{"geometry":{"coordinates":[[[-122.28847,37.84754],[-122.28903,37.84832],[-122.29017,37.84833],[-122.29074,37.84755],[-122.29018,37.84677],[-122.28905,37.84676],[-122.28847,37.84754]]],"type":"Polygon"},"properties":{"bbox":{"parking":{"area":647.07,"pct":2.49},"roads":{"area":3420.6,"pct":13.17}},"city_same":1,"id":"hex:3750:24186"},"type":"Feature"},{"geometry":{"coordinates":[[[-122.28902,37.84989],[-122.28852,37.84919],[-122.28848,37.84909],[-122.28848,37.84907],[-122.28903,37.84832],[-122.29017,37.84833],[-122.29073,37.84912],[-122.29029,37.8497],[-122.28983,37.84979],[-122.28936,37.84989],[-122.28902,37.84989]]],"type":"Polygon"},"properties":{"bbox":{"parking":{"area":2440.66,"pct":9.68},"roads":{"area":3739.85,"pct":14.84}},"city_same":1,"id":"hex:3750:24187"},"type":"Feature"},{"geometry":{"coordinates":[[[-122.28902,37.84989],[-122.28936,37.84989],[-122.28895,37.84997],[-122.28902,37.84989]]],"type":"Polygon"},"properties":{"bbox":{"parking":{"area":147.54,"pct":99.56}},"city_same":1,"id":"hex:3750:24188"},"type":"Feature"},{"geometry":{"coordinates":[[[-122.28863,37.83037],[-122.2875,37.83036],[-122.28694,37.82958],[-122.2872,37.82922],[-122.2891,37.82975],[-122.28863,37.83037]]],"type":"Polygon"},"properties":{"bbox":{"parking":{"area":207.41,"pct":1.36},"roads":{"area":2720.97,"pct":17.87}},"city":{"parking":{"area":207.41,"pct":1.36},"roads":{"area":1727.77,"pct":11.35}},"id":"hex:3751:24174"},"type":"Feature"},{"geometry":{"coordinates":[[[-122.28692,37.83114],[-122.28748,37.83192],[-122.28862,37.83193],[-122.28919,37.83115],[-122.28863,37.83037],[-122.2875,37.83036],[-122.28692,37.83114]]],"type":"Polygon"},"properties":{"bbox":{"parking":{"area":79.04,"pct":0.3},"roads":{"area":2697.68,"pct":10.38}},"city_same":1,"id":"hex:3751:24175"},"type":"Feature"},{"geometry":{"coordinates":[[[-122.28691,37.8327],[-122.28747,37.83348],[-122.2886,37.83349],[-122.28918,37.83271],[-122.28862,37.83193],[-122.28748,37.83192],[-122.28691,37.8327]]],"type":"Polygon"},"properties":{"bbox":{"roads":{"area":3181.34,"pct":12.24}},"city_same":1,"id":"hex:3751:24176"},"type":"Feature"},{"geometry":{"coordinates":[[[-122.28689,37.83426],[-122.28745,37.83505],[-122.28859,37.83505],[-122.28916,37.83428],[-122.2886,37.83349],[-122.28747,37.83348],[-122.28689,37.83426]]],"type":"Polygon"},"properties":{"bbox":{"parking":{"area":9398.21,"pct":36.17},"roads":{"area":3546.53,"pct":13.65},"sidewalks":{"area":104.42,"pct":0.4}},"city_same":1,"id":"hex:3751:24177"},"type":"Feature"},{"geometry":{"coordinates":[[[-122.28688,37.83582],[-122.28744,37.83661],[-122.28857,37.83661],[-122.28915,37.83584],[-122.28859,37.83505],[-122.28745,37.83505],[-122.28688,37.83582]]],"type":"Polygon"},"properties":{"bbox":{"roads":{"area":3482.16,"pct":13.4},"sidewalks":{"area":450.5,"pct":1.73}},"city_same":1,"id":"hex:3751:24178"},"type":"Feature"},{"geometry":{"coordinates":[[[-122.28686,37.83738],[-122.28742,37.83817],[-122.28856,37.83817],[-122.28914,37.8374],[-122.28857,37.83661],[-122.28744,37.83661],[-122.28686,37.83738]]],"type":"Polygon"},"properties":{"bbox":{"parking":{"area":4056.81,"pct":15.61},"roads":{"area":3054.05,"pct":11.76},"sidewalks":{"area":604.99,"pct":2.33}},"city_same":1,"id":"hex:3751:24179"},"type":"Feature"},{"geometry":{"coordinates":[[[-122.28685,37.83895],[-122.28741,37.83973],[-122.28854,37.83974],[-122.28912,37.83896],[-122.28856,37.83817],[-122.28742,37.83817],[-122.28685,37.83895]]],"type":"Polygon"},"properties":{"bbox":{"parking":{"area":3012.56,"pct":11.6},"roads":{"area":4804.57,"pct":18.49},"sidewalks":{"area":273.36,"pct":1.05}},"city":{"parking":{"area":3012.56,"pct":11.6},"roads":{"area":4295.1,"pct":16.53},"sidewalks":{"area":273.36,"pct":1.05}},"id":"hex:3751:24180"},"type":"Feature"},{"geometry":{"coordinates":[[[-122.28683,37.84051],[-122.28739,37.84129],[-122.28853,37.8413],[-122.28911,37.84052],[-122.28854,37.83974],[-122.28741,37.83973],[-122.28683,37.84051]]],"type":"Polygon"},"properties":{"bbox":{"roads":{"area":4443.72,"pct":17.1},"sidewalks":{"area":197.61,"pct":0.76}},"city":{"roads":{"area":3797.1,"pct":14.62},"sidewalks":{"area":197.61,"pct":0.76}},"id":"hex:3751:24181"},"type":"Feature"},{"geometry":{"coordinates":[[[-122.28682,37.84207],[-122.28738,37.84285],[-122.28851,37.84286],[-122.28909,37.84208],[-122.28853,37.8413],[-122.28739,37.84129],[-122.28682,37.84207]]],"type":"Polygon"},"properties":{"bbox":{"parking":{"area":1376.56,"pct":5.3},"roads":{"area":4953.8,"pct":19.07}},"city_same":1,"id":"hex:3751:24182"},"type":"Feature"},{"geometry":{"coordinates":[[[-122.28738,37.84285],[-122.28851,37.84286],[-122.28908,37.84364],[-122.2885,37.84442],[-122.28736,37.84441],[-122.28682,37.84365],[-122.28681,37.84362],[-122.28738,37.84285]]],"type":"Polygon"},"properties":{"bbox":{"roads":{"area":3104.61,"pct":11.95},"sidewalks":{"area":292.06,"pct":1.12}},"city_same":1,"id":"hex:3751:24183"},"type":"Feature"},{"geometry":{"coordinates":[[[-122.28736,37.84441],[-122.2885,37.84442],[-122.28906,37.8452],[-122.28848,37.84598],[-122.28756,37.84597],[-122.28754,37.84592],[-122.2875,37.84577],[-122.28744,37.8456],[-122.28727,37.8451],[-122.28721,37.84493],[-122.28716,37.84475],[-122.28714,37.84471],[-122.28736,37.84441]]],"type":"Polygon"},"properties":{"bbox":{"roads":{"area":2056.76,"pct":9.35}},"city_same":1,"id":"hex:3751:24184"},"type":"Feature"},{"geometry":{"coordinates":[[[-122.28848,37.84598],[-122.28905,37.84676],[-122.28847,37.84754],[-122.28796,37.84754],[-122.28795,37.84752],[-122.28794,37.8474],[-122.28788,37.84703],[-122.28787,37.84691],[-122.28784,37.84683],[-122.28775,37.84658],[-122.28772,37.8465],[-122.28768,37.84635],[-122.28756,37.84597],[-122.28848,37.84598]]],"type":"Polygon"},"properties":{"bbox":{"parking":{"area":2825.09,"pct":19.09},"roads":{"area":2750.11,"pct":18.58},"sidewalks":{"area":17.07,"pct":0.12}},"city_same":1,"id":"hex:3751:24185"},"type":"Feature"},{"geometry":{"coordinates":[[[-122.28847,37.84754],[-122.28903,37.84832],[-122.28848,37.84907],[-122.2884,37.8488],[-122.28838,37.84875],[-122.28832,37.84854],[-122.28824,37.84834],[-122.28803,37.84773],[-122.28796,37.84754],[-122.28847,37.84754]]],"type":"Polygon"},"properties":{"bbox":{"roads":{"area":1559.2,"pct":19.92},"sidewalks":{"area":27.87,"pct":0.36}},"city_same":1,"id":"hex:3751:24186"},"type":"Feature"},{"geometry":{"coordinates":[[[-122.28902,37.84989],[-122.28895,37.84997],[-122.28895,37.84997],[-122.28873,37.84998],[-122.28864,37.8496],[-122.28858,37.84939],[-122.28857,37.84935],[-122.28852,37.84919],[-122.28902,37.84989]]],"type":"Polygon"},"properties":{"bbox":{"parking":{"area":247.61,"pct":20.35},"roads":{"area":208.45,"pct":17.13}},"city_same":1,"id":"hex:3751:24187"},"type":"Feature"},{"geometry":{"coordinates":[[[-122.28694,37.82958],[-122.2858,37.82957],[-122.28524,37.82879],[-122.28531,37.8287],[-122.2872,37.82922],[-122.28694,37.82958]]],"type":"Polygon"},"properties":{"bbox":{"parking":{"area":3555.19,"pct":38.38},"roads":{"area":1375.4,"pct":14.85}},"city":{"parking":{"area":3555.19,"pct":38.38},"roads":{"area":1179.94,"pct":12.74}},"id":"hex:3752:24174"},"type":"Feature"},{"geometry":{"coordinates":[[[-122.28523,37.83035],[-122.28579,37.83113],[-122.28692,37.83114],[-122.2875,37.83036],[-122.28694,37.82958],[-122.2858,37.82957],[-122.28523,37.83035]]],"type":"Polygon"},"properties":{"bbox":{"parking":{"area":2520.78,"pct":9.7},"roads":{"area":5210.78,"pct":20.06}},"city":{"parking":{"area":2520.78,"pct":9.7},"roads":{"area":3717.81,"pct":14.31}},"id":"hex:3752:24175"},"type":"Feature"},{"geometry":{"coordinates":[[[-122.28521,37.83191],[-122.28577,37.83269],[-122.28691,37.8327],[-122.28748,37.83192],[-122.28692,37.83114],[-122.28579,37.83113],[-122.28521,37.83191]]],"type":"Polygon"},"properties":{"bbox":{"roads":{"area":3099.66,"pct":11.93},"sidewalks":{"area":505.75,"pct":1.95}},"city_same":1,"id":"hex:3752:24176"},"type":"Feature"},{"geometry":{"coordinates":[[[-122.2852,37.83347],[-122.28576,37.83426],[-122.28689,37.83426],[-122.28747,37.83348],[-122.28691,37.8327],[-122.28577,37.83269],[-122.2852,37.83347]]],"type":"Polygon"},"properties":{"bbox":{"parking":{"area":971.95,"pct":3.74},"roads":{"area":3584.5,"pct":13.8},"sidewalks":{"area":608.95,"pct":2.34}},"city_same":1,"id":"hex:3752:24177"},"type":"Feature"},{"geometry":{"coordinates":[[[-122.28518,37.83503],[-122.28574,37.83582],[-122.28688,37.83582],[-122.28745,37.83505],[-122.28689,37.83426],[-122.28576,37.83426],[-122.28518,37.83503]]],"type":"Polygon"},"properties":{"bbox":{"parking":{"area":2341.25,"pct":9.01},"roads":{"area":3273.28,"pct":12.6},"sidewalks":{"area":252.69,"pct":0.97}},"city_same":1,"id":"hex:3752:24178"},"type":"Feature"},{"geometry":{"coordinates":[[[-122.28517,37.83659],[-122.28573,37.83738],[-122.28686,37.83738],[-122.28744,37.83661],[-122.28688,37.83582],[-122.28574,37.83582],[-122.28517,37.83659]]],"type":"Polygon"},"properties":{"bbox":{"parking":{"area":3210.57,"pct":12.36},"roads":{"area":3230.85,"pct":12.44}},"city_same":1,"id":"hex:3752:24179"},"type":"Feature"},{"geometry":{"coordinates":[[[-122.28515,37.83815],[-122.28571,37.83894],[-122.28685,37.83895],[-122.28742,37.83817],[-122.28686,37.83738],[-122.28573,37.83738],[-122.28515,37.83815]]],"type":"Polygon"},"properties":{"bbox":{"parking":{"area":2190.87,"pct":8.43},"roads":{"area":3120.35,"pct":12.01}},"city_same":1,"id":"hex:3752:24180"},"type":"Feature"},{"geometry":{"coordinates":[[[-122.28571,37.83894],[-122.28685,37.83895],[-122.28741,37.83973],[-122.28683,37.84051],[-122.2858,37.8405],[-122.28572,37.84025],[-122.2857,37.84018],[-122.28569,37.84015],[-122.2856,37.83987],[-122.28558,37.83978],[-122.28546,37.83942],[-122.28543,37.83932],[-122.28571,37.83894]]],"type":"Polygon"},"properties":{"bbox":{"parking":{"area":667.89,"pct":2.88},"roads":{"area":4899.56,"pct":21.16},"sidewalks":{"area":390.09,"pct":1.68}},"city":{"parking":{"area":667.89,"pct":2.88},"roads":{"area":3777.31,"pct":16.31},"sidewalks":{"area":390.09,"pct":1.68}},"id":"hex:3752:24181"},"type":"Feature"},{"geometry":{"coordinates":[[[-122.28683,37.84051],[-122.28739,37.84129],[-122.28682,37.84207],[-122.28631,37.84206],[-122.28629,37.842],[-122.28618,37.84165],[-122.28583,37.8406],[-122.2858,37.8405],[-122.28683,37.84051]]],"type":"Polygon"},"properties":{"bbox":{"roads":{"area":1453.54,"pct":9.08}},"city_same":1,"id":"hex:3752:24182"},"type":"Feature"},{"geometry":{"coordinates":[[[-122.28682,37.84207],[-122.28738,37.84285],[-122.28681,37.84362],[-122.28676,37.84348],[-122.28671,37.84335],[-122.28663,37.84308],[-122.28638,37.84227],[-122.28631,37.84206],[-122.28682,37.84207]]],"type":"Polygon"},"properties":{"bbox":{"roads":{"area":308.62,"pct":3.79}},"city_same":1,"id":"hex:3752:24183"},"type":"Feature"},{"geometry":{"coordinates":[[[-122.28736,37.84441],[-122.28714,37.84471],[-122.287,37.8442],[-122.28694,37.84402],[-122.2869,37.84389],[-122.28682,37.84365],[-122.28736,37.84441]]],"type":"Polygon"},"properties":{"bbox":{"roads":{"area":104.31,"pct":6.75}},"city_same":1,"id":"hex:3752:24184"},"type":"Feature"},{"geometry":{"coordinates":[[[-122.28524,37.82879],[-122.2841,37.82878],[-122.28374,37.82827],[-122.28531,37.8287],[-122.28524,37.82879]]],"type":"Polygon"},"properties":{"bbox":{"parking":{"area":639.8,"pct":17.54},"roads":{"area":870.83,"pct":23.87}},"city_same":1,"id":"hex:3753:24173"},"type":"Feature"},{"geometry":{"coordinates":[[[-122.28353,37.82956],[-122.28409,37.83034],[-122.28523,37.83035],[-122.2858,37.82957],[-122.28524,37.82879],[-122.2841,37.82878],[-122.28353,37.82956]]],"type":"Polygon"},"properties":{"bbox":{"parking":{"area":9144.37,"pct":35.2},"roads":{"area":7188.86,"pct":27.67}},"city":{"parking":{"area":9144.37,"pct":35.2},"roads":{"area":5403.08,"pct":20.8}},"id":"hex:3753:24174"},"type":"Feature"},{"geometry":{"coordinates":[[[-122.28351,37.83112],[-122.28407,37.8319],[-122.28521,37.83191],[-122.28579,37.83113],[-122.28523,37.83035],[-122.28409,37.83034],[-122.28351,37.83112]]],"type":"Polygon"},"properties":{"bbox":{"parking":{"area":1669.21,"pct":6.42},"roads":{"area":2585.12,"pct":9.95},"sidewalks":{"area":230.99,"pct":0.89}},"city_same":1,"id":"hex:3753:24175"},"type":"Feature"},{"geometry":{"coordinates":[[[-122.2835,37.83268],[-122.28406,37.83346],[-122.2852,37.83347],[-122.28577,37.83269],[-122.28521,37.83191],[-122.28407,37.8319],[-122.2835,37.83268]]],"type":"Polygon"},"properties":{"bbox":{"parking":{"area":284.62,"pct":1.1},"roads":{"area":550.73,"pct":2.12},"sidewalks":{"area":150.8,"pct":0.58}},"city_same":1,"id":"hex:3753:24176"},"type":"Feature"},{"geometry":{"coordinates":[[[-122.28348,37.83424],[-122.28404,37.83503],[-122.28518,37.83503],[-122.28576,37.83426],[-122.2852,37.83347],[-122.28406,37.83346],[-122.28348,37.83424]]],"type":"Polygon"},"properties":{"bbox":{"parking":{"area":2075.88,"pct":7.99},"roads":{"area":3571.53,"pct":13.75},"sidewalks":{"area":85.07,"pct":0.33}},"city_same":1,"id":"hex:3753:24177"},"type":"Feature"},{"geometry":{"coordinates":[[[-122.28347,37.8358],[-122.28403,37.83659],[-122.28517,37.83659],[-122.28574,37.83582],[-122.28518,37.83503],[-122.28404,37.83503],[-122.28347,37.8358]]],"type":"Polygon"},"properties":{"bbox":{"parking":{"area":5.99,"pct":0.02},"roads":{"area":3188.14,"pct":12.27}},"city_same":1,"id":"hex:3753:24178"},"type":"Feature"},{"geometry":{"coordinates":[[[-122.28403,37.83659],[-122.28517,37.83659],[-122.28573,37.83738],[-122.28515,37.83815],[-122.28506,37.83815],[-122.28501,37.83801],[-122.28496,37.83788],[-122.28482,37.83751],[-122.28477,37.83738],[-122.28474,37.83725],[-122.28465,37.83683],[-122.28462,37.8367],[-122.28458,37.83671],[-122.28453,37.83672],[-122.28447,37.83672],[-122.28443,37.83672],[-122.28434,37.83674],[-122.28408,37.83679],[-122.284,37.8368],[-122.28385,37.83683],[-122.28403,37.83659]]],"type":"Polygon"},"properties":{"bbox":{"parking":{"area":55.46,"pct":0.51},"roads":{"area":1195.81,"pct":11}},"city_same":1,"id":"hex:3753:24179"},"type":"Feature"},{"geometry":{"coordinates":[[[-122.28515,37.83815],[-122.28571,37.83894],[-122.28543,37.83932],[-122.28512,37.83836],[-122.28506,37.83815],[-122.28515,37.83815]]],"type":"Polygon"},"properties":{"bbox":{"roads":{"area":54.67,"pct":2.07}},"city_same":1,"id":"hex:3753:24180"},"type":"Feature"},{"geometry":{"coordinates":[[[-122.28241,37.82799],[-122.28233,37.82788],[-122.28274,37.82799],[-122.28241,37.82799]]],"type":"Polygon"},"properties":{"bbox":{"roads":{"area":171.09,"pct":93.53}},"city":{"roads":{"area":139.65,"pct":76.34}},"id":"hex:3754:24173"},"type":"Feature"},{"geometry":{"coordinates":[[[-122.2841,37.82878],[-122.28353,37.82956],[-122.28239,37.82955],[-122.28183,37.82877],[-122.28241,37.82799],[-122.28274,37.82799],[-122.28374,37.82827],[-122.2841,37.82878]]],"type":"Polygon"},"properties":{"bbox":{"parking":{"area":9840.22,"pct":39.47},"roads":{"area":2842.98,"pct":11.4}},"city_same":1,"id":"hex:3754:24174"},"type":"Feature"},{"geometry":{"coordinates":[[[-122.28182,37.83033],[-122.28238,37.83111],[-122.28351,37.83112],[-122.28409,37.83034],[-122.28353,37.82956],[-122.28239,37.82955],[-122.28182,37.83033]]],"type":"Polygon"},"properties":{"bbox":{"parking":{"area":3762.79,"pct":14.48},"roads":{"area":5737.69,"pct":22.08}},"city":{"parking":{"area":3762.79,"pct":14.48},"roads":{"area":3514.13,"pct":13.53}},"id":"hex:3754:24175"},"type":"Feature"},{"geometry":{"coordinates":[[[-122.2818,37.83189],[-122.28236,37.83267],[-122.2835,37.83268],[-122.28407,37.8319],[-122.28351,37.83112],[-122.28238,37.83111],[-122.2818,37.83189]]],"type":"Polygon"},"properties":{"bbox":{"parking":{"area":2582,"pct":9.94},"roads":{"area":3750.43,"pct":14.44},"sidewalks":{"area":422.42,"pct":1.63}},"city_same":1,"id":"hex:3754:24176"},"type":"Feature"},{"geometry":{"coordinates":[[[-122.28179,37.83345],[-122.28235,37.83423],[-122.28348,37.83424],[-122.28406,37.83346],[-122.2835,37.83268],[-122.28236,37.83267],[-122.28179,37.83345]]],"type":"Polygon"},"properties":{"bbox":{"parking":{"area":10506.66,"pct":40.44},"roads":{"area":5221.21,"pct":20.1},"sidewalks":{"area":483.75,"pct":1.86}},"city_same":1,"id":"hex:3754:24177"},"type":"Feature"},{"geometry":{"coordinates":[[[-122.28177,37.83501],[-122.28233,37.8358],[-122.28347,37.8358],[-122.28404,37.83503],[-122.28348,37.83424],[-122.28235,37.83423],[-122.28177,37.83501]]],"type":"Polygon"},"properties":{"bbox":{"parking":{"area":10841.67,"pct":41.73},"roads":{"area":4287.75,"pct":16.5}},"city_same":1,"id":"hex:3754:24178"},"type":"Feature"},{"geometry":{"coordinates":[[[-122.28176,37.83657],[-122.28233,37.8358],[-122.28347,37.8358],[-122.28403,37.83659],[-122.28385,37.83683],[-122.28359,37.83688],[-122.28236,37.83711],[-122.28217,37.83715],[-122.28176,37.83657]]],"type":"Polygon"},"properties":{"bbox":{"roads":{"area":570.03,"pct":2.71},"sidewalks":{"area":49.25,"pct":0.23}},"city":{"roads":{"area":564.6,"pct":2.68},"sidewalks":{"area":49.25,"pct":0.23}},"id":"hex:3754:24179"},"type":"Feature"},{"geometry":{"coordinates":[[[-122.28241,37.82799],[-122.28183,37.82877],[-122.2807,37.82876],[-122.28013,37.82798],[-122.28052,37.82746],[-122.28201,37.82779],[-122.28233,37.82788],[-122.28241,37.82799]]],"type":"Polygon"},"properties":{"bbox":{"roads":{"area":5599.88,"pct":28.46},"sidewalks":{"area":405.33,"pct":2.06}},"city":{"roads":{"area":4505.61,"pct":22.9},"sidewalks":{"area":405.33,"pct":2.06}},"id":"hex:3755:24173"},"type":"Feature"},{"geometry":{"coordinates":[[[-122.28012,37.82954],[-122.28068,37.83032],[-122.28182,37.83033],[-122.28239,37.82955],[-122.28183,37.82877],[-122.2807,37.82876],[-122.28012,37.82954]]],"type":"Polygon"},"properties":{"bbox":{"parking":{"area":12816.48,"pct":49.33},"roads":{"area":5196.09,"pct":20},"sidewalks":{"area":113.68,"pct":0.44}},"city_same":1,"id":"hex:3755:24174"},"type":"Feature"},{"geometry":{"coordinates":[[[-122.2801,37.8311],[-122.28067,37.83188],[-122.2818,37.83189],[-122.28238,37.83111],[-122.28182,37.83033],[-122.28068,37.83032],[-122.2801,37.8311]]],"type":"Polygon"},"properties":{"bbox":{"parking":{"area":5232.27,"pct":20.14},"roads":{"area":6075.49,"pct":23.38},"sidewalks":{"area":674.63,"pct":2.6}},"city":{"parking":{"area":5232.27,"pct":20.14},"roads":{"area":3984.83,"pct":15.34},"sidewalks":{"area":674.63,"pct":2.6}},"id":"hex:3755:24175"},"type":"Feature"},{"geometry":{"coordinates":[[[-122.28009,37.83266],[-122.28065,37.83344],[-122.28179,37.83345],[-122.28236,37.83267],[-122.2818,37.83189],[-122.28067,37.83188],[-122.28009,37.83266]]],"type":"Polygon"},"properties":{"bbox":{"parking":{"area":12977.02,"pct":49.95},"roads":{"area":6293.24,"pct":24.22},"sidewalks":{"area":661.72,"pct":2.55}},"city":{"parking":{"area":12977.02,"pct":49.95},"roads":{"area":4898.32,"pct":18.85},"sidewalks":{"area":661.72,"pct":2.55}},"id":"hex:3755:24176"},"type":"Feature"},{"geometry":{"coordinates":[[[-122.28007,37.83422],[-122.28063,37.835],[-122.28177,37.83501],[-122.28235,37.83423],[-122.28179,37.83345],[-122.28065,37.83344],[-122.28007,37.83422]]],"type":"Polygon"},"properties":{"bbox":{"parking":{"area":7557.95,"pct":29.09},"roads":{"area":6783.46,"pct":26.11},"sidewalks":{"area":778.89,"pct":3}},"city":{"parking":{"area":7557.95,"pct":29.09},"roads":{"area":4741.32,"pct":18.25},"sidewalks":{"area":778.89,"pct":3}},"id":"hex:3755:24177"},"type":"Feature"},{"geometry":{"coordinates":[[[-122.28006,37.83578],[-122.28062,37.83657],[-122.28176,37.83657],[-122.28233,37.8358],[-122.28177,37.83501],[-122.28063,37.835],[-122.28006,37.83578]]],"type":"Polygon"},"properties":{"bbox":{"parking":{"area":2164.43,"pct":8.33},"roads":{"area":6766.25,"pct":26.04},"sidewalks":{"area":460.55,"pct":1.77}},"city":{"parking":{"area":2164.43,"pct":8.33},"roads":{"area":4521.9,"pct":17.4},"sidewalks":{"area":460.55,"pct":1.77}},"id":"hex:3755:24178"},"type":"Feature"},{"geometry":{"coordinates":[[[-122.28062,37.83657],[-122.28176,37.83657],[-122.28217,37.83715],[-122.28213,37.83715],[-122.28187,37.83719],[-122.28183,37.83701],[-122.28181,37.83693],[-122.28178,37.83687],[-122.28172,37.83668],[-122.28148,37.8367],[-122.28088,37.83678],[-122.28038,37.8369],[-122.28037,37.8369],[-122.28062,37.83657]]],"type":"Polygon"},"properties":{"bbox":{"roads":{"area":850.67,"pct":25.81},"sidewalks":{"area":77.66,"pct":2.36}},"city":{"roads":{"area":307.09,"pct":9.32},"sidewalks":{"area":77.66,"pct":2.36}},"id":"hex:3755:24179"},"type":"Feature"},{"geometry":{"coordinates":[[[-122.28013,37.82798],[-122.279,37.82797],[-122.27844,37.82719],[-122.27852,37.82707],[-122.27874,37.82708],[-122.28052,37.82746],[-122.28013,37.82798]]],"type":"Polygon"},"properties":{"bbox":{"roads":{"area":2468.95,"pct":21.09},"sidewalks":{"area":604.29,"pct":5.16}},"city":{"roads":{"area":2272.45,"pct":19.41},"sidewalks":{"area":604.29,"pct":5.16}},"id":"hex:3756:24173"},"type":"Feature"},{"geometry":{"coordinates":[[[-122.279,37.82797],[-122.28013,37.82798],[-122.2807,37.82876],[-122.28012,37.82954],[-122.27898,37.82953],[-122.27848,37.82883],[-122.27852,37.82868],[-122.27851,37.82863],[-122.279,37.82797]]],"type":"Polygon"},"properties":{"bbox":{"roads":{"area":8375.31,"pct":32.34},"sidewalks":{"area":1092.39,"pct":4.22}},"city":{"roads":{"area":5915.6,"pct":22.85},"sidewalks":{"area":1092.39,"pct":4.22}},"id":"hex:3756:24174"},"type":"Feature"},{"geometry":{"coordinates":[[[-122.27841,37.83031],[-122.27897,37.83109],[-122.2801,37.8311],[-122.28068,37.83032],[-122.28012,37.82954],[-122.27898,37.82953],[-122.27841,37.83031]]],"type":"Polygon"},"properties":{"bbox":{"parking":{"area":7532.25,"pct":28.99},"roads":{"area":6731.73,"pct":25.91},"sidewalks":{"area":566.52,"pct":2.18}},"city":{"parking":{"area":7532.25,"pct":28.99},"roads":{"area":3616.58,"pct":13.92},"sidewalks":{"area":566.52,"pct":2.18}},"id":"hex:3756:24175"},"type":"Feature"},{"geometry":{"coordinates":[[[-122.27839,37.83187],[-122.27895,37.83265],[-122.28009,37.83266],[-122.28067,37.83188],[-122.2801,37.8311],[-122.27897,37.83109],[-122.27839,37.83187]]],"type":"Polygon"},"properties":{"bbox":{"parking":{"area":5677.76,"pct":21.85},"roads":{"area":6568.88,"pct":25.28},"sidewalks":{"area":387.01,"pct":1.49}},"city":{"parking":{"area":5677.76,"pct":21.85},"roads":{"area":3593.19,"pct":13.83},"sidewalks":{"area":387.01,"pct":1.49}},"id":"hex:3756:24176"},"type":"Feature"},{"geometry":{"coordinates":[[[-122.27838,37.83343],[-122.27894,37.83421],[-122.28007,37.83422],[-122.28065,37.83344],[-122.28009,37.83266],[-122.27895,37.83265],[-122.27838,37.83343]]],"type":"Polygon"},"properties":{"bbox":{"parking":{"area":375.76,"pct":1.45},"roads":{"area":2971.96,"pct":11.44},"sidewalks":{"area":79.67,"pct":0.31}},"city":{"parking":{"area":375.76,"pct":1.45},"roads":{"area":2841.13,"pct":10.94},"sidewalks":{"area":79.67,"pct":0.31}},"id":"hex:3756:24177"},"type":"Feature"},{"geometry":{"coordinates":[[[-122.27836,37.83499],[-122.27892,37.83577],[-122.28006,37.83578],[-122.28063,37.835],[-122.28007,37.83422],[-122.27894,37.83421],[-122.27836,37.83499]]],"type":"Polygon"},"properties":{"bbox":{"parking":{"area":1409.96,"pct":5.43},"roads":{"area":3659.31,"pct":14.08}},"city_same":1,"id":"hex:3756:24178"},"type":"Feature"},{"geometry":{"coordinates":[[[-122.27835,37.83655],[-122.27892,37.83577],[-122.28006,37.83578],[-122.28062,37.83657],[-122.28037,37.8369],[-122.2799,37.83699],[-122.27959,37.83709],[-122.27906,37.83718],[-122.27882,37.83722],[-122.27835,37.83655]]],"type":"Polygon"},"properties":{"bbox":{"roads":{"area":2704.11,"pct":11.94}},"city_same":1,"id":"hex:3756:24179"},"type":"Feature"},{"geometry":{"coordinates":[[[-122.27844,37.82719],[-122.27795,37.82718],[-122.2779,37.82705],[-122.27852,37.82707],[-122.27844,37.82719]]],"type":"Polygon"},"properties":{"bbox":{"roads":{"area":110.07,"pct":16.6}},"city_same":1,"id":"hex:3757:24172"},"type":"Feature"},{"geometry":{"coordinates":[[[-122.27844,37.82719],[-122.279,37.82797],[-122.27851,37.82863],[-122.27795,37.82718],[-122.27844,37.82719]]],"type":"Polygon"},"properties":{"bbox":{"roads":{"area":1386.09,"pct":19.44},"sidewalks":{"area":171.3,"pct":2.4}},"city":{"roads":{"area":1335.16,"pct":18.72},"sidewalks":{"area":171.3,"pct":2.4}},"id":"hex:3757:24173"},"type":"Feature"},{"geometry":{"coordinates":[[[-122.27898,37.82953],[-122.27841,37.83031],[-122.27802,37.83031],[-122.27848,37.82883],[-122.27898,37.82953]]],"type":"Polygon"},"properties":{"bbox":{"roads":{"area":824.6,"pct":12.31},"sidewalks":{"area":100.2,"pct":1.5}},"city":{"roads":{"area":780.23,"pct":11.65},"sidewalks":{"area":100.2,"pct":1.5}},"id":"hex:3757:24174"},"type":"Feature"},{"geometry":{"coordinates":[[[-122.27841,37.83031],[-122.27897,37.83109],[-122.27839,37.83187],[-122.27747,37.83186],[-122.27772,37.83129],[-122.27802,37.83031],[-122.27841,37.83031]]],"type":"Polygon"},"properties":{"bbox":{"parking":{"area":412,"pct":2.95},"roads":{"area":2956.08,"pct":21.14}},"city":{"parking":{"area":412,"pct":2.95},"roads":{"area":1518.32,"pct":10.86}},"id":"hex:3757:24175"},"type":"Feature"},{"geometry":{"coordinates":[[[-122.27839,37.83187],[-122.27895,37.83265],[-122.27838,37.83343],[-122.27724,37.83342],[-122.27697,37.83305],[-122.27747,37.83186],[-122.27839,37.83187]]],"type":"Polygon"},"properties":{"bbox":{"roads":{"area":2785.21,"pct":12.41}},"city":{"roads":{"area":2362.01,"pct":10.52}},"id":"hex:3757:24176"},"type":"Feature"},{"geometry":{"coordinates":[[[-122.27667,37.8342],[-122.27723,37.83498],[-122.27836,37.83499],[-122.27894,37.83421],[-122.27838,37.83343],[-122.27724,37.83342],[-122.27667,37.8342]]],"type":"Polygon"},"properties":{"bbox":{"parking":{"area":165.95,"pct":0.64},"roads":{"area":3832.23,"pct":14.75}},"city":{"parking":{"area":165.95,"pct":0.64},"roads":{"area":3546.5,"pct":13.65}},"id":"hex:3757:24177"},"type":"Feature"},{"geometry":{"coordinates":[[[-122.27665,37.83576],[-122.27721,37.83654],[-122.27835,37.83655],[-122.27892,37.83577],[-122.27836,37.83499],[-122.27723,37.83498],[-122.27665,37.83576]]],"type":"Polygon"},"properties":{"bbox":{"roads":{"area":2750.95,"pct":10.59}},"city_same":1,"id":"hex:3757:24178"},"type":"Feature"},{"geometry":{"coordinates":[[[-122.27721,37.83654],[-122.27835,37.83655],[-122.27882,37.83722],[-122.2786,37.83725],[-122.27809,37.83696],[-122.27743,37.83703],[-122.27696,37.83689],[-122.27696,37.83689],[-122.27721,37.83654]]],"type":"Polygon"},"properties":{"bbox":{"roads":{"area":245.02,"pct":3.47}},"city_same":1,"id":"hex:3757:24179"},"type":"Feature"},{"geometry":{"coordinates":[[[-122.27724,37.83342],[-122.27667,37.8342],[-122.27649,37.8342],[-122.27697,37.83305],[-122.27724,37.83342]]],"type":"Polygon"},"properties":{"bbox":{"roads":{"area":170.91,"pct":5.62}},"city_same":1,"id":"hex:3758:24177"},"type":"Feature"},{"geometry":{"coordinates":[[[-122.27667,37.8342],[-122.27723,37.83498],[-122.27665,37.83576],[-122.27584,37.83576],[-122.27649,37.8342],[-122.27667,37.8342]]],"type":"Polygon"},"properties":{"bbox":{"roads":{"area":2018.21,"pct":17.02}},"city":{"roads":{"area":1714.8,"pct":14.46}},"id":"hex:3758:24178"},"type":"Feature"},{"geometry":{"coordinates":[[[-122.27665,37.83576],[-122.27721,37.83654],[-122.27696,37.83689],[-122.27683,37.83689],[-122.27626,37.83696],[-122.27555,37.83643],[-122.27584,37.83576],[-122.27665,37.83576]]],"type":"Polygon"},"properties":{"bbox":{"roads":{"area":1608.77,"pct":11.76}},"city":{"roads":{"area":1332.99,"pct":9.74}},"id":"hex:3758:24179"},"type":"Feature"}],"type":"FeatureCollection","v":2}