{"features":[{"geometry":{"coordinates":[[[-118.1514,33.87981],[-118.14699,33.87983],[-118.14707,33.88934],[-118.14281,33.88936],[-118.14298,33.90243],[-118.14284,33.90238],[-118.1429,33.90865],[-118.1424,33.91045],[-118.13959,33.90916],[-118.13823,33.90896],[-118.1346,33.90977],[-118.1094,33.90985],[-118.10839,33.90639],[-118.10827,33.90263],[-118.10811,33.9022],[-118.10832,33.90164],[-118.10813,33.88812],[-118.10784,33.88791],[-118.10785,33.88761],[-118.10815,33.88734],[-118.10816,33.88693],[-118.10861,33.88693],[-118.10845,33.87956],[-118.1067,33.87288],[-118.10852,33.87287],[-118.10843,33.86559],[-118.11428,33.86557],[-118.1143,33.86907],[-118.11799,33.86905],[-118.11801,33.86923],[-118.13386,33.86894],[-118.15136,33.86892],[-118.1514,33.87981]]],"type":"Polygon"},"properties":{"type":"boundary"},"type":"Feature"}],"type":"FeatureCollection"}