{"features":[{"geometry":{"coordinates":[[[-122.35861,37.95046],[-122.35851,37.95204],[-122.35823,37.95214],[-122.35734,37.96295],[-122.35704,37.96464],[-122.35288,37.97998],[-122.34671,37.98076],[-122.34671,37.98156],[-122.33854,37.98156],[-122.34063,37.97923],[-122.34237,37.97623],[-122.34301,37.97461],[-122.34317,37.97374],[-122.34232,37.97364],[-122.34211,37.97204],[-122.34008,37.97228],[-122.33701,37.96932],[-122.33701,37.96364],[-122.33632,37.96363],[-122.33613,37.96382],[-122.33563,37.96359],[-122.33542,37.96324],[-122.33227,37.96331],[-122.33228,37.96319],[-122.32932,37.96303],[-122.32474,37.96525],[-122.32343,37.96633],[-122.32316,37.96646],[-122.32306,37.96631],[-122.32446,37.96534],[-122.32374,37.96324],[-122.31982,37.96399],[-122.31975,37.96377],[-122.31947,37.96382],[-122.31843,37.96037],[-122.31955,37.96071],[-122.32212,37.95977],[-122.32266,37.95987],[-122.32316,37.95975],[-122.32273,37.95833],[-122.32321,37.95822],[-122.324,37.95836],[-122.32425,37.95828],[-122.32467,37.95853],[-122.32473,37.95841],[-122.3251,37.95848],[-122.32504,37.95871],[-122.32557,37.95872],[-122.32562,37.95847],[-122.32613,37.95857],[-122.32667,37.95679],[-122.32615,37.95493],[-122.32472,37.95389],[-122.3244,37.95385],[-122.32444,37.95349],[-122.32349,37.95266],[-122.32323,37.95267],[-122.32322,37.95245],[-122.32259,37.95202],[-122.32208,37.952],[-122.32232,37.95133],[-122.32254,37.95127],[-122.3233,37.94975],[-122.32485,37.94918],[-122.33237,37.94908],[-122.33375,37.95178],[-122.33418,37.95176],[-122.33465,37.952],[-122.33522,37.95199],[-122.33612,37.95238],[-122.33734,37.95251],[-122.33775,37.95293],[-122.33823,37.95295],[-122.33889,37.9534],[-122.34032,37.95248],[-122.34253,37.95535],[-122.34682,37.95628],[-122.34687,37.95307],[-122.34725,37.95307],[-122.34726,37.95049],[-122.35861,37.95046]]],"type":"Polygon"},"properties":{"type":"boundary"},"type":"Feature"}],"type":"FeatureCollection"}