{"features":[{"geometry":{"coordinates":[[[[-118.4505405,33.8322613],[-118.4714826,33.816438],[-118.4714826,33.816438],[-118.4714826,33.816438],[-118.4505405,33.8322613]]],[[[-118.39957,33.85186],[-118.39333,33.85381],[-118.39012,33.85434],[-118.39033,33.8549],[-118.38482,33.85652],[-118.38508,33.85772],[-118.38529,33.85806],[-118.38501,33.85807],[-118.38555,33.86079],[-118.38516,33.86085],[-118.38589,33.86438],[-118.39142,33.87279],[-118.37996,33.87287],[-118.38002,33.87965],[-118.37992,33.8801],[-118.37867,33.88007],[-118.37867,33.88147],[-118.37891,33.88171],[-118.3786,33.88289],[-118.3787,33.89467],[-118.36129,33.89465],[-118.36129,33.87286],[-118.35468,33.87286],[-118.35235,33.87449],[-118.35246,33.86559],[-118.35883,33.86561],[-118.35871,33.86408],[-118.35842,33.86333],[-118.35756,33.86223],[-118.35307,33.85885],[-118.3535,33.85819],[-118.35885,33.85835],[-118.3754,33.85832],[-118.37537,33.85596],[-118.3784,33.855],[-118.37369,33.83138],[-118.37278,33.82763],[-118.37447,33.82763],[-118.3745,33.81968],[-118.37435,33.81642],[-118.37449,33.81565],[-118.37961,33.81645],[-118.38045,33.81682],[-118.3835,33.81868],[-118.38443,33.81908],[-118.38459,33.81894],[-118.38531,33.81899],[-118.38544,33.8181],[-118.38503,33.81768],[-118.38559,33.81709],[-118.38503,33.81678],[-118.38642,33.81514],[-118.38718,33.8149],[-118.38756,33.81493],[-118.38791,33.81468],[-118.38812,33.81532],[-118.38844,33.81513],[-118.38863,33.81539],[-118.38905,33.81491],[-118.39042,33.8155],[-118.39161,33.81552],[-118.39102,33.81959],[-118.3909,33.82269],[-118.39129,33.83124],[-118.39158,33.83186],[-118.39257,33.83186],[-118.39111,33.83199],[-118.39079,33.83385],[-118.39066,33.83664],[-118.39093,33.83832],[-118.39216,33.84125],[-118.39211,33.84143],[-118.39153,33.84138],[-118.39115,33.84066],[-118.39083,33.84083],[-118.39178,33.84261],[-118.39217,33.84249],[-118.39211,33.84196],[-118.39255,33.84187],[-118.39317,33.84229],[-118.39341,33.84317],[-118.39408,33.84377],[-118.39467,33.84364],[-118.39485,33.84378],[-118.39455,33.84374],[-118.39437,33.84393],[-118.39505,33.84406],[-118.39655,33.84388],[-118.39822,33.84625],[-118.39813,33.84662],[-118.39739,33.84684],[-118.39662,33.84468],[-118.39466,33.84514],[-118.39591,33.84855],[-118.39649,33.84841],[-118.39664,33.84886],[-118.39895,33.84828],[-118.39859,33.8473],[-118.39881,33.84698],[-118.39993,33.84845],[-118.39676,33.84921],[-118.39756,33.85105],[-118.40041,33.85004],[-118.40014,33.84921],[-118.40042,33.84914],[-118.40042,33.84888],[-118.40184,33.84901],[-118.40113,33.8499],[-118.39951,33.85055],[-118.39968,33.85183],[-118.39957,33.85186]],[[-118.37406,33.83117],[-118.374,33.83098],[-118.37386,33.83114],[-118.37406,33.83117]],[[-118.3743,33.8293],[-118.37431,33.82931],[-118.37432,33.82932],[-118.37433,33.82933],[-118.37435,33.82934],[-118.37437,33.82932],[-118.37438,33.82931],[-118.37438,33.8293],[-118.37437,33.82928],[-118.37435,33.82927],[-118.37437,33.82927],[-118.37439,33.82926],[-118.3744,33.82925],[-118.37439,33.82923],[-118.37439,33.82922],[-118.37438,33.82921],[-118.37437,33.8292],[-118.37436,33.82919],[-118.37435,33.82918],[-118.37434,33.82916],[-118.37433,33.82915],[-118.37432,33.82915],[-118.37431,33.82915],[-118.37429,33.82915],[-118.37428,33.82915],[-118.37426,33.82917],[-118.37425,33.82918],[-118.37424,33.8292],[-118.37424,33.82922],[-118.37424,33.82924],[-118.37425,33.82925],[-118.37425,33.82925],[-118.37427,33.82927],[-118.37428,33.82928],[-118.3743,33.8293]],[[-118.37681,33.87216],[-118.37682,33.87218],[-118.37683,33.87219],[-118.37684,33.8722],[-118.37686,33.8722],[-118.37687,33.87219],[-118.37688,33.87217],[-118.37688,33.87197],[-118.37687,33.87196],[-118.37686,33.87195],[-118.37685,33.87194],[-118.37682,33.87194],[-118.37681,33.87195],[-118.37681,33.87196],[-118.37681,33.87216]],[[-118.39275,33.85042],[-118.39366,33.85032],[-118.39352,33.84963],[-118.39264,33.84974],[-118.39275,33.85042]],[[-118.39282,33.85058],[-118.39291,33.85128],[-118.39372,33.85109],[-118.39359,33.85048],[-118.39282,33.85058]],[[-118.39347,33.85215],[-118.39391,33.85195],[-118.39372,33.8513],[-118.39295,33.85141],[-118.39308,33.85203],[-118.39347,33.85215]],[[-118.39376,33.85047],[-118.39386,33.85102],[-118.39414,33.85097],[-118.39387,33.85041],[-118.39376,33.85047]],[[-118.39382,33.84409],[-118.39442,33.84454],[-118.39489,33.8445],[-118.39502,33.84426],[-118.39382,33.84409]],[[-118.39405,33.85163],[-118.39409,33.85162],[-118.3941,33.85154],[-118.39408,33.85142],[-118.39402,33.85134],[-118.39396,33.85136],[-118.39394,33.85142],[-118.39399,33.85164],[-118.39405,33.85163]],[[-118.39408,33.85031],[-118.3942,33.85056],[-118.39443,33.85044],[-118.39421,33.85004],[-118.39394,33.85019],[-118.39396,33.85035],[-118.39408,33.85031]]]],"type":"MultiPolygon"},"properties":{"type":"boundary"},"type":"Feature"}],"type":"FeatureCollection"}