{"features":[{"geometry":{"coordinates":[[[[-71.08912,42.42873],[-71.08906,42.42912],[-71.08803,42.42903],[-71.08564,42.44469],[-71.08212,42.44394],[-71.08292,42.43884],[-71.07007,42.44016],[-71.06957,42.43724],[-71.06997,42.43601],[-71.06972,42.43602],[-71.06941,42.43725],[-71.06992,42.44018],[-71.02584,42.44471],[-71.02038,42.43825],[-71.02562,42.42884],[-71.02676,42.42829],[-71.02761,42.42614],[-71.02996,42.42533],[-71.03322,42.42508],[-71.03477,42.42382],[-71.03625,42.42373],[-71.03995,42.42446],[-71.03649,42.42371],[-71.05047,42.42289],[-71.05438,42.42003],[-71.05474,42.42004],[-71.06013,42.41614],[-71.06154,42.4156],[-71.06439,42.41527],[-71.07272,42.4149],[-71.07347,42.42098],[-71.0726,42.42149],[-71.0734,42.42122],[-71.07289,42.42159],[-71.07317,42.42181],[-71.07318,42.42223],[-71.07351,42.42186],[-71.07375,42.4205],[-71.07348,42.41783],[-71.07369,42.41751],[-71.07338,42.41309],[-71.0736,42.41278],[-71.07481,42.41259],[-71.07549,42.41332],[-71.07639,42.41321],[-71.07611,42.41317],[-71.0763,42.41306],[-71.07713,42.41329],[-71.07931,42.41494],[-71.07991,42.41517],[-71.08172,42.41516],[-71.08425,42.41651],[-71.08588,42.41791],[-71.08945,42.42662],[-71.08912,42.42873]],[[-71.03257,42.43709],[-71.03278,42.43718],[-71.03285,42.43701],[-71.03252,42.43665],[-71.03228,42.437],[-71.03257,42.43709]],[[-71.04073,42.42458],[-71.04056,42.42454],[-71.04047,42.42451],[-71.04042,42.42449],[-71.04041,42.42452],[-71.04039,42.42455],[-71.04061,42.42459],[-71.04074,42.42461],[-71.04105,42.42469],[-71.04136,42.42476],[-71.04186,42.42487],[-71.04187,42.42482],[-71.04141,42.42473],[-71.04129,42.42471],[-71.04096,42.42464],[-71.04073,42.42458]],[[-71.06274,42.43888],[-71.06293,42.43913],[-71.06304,42.43882],[-71.06262,42.43816],[-71.06216,42.43822],[-71.062,42.43886],[-71.06274,42.43888]],[[-71.08509,42.4293],[-71.08553,42.42888],[-71.08531,42.42793],[-71.08555,42.42761],[-71.08612,42.42785],[-71.0868,42.42699],[-71.08661,42.42661],[-71.08637,42.42658],[-71.08549,42.42696],[-71.08486,42.4278],[-71.08411,42.42833],[-71.08438,42.42883],[-71.08472,42.42899],[-71.08488,42.42929],[-71.08509,42.4293]]],[[[-71.02823,42.4242],[-71.03463,42.42382],[-71.03315,42.42503],[-71.02988,42.42525],[-71.0274,42.42612],[-71.02659,42.42825],[-71.02573,42.42866],[-71.02823,42.4242]]],[[[-71.06242,42.43841],[-71.06243,42.43844],[-71.06243,42.43847],[-71.06242,42.43849],[-71.06239,42.43852],[-71.06237,42.43854],[-71.06234,42.43855],[-71.0623,42.43856],[-71.06227,42.43855],[-71.06225,42.43854],[-71.06223,42.43852],[-71.06223,42.4385],[-71.06223,42.43848],[-71.06225,42.43845],[-71.06228,42.43842],[-71.06232,42.4384],[-71.06235,42.4384],[-71.06239,42.4384],[-71.06242,42.43841]]]],"type":"MultiPolygon"},"properties":{"type":"boundary"},"type":"Feature"}],"type":"FeatureCollection"}