{"features":[{"geometry":{"coordinates":[[[[-122.27456,38.03471],[-122.26992,38.03015],[-122.26983,38.0298],[-122.26734,38.02735],[-122.26714,38.02742],[-122.25776,38.01839],[-122.25602,38.01649],[-122.24807,38.00868],[-122.2391,38.00722],[-122.23651,38.00373],[-122.23489,38.00449],[-122.2333,38.00236],[-122.23114,38.00212],[-122.22975,38.01014],[-122.22933,38.01009],[-122.22938,38.0098],[-122.22875,38.00972],[-122.22758,38.00904],[-122.22736,38.00934],[-122.22482,38.00826],[-122.22226,38.00774],[-122.21992,38.00775],[-122.21784,38.00726],[-122.21408,38.007],[-122.2132,38.00708],[-122.21149,38.0075],[-122.20963,38.00761],[-122.211,38.0073],[-122.21096,38.00717],[-122.20962,38.00747],[-122.20962,37.99617],[-122.23105,37.99639],[-122.23191,37.99395],[-122.23016,37.99338],[-122.22891,37.9933],[-122.22823,37.99263],[-122.23075,37.98765],[-122.23389,37.98576],[-122.2344,37.98484],[-122.23484,37.9844],[-122.23561,37.98412],[-122.236,37.98341],[-122.24978,37.992],[-122.25368,37.99361],[-122.25627,37.99258],[-122.25954,37.99176],[-122.26507,37.99187],[-122.26891,37.99273],[-122.27489,37.99507],[-122.27808,38.00004],[-122.27956,38.00039],[-122.28012,38.00029],[-122.28214,38.00039],[-122.28152,38.00126],[-122.28004,38.0021],[-122.27975,38.00241],[-122.27984,38.00301],[-122.27904,38.00325],[-122.27975,38.00401],[-122.28165,38.00411],[-122.28231,38.00508],[-122.2828,38.00678],[-122.28448,38.00888],[-122.28587,38.00841],[-122.2847,38.00945],[-122.28639,38.00855],[-122.28861,38.00816],[-122.29034,38.00817],[-122.29476,38.01336],[-122.2931,38.01523],[-122.2944,38.01525],[-122.29399,38.01562],[-122.29342,38.0158],[-122.2917,38.01686],[-122.29011,38.01897],[-122.28948,38.02024],[-122.28996,38.02083],[-122.28997,38.02155],[-122.29093,38.02216],[-122.29043,38.02202],[-122.29006,38.02223],[-122.28996,38.02249],[-122.28963,38.02249],[-122.28942,38.02226],[-122.28871,38.02218],[-122.28697,38.02114],[-122.28607,38.02131],[-122.28539,38.02122],[-122.2832,38.02191],[-122.28214,38.02264],[-122.28094,38.02418],[-122.27932,38.02737],[-122.27908,38.02712],[-122.27731,38.02836],[-122.27626,38.02973],[-122.27637,38.03014],[-122.27594,38.03044],[-122.2752,38.0323],[-122.27492,38.03472],[-122.27477,38.03493],[-122.27456,38.03471]],[[-122.23599,37.98342],[-122.23602,37.98342],[-122.236,37.98341],[-122.23599,37.98342]]],[[[-122.297673,38.0151569],[-122.2944161,38.0152097],[-122.2944161,38.0152097],[-122.2944161,38.0152097],[-122.297673,38.0151569]]]],"type":"MultiPolygon"},"properties":{"type":"boundary"},"type":"Feature"}],"type":"FeatureCollection"}