{"features":[{"geometry":{"coordinates":[[[-118.66818,34.1682],[-118.66817,34.17676],[-118.65862,34.17676],[-118.65864,34.16945],[-118.65429,34.16944],[-118.65429,34.16574],[-118.64554,34.1657],[-118.64556,34.16199],[-118.64199,34.16199],[-118.63972,34.15909],[-118.63995,34.15915],[-118.63998,34.1589],[-118.64542,34.15655],[-118.6455,34.15667],[-118.64468,34.15755],[-118.64455,34.15841],[-118.64692,34.15751],[-118.64753,34.15841],[-118.64934,34.15918],[-118.64996,34.15919],[-118.64998,34.15786],[-118.65104,34.15787],[-118.65104,34.15834],[-118.65433,34.15835],[-118.65433,34.161],[-118.65542,34.16137],[-118.65542,34.15834],[-118.6587,34.15836],[-118.65863,34.15466],[-118.66432,34.15467],[-118.66587,34.15347],[-118.66604,34.15271],[-118.66589,34.1518],[-118.66646,34.15233],[-118.66692,34.15242],[-118.66752,34.15232],[-118.66752,34.15466],[-118.67424,34.15468],[-118.67425,34.16829],[-118.66818,34.1682]],[[-118.67041,34.1557],[-118.67041,34.15572],[-118.67038,34.15573],[-118.67039,34.15574],[-118.67041,34.15574],[-118.67042,34.15574],[-118.67043,34.15575],[-118.67044,34.15575],[-118.67044,34.15577],[-118.67043,34.15577],[-118.67043,34.15578],[-118.67042,34.15579],[-118.67042,34.15579],[-118.67042,34.15581],[-118.67045,34.1558],[-118.67047,34.1558],[-118.67048,34.1558],[-118.67049,34.1558],[-118.67049,34.1558],[-118.6705,34.1558],[-118.6705,34.1558],[-118.67051,34.1558],[-118.67052,34.1558],[-118.67052,34.15579],[-118.67053,34.15579],[-118.67052,34.15578],[-118.67052,34.15578],[-118.67052,34.15577],[-118.67051,34.15577],[-118.6705,34.15577],[-118.6705,34.15577],[-118.67051,34.15577],[-118.67053,34.15576],[-118.67054,34.15576],[-118.67054,34.15575],[-118.67054,34.15575],[-118.67054,34.15574],[-118.67055,34.15574],[-118.67055,34.15574],[-118.67054,34.15572],[-118.67054,34.15572],[-118.67053,34.15572],[-118.67053,34.15572],[-118.67053,34.15571],[-118.67052,34.15571],[-118.67051,34.15571],[-118.67047,34.15572],[-118.67047,34.15572],[-118.67046,34.15572],[-118.67045,34.15571],[-118.67045,34.1557],[-118.67045,34.1557],[-118.67045,34.15569],[-118.67044,34.15569],[-118.67043,34.15569],[-118.67042,34.15569],[-118.67042,34.15569],[-118.67041,34.1557],[-118.67041,34.1557]]],"type":"Polygon"},"properties":{"type":"boundary"},"type":"Feature"}],"type":"FeatureCollection"}