{"features":[{"geometry":{"coordinates":[[[-118.67397,34.15621],[-118.67262,34.15623],[-118.67192,34.15526],[-118.67231,34.15468],[-118.67424,34.15468],[-118.67424,34.15468],[-118.67424,34.15529],[-118.67424,34.15581],[-118.67397,34.15621]]],"type":"Polygon"},"properties":{"bbox":{"roads":{"area":1014.29,"pct":3.22}},"city_same":1,"id":"hex:1844:17462"},"type":"Feature"},{"geometry":{"coordinates":[[[-118.67401,34.15816],[-118.67266,34.15818],[-118.67196,34.15721],[-118.67262,34.15623],[-118.67397,34.15621],[-118.67424,34.15658],[-118.67424,34.15781],[-118.67401,34.15816]]],"type":"Polygon"},"properties":{"bbox":{"roads":{"area":1669.18,"pct":4.4}},"city_same":1,"id":"hex:1844:17463"},"type":"Feature"},{"geometry":{"coordinates":[[[-118.67405,34.16011],[-118.6727,34.16013],[-118.672,34.15916],[-118.67266,34.15818],[-118.67401,34.15816],[-118.67424,34.15848],[-118.67424,34.15982],[-118.67405,34.16011]]],"type":"Polygon"},"properties":{"bbox":{"roads":{"area":2081.11,"pct":5.56}},"city_same":1,"id":"hex:1844:17464"},"type":"Feature"},{"geometry":{"coordinates":[[[-118.67409,34.16206],[-118.67273,34.16208],[-118.67204,34.16112],[-118.6727,34.16013],[-118.67405,34.16011],[-118.67424,34.16038],[-118.67425,34.16183],[-118.67409,34.16206]]],"type":"Polygon"},"properties":{"bbox":{"roads":{"area":394.6,"pct":1.07}},"city_same":1,"id":"hex:1844:17465"},"type":"Feature"},{"geometry":{"coordinates":[[[-118.67413,34.16402],[-118.67277,34.16403],[-118.67208,34.16307],[-118.67273,34.16208],[-118.67409,34.16206],[-118.67425,34.16228],[-118.67425,34.16384],[-118.67413,34.16402]]],"type":"Polygon"},"properties":{"bbox":{"roads":{"area":2198.32,"pct":6.06}},"city_same":1,"id":"hex:1844:17466"},"type":"Feature"},{"geometry":{"coordinates":[[[-118.67417,34.16597],[-118.67281,34.16599],[-118.67211,34.16502],[-118.67277,34.16403],[-118.67413,34.16402],[-118.67425,34.16418],[-118.67425,34.16585],[-118.67417,34.16597]]],"type":"Polygon"},"properties":{"bbox":{"roads":{"area":1727.39,"pct":4.84}},"city_same":1,"id":"hex:1844:17467"},"type":"Feature"},{"geometry":{"coordinates":[[[-118.67421,34.16792],[-118.67285,34.16794],[-118.67215,34.16697],[-118.67281,34.16599],[-118.67417,34.16597],[-118.67425,34.16608],[-118.67425,34.16786],[-118.67421,34.16792]]],"type":"Polygon"},"properties":{"bbox":{"roads":{"area":683.62,"pct":1.95}},"city_same":1,"id":"hex:1844:17468"},"type":"Feature"},{"geometry":{"coordinates":[[[-118.67285,34.16794],[-118.67421,34.16792],[-118.67425,34.16798],[-118.67425,34.16829],[-118.67263,34.16827],[-118.67285,34.16794]]],"type":"Polygon"},"properties":{"bbox":{"roads":{"area":444.06,"pct":8.2}},"city_same":1,"id":"hex:1844:17469"},"type":"Feature"},{"geometry":{"coordinates":[[[-118.67192,34.15526],[-118.67057,34.15528],[-118.67013,34.15467],[-118.67231,34.15468],[-118.67192,34.15526]]],"type":"Polygon"},"properties":{"bbox":{"roads":{"area":192.09,"pct":1.78}},"city_same":1,"id":"hex:1845:17461"},"type":"Feature"},{"geometry":{"coordinates":[[[-118.67057,34.15528],[-118.67192,34.15526],[-118.67262,34.15623],[-118.67196,34.15721],[-118.6706,34.15723],[-118.66991,34.15626],[-118.67057,34.15528]],[[-118.67041,34.15572],[-118.67038,34.15573],[-118.67039,34.15574],[-118.67041,34.15574],[-118.67042,34.15574],[-118.67043,34.15575],[-118.67044,34.15575],[-118.67044,34.15577],[-118.67043,34.15577],[-118.67043,34.15578],[-118.67042,34.15579],[-118.67042,34.15579],[-118.67042,34.15581],[-118.67045,34.1558],[-118.67047,34.1558],[-118.67048,34.1558],[-118.67049,34.1558],[-118.67049,34.1558],[-118.6705,34.1558],[-118.6705,34.1558],[-118.67051,34.1558],[-118.67052,34.1558],[-118.67052,34.15579],[-118.67053,34.15579],[-118.67052,34.15578],[-118.67052,34.15578],[-118.67052,34.15577],[-118.67051,34.15577],[-118.6705,34.15577],[-118.6705,34.15577],[-118.67051,34.15577],[-118.67053,34.15576],[-118.67054,34.15576],[-118.67054,34.15575],[-118.67054,34.15575],[-118.67054,34.15574],[-118.67055,34.15574],[-118.67055,34.15574],[-118.67054,34.15572],[-118.67054,34.15572],[-118.67053,34.15572],[-118.67053,34.15572],[-118.67053,34.15571],[-118.67052,34.15571],[-118.67051,34.15571],[-118.67047,34.15572],[-118.67047,34.15572],[-118.67046,34.15572],[-118.67045,34.15571],[-118.67045,34.1557],[-118.67045,34.1557],[-118.67045,34.15569],[-118.67044,34.15569],[-118.67043,34.15569],[-118.67042,34.15569],[-118.67042,34.15569],[-118.67041,34.1557],[-118.67041,34.1557],[-118.67041,34.15572]]],"type":"Polygon"},"properties":{"bbox":{"roads":{"area":1825.51,"pct":4.51}},"city_same":1,"id":"hex:1845:17462"},"type":"Feature"},{"geometry":{"coordinates":[[[-118.66995,34.15822],[-118.67064,34.15918],[-118.672,34.15916],[-118.67266,34.15818],[-118.67196,34.15721],[-118.6706,34.15723],[-118.66995,34.15822]]],"type":"Polygon"},"properties":{"bbox":{"roads":{"area":1869.87,"pct":4.61}},"city_same":1,"id":"hex:1845:17463"},"type":"Feature"},{"geometry":{"coordinates":[[[-118.66998,34.16017],[-118.67068,34.16113],[-118.67204,34.16112],[-118.6727,34.16013],[-118.672,34.15916],[-118.67064,34.15918],[-118.66998,34.16017]]],"type":"Polygon"},"properties":{"bbox":{"roads":{"area":1585.14,"pct":3.9}},"city_same":1,"id":"hex:1845:17464"},"type":"Feature"},{"geometry":{"coordinates":[[[-118.67002,34.16212],[-118.67072,34.16309],[-118.67208,34.16307],[-118.67273,34.16208],[-118.67204,34.16112],[-118.67068,34.16113],[-118.67002,34.16212]]],"type":"Polygon"},"properties":{"bbox":{"roads":{"area":1525.21,"pct":3.76}},"city_same":1,"id":"hex:1845:17465"},"type":"Feature"},{"geometry":{"coordinates":[[[-118.67006,34.16407],[-118.67076,34.16504],[-118.67211,34.16502],[-118.67277,34.16403],[-118.67208,34.16307],[-118.67072,34.16309],[-118.67006,34.16407]]],"type":"Polygon"},"properties":{"bbox":{"roads":{"area":1675.7,"pct":4.13}},"city_same":1,"id":"hex:1845:17466"},"type":"Feature"},{"geometry":{"coordinates":[[[-118.6701,34.16602],[-118.6708,34.16699],[-118.67215,34.16697],[-118.67281,34.16599],[-118.67211,34.16502],[-118.67076,34.16504],[-118.6701,34.16602]]],"type":"Polygon"},"properties":{"bbox":{"roads":{"area":1486.88,"pct":3.66}},"city_same":1,"id":"hex:1845:17467"},"type":"Feature"},{"geometry":{"coordinates":[[[-118.67014,34.16797],[-118.6708,34.16699],[-118.67215,34.16697],[-118.67285,34.16794],[-118.67263,34.16827],[-118.67032,34.16823],[-118.67014,34.16797]]],"type":"Polygon"},"properties":{"bbox":{"roads":{"area":1627.91,"pct":5.85}},"city_same":1,"id":"hex:1845:17468"},"type":"Feature"},{"geometry":{"coordinates":[[[-118.67057,34.15528],[-118.66991,34.15626],[-118.66855,34.15628],[-118.66786,34.15532],[-118.6683,34.15466],[-118.66873,34.15466],[-118.66978,34.15467],[-118.67013,34.15467],[-118.67057,34.15528]]],"type":"Polygon"},"properties":{"bbox":{"roads":{"area":1345.14,"pct":3.84}},"city_same":1,"id":"hex:1846:17462"},"type":"Feature"},{"geometry":{"coordinates":[[[-118.66789,34.15727],[-118.66859,34.15823],[-118.66995,34.15822],[-118.6706,34.15723],[-118.66991,34.15626],[-118.66855,34.15628],[-118.66789,34.15727]]],"type":"Polygon"},"properties":{"bbox":{"roads":{"area":2399.15,"pct":5.91}},"city_same":1,"id":"hex:1846:17463"},"type":"Feature"},{"geometry":{"coordinates":[[[-118.66793,34.15922],[-118.66863,34.16019],[-118.66998,34.16017],[-118.67064,34.15918],[-118.66995,34.15822],[-118.66859,34.15823],[-118.66793,34.15922]]],"type":"Polygon"},"properties":{"bbox":{"roads":{"area":1378.52,"pct":3.4}},"city_same":1,"id":"hex:1846:17464"},"type":"Feature"},{"geometry":{"coordinates":[[[-118.66797,34.16117],[-118.66867,34.16214],[-118.67002,34.16212],[-118.67068,34.16113],[-118.66998,34.16017],[-118.66863,34.16019],[-118.66797,34.16117]]],"type":"Polygon"},"properties":{"bbox":{"roads":{"area":1516.23,"pct":3.74}},"city_same":1,"id":"hex:1846:17465"},"type":"Feature"},{"geometry":{"coordinates":[[[-118.66801,34.16312],[-118.66871,34.16409],[-118.67006,34.16407],[-118.67072,34.16309],[-118.67002,34.16212],[-118.66867,34.16214],[-118.66801,34.16312]]],"type":"Polygon"},"properties":{"bbox":{"roads":{"area":1972.64,"pct":4.86}},"city_same":1,"id":"hex:1846:17466"},"type":"Feature"},{"geometry":{"coordinates":[[[-118.66805,34.16507],[-118.66874,34.16604],[-118.6701,34.16602],[-118.67076,34.16504],[-118.67006,34.16407],[-118.66871,34.16409],[-118.66805,34.16507]]],"type":"Polygon"},"properties":{"bbox":{"roads":{"area":2584.86,"pct":6.37}},"city_same":1,"id":"hex:1846:17467"},"type":"Feature"},{"geometry":{"coordinates":[[[-118.66809,34.16703],[-118.66878,34.16799],[-118.67014,34.16797],[-118.6708,34.16699],[-118.6701,34.16602],[-118.66874,34.16604],[-118.66809,34.16703]]],"type":"Polygon"},"properties":{"bbox":{"roads":{"area":2683.06,"pct":6.61}},"city_same":1,"id":"hex:1846:17468"},"type":"Feature"},{"geometry":{"coordinates":[[[-118.66646,34.15338],[-118.66603,34.15278],[-118.66604,34.15271],[-118.66595,34.15214],[-118.66605,34.15198],[-118.66614,34.15208],[-118.66626,34.15222],[-118.66646,34.15233],[-118.6667,34.1524],[-118.66692,34.15242],[-118.66717,34.1524],[-118.66752,34.15232],[-118.66753,34.15337],[-118.66646,34.15338]]],"type":"Polygon"},"properties":{"bbox":{"parking":{"area":1291.54,"pct":8.59},"roads":{"area":1375.5,"pct":9.15},"sidewalks":{"area":196.99,"pct":1.31}},"city_same":1,"id":"hex:1847:17460"},"type":"Feature"},{"geometry":{"coordinates":[[[-118.66786,34.15532],[-118.6665,34.15533],[-118.6658,34.15437],[-118.66646,34.15338],[-118.66753,34.15337],[-118.66753,34.15378],[-118.66752,34.15466],[-118.6683,34.15466],[-118.66786,34.15532]]],"type":"Polygon"},"properties":{"bbox":{"parking":{"area":173.07,"pct":0.55},"roads":{"area":293.8,"pct":0.94}},"city_same":1,"id":"hex:1847:17461"},"type":"Feature"},{"geometry":{"coordinates":[[[-118.66584,34.15632],[-118.66654,34.15729],[-118.66789,34.15727],[-118.66855,34.15628],[-118.66786,34.15532],[-118.6665,34.15533],[-118.66584,34.15632]]],"type":"Polygon"},"properties":{"bbox":{"roads":{"area":2179.93,"pct":5.37}},"city_same":1,"id":"hex:1847:17462"},"type":"Feature"},{"geometry":{"coordinates":[[[-118.66588,34.15827],[-118.66658,34.15924],[-118.66793,34.15922],[-118.66859,34.15823],[-118.66789,34.15727],[-118.66654,34.15729],[-118.66588,34.15827]]],"type":"Polygon"},"properties":{"bbox":{"roads":{"area":1661.5,"pct":4.09}},"city_same":1,"id":"hex:1847:17463"},"type":"Feature"},{"geometry":{"coordinates":[[[-118.66592,34.16022],[-118.66661,34.16119],[-118.66797,34.16117],[-118.66863,34.16019],[-118.66793,34.15922],[-118.66658,34.15924],[-118.66592,34.16022]]],"type":"Polygon"},"properties":{"bbox":{"roads":{"area":2811.77,"pct":6.93}},"city_same":1,"id":"hex:1847:17464"},"type":"Feature"},{"geometry":{"coordinates":[[[-118.66596,34.16217],[-118.66665,34.16314],[-118.66801,34.16312],[-118.66867,34.16214],[-118.66797,34.16117],[-118.66661,34.16119],[-118.66596,34.16217]]],"type":"Polygon"},"properties":{"bbox":{"roads":{"area":1656.86,"pct":4.08}},"city_same":1,"id":"hex:1847:17465"},"type":"Feature"},{"geometry":{"coordinates":[[[-118.66599,34.16413],[-118.66669,34.16509],[-118.66805,34.16507],[-118.66871,34.16409],[-118.66801,34.16312],[-118.66665,34.16314],[-118.66599,34.16413]]],"type":"Polygon"},"properties":{"bbox":{"roads":{"area":1568.31,"pct":3.86}},"city_same":1,"id":"hex:1847:17466"},"type":"Feature"},{"geometry":{"coordinates":[[[-118.66603,34.16608],[-118.66673,34.16704],[-118.66809,34.16703],[-118.66874,34.16604],[-118.66805,34.16507],[-118.66669,34.16509],[-118.66603,34.16608]]],"type":"Polygon"},"properties":{"bbox":{"roads":{"area":2540.84,"pct":6.26}},"city_same":1,"id":"hex:1847:17467"},"type":"Feature"},{"geometry":{"coordinates":[[[-118.66812,34.16898],[-118.66677,34.169],[-118.66607,34.16803],[-118.66673,34.16704],[-118.66809,34.16703],[-118.66878,34.16799],[-118.66864,34.16821],[-118.66818,34.1682],[-118.66818,34.16889],[-118.66812,34.16898]]],"type":"Polygon"},"properties":{"bbox":{"roads":{"area":2180.39,"pct":5.6}},"city_same":1,"id":"hex:1847:17468"},"type":"Feature"},{"geometry":{"coordinates":[[[-118.66816,34.17093],[-118.66681,34.17095],[-118.66611,34.16998],[-118.66677,34.169],[-118.66812,34.16898],[-118.66818,34.16906],[-118.66818,34.17091],[-118.66816,34.17093]]],"type":"Polygon"},"properties":{"bbox":{"roads":{"area":2780.72,"pct":8.06}},"city_same":1,"id":"hex:1847:17469"},"type":"Feature"},{"geometry":{"coordinates":[[[-118.66684,34.1729],[-118.66615,34.17193],[-118.66681,34.17095],[-118.66816,34.17093],[-118.66818,34.17095],[-118.66818,34.17288],[-118.66684,34.1729]]],"type":"Polygon"},"properties":{"bbox":{"roads":{"area":2384.72,"pct":7.07}},"city_same":1,"id":"hex:1847:17470"},"type":"Feature"},{"geometry":{"coordinates":[[[-118.66688,34.17485],[-118.66619,34.17389],[-118.66684,34.1729],[-118.66818,34.17288],[-118.66817,34.17483],[-118.66688,34.17485]]],"type":"Polygon"},"properties":{"bbox":{"roads":{"area":2425.82,"pct":7.37}},"city_same":1,"id":"hex:1847:17471"},"type":"Feature"},{"geometry":{"coordinates":[[[-118.66622,34.17584],[-118.66688,34.17485],[-118.66817,34.17483],[-118.66817,34.17676],[-118.66689,34.17676],[-118.66622,34.17584]]],"type":"Polygon"},"properties":{"bbox":{"roads":{"area":769.19,"pct":2.43}},"city_same":1,"id":"hex:1847:17472"},"type":"Feature"},{"geometry":{"coordinates":[[[-118.66646,34.15338],[-118.6658,34.15437],[-118.66472,34.15438],[-118.66569,34.15369],[-118.66587,34.15347],[-118.66597,34.15321],[-118.66603,34.15278],[-118.66646,34.15338]]],"type":"Polygon"},"properties":{"bbox":{"parking":{"area":877.87,"pct":9.65},"roads":{"area":1362.48,"pct":14.98},"sidewalks":{"area":217.28,"pct":2.39}},"city_same":1,"id":"hex:1848:17461"},"type":"Feature"},{"geometry":{"coordinates":[[[-118.6658,34.15437],[-118.6665,34.15533],[-118.66584,34.15632],[-118.66449,34.15634],[-118.66379,34.15537],[-118.66426,34.15467],[-118.66432,34.15467],[-118.66472,34.15438],[-118.6658,34.15437]]],"type":"Polygon"},"properties":{"bbox":{"parking":{"area":1809.43,"pct":4.51},"roads":{"area":2283.03,"pct":5.69}},"city_same":1,"id":"hex:1848:17462"},"type":"Feature"},{"geometry":{"coordinates":[[[-118.66383,34.15732],[-118.66452,34.15829],[-118.66588,34.15827],[-118.66654,34.15729],[-118.66584,34.15632],[-118.66449,34.15634],[-118.66383,34.15732]]],"type":"Polygon"},"properties":{"bbox":{"roads":{"area":1294.87,"pct":3.19}},"city_same":1,"id":"hex:1848:17463"},"type":"Feature"},{"geometry":{"coordinates":[[[-118.66387,34.15927],[-118.66456,34.16024],[-118.66592,34.16022],[-118.66658,34.15924],[-118.66588,34.15827],[-118.66452,34.15829],[-118.66387,34.15927]]],"type":"Polygon"},"properties":{"bbox":{"roads":{"area":2374.31,"pct":5.85}},"city_same":1,"id":"hex:1848:17464"},"type":"Feature"},{"geometry":{"coordinates":[[[-118.6639,34.16123],[-118.6646,34.16219],[-118.66596,34.16217],[-118.66661,34.16119],[-118.66592,34.16022],[-118.66456,34.16024],[-118.6639,34.16123]]],"type":"Polygon"},"properties":{"bbox":{"roads":{"area":730.32,"pct":1.8}},"city_same":1,"id":"hex:1848:17465"},"type":"Feature"},{"geometry":{"coordinates":[[[-118.66394,34.16318],[-118.66464,34.16414],[-118.66599,34.16413],[-118.66665,34.16314],[-118.66596,34.16217],[-118.6646,34.16219],[-118.66394,34.16318]]],"type":"Polygon"},"properties":{"bbox":{"roads":{"area":1959.21,"pct":4.83}},"city_same":1,"id":"hex:1848:17466"},"type":"Feature"},{"geometry":{"coordinates":[[[-118.66398,34.16513],[-118.66468,34.1661],[-118.66603,34.16608],[-118.66669,34.16509],[-118.66599,34.16413],[-118.66464,34.16414],[-118.66398,34.16513]]],"type":"Polygon"},"properties":{"bbox":{"roads":{"area":2559.02,"pct":6.3}},"city_same":1,"id":"hex:1848:17467"},"type":"Feature"},{"geometry":{"coordinates":[[[-118.66402,34.16708],[-118.66472,34.16805],[-118.66607,34.16803],[-118.66673,34.16704],[-118.66603,34.16608],[-118.66468,34.1661],[-118.66402,34.16708]]],"type":"Polygon"},"properties":{"bbox":{"roads":{"area":1046.02,"pct":2.58}},"city_same":1,"id":"hex:1848:17468"},"type":"Feature"},{"geometry":{"coordinates":[[[-118.66406,34.16903],[-118.66475,34.17],[-118.66611,34.16998],[-118.66677,34.169],[-118.66607,34.16803],[-118.66472,34.16805],[-118.66406,34.16903]]],"type":"Polygon"},"properties":{"bbox":{"roads":{"area":3901.81,"pct":9.61}},"city_same":1,"id":"hex:1848:17469"},"type":"Feature"},{"geometry":{"coordinates":[[[-118.6641,34.17099],[-118.66479,34.17195],[-118.66615,34.17193],[-118.66681,34.17095],[-118.66611,34.16998],[-118.66475,34.17],[-118.6641,34.17099]]],"type":"Polygon"},"properties":{"bbox":{"roads":{"area":2043.27,"pct":5.03}},"city_same":1,"id":"hex:1848:17470"},"type":"Feature"},{"geometry":{"coordinates":[[[-118.66413,34.17294],[-118.66483,34.1739],[-118.66619,34.17389],[-118.66684,34.1729],[-118.66615,34.17193],[-118.66479,34.17195],[-118.66413,34.17294]]],"type":"Polygon"},"properties":{"bbox":{"roads":{"area":1952.1,"pct":4.81}},"city_same":1,"id":"hex:1848:17471"},"type":"Feature"},{"geometry":{"coordinates":[[[-118.66417,34.17489],[-118.66487,34.17586],[-118.66622,34.17584],[-118.66688,34.17485],[-118.66619,34.17389],[-118.66483,34.1739],[-118.66417,34.17489]]],"type":"Polygon"},"properties":{"bbox":{"parking":{"area":93.96,"pct":0.23},"roads":{"area":2364.26,"pct":5.82}},"city_same":1,"id":"hex:1848:17472"},"type":"Feature"},{"geometry":{"coordinates":[[[-118.66487,34.17586],[-118.66622,34.17584],[-118.66689,34.17676],[-118.66426,34.17676],[-118.66487,34.17586]]],"type":"Polygon"},"properties":{"bbox":{"roads":{"area":163.13,"pct":0.87}},"city_same":1,"id":"hex:1848:17473"},"type":"Feature"},{"geometry":{"coordinates":[[[-118.66379,34.15537],[-118.66243,34.15539],[-118.66191,34.15467],[-118.66426,34.15467],[-118.66379,34.15537]]],"type":"Polygon"},"properties":{"bbox":{"roads":{"area":206.25,"pct":1.53}},"city_same":1,"id":"hex:1849:17461"},"type":"Feature"},{"geometry":{"coordinates":[[[-118.66177,34.15637],[-118.66247,34.15734],[-118.66383,34.15732],[-118.66449,34.15634],[-118.66379,34.15537],[-118.66243,34.15539],[-118.66177,34.15637]]],"type":"Polygon"},"properties":{"bbox":{"roads":{"area":2550.38,"pct":6.28}},"city_same":1,"id":"hex:1849:17462"},"type":"Feature"},{"geometry":{"coordinates":[[[-118.66181,34.15833],[-118.66251,34.15929],[-118.66387,34.15927],[-118.66452,34.15829],[-118.66383,34.15732],[-118.66247,34.15734],[-118.66181,34.15833]]],"type":"Polygon"},"properties":{"bbox":{"roads":{"area":1394.03,"pct":3.43}},"city_same":1,"id":"hex:1849:17463"},"type":"Feature"},{"geometry":{"coordinates":[[[-118.66185,34.16028],[-118.66255,34.16124],[-118.6639,34.16123],[-118.66456,34.16024],[-118.66387,34.15927],[-118.66251,34.15929],[-118.66185,34.16028]]],"type":"Polygon"},"properties":{"bbox":{"roads":{"area":3232.68,"pct":7.96}},"city_same":1,"id":"hex:1849:17464"},"type":"Feature"},{"geometry":{"coordinates":[[[-118.66189,34.16223],[-118.66259,34.1632],[-118.66394,34.16318],[-118.6646,34.16219],[-118.6639,34.16123],[-118.66255,34.16124],[-118.66189,34.16223]]],"type":"Polygon"},"properties":{"bbox":{"roads":{"area":1992.41,"pct":4.91}},"city_same":1,"id":"hex:1849:17465"},"type":"Feature"},{"geometry":{"coordinates":[[[-118.66193,34.16418],[-118.66262,34.16515],[-118.66398,34.16513],[-118.66464,34.16414],[-118.66394,34.16318],[-118.66259,34.1632],[-118.66193,34.16418]]],"type":"Polygon"},"properties":{"bbox":{"roads":{"area":2190.05,"pct":5.39}},"city_same":1,"id":"hex:1849:17466"},"type":"Feature"},{"geometry":{"coordinates":[[[-118.66197,34.16613],[-118.66266,34.1671],[-118.66402,34.16708],[-118.66468,34.1661],[-118.66398,34.16513],[-118.66262,34.16515],[-118.66197,34.16613]]],"type":"Polygon"},"properties":{"bbox":{"roads":{"area":1906.19,"pct":4.7}},"city_same":1,"id":"hex:1849:17467"},"type":"Feature"},{"geometry":{"coordinates":[[[-118.662,34.16809],[-118.6627,34.16905],[-118.66406,34.16903],[-118.66472,34.16805],[-118.66402,34.16708],[-118.66266,34.1671],[-118.662,34.16809]]],"type":"Polygon"},"properties":{"bbox":{"roads":{"area":4101.38,"pct":10.1}},"city_same":1,"id":"hex:1849:17468"},"type":"Feature"},{"geometry":{"coordinates":[[[-118.66204,34.17004],[-118.66274,34.171],[-118.6641,34.17099],[-118.66475,34.17],[-118.66406,34.16903],[-118.6627,34.16905],[-118.66204,34.17004]]],"type":"Polygon"},"properties":{"bbox":{"roads":{"area":1655.8,"pct":4.08}},"city_same":1,"id":"hex:1849:17469"},"type":"Feature"},{"geometry":{"coordinates":[[[-118.66208,34.17199],[-118.66278,34.17296],[-118.66413,34.17294],[-118.66479,34.17195],[-118.6641,34.17099],[-118.66274,34.171],[-118.66208,34.17199]]],"type":"Polygon"},"properties":{"bbox":{"roads":{"area":2074.89,"pct":5.11}},"city_same":1,"id":"hex:1849:17470"},"type":"Feature"},{"geometry":{"coordinates":[[[-118.66212,34.17394],[-118.66282,34.17491],[-118.66417,34.17489],[-118.66483,34.1739],[-118.66413,34.17294],[-118.66278,34.17296],[-118.66212,34.17394]]],"type":"Polygon"},"properties":{"bbox":{"roads":{"area":311.27,"pct":0.77}},"city_same":1,"id":"hex:1849:17471"},"type":"Feature"},{"geometry":{"coordinates":[[[-118.66216,34.17589],[-118.66282,34.17491],[-118.66417,34.17489],[-118.66487,34.17586],[-118.66426,34.17676],[-118.66278,34.17676],[-118.66216,34.17589]]],"type":"Polygon"},"properties":{"bbox":{"roads":{"area":2375.08,"pct":6.04}},"city_same":1,"id":"hex:1849:17472"},"type":"Feature"},{"geometry":{"coordinates":[[[-118.66243,34.15539],[-118.66177,34.15637],[-118.66042,34.15639],[-118.65972,34.15543],[-118.66023,34.15466],[-118.66191,34.15467],[-118.66243,34.15539]]],"type":"Polygon"},"properties":{"bbox":{"roads":{"area":489.83,"pct":1.32}},"city_same":1,"id":"hex:1850:17462"},"type":"Feature"},{"geometry":{"coordinates":[[[-118.65976,34.15738],[-118.66046,34.15834],[-118.66181,34.15833],[-118.66247,34.15734],[-118.66177,34.15637],[-118.66042,34.15639],[-118.65976,34.15738]]],"type":"Polygon"},"properties":{"bbox":{"roads":{"area":1322.88,"pct":3.26}},"city_same":1,"id":"hex:1850:17463"},"type":"Feature"},{"geometry":{"coordinates":[[[-118.6598,34.15933],[-118.6605,34.1603],[-118.66185,34.16028],[-118.66251,34.15929],[-118.66181,34.15833],[-118.66046,34.15834],[-118.6598,34.15933]]],"type":"Polygon"},"properties":{"bbox":{"roads":{"area":2333.88,"pct":5.75}},"city_same":1,"id":"hex:1850:17464"},"type":"Feature"},{"geometry":{"coordinates":[[[-118.65984,34.16128],[-118.66053,34.16225],[-118.66189,34.16223],[-118.66255,34.16124],[-118.66185,34.16028],[-118.6605,34.1603],[-118.65984,34.16128]]],"type":"Polygon"},"properties":{"bbox":{"roads":{"area":1310.62,"pct":3.23}},"city_same":1,"id":"hex:1850:17465"},"type":"Feature"},{"geometry":{"coordinates":[[[-118.65987,34.16323],[-118.66057,34.1642],[-118.66193,34.16418],[-118.66259,34.1632],[-118.66189,34.16223],[-118.66053,34.16225],[-118.65987,34.16323]]],"type":"Polygon"},"properties":{"bbox":{"roads":{"area":1464.96,"pct":3.61}},"city_same":1,"id":"hex:1850:17466"},"type":"Feature"},{"geometry":{"coordinates":[[[-118.65991,34.16518],[-118.66061,34.16615],[-118.66197,34.16613],[-118.66262,34.16515],[-118.66193,34.16418],[-118.66057,34.1642],[-118.65991,34.16518]]],"type":"Polygon"},"properties":{"bbox":{"roads":{"area":448.01,"pct":1.1}},"city_same":1,"id":"hex:1850:17467"},"type":"Feature"},{"geometry":{"coordinates":[[[-118.65995,34.16714],[-118.66065,34.1681],[-118.662,34.16809],[-118.66266,34.1671],[-118.66197,34.16613],[-118.66061,34.16615],[-118.65995,34.16714]]],"type":"Polygon"},"properties":{"bbox":{"roads":{"area":2262.8,"pct":5.57}},"city_same":1,"id":"hex:1850:17468"},"type":"Feature"},{"geometry":{"coordinates":[[[-118.65999,34.16909],[-118.66069,34.17006],[-118.66204,34.17004],[-118.6627,34.16905],[-118.662,34.16809],[-118.66065,34.1681],[-118.65999,34.16909]]],"type":"Polygon"},"properties":{"bbox":{"roads":{"area":3037.48,"pct":7.48}},"city_same":1,"id":"hex:1850:17469"},"type":"Feature"},{"geometry":{"coordinates":[[[-118.66003,34.17104],[-118.66072,34.17201],[-118.66208,34.17199],[-118.66274,34.171],[-118.66204,34.17004],[-118.66069,34.17006],[-118.66003,34.17104]]],"type":"Polygon"},"properties":{"bbox":{"roads":{"area":2377.88,"pct":5.86}},"city_same":1,"id":"hex:1850:17470"},"type":"Feature"},{"geometry":{"coordinates":[[[-118.66007,34.17299],[-118.66076,34.17396],[-118.66212,34.17394],[-118.66278,34.17296],[-118.66208,34.17199],[-118.66072,34.17201],[-118.66007,34.17299]]],"type":"Polygon"},"properties":{"bbox":{"roads":{"area":1682.94,"pct":4.15}},"city_same":1,"id":"hex:1850:17471"},"type":"Feature"},{"geometry":{"coordinates":[[[-118.6601,34.17494],[-118.6608,34.17591],[-118.66216,34.17589],[-118.66282,34.17491],[-118.66212,34.17394],[-118.66076,34.17396],[-118.6601,34.17494]]],"type":"Polygon"},"properties":{"bbox":{"roads":{"area":2154.44,"pct":5.31}},"city_same":1,"id":"hex:1850:17472"},"type":"Feature"},{"geometry":{"coordinates":[[[-118.65976,34.15738],[-118.66046,34.15834],[-118.6598,34.15933],[-118.65844,34.15935],[-118.65775,34.15838],[-118.65776,34.15835],[-118.6587,34.15836],[-118.65868,34.15739],[-118.65976,34.15738]]],"type":"Polygon"},"properties":{"bbox":{"roads":{"area":2211.47,"pct":6.38}},"city_same":1,"id":"hex:1851:17463"},"type":"Feature"},{"geometry":{"coordinates":[[[-118.65778,34.16033],[-118.65848,34.1613],[-118.65984,34.16128],[-118.6605,34.1603],[-118.6598,34.15933],[-118.65844,34.15935],[-118.65778,34.16033]]],"type":"Polygon"},"properties":{"bbox":{"roads":{"area":2228.1,"pct":5.49}},"city_same":1,"id":"hex:1851:17464"},"type":"Feature"},{"geometry":{"coordinates":[[[-118.65782,34.16228],[-118.65852,34.16325],[-118.65987,34.16323],[-118.66053,34.16225],[-118.65984,34.16128],[-118.65848,34.1613],[-118.65782,34.16228]]],"type":"Polygon"},"properties":{"bbox":{"roads":{"area":1845.01,"pct":4.54}},"city_same":1,"id":"hex:1851:17465"},"type":"Feature"},{"geometry":{"coordinates":[[[-118.65786,34.16424],[-118.65856,34.1652],[-118.65991,34.16518],[-118.66057,34.1642],[-118.65987,34.16323],[-118.65852,34.16325],[-118.65786,34.16424]]],"type":"Polygon"},"properties":{"bbox":{"roads":{"area":1439.26,"pct":3.55}},"city_same":1,"id":"hex:1851:17466"},"type":"Feature"},{"geometry":{"coordinates":[[[-118.6579,34.16619],[-118.6586,34.16716],[-118.65995,34.16714],[-118.66061,34.16615],[-118.65991,34.16518],[-118.65856,34.1652],[-118.6579,34.16619]]],"type":"Polygon"},"properties":{"bbox":{"roads":{"area":2452.54,"pct":6.04}},"city_same":1,"id":"hex:1851:17467"},"type":"Feature"},{"geometry":{"coordinates":[[[-118.65794,34.16814],[-118.65863,34.16911],[-118.65999,34.16909],[-118.66065,34.1681],[-118.65995,34.16714],[-118.6586,34.16716],[-118.65794,34.16814]]],"type":"Polygon"},"properties":{"bbox":{"roads":{"area":2901.11,"pct":7.15}},"city_same":1,"id":"hex:1851:17468"},"type":"Feature"},{"geometry":{"coordinates":[[[-118.65863,34.16911],[-118.65999,34.16909],[-118.66069,34.17006],[-118.66003,34.17104],[-118.65867,34.17106],[-118.65864,34.17101],[-118.65864,34.16945],[-118.6584,34.16945],[-118.65863,34.16911]]],"type":"Polygon"},"properties":{"bbox":{"roads":{"area":2654.69,"pct":7.69}},"city_same":1,"id":"hex:1851:17469"},"type":"Feature"},{"geometry":{"coordinates":[[[-118.65867,34.17106],[-118.66003,34.17104],[-118.66072,34.17201],[-118.66007,34.17299],[-118.65871,34.17301],[-118.65863,34.1729],[-118.65864,34.17111],[-118.65867,34.17106]]],"type":"Polygon"},"properties":{"bbox":{"parking":{"area":819.52,"pct":2.35},"roads":{"area":3437.11,"pct":9.84}},"city_same":1,"id":"hex:1851:17470"},"type":"Feature"},{"geometry":{"coordinates":[[[-118.65871,34.17301],[-118.66007,34.17299],[-118.66076,34.17396],[-118.6601,34.17494],[-118.65875,34.17496],[-118.65862,34.17479],[-118.65863,34.17313],[-118.65871,34.17301]]],"type":"Polygon"},"properties":{"bbox":{"roads":{"area":1086.24,"pct":3.04}},"city_same":1,"id":"hex:1851:17471"},"type":"Feature"},{"geometry":{"coordinates":[[[-118.65862,34.17668],[-118.65862,34.17515],[-118.65875,34.17496],[-118.6601,34.17494],[-118.6608,34.17591],[-118.66023,34.17676],[-118.65868,34.17676],[-118.65862,34.17668]]],"type":"Polygon"},"properties":{"bbox":{"roads":{"area":366.41,"pct":1.07}},"city_same":1,"id":"hex:1851:17472"},"type":"Feature"},{"geometry":{"coordinates":[[[-118.65573,34.15938],[-118.65643,34.16035],[-118.65778,34.16033],[-118.65844,34.15935],[-118.65775,34.15838],[-118.65639,34.1584],[-118.65573,34.15938]]],"type":"Polygon"},"properties":{"bbox":{"roads":{"area":1824.67,"pct":4.49}},"city_same":1,"id":"hex:1852:17464"},"type":"Feature"},{"geometry":{"coordinates":[[[-118.65577,34.16134],[-118.65647,34.1623],[-118.65782,34.16228],[-118.65848,34.1613],[-118.65778,34.16033],[-118.65643,34.16035],[-118.65577,34.16134]]],"type":"Polygon"},"properties":{"bbox":{"roads":{"area":788.18,"pct":1.94}},"city_same":1,"id":"hex:1852:17465"},"type":"Feature"},{"geometry":{"coordinates":[[[-118.65581,34.16329],[-118.65651,34.16425],[-118.65786,34.16424],[-118.65852,34.16325],[-118.65782,34.16228],[-118.65647,34.1623],[-118.65581,34.16329]]],"type":"Polygon"},"properties":{"bbox":{"roads":{"area":841.16,"pct":2.07}},"city_same":1,"id":"hex:1852:17466"},"type":"Feature"},{"geometry":{"coordinates":[[[-118.65585,34.16524],[-118.65654,34.16621],[-118.6579,34.16619],[-118.65856,34.1652],[-118.65786,34.16424],[-118.65651,34.16425],[-118.65585,34.16524]]],"type":"Polygon"},"properties":{"bbox":{"roads":{"area":3139.8,"pct":7.73}},"city_same":1,"id":"hex:1852:17467"},"type":"Feature"},{"geometry":{"coordinates":[[[-118.65588,34.16719],[-118.65658,34.16816],[-118.65794,34.16814],[-118.6586,34.16716],[-118.6579,34.16619],[-118.65654,34.16621],[-118.65588,34.16719]]],"type":"Polygon"},"properties":{"bbox":{"roads":{"area":1252.62,"pct":3.09}},"city_same":1,"id":"hex:1852:17468"},"type":"Feature"},{"geometry":{"coordinates":[[[-118.65592,34.16914],[-118.65658,34.16816],[-118.65794,34.16814],[-118.65863,34.16911],[-118.6584,34.16945],[-118.65614,34.16944],[-118.65592,34.16914]]],"type":"Polygon"},"properties":{"bbox":{"roads":{"area":1334.71,"pct":4.68}},"city_same":1,"id":"hex:1852:17469"},"type":"Feature"},{"geometry":{"coordinates":[[[[-118.65368,34.15844],[-118.65374,34.15834],[-118.65433,34.15835],[-118.65433,34.15934],[-118.65368,34.15844]]],[[[-118.65639,34.1584],[-118.65573,34.15938],[-118.65542,34.15939],[-118.65542,34.15834],[-118.65635,34.15835],[-118.65639,34.1584]]]],"type":"MultiPolygon"},"properties":{"bbox":{"roads":{"area":124.8,"pct":1.18}},"city_same":1,"id":"hex:1853:17463"},"type":"Feature"},{"geometry":{"coordinates":[[[[-118.65441,34.16135],[-118.65372,34.16039],[-118.65433,34.15947],[-118.65434,34.16002],[-118.65433,34.161],[-118.65535,34.16134],[-118.65441,34.16135]]],[[[-118.65573,34.15938],[-118.65643,34.16035],[-118.65577,34.16134],[-118.65542,34.16134],[-118.65542,34.15939],[-118.65573,34.15938]]]],"type":"MultiPolygon"},"properties":{"bbox":{"roads":{"area":113.77,"pct":0.55}},"city_same":1,"id":"hex:1853:17464"},"type":"Feature"},{"geometry":{"coordinates":[[[-118.65577,34.16134],[-118.65647,34.1623],[-118.65581,34.16329],[-118.65445,34.16331],[-118.65376,34.16234],[-118.65441,34.16135],[-118.65535,34.16134],[-118.65542,34.16137],[-118.65542,34.16134],[-118.65577,34.16134]]],"type":"Polygon"},"properties":{"bbox":{"roads":{"area":1781.12,"pct":4.39}},"city_same":1,"id":"hex:1853:17465"},"type":"Feature"},{"geometry":{"coordinates":[[[-118.65379,34.16429],[-118.65449,34.16526],[-118.65585,34.16524],[-118.65651,34.16425],[-118.65581,34.16329],[-118.65445,34.16331],[-118.65379,34.16429]]],"type":"Polygon"},"properties":{"bbox":{"roads":{"area":2231.92,"pct":5.5}},"city_same":1,"id":"hex:1853:17466"},"type":"Feature"},{"geometry":{"coordinates":[[[-118.65449,34.16526],[-118.65585,34.16524],[-118.65654,34.16621],[-118.65588,34.16719],[-118.65453,34.16721],[-118.65429,34.16688],[-118.65429,34.16574],[-118.65417,34.16574],[-118.65449,34.16526]]],"type":"Polygon"},"properties":{"bbox":{"roads":{"area":1046.69,"pct":2.78}},"city_same":1,"id":"hex:1853:17467"},"type":"Feature"},{"geometry":{"coordinates":[[[-118.65453,34.16721],[-118.65588,34.16719],[-118.65658,34.16816],[-118.65592,34.16914],[-118.65457,34.16916],[-118.65429,34.16877],[-118.65429,34.16757],[-118.65453,34.16721]]],"type":"Polygon"},"properties":{"bbox":{"roads":{"area":1451.85,"pct":3.82}},"city_same":1,"id":"hex:1853:17468"},"type":"Feature"},{"geometry":{"coordinates":[[[-118.65368,34.15844],[-118.65232,34.15845],[-118.65224,34.15833],[-118.65323,34.15833],[-118.65374,34.15834],[-118.65368,34.15844]]],"type":"Polygon"},"properties":{"bbox":{"roads":{"area":9.11,"pct":0.56}},"city_same":1,"id":"hex:1854:17463"},"type":"Feature"},{"geometry":{"coordinates":[[[-118.65372,34.16039],[-118.65236,34.16041],[-118.65167,34.15944],[-118.65232,34.15845],[-118.65368,34.15844],[-118.65433,34.15934],[-118.65433,34.15947],[-118.65372,34.16039]]],"type":"Polygon"},"properties":{"bbox":{"roads":{"area":1381.46,"pct":3.41}},"city_same":1,"id":"hex:1854:17464"},"type":"Feature"},{"geometry":{"coordinates":[[[-118.6517,34.16139],[-118.6524,34.16236],[-118.65376,34.16234],[-118.65441,34.16135],[-118.65372,34.16039],[-118.65236,34.16041],[-118.6517,34.16139]]],"type":"Polygon"},"properties":{"bbox":{"roads":{"area":2024,"pct":4.99}},"city_same":1,"id":"hex:1854:17465"},"type":"Feature"},{"geometry":{"coordinates":[[[-118.65174,34.16334],[-118.65244,34.16431],[-118.65379,34.16429],[-118.65445,34.16331],[-118.65376,34.16234],[-118.6524,34.16236],[-118.65174,34.16334]]],"type":"Polygon"},"properties":{"bbox":{"roads":{"area":1944.39,"pct":4.79}},"city_same":1,"id":"hex:1854:17466"},"type":"Feature"},{"geometry":{"coordinates":[[[-118.65178,34.16529],[-118.65244,34.16431],[-118.65379,34.16429],[-118.65449,34.16526],[-118.65417,34.16574],[-118.65209,34.16573],[-118.65178,34.16529]]],"type":"Polygon"},"properties":{"bbox":{"roads":{"area":2567.96,"pct":8.14}},"city_same":1,"id":"hex:1854:17467"},"type":"Feature"},{"geometry":{"coordinates":[[[-118.65232,34.15845],[-118.65167,34.15944],[-118.65031,34.15946],[-118.64996,34.15897],[-118.64998,34.15795],[-118.65003,34.15786],[-118.65104,34.15787],[-118.65104,34.15834],[-118.65145,34.15834],[-118.65224,34.15833],[-118.65232,34.15845]]],"type":"Polygon"},"properties":{"bbox":{"roads":{"area":724.79,"pct":2.62}},"city_same":1,"id":"hex:1855:17463"},"type":"Feature"},{"geometry":{"coordinates":[[[-118.64965,34.16044],[-118.65035,34.16141],[-118.6517,34.16139],[-118.65236,34.16041],[-118.65167,34.15944],[-118.65031,34.15946],[-118.64965,34.16044]]],"type":"Polygon"},"properties":{"bbox":{"roads":{"area":774.34,"pct":1.91}},"city_same":1,"id":"hex:1855:17464"},"type":"Feature"},{"geometry":{"coordinates":[[[-118.64969,34.16239],[-118.65039,34.16336],[-118.65174,34.16334],[-118.6524,34.16236],[-118.6517,34.16139],[-118.65035,34.16141],[-118.64969,34.16239]]],"type":"Polygon"},"properties":{"bbox":{"roads":{"area":2257.84,"pct":5.56}},"city_same":1,"id":"hex:1855:17465"},"type":"Feature"},{"geometry":{"coordinates":[[[-118.64973,34.16435],[-118.65042,34.16531],[-118.65178,34.16529],[-118.65244,34.16431],[-118.65174,34.16334],[-118.65039,34.16336],[-118.64973,34.16435]]],"type":"Polygon"},"properties":{"bbox":{"roads":{"area":1688.66,"pct":4.16}},"city_same":1,"id":"hex:1855:17466"},"type":"Feature"},{"geometry":{"coordinates":[[[-118.65031,34.15946],[-118.64965,34.16044],[-118.6483,34.16046],[-118.6476,34.15949],[-118.64815,34.15867],[-118.64934,34.15918],[-118.64996,34.15919],[-118.64996,34.15897],[-118.65031,34.15946]]],"type":"Polygon"},"properties":{"bbox":{"roads":{"area":987.81,"pct":3.09}},"city_same":1,"id":"hex:1856:17464"},"type":"Feature"},{"geometry":{"coordinates":[[[-118.64764,34.16145],[-118.64833,34.16241],[-118.64969,34.16239],[-118.65035,34.16141],[-118.64965,34.16044],[-118.6483,34.16046],[-118.64764,34.16145]]],"type":"Polygon"},"properties":{"bbox":{"roads":{"area":2844.18,"pct":7.01}},"city_same":1,"id":"hex:1856:17465"},"type":"Feature"},{"geometry":{"coordinates":[[[-118.64767,34.1634],[-118.64837,34.16436],[-118.64973,34.16435],[-118.65039,34.16336],[-118.64969,34.16239],[-118.64833,34.16241],[-118.64767,34.1634]]],"type":"Polygon"},"properties":{"bbox":{"roads":{"area":1605.36,"pct":3.95}},"city_same":1,"id":"hex:1856:17466"},"type":"Feature"},{"geometry":{"coordinates":[[[-118.64771,34.16535],[-118.64837,34.16436],[-118.64973,34.16435],[-118.65042,34.16531],[-118.65015,34.16572],[-118.64797,34.16571],[-118.64771,34.16535]]],"type":"Polygon"},"properties":{"bbox":{"roads":{"area":1335.95,"pct":4.47}},"city_same":1,"id":"hex:1856:17467"},"type":"Feature"},{"geometry":{"coordinates":[[[-118.64558,34.1605],[-118.64628,34.16146],[-118.64764,34.16145],[-118.6483,34.16046],[-118.6476,34.15949],[-118.64624,34.15951],[-118.64558,34.1605]]],"type":"Polygon"},"properties":{"bbox":{"roads":{"area":2694.02,"pct":6.64}},"city_same":1,"id":"hex:1857:17464"},"type":"Feature"},{"geometry":{"coordinates":[[[-118.64562,34.16245],[-118.64632,34.16342],[-118.64767,34.1634],[-118.64833,34.16241],[-118.64764,34.16145],[-118.64628,34.16146],[-118.64562,34.16245]]],"type":"Polygon"},"properties":{"bbox":{"roads":{"area":1366.49,"pct":3.37}},"city_same":1,"id":"hex:1857:17465"},"type":"Feature"},{"geometry":{"coordinates":[[[-118.64566,34.1644],[-118.64636,34.16537],[-118.64771,34.16535],[-118.64837,34.16436],[-118.64767,34.1634],[-118.64632,34.16342],[-118.64566,34.1644]]],"type":"Polygon"},"properties":{"bbox":{"roads":{"area":914,"pct":2.25}},"city_same":1,"id":"hex:1857:17466"},"type":"Feature"},{"geometry":{"coordinates":[[[-118.64636,34.16537],[-118.64771,34.16535],[-118.64797,34.16571],[-118.64614,34.1657],[-118.64636,34.16537]]],"type":"Polygon"},"properties":{"bbox":{"roads":{"area":261.46,"pct":4.65}},"city_same":1,"id":"hex:1857:17467"},"type":"Feature"},{"geometry":{"coordinates":[[[-118.64555,34.15855],[-118.64419,34.15856],[-118.64349,34.1576],[-118.6437,34.15729],[-118.64531,34.1566],[-118.64545,34.15659],[-118.6455,34.15667],[-118.64486,34.1574],[-118.64473,34.15747],[-118.64468,34.15755],[-118.64455,34.15841],[-118.64601,34.15786],[-118.64555,34.15855]]],"type":"Polygon"},"properties":{"bbox":{"roads":{"area":690.38,"pct":3.26}},"city_same":1,"id":"hex:1858:17463"},"type":"Feature"},{"geometry":{"coordinates":[[[-118.64353,34.15955],[-118.64423,34.16052],[-118.64558,34.1605],[-118.64624,34.15951],[-118.64555,34.15855],[-118.64419,34.15856],[-118.64353,34.15955]]],"type":"Polygon"},"properties":{"bbox":{"roads":{"area":395.78,"pct":0.97}},"city_same":1,"id":"hex:1858:17464"},"type":"Feature"},{"geometry":{"coordinates":[[[-118.64357,34.1615],[-118.64423,34.16052],[-118.64558,34.1605],[-118.64628,34.16146],[-118.64562,34.16245],[-118.64556,34.16245],[-118.64556,34.16199],[-118.64392,34.16199],[-118.64357,34.1615]]],"type":"Polygon"},"properties":{"bbox":{"roads":{"area":963.11,"pct":2.87}},"city_same":1,"id":"hex:1858:17465"},"type":"Feature"},{"geometry":{"coordinates":[[[-118.64562,34.16245],[-118.64632,34.16342],[-118.64566,34.1644],[-118.64555,34.1644],[-118.64556,34.16245],[-118.64562,34.16245]]],"type":"Polygon"},"properties":{"bbox":{"roads":{"area":160.52,"pct":1.89}},"city_same":1,"id":"hex:1858:17466"},"type":"Feature"},{"geometry":{"coordinates":[[[-118.64349,34.1576],[-118.64419,34.15856],[-118.64353,34.15955],[-118.64218,34.15957],[-118.64148,34.1586],[-118.64178,34.15815],[-118.64225,34.15796],[-118.64229,34.1579],[-118.64297,34.1576],[-118.64349,34.1576]]],"type":"Polygon"},"properties":{"bbox":{"roads":{"area":1145.98,"pct":2.99}},"city_same":1,"id":"hex:1859:17463"},"type":"Feature"},{"geometry":{"coordinates":[[[-118.64152,34.16055],[-118.64221,34.16152],[-118.64357,34.1615],[-118.64423,34.16052],[-118.64353,34.15955],[-118.64218,34.15957],[-118.64152,34.16055]]],"type":"Polygon"},"properties":{"bbox":{"roads":{"area":3146.46,"pct":7.75}},"city_same":1,"id":"hex:1859:17464"},"type":"Feature"},{"geometry":{"coordinates":[[[-118.64221,34.16152],[-118.64357,34.1615],[-118.64392,34.16199],[-118.64199,34.16199],[-118.64194,34.16192],[-118.64221,34.16152]]],"type":"Polygon"},"properties":{"bbox":{"roads":{"area":426.75,"pct":5.19}},"city_same":1,"id":"hex:1859:17465"},"type":"Feature"},{"geometry":{"coordinates":[[[-118.64148,34.1586],[-118.64218,34.15957],[-118.64152,34.16055],[-118.64088,34.16056],[-118.63977,34.15915],[-118.6398,34.15911],[-118.63995,34.15915],[-118.64003,34.159],[-118.63996,34.15894],[-118.63998,34.1589],[-118.64038,34.15868],[-118.64054,34.15861],[-118.64148,34.1586]]],"type":"Polygon"},"properties":{"bbox":{"parking":{"area":2313.56,"pct":7.39},"roads":{"area":2273.23,"pct":7.26}},"city_same":1,"id":"hex:1860:17464"},"type":"Feature"},{"geometry":{"coordinates":[[[-118.64152,34.16055],[-118.64221,34.16152],[-118.64194,34.16192],[-118.64088,34.16056],[-118.64152,34.16055]]],"type":"Polygon"},"properties":{"bbox":{"roads":{"area":33.35,"pct":0.46}},"city_same":1,"id":"hex:1860:17465"},"type":"Feature"}],"type":"FeatureCollection","v":2}