{"features":[{"geometry":{"coordinates":[[[[-121.97451,38.25057],[-121.96992,38.25053],[-121.96997,38.24343],[-121.97455,38.24348],[-121.97451,38.25057]]],[[[-122.05356,38.23625],[-122.04816,38.2362],[-122.04723,38.23638],[-122.04631,38.23672],[-122.04499,38.23766],[-122.04419,38.23882],[-122.0443,38.24131],[-122.04458,38.24279],[-122.04195,38.24356],[-122.04043,38.24465],[-122.03816,38.24668],[-122.03815,38.24578],[-122.03741,38.24576],[-122.03747,38.24718],[-122.01485,38.25976],[-122.01485,38.25949],[-122.01203,38.26106],[-122.012,38.2616],[-122.00582,38.26506],[-122.00326,38.26501],[-122.0033,38.26331],[-122.00536,38.2633],[-122.00558,38.26357],[-122.00702,38.26347],[-122.00673,38.2629],[-122.00677,38.25885],[-122.00709,38.25823],[-122.00668,38.25735],[-122.00664,38.25332],[-121.9884,38.25301],[-121.98823,38.26359],[-121.9881,38.26359],[-121.98809,38.26444],[-121.9849,38.26459],[-121.98488,38.26474],[-121.97969,38.2646],[-121.98052,38.26268],[-121.98159,38.26147],[-121.98155,38.25639],[-121.98222,38.25554],[-121.98235,38.25414],[-121.97792,38.24843],[-121.97795,38.24332],[-121.9881,38.24348],[-121.98811,38.23557],[-121.99295,38.23532],[-121.9937,38.236],[-121.99947,38.2351],[-122.00231,38.23828],[-122.00411,38.23871],[-122.00683,38.23791],[-122.00682,38.23948],[-122.00924,38.23947],[-122.00923,38.24026],[-122.02027,38.24063],[-122.0203,38.24269],[-122.02827,38.24297],[-122.02934,38.24352],[-122.02953,38.24348],[-122.02958,38.2415],[-122.02979,38.24151],[-122.02982,38.2411],[-122.03058,38.24104],[-122.03052,38.24084],[-122.0298,38.24085],[-122.02983,38.24023],[-122.03044,38.24024],[-122.0306,38.24011],[-122.0305,38.23996],[-122.02981,38.23997],[-122.02982,38.23934],[-122.03058,38.23926],[-122.03045,38.23909],[-122.02982,38.2391],[-122.02982,38.23844],[-122.03057,38.23837],[-122.0305,38.23824],[-122.02984,38.2382],[-122.02986,38.23757],[-122.0306,38.2375],[-122.03049,38.23735],[-122.02985,38.23732],[-122.02986,38.23623],[-122.03107,38.23571],[-122.03119,38.235],[-122.03209,38.23421],[-122.03322,38.23421],[-122.03556,38.23587],[-122.03697,38.23594],[-122.03745,38.23784],[-122.03792,38.23813],[-122.03804,38.23854],[-122.03773,38.23863],[-122.03737,38.2392],[-122.03757,38.23931],[-122.03779,38.23908],[-122.03818,38.23898],[-122.03872,38.23939],[-122.03891,38.23985],[-122.0389,38.24093],[-122.04016,38.24093],[-122.04017,38.2393],[-122.03891,38.23846],[-122.03814,38.23496],[-122.03782,38.23425],[-122.03777,38.23323],[-122.03683,38.23342],[-122.03794,38.23319],[-122.03792,38.23306],[-122.03842,38.23294],[-122.03814,38.2323],[-122.03853,38.2322],[-122.03791,38.23049],[-122.04239,38.23006],[-122.0428,38.23464],[-122.04405,38.23464],[-122.04405,38.23494],[-122.04607,38.23506],[-122.04569,38.23587],[-122.053,38.23586],[-122.0538,38.23563],[-122.05399,38.23572],[-122.054,38.23624],[-122.05356,38.23625]],[[-121.99855,38.23817],[-121.99871,38.23816],[-121.99872,38.23837],[-121.99923,38.23836],[-121.99893,38.23832],[-121.99855,38.23791],[-121.99842,38.23812],[-121.99822,38.23812],[-121.99846,38.23827],[-121.99855,38.23817]]],[[[-122.03668,38.23485],[-122.03719,38.23485],[-122.03666,38.23495],[-122.03668,38.23485]]]],"type":"MultiPolygon"},"properties":{"type":"boundary"},"type":"Feature"}],"type":"FeatureCollection"}