{"features":[{"geometry":{"coordinates":[[[-118.1675,33.85427],[-118.16632,33.85427],[-118.16433,33.85394],[-118.16433,33.85436],[-118.15551,33.85439],[-118.15555,33.85748],[-118.15698,33.85747],[-118.15699,33.86013],[-118.14662,33.86032],[-118.14665,33.86894],[-118.13386,33.86894],[-118.11801,33.86923],[-118.11799,33.86905],[-118.1143,33.86907],[-118.11428,33.86557],[-118.10843,33.86559],[-118.10832,33.85828],[-118.10279,33.85832],[-118.10053,33.84976],[-118.09997,33.84796],[-118.09902,33.84586],[-118.0868,33.84597],[-118.08653,33.85013],[-118.08203,33.85013],[-118.08198,33.84601],[-118.05911,33.84623],[-118.0591,33.84553],[-118.06023,33.84316],[-118.06096,33.83891],[-118.06131,33.83886],[-118.06132,33.83869],[-118.05902,33.83873],[-118.05901,33.83522],[-118.05936,33.83493],[-118.06071,33.83456],[-118.0612,33.83334],[-118.06771,33.83331],[-118.06769,33.83244],[-118.06878,33.83245],[-118.06879,33.83471],[-118.0678,33.83471],[-118.06781,33.83508],[-118.06761,33.83508],[-118.06755,33.83807],[-118.072,33.83806],[-118.072,33.83866],[-118.07887,33.83864],[-118.07886,33.83691],[-118.07973,33.83691],[-118.07973,33.83397],[-118.08176,33.83398],[-118.08174,33.83126],[-118.09311,33.83135],[-118.09298,33.83135],[-118.09339,33.83407],[-118.09371,33.83557],[-118.09528,33.83965],[-118.09645,33.84189],[-118.09668,33.84181],[-118.09553,33.83961],[-118.09396,33.83553],[-118.09323,33.83135],[-118.09347,33.83136],[-118.09359,33.83203],[-118.09862,33.83236],[-118.12496,33.83245],[-118.12493,33.84692],[-118.13204,33.84695],[-118.13204,33.84673],[-118.14265,33.84676],[-118.14267,33.83242],[-118.14997,33.83246],[-118.15108,33.8295],[-118.15195,33.82897],[-118.15412,33.82896],[-118.15412,33.82759],[-118.15595,33.82758],[-118.15597,33.82512],[-118.15793,33.82514],[-118.16086,33.82757],[-118.16407,33.8276],[-118.16419,33.82188],[-118.16468,33.82006],[-118.16738,33.82006],[-118.16744,33.82775],[-118.16432,33.82776],[-118.16431,33.84692],[-118.16757,33.84681],[-118.16781,33.85424],[-118.1675,33.85427]],[[-118.14768,33.8343],[-118.14743,33.83431],[-118.14729,33.8346],[-118.14624,33.83536],[-118.14643,33.83608],[-118.14659,33.83595],[-118.14694,33.83599],[-118.14678,33.83574],[-118.14719,33.83562],[-118.14762,33.83577],[-118.14874,33.83524],[-118.14912,33.83526],[-118.14925,33.83502],[-118.14908,33.83476],[-118.14931,33.83452],[-118.14908,33.83433],[-118.14905,33.83403],[-118.14974,33.83408],[-118.15084,33.83336],[-118.15204,33.83312],[-118.15219,33.83293],[-118.15206,33.83286],[-118.15041,33.8333],[-118.14999,33.8336],[-118.14942,33.83364],[-118.14906,33.83346],[-118.14872,33.8338],[-118.14841,33.83367],[-118.148,33.83413],[-118.1482,33.83449],[-118.14776,33.83469],[-118.14768,33.8343]],[[-118.15168,33.83204],[-118.15204,33.83204],[-118.15222,33.83168],[-118.15277,33.83141],[-118.15341,33.83001],[-118.15271,33.83076],[-118.15226,33.83087],[-118.15249,33.83106],[-118.15224,33.83145],[-118.15167,33.83145],[-118.15146,33.83184],[-118.15168,33.83204]]],"type":"Polygon"},"properties":{"type":"boundary"},"type":"Feature"}],"type":"FeatureCollection"}