{"features":[{"geometry":{"coordinates":[[[[-118.20397,33.97933],[-118.20399,33.97986],[-118.20262,33.97972],[-118.20262,33.98264],[-118.19755,33.98212],[-118.19747,33.98268],[-118.17,33.98],[-118.17077,33.98317],[-118.17165,33.98513],[-118.17363,33.98795],[-118.17541,33.98972],[-118.17726,33.99112],[-118.17707,33.99133],[-118.17427,33.98904],[-118.17318,33.98784],[-118.17195,33.9862],[-118.17065,33.98401],[-118.16991,33.98136],[-118.16968,33.97967],[-118.16981,33.97601],[-118.17121,33.96632],[-118.17153,33.96635],[-118.17148,33.96658],[-118.17164,33.9666],[-118.17152,33.96741],[-118.1722,33.96748],[-118.17236,33.96644],[-118.17305,33.96651],[-118.17289,33.96756],[-118.1753,33.96782],[-118.17536,33.96739],[-118.17799,33.96776],[-118.17794,33.96809],[-118.18594,33.96894],[-118.18579,33.96999],[-118.18824,33.97027],[-118.18793,33.96914],[-118.19014,33.96938],[-118.19023,33.96882],[-118.19119,33.96892],[-118.19128,33.96842],[-118.19141,33.96844],[-118.19133,33.96893],[-118.19181,33.96898],[-118.19188,33.96848],[-118.19203,33.9685],[-118.19195,33.96899],[-118.19407,33.96922],[-118.19398,33.9698],[-118.19442,33.96985],[-118.19435,33.9704],[-118.19989,33.97099],[-118.19979,33.97157],[-118.2028,33.97189],[-118.2037,33.97465],[-118.20384,33.97581],[-118.20604,33.97602],[-118.20618,33.97649],[-118.20625,33.97958],[-118.20397,33.97933]]],[[[-118.17596,33.99252],[-118.177,33.99387],[-118.17795,33.99557],[-118.17746,33.99577],[-118.17747,33.99541],[-118.17628,33.99591],[-118.17676,33.9972],[-118.17654,33.99783],[-118.17546,33.99835],[-118.16833,33.99602],[-118.16716,33.99862],[-118.1655,33.99811],[-118.16044,33.99538],[-118.15209,33.99199],[-118.15268,33.99065],[-118.15445,33.99121],[-118.15535,33.99133],[-118.15924,33.9913],[-118.16014,33.99154],[-118.16109,33.99202],[-118.16181,33.98736],[-118.17,33.98796],[-118.17047,33.98789],[-118.16947,33.98643],[-118.16872,33.98494],[-118.16775,33.9821],[-118.16744,33.98058],[-118.1673,33.97786],[-118.16783,33.97337],[-118.16763,33.97163],[-118.1673,33.97019],[-118.16589,33.96816],[-118.16529,33.96798],[-118.16543,33.96786],[-118.16617,33.96779],[-118.16657,33.96714],[-118.16784,33.96635],[-118.16891,33.96441],[-118.16907,33.9638],[-118.17008,33.96388],[-118.16974,33.96451],[-118.1695,33.96613],[-118.17007,33.96619],[-118.16852,33.97773],[-118.1688,33.98135],[-118.16958,33.98394],[-118.17051,33.98582],[-118.17138,33.98722],[-118.17398,33.99016],[-118.17641,33.99204],[-118.17596,33.99252]]]],"type":"MultiPolygon"},"properties":{"type":"boundary"},"type":"Feature"}],"type":"FeatureCollection"}