{"features":[{"geometry":{"coordinates":[[[-118.20568,33.97719],[-118.20618,33.97646],[-118.20618,33.97649],[-118.20621,33.97794],[-118.20568,33.97719]]],"type":"Polygon"},"properties":{"bbox":{"roads":{"area":491.91,"pct":12.61}},"city_same":1,"id":"hex:2072:17368"},"type":"Feature"},{"geometry":{"coordinates":[[[-118.20571,33.97915],[-118.20622,33.97839],[-118.20625,33.97958],[-118.206,33.97955],[-118.20571,33.97915]]],"type":"Polygon"},"properties":{"bbox":{"roads":{"area":368.19,"pct":9.96}},"city_same":1,"id":"hex:2072:17369"},"type":"Feature"},{"geometry":{"coordinates":[[[-118.20568,33.97719],[-118.20433,33.97721],[-118.20364,33.97624],[-118.20392,33.97582],[-118.20431,33.97584],[-118.20465,33.97588],[-118.20604,33.97602],[-118.20606,33.97611],[-118.20614,33.97611],[-118.20618,33.97646],[-118.20568,33.97719]]],"type":"Polygon"},"properties":{"bbox":{"roads":{"area":3936.45,"pct":14.27},"sidewalks":{"area":38.21,"pct":0.14}},"city_same":1,"id":"hex:2073:17367"},"type":"Feature"},{"geometry":{"coordinates":[[[-118.20571,33.97915],[-118.20436,33.97916],[-118.20367,33.97819],[-118.20433,33.97721],[-118.20568,33.97719],[-118.20621,33.97794],[-118.20622,33.97839],[-118.20571,33.97915]]],"type":"Polygon"},"properties":{"bbox":{"roads":{"area":3477.92,"pct":8.64}},"city_same":1,"id":"hex:2073:17368"},"type":"Feature"},{"geometry":{"coordinates":[[[[-118.20436,33.97916],[-118.20571,33.97915],[-118.206,33.97955],[-118.20422,33.97936],[-118.20436,33.97916]]],[[[-118.20398,33.97971],[-118.20399,33.97984],[-118.20399,33.97986],[-118.20389,33.97985],[-118.20398,33.97971]]]],"type":"MultiPolygon"},"properties":{"bbox":{"roads":{"area":458.45,"pct":9.53}},"city":{"roads":{"area":389.1,"pct":8.08}},"id":"hex:2073:17369"},"type":"Feature"},{"geometry":{"coordinates":[[[-118.20223,33.97235],[-118.20183,33.97179],[-118.2028,33.97189],[-118.20297,33.97234],[-118.20223,33.97235]]],"type":"Polygon"},"properties":{"bbox":{"roads":{"area":1218.82,"pct":28.61},"sidewalks":{"area":216.75,"pct":5.09}},"city_same":1,"id":"hex:2074:17365"},"type":"Feature"},{"geometry":{"coordinates":[[[-118.20226,33.9743],[-118.20157,33.97333],[-118.20223,33.97235],[-118.20297,33.97234],[-118.20318,33.97288],[-118.20336,33.97343],[-118.20351,33.97395],[-118.2036,33.97429],[-118.20226,33.9743]]],"type":"Polygon"},"properties":{"bbox":{"roads":{"area":3014.43,"pct":10.75},"sidewalks":{"area":245.95,"pct":0.88}},"city_same":1,"id":"hex:2074:17366"},"type":"Feature"},{"geometry":{"coordinates":[[[-118.20364,33.97624],[-118.20229,33.97625],[-118.2016,33.97528],[-118.20226,33.9743],[-118.2036,33.97429],[-118.2037,33.97465],[-118.20374,33.97491],[-118.20382,33.97537],[-118.20386,33.97557],[-118.20384,33.97581],[-118.20392,33.97582],[-118.20364,33.97624]]],"type":"Polygon"},"properties":{"bbox":{"roads":{"area":5103.5,"pct":13.96}},"city_same":1,"id":"hex:2074:17367"},"type":"Feature"},{"geometry":{"coordinates":[[[-118.20162,33.97723],[-118.20231,33.9782],[-118.20367,33.97819],[-118.20433,33.97721],[-118.20364,33.97624],[-118.20229,33.97625],[-118.20162,33.97723]]],"type":"Polygon"},"properties":{"bbox":{"roads":{"area":3523.89,"pct":8.68}},"city_same":1,"id":"hex:2074:17368"},"type":"Feature"},{"geometry":{"coordinates":[[[-118.20234,33.98016],[-118.20165,33.97919],[-118.20231,33.9782],[-118.20367,33.97819],[-118.20436,33.97916],[-118.20422,33.97936],[-118.20397,33.97933],[-118.20398,33.97971],[-118.20389,33.97985],[-118.20262,33.97972],[-118.20262,33.98015],[-118.20234,33.98016]]],"type":"Polygon"},"properties":{"bbox":{"roads":{"area":7611.18,"pct":21.34}},"city":{"roads":{"area":5494.29,"pct":15.41}},"id":"hex:2074:17369"},"type":"Feature"},{"geometry":{"coordinates":[[[-118.20237,33.98211],[-118.20168,33.98114],[-118.20234,33.98016],[-118.20262,33.98015],[-118.20262,33.98211],[-118.20237,33.98211]]],"type":"Polygon"},"properties":{"bbox":{"roads":{"area":1552.25,"pct":12.86}},"city_same":1,"id":"hex:2074:17370"},"type":"Feature"},{"geometry":{"coordinates":[[[-118.20237,33.98211],[-118.20262,33.98211],[-118.20262,33.98264],[-118.20205,33.98258],[-118.20237,33.98211]]],"type":"Polygon"},"properties":{"bbox":{"roads":{"area":570.11,"pct":25.85}},"city_same":1,"id":"hex:2074:17371"},"type":"Feature"},{"geometry":{"coordinates":[[[-118.20223,33.97235],[-118.20157,33.97333],[-118.20022,33.97334],[-118.19953,33.97237],[-118.20005,33.97159],[-118.20183,33.97179],[-118.20223,33.97235]]],"type":"Polygon"},"properties":{"bbox":{"roads":{"area":3336.6,"pct":9.34},"sidewalks":{"area":92.36,"pct":0.26}},"city_same":1,"id":"hex:2075:17365"},"type":"Feature"},{"geometry":{"coordinates":[[[-118.19955,33.97433],[-118.20024,33.9753],[-118.2016,33.97528],[-118.20226,33.9743],[-118.20157,33.97333],[-118.20022,33.97334],[-118.19955,33.97433]]],"type":"Polygon"},"properties":{"bbox":{"roads":{"area":4609.5,"pct":11.35}},"city_same":1,"id":"hex:2075:17366"},"type":"Feature"},{"geometry":{"coordinates":[[[-118.19958,33.97628],[-118.20027,33.97725],[-118.20162,33.97723],[-118.20229,33.97625],[-118.2016,33.97528],[-118.20024,33.9753],[-118.19958,33.97628]]],"type":"Polygon"},"properties":{"bbox":{"parking":{"area":366.54,"pct":0.9},"roads":{"area":5434.94,"pct":13.39}},"city_same":1,"id":"hex:2075:17367"},"type":"Feature"},{"geometry":{"coordinates":[[[-118.19961,33.97823],[-118.2003,33.9792],[-118.20165,33.97919],[-118.20231,33.9782],[-118.20162,33.97723],[-118.20027,33.97725],[-118.19961,33.97823]]],"type":"Polygon"},"properties":{"bbox":{"roads":{"area":1777.43,"pct":4.38}},"city_same":1,"id":"hex:2075:17368"},"type":"Feature"},{"geometry":{"coordinates":[[[-118.19964,33.98018],[-118.20033,33.98115],[-118.20168,33.98114],[-118.20234,33.98016],[-118.20165,33.97919],[-118.2003,33.9792],[-118.19964,33.98018]]],"type":"Polygon"},"properties":{"bbox":{"roads":{"area":5674.86,"pct":13.98}},"city":{"roads":{"area":3343.27,"pct":8.24}},"id":"hex:2075:17369"},"type":"Feature"},{"geometry":{"coordinates":[[[-118.19966,33.98213],[-118.20033,33.98115],[-118.20168,33.98114],[-118.20237,33.98211],[-118.20205,33.98258],[-118.19982,33.98235],[-118.19966,33.98213]]],"type":"Polygon"},"properties":{"bbox":{"roads":{"area":3772.27,"pct":12.93}},"city_same":1,"id":"hex:2075:17370"},"type":"Feature"},{"geometry":{"coordinates":[[[-118.19953,33.97237],[-118.19817,33.97239],[-118.19748,33.97142],[-118.19791,33.97078],[-118.19953,33.97095],[-118.19989,33.97099],[-118.19979,33.97157],[-118.20005,33.97159],[-118.19953,33.97237]]],"type":"Polygon"},"properties":{"bbox":{"roads":{"area":5666.2,"pct":18},"sidewalks":{"area":43.98,"pct":0.14}},"city_same":1,"id":"hex:2076:17365"},"type":"Feature"},{"geometry":{"coordinates":[[[-118.19751,33.97337],[-118.1982,33.97434],[-118.19955,33.97433],[-118.20022,33.97334],[-118.19953,33.97237],[-118.19817,33.97239],[-118.19751,33.97337]]],"type":"Polygon"},"properties":{"bbox":{"roads":{"area":4154.54,"pct":10.23}},"city_same":1,"id":"hex:2076:17366"},"type":"Feature"},{"geometry":{"coordinates":[[[-118.19754,33.97532],[-118.19823,33.97629],[-118.19958,33.97628],[-118.20024,33.9753],[-118.19955,33.97433],[-118.1982,33.97434],[-118.19754,33.97532]]],"type":"Polygon"},"properties":{"bbox":{"parking":{"area":151.73,"pct":0.37},"roads":{"area":4482.25,"pct":11.04}},"city_same":1,"id":"hex:2076:17367"},"type":"Feature"},{"geometry":{"coordinates":[[[-118.19756,33.97727],[-118.19825,33.97824],[-118.19961,33.97823],[-118.20027,33.97725],[-118.19958,33.97628],[-118.19823,33.97629],[-118.19756,33.97727]]],"type":"Polygon"},"properties":{"bbox":{"parking":{"area":302,"pct":0.74},"roads":{"area":4209.2,"pct":10.37}},"city_same":1,"id":"hex:2076:17368"},"type":"Feature"},{"geometry":{"coordinates":[[[-118.19759,33.97923],[-118.19828,33.9802],[-118.19964,33.98018],[-118.2003,33.9792],[-118.19961,33.97823],[-118.19825,33.97824],[-118.19759,33.97923]]],"type":"Polygon"},"properties":{"bbox":{"roads":{"area":6834.04,"pct":16.83},"sidewalks":{"area":198.63,"pct":0.49}},"city":{"roads":{"area":3088.88,"pct":7.61},"sidewalks":{"area":198.63,"pct":0.49}},"id":"hex:2076:17369"},"type":"Feature"},{"geometry":{"coordinates":[[[-118.19762,33.98118],[-118.19831,33.98215],[-118.19966,33.98213],[-118.20033,33.98115],[-118.19964,33.98018],[-118.19828,33.9802],[-118.19762,33.98118]]],"type":"Polygon"},"properties":{"bbox":{"roads":{"area":3377.95,"pct":8.32}},"city_same":1,"id":"hex:2076:17370"},"type":"Feature"},{"geometry":{"coordinates":[[[-118.19831,33.98215],[-118.19966,33.98213],[-118.19982,33.98235],[-118.19828,33.98219],[-118.19831,33.98215]]],"type":"Polygon"},"properties":{"bbox":{"roads":{"area":721.48,"pct":37.47}},"city_same":1,"id":"hex:2076:17371"},"type":"Feature"},{"geometry":{"coordinates":[[[-118.19748,33.97142],[-118.19613,33.97143],[-118.19548,33.97052],[-118.19791,33.97078],[-118.19748,33.97142]]],"type":"Polygon"},"properties":{"bbox":{"roads":{"area":3362.86,"pct":22.64}},"city_same":1,"id":"hex:2077:17364"},"type":"Feature"},{"geometry":{"coordinates":[[[-118.19547,33.97241],[-118.19616,33.97338],[-118.19751,33.97337],[-118.19817,33.97239],[-118.19748,33.97142],[-118.19613,33.97143],[-118.19547,33.97241]]],"type":"Polygon"},"properties":{"bbox":{"roads":{"area":4115.6,"pct":10.14}},"city_same":1,"id":"hex:2077:17365"},"type":"Feature"},{"geometry":{"coordinates":[[[-118.19549,33.97437],[-118.19618,33.97533],[-118.19754,33.97532],[-118.1982,33.97434],[-118.19751,33.97337],[-118.19616,33.97338],[-118.19549,33.97437]]],"type":"Polygon"},"properties":{"bbox":{"roads":{"area":3899.48,"pct":9.61}},"city_same":1,"id":"hex:2077:17366"},"type":"Feature"},{"geometry":{"coordinates":[[[-118.19552,33.97632],[-118.19621,33.97729],[-118.19756,33.97727],[-118.19823,33.97629],[-118.19754,33.97532],[-118.19618,33.97533],[-118.19552,33.97632]]],"type":"Polygon"},"properties":{"bbox":{"roads":{"area":3236.53,"pct":7.97}},"city_same":1,"id":"hex:2077:17367"},"type":"Feature"},{"geometry":{"coordinates":[[[-118.19555,33.97827],[-118.19624,33.97924],[-118.19759,33.97923],[-118.19825,33.97824],[-118.19756,33.97727],[-118.19621,33.97729],[-118.19555,33.97827]]],"type":"Polygon"},"properties":{"bbox":{"roads":{"area":6874.95,"pct":16.94}},"city":{"roads":{"area":4852.36,"pct":11.95}},"id":"hex:2077:17368"},"type":"Feature"},{"geometry":{"coordinates":[[[-118.19558,33.98022],[-118.19627,33.98119],[-118.19762,33.98118],[-118.19828,33.9802],[-118.19759,33.97923],[-118.19624,33.97924],[-118.19558,33.98022]]],"type":"Polygon"},"properties":{"bbox":{"roads":{"area":4060.87,"pct":10}},"city_same":1,"id":"hex:2077:17369"},"type":"Feature"},{"geometry":{"coordinates":[[[-118.1956,33.98217],[-118.19627,33.98119],[-118.19762,33.98118],[-118.19831,33.98215],[-118.19828,33.98219],[-118.19755,33.98212],[-118.19747,33.98268],[-118.19585,33.98251],[-118.1956,33.98217]]],"type":"Polygon"},"properties":{"bbox":{"roads":{"area":3848.7,"pct":13.67},"sidewalks":{"area":12.8,"pct":0.05}},"city_same":1,"id":"hex:2077:17370"},"type":"Feature"},{"geometry":{"coordinates":[[[-118.19409,33.97047],[-118.1934,33.9695],[-118.19362,33.96917],[-118.19407,33.96922],[-118.19398,33.9698],[-118.19442,33.96985],[-118.19435,33.9704],[-118.19495,33.97047],[-118.19409,33.97047]]],"type":"Polygon"},"properties":{"bbox":{"roads":{"area":861.26,"pct":12.26}},"city_same":1,"id":"hex:2078:17364"},"type":"Feature"},{"geometry":{"coordinates":[[[-118.19613,33.97143],[-118.19547,33.97241],[-118.19411,33.97243],[-118.19342,33.97146],[-118.19409,33.97047],[-118.19495,33.97047],[-118.19548,33.97052],[-118.19613,33.97143]]],"type":"Polygon"},"properties":{"bbox":{"roads":{"area":7595.92,"pct":18.78}},"city_same":1,"id":"hex:2078:17365"},"type":"Feature"},{"geometry":{"coordinates":[[[-118.19345,33.97341],[-118.19414,33.97438],[-118.19549,33.97437],[-118.19616,33.97338],[-118.19547,33.97241],[-118.19411,33.97243],[-118.19345,33.97341]]],"type":"Polygon"},"properties":{"bbox":{"roads":{"area":2596,"pct":6.39}},"city_same":1,"id":"hex:2078:17366"},"type":"Feature"},{"geometry":{"coordinates":[[[-118.19348,33.97536],[-118.19417,33.97633],[-118.19552,33.97632],[-118.19618,33.97533],[-118.19549,33.97437],[-118.19414,33.97438],[-118.19348,33.97536]]],"type":"Polygon"},"properties":{"bbox":{"roads":{"area":4517.93,"pct":11.13}},"city_same":1,"id":"hex:2078:17367"},"type":"Feature"},{"geometry":{"coordinates":[[[-118.19351,33.97731],[-118.1942,33.97828],[-118.19555,33.97827],[-118.19621,33.97729],[-118.19552,33.97632],[-118.19417,33.97633],[-118.19351,33.97731]]],"type":"Polygon"},"properties":{"bbox":{"roads":{"area":3537.64,"pct":8.71}},"city_same":1,"id":"hex:2078:17368"},"type":"Feature"},{"geometry":{"coordinates":[[[-118.19353,33.97927],[-118.19422,33.98023],[-118.19558,33.98022],[-118.19624,33.97924],[-118.19555,33.97827],[-118.1942,33.97828],[-118.19353,33.97927]]],"type":"Polygon"},"properties":{"bbox":{"roads":{"area":6402.54,"pct":15.77},"sidewalks":{"area":413.15,"pct":1.02}},"city":{"roads":{"area":3529.96,"pct":8.7},"sidewalks":{"area":413.15,"pct":1.02}},"id":"hex:2078:17369"},"type":"Feature"},{"geometry":{"coordinates":[[[-118.19356,33.98122],[-118.19425,33.98219],[-118.1956,33.98217],[-118.19627,33.98119],[-118.19558,33.98022],[-118.19422,33.98023],[-118.19356,33.98122]]],"type":"Polygon"},"properties":{"bbox":{"roads":{"area":3979.68,"pct":9.8},"sidewalks":{"area":328.75,"pct":0.81}},"city_same":1,"id":"hex:2078:17370"},"type":"Feature"},{"geometry":{"coordinates":[[[-118.19425,33.98219],[-118.1956,33.98217],[-118.19585,33.98251],[-118.19415,33.98234],[-118.19425,33.98219]]],"type":"Polygon"},"properties":{"bbox":{"roads":{"area":314.92,"pct":8.32}},"city_same":1,"id":"hex:2078:17371"},"type":"Feature"},{"geometry":{"coordinates":[[[[-118.19135,33.96855],[-118.1914,33.96847],[-118.19139,33.96859],[-118.19135,33.96855]]],[[[-118.1934,33.9695],[-118.19204,33.96952],[-118.19165,33.96896],[-118.19181,33.96898],[-118.19188,33.96848],[-118.19203,33.9685],[-118.19195,33.96899],[-118.1923,33.96903],[-118.19229,33.96909],[-118.19341,33.9692],[-118.19342,33.96915],[-118.19362,33.96917],[-118.1934,33.9695]]]],"type":"MultiPolygon"},"properties":{"bbox":{"roads":{"area":435.13,"pct":5.71}},"city_same":1,"id":"hex:2079:17363"},"type":"Feature"},{"geometry":{"coordinates":[[[-118.19138,33.9705],[-118.19207,33.97147],[-118.19342,33.97146],[-118.19409,33.97047],[-118.1934,33.9695],[-118.19204,33.96952],[-118.19138,33.9705]]],"type":"Polygon"},"properties":{"bbox":{"roads":{"area":7851.69,"pct":19.34}},"city_same":1,"id":"hex:2079:17364"},"type":"Feature"},{"geometry":{"coordinates":[[[-118.19141,33.97245],[-118.1921,33.97342],[-118.19345,33.97341],[-118.19411,33.97243],[-118.19342,33.97146],[-118.19207,33.97147],[-118.19141,33.97245]]],"type":"Polygon"},"properties":{"bbox":{"roads":{"area":3800.51,"pct":9.36}},"city_same":1,"id":"hex:2079:17365"},"type":"Feature"},{"geometry":{"coordinates":[[[-118.19144,33.9744],[-118.19213,33.97537],[-118.19348,33.97536],[-118.19414,33.97438],[-118.19345,33.97341],[-118.1921,33.97342],[-118.19144,33.9744]]],"type":"Polygon"},"properties":{"bbox":{"roads":{"area":5260.55,"pct":12.96}},"city_same":1,"id":"hex:2079:17366"},"type":"Feature"},{"geometry":{"coordinates":[[[-118.19146,33.97636],[-118.19215,33.97733],[-118.19351,33.97731],[-118.19417,33.97633],[-118.19348,33.97536],[-118.19213,33.97537],[-118.19146,33.97636]]],"type":"Polygon"},"properties":{"bbox":{"roads":{"area":3742.48,"pct":9.22}},"city_same":1,"id":"hex:2079:17367"},"type":"Feature"},{"geometry":{"coordinates":[[[-118.19149,33.97831],[-118.19218,33.97928],[-118.19353,33.97927],[-118.1942,33.97828],[-118.19351,33.97731],[-118.19215,33.97733],[-118.19149,33.97831]]],"type":"Polygon"},"properties":{"bbox":{"roads":{"area":7904.81,"pct":19.47},"sidewalks":{"area":548.82,"pct":1.35}},"city":{"roads":{"area":4883.98,"pct":12.03},"sidewalks":{"area":548.82,"pct":1.35}},"id":"hex:2079:17368"},"type":"Feature"},{"geometry":{"coordinates":[[[-118.19152,33.98026],[-118.19221,33.98123],[-118.19356,33.98122],[-118.19422,33.98023],[-118.19353,33.97927],[-118.19218,33.97928],[-118.19152,33.98026]]],"type":"Polygon"},"properties":{"bbox":{"roads":{"area":4251.81,"pct":10.47},"sidewalks":{"area":1227.13,"pct":3.02}},"city_same":1,"id":"hex:2079:17369"},"type":"Feature"},{"geometry":{"coordinates":[[[-118.19221,33.98123],[-118.19356,33.98122],[-118.19425,33.98219],[-118.19415,33.98234],[-118.19163,33.98208],[-118.19221,33.98123]]],"type":"Polygon"},"properties":{"bbox":{"roads":{"area":3210.31,"pct":15.59},"sidewalks":{"area":610.97,"pct":2.97}},"city_same":1,"id":"hex:2079:17370"},"type":"Feature"},{"geometry":{"coordinates":[[[-118.19135,33.96855],[-118.19125,33.96855],[-118.19128,33.96842],[-118.19141,33.96844],[-118.1914,33.96847],[-118.19135,33.96855]]],"type":"Polygon"},"properties":{"bbox":{"roads":{"area":71.02,"pct":47.98}},"city_same":1,"id":"hex:2080:17363"},"type":"Feature"},{"geometry":{"coordinates":[[[-118.19204,33.96952],[-118.19138,33.9705],[-118.19003,33.97051],[-118.18934,33.96954],[-118.1895,33.96931],[-118.19014,33.96938],[-118.19023,33.96882],[-118.19119,33.96892],[-118.19125,33.96855],[-118.19135,33.96855],[-118.19139,33.96859],[-118.19133,33.96893],[-118.19165,33.96896],[-118.19204,33.96952]]],"type":"Polygon"},"properties":{"bbox":{"roads":{"area":4077.77,"pct":12.33}},"city_same":1,"id":"hex:2080:17364"},"type":"Feature"},{"geometry":{"coordinates":[[[-118.18937,33.9715],[-118.19006,33.97247],[-118.19141,33.97245],[-118.19207,33.97147],[-118.19138,33.9705],[-118.19003,33.97051],[-118.18937,33.9715]]],"type":"Polygon"},"properties":{"bbox":{"roads":{"area":3816.89,"pct":9.4}},"city_same":1,"id":"hex:2080:17365"},"type":"Feature"},{"geometry":{"coordinates":[[[-118.18939,33.97345],[-118.19008,33.97442],[-118.19144,33.9744],[-118.1921,33.97342],[-118.19141,33.97245],[-118.19006,33.97247],[-118.18939,33.97345]]],"type":"Polygon"},"properties":{"bbox":{"roads":{"area":2265.89,"pct":5.58}},"city_same":1,"id":"hex:2080:17366"},"type":"Feature"},{"geometry":{"coordinates":[[[-118.18942,33.9754],[-118.19011,33.97637],[-118.19146,33.97636],[-118.19213,33.97537],[-118.19144,33.9744],[-118.19008,33.97442],[-118.18942,33.9754]]],"type":"Polygon"},"properties":{"bbox":{"roads":{"area":4098.64,"pct":10.1}},"city_same":1,"id":"hex:2080:17367"},"type":"Feature"},{"geometry":{"coordinates":[[[-118.18945,33.97735],[-118.19014,33.97832],[-118.19149,33.97831],[-118.19215,33.97733],[-118.19146,33.97636],[-118.19011,33.97637],[-118.18945,33.97735]]],"type":"Polygon"},"properties":{"bbox":{"roads":{"area":4364.37,"pct":10.75}},"city":{"roads":{"area":4296.19,"pct":10.58}},"id":"hex:2080:17368"},"type":"Feature"},{"geometry":{"coordinates":[[[-118.18947,33.9793],[-118.19016,33.98027],[-118.19152,33.98026],[-118.19218,33.97928],[-118.19149,33.97831],[-118.19014,33.97832],[-118.18947,33.9793]]],"type":"Polygon"},"properties":{"bbox":{"parking":{"area":447.76,"pct":1.1},"roads":{"area":5500.73,"pct":13.55},"sidewalks":{"area":1018.05,"pct":2.51}},"city":{"parking":{"area":447.76,"pct":1.1},"roads":{"area":3667.45,"pct":9.03},"sidewalks":{"area":1018.05,"pct":2.51}},"id":"hex:2080:17369"},"type":"Feature"},{"geometry":{"coordinates":[[[-118.1895,33.98126],[-118.19016,33.98027],[-118.19152,33.98026],[-118.19221,33.98123],[-118.19163,33.98208],[-118.18997,33.98191],[-118.1895,33.98126]]],"type":"Polygon"},"properties":{"bbox":{"roads":{"area":4052.31,"pct":10.89},"sidewalks":{"area":1084.21,"pct":2.91}},"city_same":1,"id":"hex:2080:17370"},"type":"Feature"},{"geometry":{"coordinates":[[[-118.18934,33.96954],[-118.18805,33.96956],[-118.18793,33.96914],[-118.1895,33.96931],[-118.18934,33.96954]]],"type":"Polygon"},"properties":{"bbox":{"roads":{"area":149.45,"pct":3.12}},"city_same":1,"id":"hex:2081:17363"},"type":"Feature"},{"geometry":{"coordinates":[[[-118.18934,33.96954],[-118.19003,33.97051],[-118.18937,33.9715],[-118.18801,33.97151],[-118.18732,33.97054],[-118.18756,33.97019],[-118.18824,33.97027],[-118.18805,33.96956],[-118.18934,33.96954]]],"type":"Polygon"},"properties":{"bbox":{"roads":{"area":10530.24,"pct":27.73}},"city_same":1,"id":"hex:2081:17364"},"type":"Feature"},{"geometry":{"coordinates":[[[-118.18735,33.97249],[-118.18804,33.97346],[-118.18939,33.97345],[-118.19006,33.97247],[-118.18937,33.9715],[-118.18801,33.97151],[-118.18735,33.97249]]],"type":"Polygon"},"properties":{"bbox":{"roads":{"area":6699.33,"pct":16.5}},"city_same":1,"id":"hex:2081:17365"},"type":"Feature"},{"geometry":{"coordinates":[[[-118.18738,33.97444],[-118.18807,33.97541],[-118.18942,33.9754],[-118.19008,33.97442],[-118.18939,33.97345],[-118.18804,33.97346],[-118.18738,33.97444]]],"type":"Polygon"},"properties":{"bbox":{"roads":{"area":7115.17,"pct":17.53}},"city_same":1,"id":"hex:2081:17366"},"type":"Feature"},{"geometry":{"coordinates":[[[-118.1874,33.9764],[-118.18809,33.97737],[-118.18945,33.97735],[-118.19011,33.97637],[-118.18942,33.9754],[-118.18807,33.97541],[-118.1874,33.9764]]],"type":"Polygon"},"properties":{"bbox":{"roads":{"area":4553.81,"pct":11.22}},"city_same":1,"id":"hex:2081:17367"},"type":"Feature"},{"geometry":{"coordinates":[[[-118.18743,33.97835],[-118.18812,33.97932],[-118.18947,33.9793],[-118.19014,33.97832],[-118.18945,33.97735],[-118.18809,33.97737],[-118.18743,33.97835]]],"type":"Polygon"},"properties":{"bbox":{"parking":{"area":652.89,"pct":1.61},"roads":{"area":8677.46,"pct":21.38}},"city":{"parking":{"area":652.89,"pct":1.61},"roads":{"area":5032.09,"pct":12.4}},"id":"hex:2081:17368"},"type":"Feature"},{"geometry":{"coordinates":[[[-118.18746,33.9803],[-118.18815,33.98127],[-118.1895,33.98126],[-118.19016,33.98027],[-118.18947,33.9793],[-118.18812,33.97932],[-118.18746,33.9803]]],"type":"Polygon"},"properties":{"bbox":{"parking":{"area":2709.97,"pct":6.68},"roads":{"area":3318.76,"pct":8.18},"sidewalks":{"area":72.47,"pct":0.18}},"city_same":1,"id":"hex:2081:17369"},"type":"Feature"},{"geometry":{"coordinates":[[[-118.18815,33.98127],[-118.1895,33.98126],[-118.18997,33.98191],[-118.18979,33.98189],[-118.18978,33.98198],[-118.18781,33.98178],[-118.18815,33.98127]]],"type":"Polygon"},"properties":{"bbox":{"roads":{"area":1433.75,"pct":12.79}},"city_same":1,"id":"hex:2081:17370"},"type":"Feature"},{"geometry":{"coordinates":[[[-118.18732,33.97054],[-118.18597,33.97055],[-118.18528,33.96958],[-118.18573,33.96892],[-118.18594,33.96894],[-118.18579,33.96999],[-118.18756,33.97019],[-118.18732,33.97054]]],"type":"Polygon"},"properties":{"bbox":{"roads":{"area":3335.96,"pct":27.45}},"city_same":1,"id":"hex:2082:17364"},"type":"Feature"},{"geometry":{"coordinates":[[[-118.18531,33.97153],[-118.186,33.9725],[-118.18735,33.97249],[-118.18801,33.97151],[-118.18732,33.97054],[-118.18597,33.97055],[-118.18531,33.97153]]],"type":"Polygon"},"properties":{"bbox":{"roads":{"area":6252.91,"pct":15.4}},"city_same":1,"id":"hex:2082:17365"},"type":"Feature"},{"geometry":{"coordinates":[[[-118.18533,33.97349],[-118.18602,33.97446],[-118.18738,33.97444],[-118.18804,33.97346],[-118.18735,33.97249],[-118.186,33.9725],[-118.18533,33.97349]]],"type":"Polygon"},"properties":{"bbox":{"roads":{"area":6631.96,"pct":16.34}},"city_same":1,"id":"hex:2082:17366"},"type":"Feature"},{"geometry":{"coordinates":[[[-118.18536,33.97544],[-118.18605,33.97641],[-118.1874,33.9764],[-118.18807,33.97541],[-118.18738,33.97444],[-118.18602,33.97446],[-118.18536,33.97544]]],"type":"Polygon"},"properties":{"bbox":{"roads":{"area":7252.46,"pct":17.87}},"city_same":1,"id":"hex:2082:17367"},"type":"Feature"},{"geometry":{"coordinates":[[[-118.18539,33.97739],[-118.18608,33.97836],[-118.18743,33.97835],[-118.18809,33.97737],[-118.1874,33.9764],[-118.18605,33.97641],[-118.18539,33.97739]]],"type":"Polygon"},"properties":{"bbox":{"roads":{"area":11601.77,"pct":28.58}},"city":{"roads":{"area":9146.1,"pct":22.53}},"id":"hex:2082:17368"},"type":"Feature"},{"geometry":{"coordinates":[[[-118.18542,33.97934],[-118.18611,33.98031],[-118.18746,33.9803],[-118.18812,33.97932],[-118.18743,33.97835],[-118.18608,33.97836],[-118.18542,33.97934]]],"type":"Polygon"},"properties":{"bbox":{"roads":{"area":9835.38,"pct":24.23}},"city_same":1,"id":"hex:2082:17369"},"type":"Feature"},{"geometry":{"coordinates":[[[-118.18544,33.9813],[-118.18611,33.98031],[-118.18746,33.9803],[-118.18815,33.98127],[-118.18781,33.98178],[-118.18643,33.98164],[-118.18563,33.98156],[-118.18544,33.9813]]],"type":"Polygon"},"properties":{"bbox":{"roads":{"area":6017.59,"pct":20.04}},"city_same":1,"id":"hex:2082:17370"},"type":"Feature"},{"geometry":{"coordinates":[[[-118.18528,33.96958],[-118.18393,33.9696],[-118.18326,33.96866],[-118.18573,33.96892],[-118.18528,33.96958]]],"type":"Polygon"},"properties":{"bbox":{"roads":{"area":794.12,"pct":5.1}},"city_same":1,"id":"hex:2083:17363"},"type":"Feature"},{"geometry":{"coordinates":[[[-118.18326,33.97058],[-118.18395,33.97155],[-118.18531,33.97153],[-118.18597,33.97055],[-118.18528,33.96958],[-118.18393,33.9696],[-118.18326,33.97058]]],"type":"Polygon"},"properties":{"bbox":{"roads":{"area":6999.27,"pct":17.24}},"city_same":1,"id":"hex:2083:17364"},"type":"Feature"},{"geometry":{"coordinates":[[[-118.18329,33.97253],[-118.18398,33.9735],[-118.18533,33.97349],[-118.186,33.9725],[-118.18531,33.97153],[-118.18395,33.97155],[-118.18329,33.97253]]],"type":"Polygon"},"properties":{"bbox":{"roads":{"area":4381.08,"pct":10.79}},"city_same":1,"id":"hex:2083:17365"},"type":"Feature"},{"geometry":{"coordinates":[[[-118.18332,33.97448],[-118.18401,33.97545],[-118.18536,33.97544],[-118.18602,33.97446],[-118.18533,33.97349],[-118.18398,33.9735],[-118.18332,33.97448]]],"type":"Polygon"},"properties":{"bbox":{"roads":{"area":4365.39,"pct":10.75}},"city_same":1,"id":"hex:2083:17366"},"type":"Feature"},{"geometry":{"coordinates":[[[-118.18335,33.97644],[-118.18404,33.9774],[-118.18539,33.97739],[-118.18605,33.97641],[-118.18536,33.97544],[-118.18401,33.97545],[-118.18335,33.97644]]],"type":"Polygon"},"properties":{"bbox":{"roads":{"area":4817.11,"pct":11.87}},"city_same":1,"id":"hex:2083:17367"},"type":"Feature"},{"geometry":{"coordinates":[[[-118.18337,33.97839],[-118.18406,33.97936],[-118.18542,33.97934],[-118.18608,33.97836],[-118.18539,33.97739],[-118.18404,33.9774],[-118.18337,33.97839]]],"type":"Polygon"},"properties":{"bbox":{"roads":{"area":6641.53,"pct":16.36}},"city":{"roads":{"area":4318.18,"pct":10.64}},"id":"hex:2083:17368"},"type":"Feature"},{"geometry":{"coordinates":[[[-118.1834,33.98034],[-118.18409,33.98131],[-118.18544,33.9813],[-118.18611,33.98031],[-118.18542,33.97934],[-118.18406,33.97936],[-118.1834,33.98034]]],"type":"Polygon"},"properties":{"bbox":{"roads":{"area":4805.55,"pct":11.84}},"city_same":1,"id":"hex:2083:17369"},"type":"Feature"},{"geometry":{"coordinates":[[[-118.18409,33.98131],[-118.18544,33.9813],[-118.18563,33.98156],[-118.18403,33.9814],[-118.18409,33.98131]]],"type":"Polygon"},"properties":{"bbox":{"roads":{"area":142.4,"pct":5.42}},"city_same":1,"id":"hex:2083:17370"},"type":"Feature"},{"geometry":{"coordinates":[[[-118.18188,33.96864],[-118.18179,33.9685],[-118.183,33.96863],[-118.18188,33.96864]]],"type":"Polygon"},"properties":{"bbox":{"roads":{"area":26.01,"pct":3.25}},"city_same":1,"id":"hex:2084:17363"},"type":"Feature"},{"geometry":{"coordinates":[[[-118.18393,33.9696],[-118.18326,33.97058],[-118.18191,33.97059],[-118.18122,33.96962],[-118.18188,33.96864],[-118.183,33.96863],[-118.18326,33.96866],[-118.18393,33.9696]]],"type":"Polygon"},"properties":{"bbox":{"roads":{"area":6866.77,"pct":16.93}},"city_same":1,"id":"hex:2084:17364"},"type":"Feature"},{"geometry":{"coordinates":[[[-118.18125,33.97157],[-118.18194,33.97254],[-118.18329,33.97253],[-118.18395,33.97155],[-118.18326,33.97058],[-118.18191,33.97059],[-118.18125,33.97157]]],"type":"Polygon"},"properties":{"bbox":{"roads":{"area":4405.67,"pct":10.85}},"city_same":1,"id":"hex:2084:17365"},"type":"Feature"},{"geometry":{"coordinates":[[[-118.18128,33.97353],[-118.18197,33.9745],[-118.18332,33.97448],[-118.18398,33.9735],[-118.18329,33.97253],[-118.18194,33.97254],[-118.18128,33.97353]]],"type":"Polygon"},"properties":{"bbox":{"roads":{"area":3888.49,"pct":9.58}},"city_same":1,"id":"hex:2084:17366"},"type":"Feature"},{"geometry":{"coordinates":[[[-118.1813,33.97548],[-118.18199,33.97645],[-118.18335,33.97644],[-118.18401,33.97545],[-118.18332,33.97448],[-118.18197,33.9745],[-118.1813,33.97548]]],"type":"Polygon"},"properties":{"bbox":{"roads":{"area":3792.9,"pct":9.34}},"city_same":1,"id":"hex:2084:17367"},"type":"Feature"},{"geometry":{"coordinates":[[[-118.18133,33.97743],[-118.18202,33.9784],[-118.18337,33.97839],[-118.18404,33.9774],[-118.18335,33.97644],[-118.18199,33.97645],[-118.18133,33.97743]]],"type":"Polygon"},"properties":{"bbox":{"roads":{"area":7275.52,"pct":17.92}},"city":{"roads":{"area":4145.36,"pct":10.21}},"id":"hex:2084:17368"},"type":"Feature"},{"geometry":{"coordinates":[[[-118.18136,33.97938],[-118.18205,33.98035],[-118.1834,33.98034],[-118.18406,33.97936],[-118.18337,33.97839],[-118.18202,33.9784],[-118.18136,33.97938]]],"type":"Polygon"},"properties":{"bbox":{"roads":{"area":4525.94,"pct":11.15}},"city_same":1,"id":"hex:2084:17369"},"type":"Feature"},{"geometry":{"coordinates":[[[-118.18205,33.98035],[-118.1834,33.98034],[-118.18409,33.98131],[-118.18403,33.9814],[-118.18151,33.98115],[-118.18205,33.98035]]],"type":"Polygon"},"properties":{"bbox":{"roads":{"area":2852.36,"pct":15.07}},"city_same":1,"id":"hex:2084:17370"},"type":"Feature"},{"geometry":{"coordinates":[[[-118.18188,33.96864],[-118.18122,33.96962],[-118.17987,33.96963],[-118.17918,33.96867],[-118.17946,33.96825],[-118.18179,33.9685],[-118.18188,33.96864]]],"type":"Polygon"},"properties":{"bbox":{"roads":{"area":3895.08,"pct":14.16}},"city_same":1,"id":"hex:2085:17363"},"type":"Feature"},{"geometry":{"coordinates":[[[-118.17921,33.97062],[-118.1799,33.97159],[-118.18125,33.97157],[-118.18191,33.97059],[-118.18122,33.96962],[-118.17987,33.96963],[-118.17921,33.97062]]],"type":"Polygon"},"properties":{"bbox":{"roads":{"area":3537.76,"pct":8.71}},"city_same":1,"id":"hex:2085:17364"},"type":"Feature"},{"geometry":{"coordinates":[[[-118.17923,33.97257],[-118.17992,33.97354],[-118.18128,33.97353],[-118.18194,33.97254],[-118.18125,33.97157],[-118.1799,33.97159],[-118.17923,33.97257]]],"type":"Polygon"},"properties":{"bbox":{"roads":{"area":4281.59,"pct":10.55}},"city_same":1,"id":"hex:2085:17365"},"type":"Feature"},{"geometry":{"coordinates":[[[-118.17926,33.97452],[-118.17995,33.97549],[-118.1813,33.97548],[-118.18197,33.9745],[-118.18128,33.97353],[-118.17992,33.97354],[-118.17926,33.97452]]],"type":"Polygon"},"properties":{"bbox":{"roads":{"area":4931.72,"pct":12.15}},"city_same":1,"id":"hex:2085:17366"},"type":"Feature"},{"geometry":{"coordinates":[[[-118.17929,33.97647],[-118.17998,33.97744],[-118.18133,33.97743],[-118.18199,33.97645],[-118.1813,33.97548],[-118.17995,33.97549],[-118.17929,33.97647]]],"type":"Polygon"},"properties":{"bbox":{"roads":{"area":5733.1,"pct":14.12}},"city":{"roads":{"area":3698.36,"pct":9.11}},"id":"hex:2085:17367"},"type":"Feature"},{"geometry":{"coordinates":[[[-118.17931,33.97843],[-118.18,33.9794],[-118.18136,33.97938],[-118.18202,33.9784],[-118.18133,33.97743],[-118.17998,33.97744],[-118.17931,33.97843]]],"type":"Polygon"},"properties":{"bbox":{"roads":{"area":4081.28,"pct":10.05}},"city":{"roads":{"area":3984.95,"pct":9.82}},"id":"hex:2085:17368"},"type":"Feature"},{"geometry":{"coordinates":[[[-118.17934,33.98038],[-118.18,33.9794],[-118.18136,33.97938],[-118.18205,33.98035],[-118.18151,33.98115],[-118.17976,33.98097],[-118.17934,33.98038]]],"type":"Polygon"},"properties":{"bbox":{"roads":{"area":4176.48,"pct":11.56}},"city_same":1,"id":"hex:2085:17369"},"type":"Feature"},{"geometry":{"coordinates":[[[-118.17918,33.96867],[-118.17783,33.96868],[-118.17714,33.96771],[-118.17722,33.96759],[-118.17739,33.96761],[-118.17738,33.9677],[-118.17799,33.96776],[-118.17794,33.96809],[-118.17946,33.96825],[-118.17918,33.96867]]],"type":"Polygon"},"properties":{"bbox":{"roads":{"area":1974.86,"pct":16.61}},"city_same":1,"id":"hex:2086:17363"},"type":"Feature"},{"geometry":{"coordinates":[[[-118.17716,33.96966],[-118.17785,33.97063],[-118.17921,33.97062],[-118.17987,33.96963],[-118.17918,33.96867],[-118.17783,33.96868],[-118.17716,33.96966]]],"type":"Polygon"},"properties":{"bbox":{"roads":{"area":9936.66,"pct":24.48}},"city_same":1,"id":"hex:2086:17364"},"type":"Feature"},{"geometry":{"coordinates":[[[-118.17719,33.97161],[-118.17788,33.97258],[-118.17923,33.97257],[-118.1799,33.97159],[-118.17921,33.97062],[-118.17785,33.97063],[-118.17719,33.97161]]],"type":"Polygon"},"properties":{"bbox":{"roads":{"area":3315.37,"pct":8.17}},"city_same":1,"id":"hex:2086:17365"},"type":"Feature"},{"geometry":{"coordinates":[[[-118.17722,33.97357],[-118.17791,33.97453],[-118.17926,33.97452],[-118.17992,33.97354],[-118.17923,33.97257],[-118.17788,33.97258],[-118.17722,33.97357]]],"type":"Polygon"},"properties":{"bbox":{"roads":{"area":3599.39,"pct":8.87}},"city_same":1,"id":"hex:2086:17366"},"type":"Feature"},{"geometry":{"coordinates":[[[-118.17724,33.97552],[-118.17793,33.97649],[-118.17929,33.97647],[-118.17995,33.97549],[-118.17926,33.97452],[-118.17791,33.97453],[-118.17724,33.97552]]],"type":"Polygon"},"properties":{"bbox":{"roads":{"area":4164.13,"pct":10.26}},"city_same":1,"id":"hex:2086:17367"},"type":"Feature"},{"geometry":{"coordinates":[[[-118.17727,33.97747],[-118.17796,33.97844],[-118.17931,33.97843],[-118.17998,33.97744],[-118.17929,33.97647],[-118.17793,33.97649],[-118.17727,33.97747]]],"type":"Polygon"},"properties":{"bbox":{"roads":{"area":5554.36,"pct":13.68}},"city":{"roads":{"area":2566.16,"pct":6.32}},"id":"hex:2086:17368"},"type":"Feature"},{"geometry":{"coordinates":[[[-118.1773,33.97942],[-118.17799,33.98039],[-118.17934,33.98038],[-118.18,33.9794],[-118.17931,33.97843],[-118.17796,33.97844],[-118.1773,33.97942]]],"type":"Polygon"},"properties":{"bbox":{"roads":{"area":3049.65,"pct":7.51}},"city_same":1,"id":"hex:2086:17369"},"type":"Feature"},{"geometry":{"coordinates":[[[-118.17799,33.98039],[-118.17934,33.98038],[-118.17976,33.98097],[-118.17773,33.98077],[-118.17799,33.98039]]],"type":"Polygon"},"properties":{"bbox":{"roads":{"area":1478.15,"pct":17.85}},"city_same":1,"id":"hex:2086:17370"},"type":"Feature"},{"geometry":{"coordinates":[[[-118.17714,33.96771],[-118.17578,33.96772],[-118.17556,33.96741],[-118.17722,33.96759],[-118.17714,33.96771]]],"type":"Polygon"},"properties":{"bbox":{"roads":{"area":56.38,"pct":1.73}},"city_same":1,"id":"hex:2087:17362"},"type":"Feature"},{"geometry":{"coordinates":[[[-118.17512,33.9687],[-118.17581,33.96967],[-118.17716,33.96966],[-118.17783,33.96868],[-118.17714,33.96771],[-118.17578,33.96772],[-118.17512,33.9687]]],"type":"Polygon"},"properties":{"bbox":{"roads":{"area":5642.49,"pct":13.9}},"city_same":1,"id":"hex:2087:17363"},"type":"Feature"},{"geometry":{"coordinates":[[[-118.17515,33.97066],[-118.17584,33.97163],[-118.17719,33.97161],[-118.17785,33.97063],[-118.17716,33.96966],[-118.17581,33.96967],[-118.17515,33.97066]]],"type":"Polygon"},"properties":{"bbox":{"roads":{"area":6398.89,"pct":15.76}},"city_same":1,"id":"hex:2087:17364"},"type":"Feature"},{"geometry":{"coordinates":[[[-118.17517,33.97261],[-118.17586,33.97358],[-118.17722,33.97357],[-118.17788,33.97258],[-118.17719,33.97161],[-118.17584,33.97163],[-118.17517,33.97261]]],"type":"Polygon"},"properties":{"bbox":{"roads":{"area":4357.81,"pct":10.73}},"city_same":1,"id":"hex:2087:17365"},"type":"Feature"},{"geometry":{"coordinates":[[[-118.1752,33.97456],[-118.17589,33.97553],[-118.17724,33.97552],[-118.17791,33.97453],[-118.17722,33.97357],[-118.17586,33.97358],[-118.1752,33.97456]]],"type":"Polygon"},"properties":{"bbox":{"roads":{"area":4610.16,"pct":11.36}},"city_same":1,"id":"hex:2087:17366"},"type":"Feature"},{"geometry":{"coordinates":[[[-118.17523,33.97651],[-118.17592,33.97748],[-118.17727,33.97747],[-118.17793,33.97649],[-118.17724,33.97552],[-118.17589,33.97553],[-118.17523,33.97651]]],"type":"Polygon"},"properties":{"bbox":{"roads":{"area":7623.85,"pct":18.78}},"city":{"roads":{"area":4408.01,"pct":10.86}},"id":"hex:2087:17367"},"type":"Feature"},{"geometry":{"coordinates":[[[-118.17525,33.97847],[-118.17594,33.97943],[-118.1773,33.97942],[-118.17796,33.97844],[-118.17727,33.97747],[-118.17592,33.97748],[-118.17525,33.97847]]],"type":"Polygon"},"properties":{"bbox":{"roads":{"area":4009.98,"pct":9.88}},"city_same":1,"id":"hex:2087:17368"},"type":"Feature"},{"geometry":{"coordinates":[[[-118.17528,33.98042],[-118.17594,33.97943],[-118.1773,33.97942],[-118.17799,33.98039],[-118.17773,33.98077],[-118.17536,33.98053],[-118.17528,33.98042]]],"type":"Polygon"},"properties":{"bbox":{"roads":{"area":3144.79,"pct":11.78}},"city_same":1,"id":"hex:2087:17369"},"type":"Feature"},{"geometry":{"coordinates":[[[-118.17678,33.99114],[-118.17667,33.99107],[-118.17587,33.99043],[-118.17548,33.99009],[-118.17561,33.98989],[-118.17599,33.9902],[-118.17635,33.99048],[-118.17726,33.99112],[-118.17725,33.99114],[-118.17678,33.99114]]],"type":"Polygon"},"properties":{"bbox":{"roads":{"area":4.96,"pct":0.1}},"city_same":1,"id":"hex:2087:17374"},"type":"Feature"},{"geometry":{"coordinates":[[[[-118.17613,33.9931],[-118.17544,33.99213],[-118.17579,33.99161],[-118.17602,33.99178],[-118.17641,33.99204],[-118.17596,33.99252],[-118.17644,33.99304],[-118.17648,33.9931],[-118.17613,33.9931]]],[[[-118.17725,33.99114],[-118.17707,33.99133],[-118.17678,33.99114],[-118.17725,33.99114]]]],"type":"MultiPolygon"},"properties":{"bbox":{"roads":{"area":467.38,"pct":6.47}},"city":{"roads":{"area":466.62,"pct":6.46}},"id":"hex:2087:17375"},"type":"Feature"},{"geometry":{"coordinates":[[[-118.17751,33.99504],[-118.17616,33.99505],[-118.17547,33.99408],[-118.17613,33.9931],[-118.17648,33.9931],[-118.177,33.99387],[-118.17761,33.9949],[-118.17751,33.99504]]],"type":"Polygon"},"properties":{"bbox":{"roads":{"area":8357.42,"pct":32.37}},"city":{"roads":{"area":779.5,"pct":3.02}},"id":"hex:2087:17376"},"type":"Feature"},{"geometry":{"coordinates":[[[-118.17619,33.997],[-118.1755,33.99604],[-118.17616,33.99505],[-118.17751,33.99504],[-118.17791,33.99559],[-118.17758,33.99574],[-118.17746,33.99577],[-118.17747,33.99541],[-118.1771,33.99561],[-118.17703,33.99565],[-118.17697,33.99569],[-118.17682,33.99562],[-118.17673,33.99566],[-118.17643,33.9958],[-118.17628,33.99591],[-118.1766,33.99683],[-118.17668,33.997],[-118.17619,33.997]]],"type":"Polygon"},"properties":{"bbox":{"roads":{"area":3588.92,"pct":17.78}},"city":{"roads":{"area":578.68,"pct":2.87}},"id":"hex:2087:17377"},"type":"Feature"},{"geometry":{"coordinates":[[[-118.17552,33.99799],[-118.17619,33.997],[-118.17668,33.997],[-118.17677,33.99718],[-118.17676,33.9972],[-118.17664,33.99756],[-118.1766,33.99767],[-118.17654,33.99783],[-118.1763,33.99795],[-118.1761,33.99803],[-118.17588,33.99813],[-118.17569,33.99822],[-118.17552,33.99799]]],"type":"Polygon"},"properties":{"bbox":{"roads":{"area":2994.36,"pct":34.99},"sidewalks":{"area":133.94,"pct":1.57}},"city":{"roads":{"area":1791.61,"pct":20.94},"sidewalks":{"area":133.94,"pct":1.57}},"id":"hex:2087:17378"},"type":"Feature"},{"geometry":{"coordinates":[[[-118.17578,33.96772],[-118.17512,33.9687],[-118.17377,33.96872],[-118.17308,33.96775],[-118.17318,33.96759],[-118.1753,33.96782],[-118.17536,33.96739],[-118.17556,33.96741],[-118.17578,33.96772]]],"type":"Polygon"},"properties":{"bbox":{"roads":{"area":3163.05,"pct":14.27}},"city_same":1,"id":"hex:2088:17363"},"type":"Feature"},{"geometry":{"coordinates":[[[-118.1731,33.9697],[-118.17379,33.97067],[-118.17515,33.97066],[-118.17581,33.96967],[-118.17512,33.9687],[-118.17377,33.96872],[-118.1731,33.9697]]],"type":"Polygon"},"properties":{"bbox":{"roads":{"area":7197.79,"pct":17.73}},"city_same":1,"id":"hex:2088:17364"},"type":"Feature"},{"geometry":{"coordinates":[[[-118.17313,33.97165],[-118.17382,33.97262],[-118.17517,33.97261],[-118.17584,33.97163],[-118.17515,33.97066],[-118.17379,33.97067],[-118.17313,33.97165]]],"type":"Polygon"},"properties":{"bbox":{"roads":{"area":4755.04,"pct":11.71}},"city_same":1,"id":"hex:2088:17365"},"type":"Feature"},{"geometry":{"coordinates":[[[-118.17316,33.9736],[-118.17385,33.97457],[-118.1752,33.97456],[-118.17586,33.97358],[-118.17517,33.97261],[-118.17382,33.97262],[-118.17316,33.9736]]],"type":"Polygon"},"properties":{"bbox":{"roads":{"area":4207.75,"pct":10.37}},"city_same":1,"id":"hex:2088:17366"},"type":"Feature"},{"geometry":{"coordinates":[[[-118.17319,33.97556],[-118.17388,33.97653],[-118.17523,33.97651],[-118.17589,33.97553],[-118.1752,33.97456],[-118.17385,33.97457],[-118.17319,33.97556]]],"type":"Polygon"},"properties":{"bbox":{"roads":{"area":4081.96,"pct":10.06}},"city_same":1,"id":"hex:2088:17367"},"type":"Feature"},{"geometry":{"coordinates":[[[-118.17321,33.97751],[-118.1739,33.97848],[-118.17525,33.97847],[-118.17592,33.97748],[-118.17523,33.97651],[-118.17388,33.97653],[-118.17321,33.97751]]],"type":"Polygon"},"properties":{"bbox":{"roads":{"area":6255.53,"pct":15.41}},"city":{"roads":{"area":4261.92,"pct":10.5}},"id":"hex:2088:17368"},"type":"Feature"},{"geometry":{"coordinates":[[[-118.17324,33.97946],[-118.1739,33.97848],[-118.17525,33.97847],[-118.17594,33.97943],[-118.17528,33.98042],[-118.17436,33.98043],[-118.17389,33.98038],[-118.17324,33.97946]]],"type":"Polygon"},"properties":{"bbox":{"roads":{"area":3766.35,"pct":9.3}},"city_same":1,"id":"hex:2088:17369"},"type":"Feature"},{"geometry":{"coordinates":[[[-118.17528,33.98042],[-118.17536,33.98053],[-118.17436,33.98043],[-118.17528,33.98042]]],"type":"Polygon"},"properties":{"bbox":{"roads":{"area":181.88,"pct":34.67}},"city_same":1,"id":"hex:2088:17370"},"type":"Feature"},{"geometry":{"coordinates":[[[-118.17544,33.99213],[-118.17409,33.99214],[-118.1734,33.99117],[-118.17404,33.99022],[-118.17507,33.99109],[-118.17579,33.99161],[-118.17544,33.99213]]],"type":"Polygon"},"properties":{"bbox":{"roads":{"area":8160.33,"pct":30.71}},"city":{"roads":{"area":2226.77,"pct":8.38}},"id":"hex:2088:17375"},"type":"Feature"},{"geometry":{"coordinates":[[[-118.17343,33.99313],[-118.17412,33.9941],[-118.17547,33.99408],[-118.17613,33.9931],[-118.17544,33.99213],[-118.17409,33.99214],[-118.17343,33.99313]]],"type":"Polygon"},"properties":{"bbox":{"parking":{"area":1891.98,"pct":4.66},"roads":{"area":10698.76,"pct":26.35}},"city":{"parking":{"area":1891.98,"pct":4.66},"roads":{"area":5203,"pct":12.82}},"id":"hex:2088:17376"},"type":"Feature"},{"geometry":{"coordinates":[[[-118.17345,33.99508],[-118.17414,33.99605],[-118.1755,33.99604],[-118.17616,33.99505],[-118.17547,33.99408],[-118.17412,33.9941],[-118.17345,33.99508]]],"type":"Polygon"},"properties":{"bbox":{"roads":{"area":2214.42,"pct":5.45}},"city_same":1,"id":"hex:2088:17377"},"type":"Feature"},{"geometry":{"coordinates":[[[-118.17348,33.99703],[-118.17414,33.99605],[-118.1755,33.99604],[-118.17619,33.997],[-118.17552,33.99799],[-118.17441,33.998],[-118.17427,33.9979],[-118.17405,33.99783],[-118.17348,33.99703]]],"type":"Polygon"},"properties":{"bbox":{"parking":{"area":18754.3,"pct":46.5},"roads":{"area":5618.41,"pct":13.93},"sidewalks":{"area":116.68,"pct":0.29}},"city":{"parking":{"area":18754.3,"pct":46.5},"roads":{"area":5202.76,"pct":12.9},"sidewalks":{"area":116.68,"pct":0.29}},"id":"hex:2088:17378"},"type":"Feature"},{"geometry":{"coordinates":[[[-118.17552,33.99799],[-118.17569,33.99822],[-118.17553,33.99831],[-118.17546,33.99835],[-118.17537,33.99832],[-118.17528,33.99829],[-118.17515,33.99825],[-118.17441,33.998],[-118.17441,33.998],[-118.17552,33.99799]]],"type":"Polygon"},"properties":{"bbox":{"parking":{"area":177.93,"pct":7.18},"roads":{"area":1647.63,"pct":66.49},"sidewalks":{"area":118.53,"pct":4.78}},"city":{"parking":{"area":177.93,"pct":7.18},"roads":{"area":955.63,"pct":38.57},"sidewalks":{"area":118.53,"pct":4.78}},"id":"hex:2088:17379"},"type":"Feature"},{"geometry":{"coordinates":[[[-118.17308,33.96775],[-118.17173,33.96776],[-118.17113,33.96692],[-118.17117,33.96659],[-118.17135,33.96633],[-118.17153,33.96635],[-118.17148,33.96658],[-118.17164,33.9666],[-118.17152,33.96741],[-118.1722,33.96748],[-118.17236,33.96644],[-118.17305,33.96651],[-118.17289,33.96756],[-118.17318,33.96759],[-118.17308,33.96775]]],"type":"Polygon"},"properties":{"bbox":{"roads":{"area":1865.96,"pct":12.48}},"city_same":1,"id":"hex:2089:17362"},"type":"Feature"},{"geometry":{"coordinates":[[[-118.17106,33.96874],[-118.17175,33.96971],[-118.1731,33.9697],[-118.17377,33.96872],[-118.17308,33.96775],[-118.17173,33.96776],[-118.17106,33.96874]]],"type":"Polygon"},"properties":{"bbox":{"roads":{"area":7960.82,"pct":19.61}},"city_same":1,"id":"hex:2089:17363"},"type":"Feature"},{"geometry":{"coordinates":[[[-118.17109,33.97069],[-118.17178,33.97166],[-118.17313,33.97165],[-118.17379,33.97067],[-118.1731,33.9697],[-118.17175,33.96971],[-118.17109,33.97069]]],"type":"Polygon"},"properties":{"bbox":{"roads":{"area":3157.15,"pct":7.78}},"city_same":1,"id":"hex:2089:17364"},"type":"Feature"},{"geometry":{"coordinates":[[[-118.17112,33.97265],[-118.17181,33.97362],[-118.17316,33.9736],[-118.17382,33.97262],[-118.17313,33.97165],[-118.17178,33.97166],[-118.17112,33.97265]]],"type":"Polygon"},"properties":{"bbox":{"roads":{"area":5285.21,"pct":13.02}},"city_same":1,"id":"hex:2089:17365"},"type":"Feature"},{"geometry":{"coordinates":[[[-118.17114,33.9746],[-118.17183,33.97557],[-118.17319,33.97556],[-118.17385,33.97457],[-118.17316,33.9736],[-118.17181,33.97362],[-118.17114,33.9746]]],"type":"Polygon"},"properties":{"bbox":{"roads":{"area":5384.78,"pct":13.26}},"city_same":1,"id":"hex:2089:17366"},"type":"Feature"},{"geometry":{"coordinates":[[[-118.17117,33.97655],[-118.17186,33.97752],[-118.17321,33.97751],[-118.17388,33.97653],[-118.17319,33.97556],[-118.17183,33.97557],[-118.17117,33.97655]]],"type":"Polygon"},"properties":{"bbox":{"parking":{"area":675.76,"pct":1.66},"roads":{"area":8450.01,"pct":20.82}},"city":{"parking":{"area":675.76,"pct":1.66},"roads":{"area":4738.31,"pct":11.67}},"id":"hex:2089:17367"},"type":"Feature"},{"geometry":{"coordinates":[[[-118.1712,33.9785],[-118.17189,33.97947],[-118.17324,33.97946],[-118.1739,33.97848],[-118.17321,33.97751],[-118.17186,33.97752],[-118.1712,33.9785]]],"type":"Polygon"},"properties":{"bbox":{"roads":{"area":3639.3,"pct":8.96}},"city_same":1,"id":"hex:2089:17368"},"type":"Feature"},{"geometry":{"coordinates":[[[-118.17189,33.97947],[-118.17324,33.97946],[-118.17389,33.98038],[-118.17281,33.98027],[-118.17279,33.98032],[-118.17142,33.98017],[-118.17189,33.97947]]],"type":"Polygon"},"properties":{"bbox":{"roads":{"area":2036.21,"pct":12.8}},"city_same":1,"id":"hex:2089:17369"},"type":"Feature"},{"geometry":{"coordinates":[[[-118.17275,33.98728],[-118.17195,33.9862],[-118.17167,33.98577],[-118.17187,33.98548],[-118.17248,33.98646],[-118.17294,33.98711],[-118.17307,33.98727],[-118.17275,33.98728]]],"type":"Polygon"},"properties":{"bbox":{"roads":{"area":428.55,"pct":7.26}},"city_same":1,"id":"hex:2089:17372"},"type":"Feature"},{"geometry":{"coordinates":[[[[-118.17202,33.98923],[-118.17133,33.98827],[-118.17172,33.98768],[-118.1721,33.98818],[-118.17302,33.98923],[-118.17202,33.98923]]],[[[-118.17382,33.98855],[-118.17318,33.98784],[-118.17275,33.98728],[-118.17307,33.98727],[-118.17363,33.98795],[-118.17398,33.98832],[-118.17382,33.98855]]]],"type":"MultiPolygon"},"properties":{"bbox":{"roads":{"area":1119.67,"pct":7.05}},"city_same":1,"id":"hex:2089:17373"},"type":"Feature"},{"geometry":{"coordinates":[[[-118.1734,33.99117],[-118.17205,33.99119],[-118.17136,33.99022],[-118.17202,33.98923],[-118.17302,33.98923],[-118.17309,33.98931],[-118.17398,33.99016],[-118.17404,33.99022],[-118.1734,33.99117]]],"type":"Polygon"},"properties":{"bbox":{"roads":{"area":10216.56,"pct":26.56}},"city":{"roads":{"area":3288.4,"pct":8.55}},"id":"hex:2089:17374"},"type":"Feature"},{"geometry":{"coordinates":[[[-118.17138,33.99217],[-118.17207,33.99314],[-118.17343,33.99313],[-118.17409,33.99214],[-118.1734,33.99117],[-118.17205,33.99119],[-118.17138,33.99217]]],"type":"Polygon"},"properties":{"bbox":{"parking":{"area":6638.59,"pct":16.35},"roads":{"area":6655.22,"pct":16.39}},"city":{"parking":{"area":6638.59,"pct":16.35},"roads":{"area":6653.52,"pct":16.39}},"id":"hex:2089:17375"},"type":"Feature"},{"geometry":{"coordinates":[[[-118.17141,33.99412],[-118.1721,33.99509],[-118.17345,33.99508],[-118.17412,33.9941],[-118.17343,33.99313],[-118.17207,33.99314],[-118.17141,33.99412]]],"type":"Polygon"},"properties":{"bbox":{"parking":{"area":821.58,"pct":2.02},"roads":{"area":2931.12,"pct":7.22}},"city_same":1,"id":"hex:2089:17376"},"type":"Feature"},{"geometry":{"coordinates":[[[-118.17144,33.99607],[-118.17213,33.99704],[-118.17348,33.99703],[-118.17414,33.99605],[-118.17345,33.99508],[-118.1721,33.99509],[-118.17144,33.99607]]],"type":"Polygon"},"properties":{"bbox":{"parking":{"area":9189.67,"pct":22.64},"roads":{"area":4567.79,"pct":11.25}},"city_same":1,"id":"hex:2089:17377"},"type":"Feature"},{"geometry":{"coordinates":[[[-118.17213,33.99704],[-118.17348,33.99703],[-118.17405,33.99783],[-118.17345,33.99765],[-118.1722,33.99725],[-118.17202,33.9972],[-118.17213,33.99704]]],"type":"Polygon"},"properties":{"bbox":{"parking":{"area":2061.44,"pct":27.32},"roads":{"area":1843.36,"pct":24.43},"sidewalks":{"area":244.93,"pct":3.25}},"city":{"parking":{"area":2061.44,"pct":27.32},"roads":{"area":789.25,"pct":10.46},"sidewalks":{"area":244.93,"pct":3.25}},"id":"hex:2089:17378"},"type":"Feature"},{"geometry":{"coordinates":[[[-118.16966,33.96485],[-118.16903,33.96397],[-118.16907,33.9638],[-118.16979,33.9639],[-118.16981,33.96384],[-118.17008,33.96388],[-118.16974,33.96451],[-118.16969,33.96485],[-118.16966,33.96485]]],"type":"Polygon"},"properties":{"bbox":{"roads":{"area":1726.31,"pct":31.19}},"city":{"roads":{"area":371.95,"pct":6.72}},"id":"hex:2090:17361"},"type":"Feature"},{"geometry":{"coordinates":[[[[-118.16968,33.9668],[-118.16899,33.96583],[-118.16966,33.96485],[-118.16969,33.96485],[-118.1695,33.96613],[-118.17007,33.96619],[-118.16998,33.9668],[-118.16968,33.9668]]],[[[-118.17117,33.96659],[-118.17121,33.96632],[-118.17135,33.96633],[-118.17117,33.96659]]]],"type":"MultiPolygon"},"properties":{"bbox":{"roads":{"area":920.04,"pct":11.07}},"city_same":1,"id":"hex:2090:17362"},"type":"Feature"},{"geometry":{"coordinates":[[[[-118.16902,33.96779],[-118.16968,33.9668],[-118.16998,33.9668],[-118.16972,33.96852],[-118.16969,33.96873],[-118.16902,33.96779]]],[[[-118.17173,33.96776],[-118.17106,33.96874],[-118.17086,33.96874],[-118.17113,33.96692],[-118.17173,33.96776]]]],"type":"MultiPolygon"},"properties":{"bbox":{"roads":{"area":3223.74,"pct":18.7},"sidewalks":{"area":161.3,"pct":0.94}},"city":{"roads":{"area":2722.29,"pct":15.79},"sidewalks":{"area":161.3,"pct":0.94}},"id":"hex:2090:17363"},"type":"Feature"},{"geometry":{"coordinates":[[[[-118.16905,33.96974],[-118.16968,33.9688],[-118.16948,33.97034],[-118.16905,33.96974]]],[[[-118.17106,33.96874],[-118.17175,33.96971],[-118.17109,33.97069],[-118.17058,33.9707],[-118.17086,33.96874],[-118.17106,33.96874]]]],"type":"MultiPolygon"},"properties":{"bbox":{"roads":{"area":1669.25,"pct":9.33}},"city_same":1,"id":"hex:2090:17364"},"type":"Feature"},{"geometry":{"coordinates":[[[[-118.16907,33.97169],[-118.16935,33.97128],[-118.16926,33.97196],[-118.16907,33.97169]]],[[[-118.17109,33.97069],[-118.17178,33.97166],[-118.17112,33.97265],[-118.1703,33.97265],[-118.17058,33.9707],[-118.17109,33.97069]]]],"type":"MultiPolygon"},"properties":{"bbox":{"roads":{"area":2095.47,"pct":10.07}},"city_same":1,"id":"hex:2090:17365"},"type":"Feature"},{"geometry":{"coordinates":[[[-118.17112,33.97265],[-118.17181,33.97362],[-118.17114,33.9746],[-118.17002,33.97461],[-118.1703,33.97265],[-118.17112,33.97265]]],"type":"Polygon"},"properties":{"bbox":{"roads":{"area":2731.13,"pct":10.42}},"city_same":1,"id":"hex:2090:17366"},"type":"Feature"},{"geometry":{"coordinates":[[[-118.17114,33.9746],[-118.17183,33.97557],[-118.17117,33.97655],[-118.16982,33.97656],[-118.16977,33.9765],[-118.16981,33.97601],[-118.17002,33.97461],[-118.17114,33.9746]]],"type":"Polygon"},"properties":{"bbox":{"parking":{"area":799.74,"pct":2.48},"roads":{"area":5674.71,"pct":17.59}},"city":{"parking":{"area":799.74,"pct":2.48},"roads":{"area":3597.69,"pct":11.15}},"id":"hex:2090:17367"},"type":"Feature"},{"geometry":{"coordinates":[[[-118.16982,33.97656],[-118.17117,33.97655],[-118.17186,33.97752],[-118.1712,33.9785],[-118.16984,33.97852],[-118.16964,33.97823],[-118.16968,33.97753],[-118.16976,33.97665],[-118.16982,33.97656]]],"type":"Polygon"},"properties":{"bbox":{"roads":{"area":3174.76,"pct":8.73}},"city_same":1,"id":"hex:2090:17368"},"type":"Feature"},{"geometry":{"coordinates":[[[-118.16987,33.98047],[-118.16977,33.98033],[-118.16968,33.97967],[-118.16964,33.97881],[-118.16984,33.97852],[-118.1712,33.9785],[-118.17189,33.97947],[-118.17142,33.98017],[-118.17,33.98],[-118.17008,33.98047],[-118.16987,33.98047]]],"type":"Polygon"},"properties":{"bbox":{"roads":{"area":2692.6,"pct":8.45}},"city_same":1,"id":"hex:2090:17369"},"type":"Feature"},{"geometry":{"coordinates":[[[[-118.16995,33.98633],[-118.16926,33.98536],[-118.16984,33.9845],[-118.17011,33.98508],[-118.17051,33.98582],[-118.17082,33.98632],[-118.16995,33.98633]]],[[[-118.17167,33.98577],[-118.17114,33.98495],[-118.17083,33.98436],[-118.17126,33.98436],[-118.17149,33.98481],[-118.17165,33.98513],[-118.17187,33.98548],[-118.17167,33.98577]]]],"type":"MultiPolygon"},"properties":{"bbox":{"roads":{"area":1464.13,"pct":7.82}},"city":{"roads":{"area":1460.23,"pct":7.8}},"id":"hex:2090:17372"},"type":"Feature"},{"geometry":{"coordinates":[[[-118.17133,33.98827],[-118.16998,33.98828],[-118.16974,33.98794],[-118.17,33.98796],[-118.17047,33.98789],[-118.16971,33.9868],[-118.16967,33.98674],[-118.16995,33.98633],[-118.17082,33.98632],[-118.17138,33.98722],[-118.17172,33.98768],[-118.17133,33.98827]]],"type":"Polygon"},"properties":{"bbox":{"roads":{"area":8115.83,"pct":30.1}},"city":{"roads":{"area":2937.52,"pct":10.89}},"id":"hex:2090:17373"},"type":"Feature"},{"geometry":{"coordinates":[[[-118.16931,33.98926],[-118.17,33.99023],[-118.17136,33.99022],[-118.17202,33.98923],[-118.17133,33.98827],[-118.16998,33.98828],[-118.16931,33.98926]]],"type":"Polygon"},"properties":{"bbox":{"roads":{"area":5838.7,"pct":14.38}},"city":{"roads":{"area":1128.84,"pct":2.78}},"id":"hex:2090:17374"},"type":"Feature"},{"geometry":{"coordinates":[[[-118.16934,33.99121],[-118.17003,33.99218],[-118.17138,33.99217],[-118.17205,33.99119],[-118.17136,33.99022],[-118.17,33.99023],[-118.16934,33.99121]]],"type":"Polygon"},"properties":{"bbox":{"parking":{"area":11853,"pct":29.2},"roads":{"area":7665.36,"pct":18.88}},"city_same":1,"id":"hex:2090:17375"},"type":"Feature"},{"geometry":{"coordinates":[[[-118.16937,33.99316],[-118.17006,33.99413],[-118.17141,33.99412],[-118.17207,33.99314],[-118.17138,33.99217],[-118.17003,33.99218],[-118.16937,33.99316]]],"type":"Polygon"},"properties":{"bbox":{"roads":{"area":160.11,"pct":0.39}},"city_same":1,"id":"hex:2090:17376"},"type":"Feature"},{"geometry":{"coordinates":[[[-118.16939,33.99512],[-118.17008,33.99609],[-118.17144,33.99607],[-118.1721,33.99509],[-118.17141,33.99412],[-118.17006,33.99413],[-118.16939,33.99512]]],"type":"Polygon"},"properties":{"bbox":{"parking":{"area":3738.25,"pct":9.21},"roads":{"area":3109.7,"pct":7.66}},"city_same":1,"id":"hex:2090:17377"},"type":"Feature"},{"geometry":{"coordinates":[[[-118.17008,33.99609],[-118.17144,33.99607],[-118.17213,33.99704],[-118.17202,33.9972],[-118.17189,33.99716],[-118.1701,33.9966],[-118.1698,33.9965],[-118.17008,33.99609]]],"type":"Polygon"},"properties":{"bbox":{"parking":{"area":745.68,"pct":5.09},"roads":{"area":2424.84,"pct":16.55}},"city":{"parking":{"area":745.68,"pct":5.09},"roads":{"area":1244.99,"pct":8.5}},"id":"hex:2090:17378"},"type":"Feature"},{"geometry":{"coordinates":[[[-118.16966,33.96485],[-118.16899,33.96583],[-118.1681,33.96584],[-118.16823,33.96556],[-118.16846,33.96512],[-118.16862,33.96484],[-118.16891,33.96441],[-118.16903,33.96397],[-118.16966,33.96485]]],"type":"Polygon"},"properties":{"bbox":{"roads":{"area":7124.79,"pct":50.33}},"city":{"roads":{"area":441.15,"pct":3.12}},"id":"hex:2091:17361"},"type":"Feature"},{"geometry":{"coordinates":[[[-118.16899,33.96583],[-118.16968,33.9668],[-118.16902,33.96779],[-118.16767,33.9678],[-118.16702,33.96689],[-118.16719,33.96681],[-118.1674,33.96671],[-118.16756,33.96661],[-118.16767,33.96653],[-118.16776,33.96644],[-118.16784,33.96635],[-118.16793,33.96622],[-118.1681,33.96584],[-118.16899,33.96583]]],"type":"Polygon"},"properties":{"bbox":{"roads":{"area":11368.26,"pct":31.71}},"city":{"roads":{"area":665.35,"pct":1.86}},"id":"hex:2091:17362"},"type":"Feature"},{"geometry":{"coordinates":[[[-118.16905,33.96974],[-118.16769,33.96975],[-118.167,33.96878],[-118.16767,33.9678],[-118.16902,33.96779],[-118.16969,33.96873],[-118.16968,33.9688],[-118.16905,33.96974]]],"type":"Polygon"},"properties":{"bbox":{"roads":{"area":13182.51,"pct":32.48},"sidewalks":{"area":506.8,"pct":1.25}},"city":{"roads":{"area":3688.73,"pct":9.09},"sidewalks":{"area":506.8,"pct":1.25}},"id":"hex:2091:17363"},"type":"Feature"},{"geometry":{"coordinates":[[[-118.16907,33.97169],[-118.16772,33.9717],[-118.16762,33.97156],[-118.16757,33.97133],[-118.16749,33.971],[-118.16738,33.97057],[-118.16732,33.9703],[-118.16769,33.96975],[-118.16905,33.96974],[-118.16948,33.97034],[-118.16935,33.97128],[-118.16907,33.97169]]],"type":"Polygon"},"properties":{"bbox":{"roads":{"area":10252.71,"pct":28.05}},"city":{"roads":{"area":2107.74,"pct":5.77}},"id":"hex:2091:17364"},"type":"Feature"},{"geometry":{"coordinates":[[[-118.16779,33.97365],[-118.16783,33.97337],[-118.16784,33.97301],[-118.16775,33.97238],[-118.16771,33.97205],[-118.16766,33.97179],[-118.16772,33.9717],[-118.16907,33.97169],[-118.16926,33.97196],[-118.16904,33.97364],[-118.16779,33.97365]]],"type":"Polygon"},"properties":{"bbox":{"roads":{"area":8323.69,"pct":30.2}},"city":{"roads":{"area":2292.24,"pct":8.32}},"id":"hex:2091:17365"},"type":"Feature"},{"geometry":{"coordinates":[[[-118.16777,33.97561],[-118.16753,33.97527],[-118.16762,33.97471],[-118.16769,33.97427],[-118.16779,33.97365],[-118.16904,33.97364],[-118.16878,33.9756],[-118.16777,33.97561]]],"type":"Polygon"},"properties":{"bbox":{"roads":{"area":6672.46,"pct":26.68}},"city":{"roads":{"area":1725.06,"pct":6.9}},"id":"hex:2091:17366"},"type":"Feature"},{"geometry":{"coordinates":[[[[-118.1678,33.97756],[-118.16734,33.97691],[-118.16737,33.9765],[-118.16742,33.97613],[-118.16777,33.97561],[-118.16878,33.9756],[-118.16874,33.97593],[-118.16854,33.97755],[-118.1678,33.97756]]],[[[-118.16982,33.97656],[-118.16976,33.97665],[-118.16977,33.9765],[-118.16982,33.97656]]]],"type":"MultiPolygon"},"properties":{"bbox":{"roads":{"area":6184.04,"pct":26.61}},"city":{"roads":{"area":1442.56,"pct":6.21}},"id":"hex:2091:17367"},"type":"Feature"},{"geometry":{"coordinates":[[[[-118.16783,33.97951],[-118.16729,33.97876],[-118.16728,33.97845],[-118.16729,33.97832],[-118.1678,33.97756],[-118.16854,33.97755],[-118.16852,33.97773],[-118.16853,33.97857],[-118.16857,33.97951],[-118.16783,33.97951]]],[[[-118.16984,33.97852],[-118.16964,33.97881],[-118.16963,33.9784],[-118.16964,33.97823],[-118.16984,33.97852]]]],"type":"MultiPolygon"},"properties":{"bbox":{"roads":{"area":4065.52,"pct":18.91}},"city":{"roads":{"area":1517.45,"pct":7.06}},"id":"hex:2091:17368"},"type":"Feature"},{"geometry":{"coordinates":[[[[-118.16785,33.98146],[-118.16752,33.98099],[-118.16744,33.98058],[-118.1674,33.98015],[-118.16783,33.97951],[-118.16857,33.97951],[-118.16857,33.97961],[-118.1688,33.98135],[-118.16882,33.98146],[-118.16785,33.98146]]],[[[-118.16987,33.98047],[-118.1698,33.98057],[-118.16977,33.98033],[-118.16987,33.98047]]]],"type":"MultiPolygon"},"properties":{"bbox":{"roads":{"area":5412.36,"pct":23.97}},"city":{"roads":{"area":1679.57,"pct":7.44}},"id":"hex:2091:17369"},"type":"Feature"},{"geometry":{"coordinates":[[[-118.16923,33.9834],[-118.16819,33.98341],[-118.168,33.9829],[-118.16775,33.9821],[-118.16767,33.98174],[-118.16785,33.98146],[-118.16882,33.98146],[-118.16915,33.98272],[-118.16934,33.98325],[-118.16923,33.9834]]],"type":"Polygon"},"properties":{"bbox":{"roads":{"area":6784.58,"pct":28.39}},"city":{"roads":{"area":1553.14,"pct":6.5}},"id":"hex:2091:17370"},"type":"Feature"},{"geometry":{"coordinates":[[[-118.16926,33.98536],[-118.16893,33.98536],[-118.16872,33.98494],[-118.16839,33.98396],[-118.16819,33.98341],[-118.16923,33.9834],[-118.16955,33.98385],[-118.16958,33.98394],[-118.16984,33.9845],[-118.16926,33.98536]]],"type":"Polygon"},"properties":{"bbox":{"roads":{"area":6929.3,"pct":33.8}},"city":{"roads":{"area":1257.55,"pct":6.13}},"id":"hex:2091:17371"},"type":"Feature"},{"geometry":{"coordinates":[[[-118.16926,33.98536],[-118.16995,33.98633],[-118.16967,33.98674],[-118.1696,33.98663],[-118.16959,33.98662],[-118.16947,33.98643],[-118.16897,33.98543],[-118.16893,33.98536],[-118.16926,33.98536]]],"type":"Polygon"},"properties":{"bbox":{"roads":{"area":3879.5,"pct":71.77}},"city":{"roads":{"area":208.54,"pct":3.86}},"id":"hex:2091:17372"},"type":"Feature"},{"geometry":{"coordinates":[[[-118.16998,33.98828],[-118.16931,33.98926],[-118.16796,33.98927],[-118.16727,33.9883],[-118.16761,33.9878],[-118.16974,33.98794],[-118.16998,33.98828]]],"type":"Polygon"},"properties":{"bbox":{"parking":{"area":1528.47,"pct":4.97},"roads":{"area":1777.62,"pct":5.78}},"city_same":1,"id":"hex:2091:17373"},"type":"Feature"},{"geometry":{"coordinates":[[[-118.1673,33.99026],[-118.16799,33.99123],[-118.16934,33.99121],[-118.17,33.99023],[-118.16931,33.98926],[-118.16796,33.98927],[-118.1673,33.99026]]],"type":"Polygon"},"properties":{"bbox":{"parking":{"area":3565.31,"pct":8.78},"roads":{"area":5344.81,"pct":13.17}},"city_same":1,"id":"hex:2091:17374"},"type":"Feature"},{"geometry":{"coordinates":[[[-118.16732,33.99221],[-118.16801,33.99318],[-118.16937,33.99316],[-118.17003,33.99218],[-118.16934,33.99121],[-118.16799,33.99123],[-118.16732,33.99221]]],"type":"Polygon"},"properties":{"bbox":{"roads":{"area":134.92,"pct":0.33}},"city_same":1,"id":"hex:2091:17375"},"type":"Feature"},{"geometry":{"coordinates":[[[-118.16735,33.99416],[-118.16804,33.99513],[-118.16939,33.99512],[-118.17006,33.99413],[-118.16937,33.99316],[-118.16801,33.99318],[-118.16735,33.99416]]],"type":"Polygon"},"properties":{"bbox":{"roads":{"area":2930.76,"pct":7.22}},"city_same":1,"id":"hex:2091:17376"},"type":"Feature"},{"geometry":{"coordinates":[[[-118.16738,33.99611],[-118.16804,33.99513],[-118.16939,33.99512],[-118.17008,33.99609],[-118.1698,33.9965],[-118.1692,33.99631],[-118.16871,33.99615],[-118.16833,33.99602],[-118.16828,33.99613],[-118.16794,33.9969],[-118.16738,33.99611]]],"type":"Polygon"},"properties":{"bbox":{"parking":{"area":476.26,"pct":1.75},"roads":{"area":4074.48,"pct":15}},"city":{"parking":{"area":476.26,"pct":1.75},"roads":{"area":2246.38,"pct":8.27}},"id":"hex:2091:17377"},"type":"Feature"},{"geometry":{"coordinates":[[[-118.16767,33.9678],[-118.167,33.96878],[-118.16632,33.96879],[-118.1661,33.96845],[-118.16589,33.96816],[-118.16578,33.96808],[-118.16529,33.96798],[-118.16536,33.96792],[-118.16537,33.96791],[-118.16543,33.96786],[-118.16592,33.96787],[-118.16607,33.96784],[-118.16617,33.96779],[-118.16622,33.96773],[-118.16626,33.96766],[-118.16631,33.96752],[-118.16632,33.9675],[-118.16637,33.96739],[-118.16648,33.96724],[-118.16657,33.96714],[-118.16665,33.96708],[-118.16677,33.96701],[-118.16689,33.96694],[-118.16702,33.96689],[-118.16767,33.9678]]],"type":"Polygon"},"properties":{"bbox":{"roads":{"area":6108.61,"pct":27.39},"sidewalks":{"area":389.89,"pct":1.75}},"city":{"roads":{"area":3511.28,"pct":15.75},"sidewalks":{"area":389.89,"pct":1.75}},"id":"hex:2092:17363"},"type":"Feature"},{"geometry":{"coordinates":[[[-118.167,33.96878],[-118.16769,33.96975],[-118.16732,33.9703],[-118.1673,33.97019],[-118.16722,33.97],[-118.16712,33.9698],[-118.16699,33.9696],[-118.16679,33.96937],[-118.16652,33.96907],[-118.16638,33.96887],[-118.16632,33.96879],[-118.167,33.96878]]],"type":"Polygon"},"properties":{"bbox":{"roads":{"area":2314.22,"pct":28.8}},"city":{"roads":{"area":105.59,"pct":1.31}},"id":"hex:2092:17364"},"type":"Feature"},{"geometry":{"coordinates":[[[-118.16777,33.97561],[-118.16742,33.97613],[-118.16752,33.97533],[-118.16753,33.97527],[-118.16777,33.97561]]],"type":"Polygon"},"properties":{"bbox":{"roads":{"area":1085.07,"pct":85.7}},"id":"hex:2092:17367"},"type":"Feature"},{"geometry":{"coordinates":[[[-118.1678,33.97756],[-118.16729,33.97832],[-118.1673,33.97786],[-118.16734,33.97696],[-118.16734,33.97691],[-118.1678,33.97756]]],"type":"Polygon"},"properties":{"bbox":{"roads":{"area":2556.71,"pct":72.19}},"city":{"roads":{"area":3.15,"pct":0.09}},"id":"hex:2092:17368"},"type":"Feature"},{"geometry":{"coordinates":[[[-118.16783,33.97951],[-118.1674,33.98015],[-118.16732,33.97934],[-118.16729,33.97876],[-118.16783,33.97951]]],"type":"Polygon"},"properties":{"bbox":{"roads":{"area":2565.66,"pct":72.4}},"id":"hex:2092:17369"},"type":"Feature"},{"geometry":{"coordinates":[[[-118.16785,33.98146],[-118.16767,33.98174],[-118.16762,33.98153],[-118.16752,33.98099],[-118.16785,33.98146]]],"type":"Polygon"},"properties":{"bbox":{"roads":{"area":817.49,"pct":84.34}},"id":"hex:2092:17370"},"type":"Feature"},{"geometry":{"coordinates":[[[-118.16727,33.9883],[-118.16592,33.98832],[-118.16545,33.98766],[-118.16761,33.9878],[-118.16727,33.9883]]],"type":"Polygon"},"properties":{"bbox":{"roads":{"area":821.29,"pct":7.86}},"city_same":1,"id":"hex:2092:17373"},"type":"Feature"},{"geometry":{"coordinates":[[[-118.16525,33.9893],[-118.16594,33.99027],[-118.1673,33.99026],[-118.16796,33.98927],[-118.16727,33.9883],[-118.16592,33.98832],[-118.16525,33.9893]]],"type":"Polygon"},"properties":{"bbox":{"parking":{"area":74.64,"pct":0.18},"roads":{"area":2498.52,"pct":6.15}},"city_same":1,"id":"hex:2092:17374"},"type":"Feature"},{"geometry":{"coordinates":[[[-118.16528,33.99125],[-118.16597,33.99222],[-118.16732,33.99221],[-118.16799,33.99123],[-118.1673,33.99026],[-118.16594,33.99027],[-118.16528,33.99125]]],"type":"Polygon"},"properties":{"bbox":{"parking":{"area":13078.02,"pct":32.22},"roads":{"area":5842.7,"pct":14.39}},"city_same":1,"id":"hex:2092:17375"},"type":"Feature"},{"geometry":{"coordinates":[[[-118.16531,33.9932],[-118.166,33.99417],[-118.16735,33.99416],[-118.16801,33.99318],[-118.16732,33.99221],[-118.16597,33.99222],[-118.16531,33.9932]]],"type":"Polygon"},"properties":{"bbox":{"parking":{"area":972,"pct":2.39},"roads":{"area":3034.6,"pct":7.48}},"city_same":1,"id":"hex:2092:17376"},"type":"Feature"},{"geometry":{"coordinates":[[[-118.16533,33.99516],[-118.16602,33.99613],[-118.16738,33.99611],[-118.16804,33.99513],[-118.16735,33.99416],[-118.166,33.99417],[-118.16533,33.99516]]],"type":"Polygon"},"properties":{"bbox":{"roads":{"area":5013.7,"pct":12.35}},"city":{"roads":{"area":1801.37,"pct":4.44}},"id":"hex:2092:17377"},"type":"Feature"},{"geometry":{"coordinates":[[[-118.1674,33.99806],[-118.16605,33.99808],[-118.16536,33.99711],[-118.16602,33.99613],[-118.16738,33.99611],[-118.16794,33.9969],[-118.16742,33.99805],[-118.1674,33.99806]]],"type":"Polygon"},"properties":{"bbox":{"parking":{"area":854.54,"pct":2.17},"roads":{"area":5407.23,"pct":13.75}},"city_same":1,"id":"hex:2092:17378"},"type":"Feature"},{"geometry":{"coordinates":[[[-118.16605,33.99808],[-118.1674,33.99806],[-118.16741,33.99807],[-118.16716,33.99862],[-118.16594,33.99825],[-118.16605,33.99808]]],"type":"Polygon"},"properties":{"bbox":{"parking":{"area":566.88,"pct":11.03},"roads":{"area":759.3,"pct":14.78}},"city_same":1,"id":"hex:2092:17379"},"type":"Feature"},{"geometry":{"coordinates":[[[-118.16592,33.98832],[-118.16525,33.9893],[-118.1639,33.98931],[-118.16321,33.98834],[-118.16376,33.98753],[-118.16476,33.98761],[-118.16545,33.98766],[-118.16592,33.98832]]],"type":"Polygon"},"properties":{"bbox":{"roads":{"area":4503.93,"pct":12.22}},"city_same":1,"id":"hex:2093:17373"},"type":"Feature"},{"geometry":{"coordinates":[[[-118.16324,33.99029],[-118.16393,33.99126],[-118.16528,33.99125],[-118.16594,33.99027],[-118.16525,33.9893],[-118.1639,33.98931],[-118.16324,33.99029]]],"type":"Polygon"},"properties":{"bbox":{"parking":{"area":4769.9,"pct":11.75},"roads":{"area":4280.69,"pct":10.54}},"city_same":1,"id":"hex:2093:17374"},"type":"Feature"},{"geometry":{"coordinates":[[[-118.16326,33.99225],[-118.16395,33.99322],[-118.16531,33.9932],[-118.16597,33.99222],[-118.16528,33.99125],[-118.16393,33.99126],[-118.16326,33.99225]]],"type":"Polygon"},"properties":{"bbox":{"parking":{"area":3076.08,"pct":7.58},"roads":{"area":2717.5,"pct":6.69}},"city_same":1,"id":"hex:2093:17375"},"type":"Feature"},{"geometry":{"coordinates":[[[-118.16329,33.9942],[-118.16398,33.99517],[-118.16533,33.99516],[-118.166,33.99417],[-118.16531,33.9932],[-118.16395,33.99322],[-118.16329,33.9942]]],"type":"Polygon"},"properties":{"bbox":{"parking":{"area":112.95,"pct":0.28},"roads":{"area":6026.25,"pct":14.84},"sidewalks":{"area":533.45,"pct":1.31}},"city":{"parking":{"area":112.95,"pct":0.28},"roads":{"area":2953.61,"pct":7.28},"sidewalks":{"area":533.45,"pct":1.31}},"id":"hex:2093:17376"},"type":"Feature"},{"geometry":{"coordinates":[[[-118.16332,33.99615],[-118.16401,33.99712],[-118.16536,33.99711],[-118.16602,33.99613],[-118.16533,33.99516],[-118.16398,33.99517],[-118.16332,33.99615]]],"type":"Polygon"},"properties":{"bbox":{"roads":{"area":2286.16,"pct":5.63},"sidewalks":{"area":14.39,"pct":0.04}},"city":{"roads":{"area":2274.98,"pct":5.6},"sidewalks":{"area":14.39,"pct":0.04}},"id":"hex:2093:17377"},"type":"Feature"},{"geometry":{"coordinates":[[[-118.16401,33.99712],[-118.16536,33.99711],[-118.16605,33.99808],[-118.16594,33.99825],[-118.1655,33.99811],[-118.16392,33.99726],[-118.16401,33.99712]]],"type":"Polygon"},"properties":{"bbox":{"roads":{"area":1772.48,"pct":15.07}},"city_same":1,"id":"hex:2093:17378"},"type":"Feature"},{"geometry":{"coordinates":[[[-118.16321,33.98834],[-118.16186,33.98835],[-118.16169,33.98812],[-118.16178,33.98755],[-118.1618,33.98742],[-118.16181,33.98736],[-118.16376,33.98753],[-118.16321,33.98834]]],"type":"Polygon"},"properties":{"bbox":{"roads":{"area":2779.52,"pct":17.02}},"city":{"roads":{"area":1943.32,"pct":11.9}},"id":"hex:2094:17373"},"type":"Feature"},{"geometry":{"coordinates":[[[-118.16186,33.98835],[-118.16321,33.98834],[-118.1639,33.98931],[-118.16324,33.99029],[-118.16188,33.99031],[-118.16145,33.9897],[-118.16155,33.98907],[-118.1616,33.98874],[-118.16186,33.98835]]],"type":"Polygon"},"properties":{"bbox":{"roads":{"area":5783.25,"pct":14.8},"sidewalks":{"area":123.67,"pct":0.32}},"city":{"roads":{"area":4905,"pct":12.55},"sidewalks":{"area":123.67,"pct":0.32}},"id":"hex:2094:17374"},"type":"Feature"},{"geometry":{"coordinates":[[[-118.16122,33.99129],[-118.16191,33.99226],[-118.16326,33.99225],[-118.16393,33.99126],[-118.16324,33.99029],[-118.16188,33.99031],[-118.16122,33.99129]]],"type":"Polygon"},"properties":{"bbox":{"parking":{"area":1703.31,"pct":4.2},"roads":{"area":2189.3,"pct":5.39},"sidewalks":{"area":76.68,"pct":0.19}},"city":{"parking":{"area":1703.31,"pct":4.2},"roads":{"area":2009.35,"pct":4.95},"sidewalks":{"area":76.68,"pct":0.19}},"id":"hex:2094:17375"},"type":"Feature"},{"geometry":{"coordinates":[[[-118.16125,33.99324],[-118.16194,33.99421],[-118.16329,33.9942],[-118.16395,33.99322],[-118.16326,33.99225],[-118.16191,33.99226],[-118.16125,33.99324]]],"type":"Polygon"},"properties":{"bbox":{"parking":{"area":3892.87,"pct":9.59},"roads":{"area":7202.85,"pct":17.74},"sidewalks":{"area":632.48,"pct":1.56}},"city":{"parking":{"area":3892.87,"pct":9.59},"roads":{"area":3650.68,"pct":8.99},"sidewalks":{"area":632.48,"pct":1.56}},"id":"hex:2094:17376"},"type":"Feature"},{"geometry":{"coordinates":[[[-118.16127,33.99519],[-118.16196,33.99616],[-118.16332,33.99615],[-118.16398,33.99517],[-118.16329,33.9942],[-118.16194,33.99421],[-118.16127,33.99519]]],"type":"Polygon"},"properties":{"bbox":{"parking":{"area":11780.29,"pct":29.02},"roads":{"area":3672.02,"pct":9.05},"sidewalks":{"area":146.71,"pct":0.36}},"city":{"parking":{"area":11780.29,"pct":29.02},"roads":{"area":2944.22,"pct":7.25},"sidewalks":{"area":146.71,"pct":0.36}},"id":"hex:2094:17377"},"type":"Feature"},{"geometry":{"coordinates":[[[-118.16196,33.99616],[-118.16332,33.99615],[-118.16401,33.99712],[-118.16392,33.99726],[-118.16195,33.99619],[-118.16196,33.99616]]],"type":"Polygon"},"properties":{"bbox":{"roads":{"area":364.68,"pct":4.05}},"city_same":1,"id":"hex:2094:17378"},"type":"Feature"},{"geometry":{"coordinates":[[[-118.16186,33.98835],[-118.1616,33.98874],[-118.16169,33.98812],[-118.16186,33.98835]]],"type":"Polygon"},"properties":{"bbox":{"roads":{"area":297.19,"pct":46.18}},"id":"hex:2095:17373"},"type":"Feature"},{"geometry":{"coordinates":[[[-118.16188,33.99031],[-118.16122,33.99129],[-118.1612,33.99129],[-118.16126,33.99093],[-118.16145,33.9897],[-118.16188,33.99031]]],"type":"Polygon"},"properties":{"bbox":{"roads":{"area":1453.59,"pct":32.89},"sidewalks":{"area":188.08,"pct":4.26}},"city":{"roads":{"area":345.56,"pct":7.82},"sidewalks":{"area":188.08,"pct":4.26}},"id":"hex:2095:17374"},"type":"Feature"},{"geometry":{"coordinates":[[[-118.16122,33.99129],[-118.16191,33.99226],[-118.16125,33.99324],[-118.15989,33.99325],[-118.1592,33.99228],[-118.15979,33.99142],[-118.1598,33.99142],[-118.16014,33.99154],[-118.16049,33.9917],[-118.16079,33.99185],[-118.16109,33.99202],[-118.1611,33.99194],[-118.16119,33.99138],[-118.1612,33.99129],[-118.16122,33.99129]]],"type":"Polygon"},"properties":{"bbox":{"parking":{"area":240.5,"pct":0.69},"roads":{"area":8534.13,"pct":24.36},"sidewalks":{"area":786.53,"pct":2.25}},"city":{"parking":{"area":240.5,"pct":0.69},"roads":{"area":2214.36,"pct":6.32},"sidewalks":{"area":786.53,"pct":2.25}},"id":"hex:2095:17375"},"type":"Feature"},{"geometry":{"coordinates":[[[-118.15923,33.99424],[-118.15989,33.99325],[-118.16125,33.99324],[-118.16194,33.99421],[-118.16127,33.99519],[-118.16002,33.99521],[-118.15988,33.99515],[-118.15923,33.99424]]],"type":"Polygon"},"properties":{"bbox":{"parking":{"area":7355.01,"pct":18.13},"roads":{"area":8411.46,"pct":20.74},"sidewalks":{"area":660.55,"pct":1.63}},"city":{"parking":{"area":7355.01,"pct":18.13},"roads":{"area":5311,"pct":13.09},"sidewalks":{"area":660.55,"pct":1.63}},"id":"hex:2095:17376"},"type":"Feature"},{"geometry":{"coordinates":[[[-118.16127,33.99519],[-118.16196,33.99616],[-118.16195,33.99619],[-118.16044,33.99538],[-118.16002,33.99521],[-118.16127,33.99519]]],"type":"Polygon"},"properties":{"bbox":{"roads":{"area":633.32,"pct":10.21},"sidewalks":{"area":67.22,"pct":1.08}},"city":{"roads":{"area":310.63,"pct":5.01},"sidewalks":{"area":67.22,"pct":1.08}},"id":"hex:2095:17377"},"type":"Feature"},{"geometry":{"coordinates":[[[-118.1592,33.99228],[-118.15785,33.9923],[-118.15716,33.99133],[-118.15719,33.99129],[-118.15755,33.99128],[-118.15806,33.99126],[-118.15903,33.99128],[-118.15924,33.9913],[-118.1595,33.99134],[-118.15979,33.99142],[-118.1592,33.99228]]],"type":"Polygon"},"properties":{"bbox":{"roads":{"area":2576,"pct":12.35},"sidewalks":{"area":329.71,"pct":1.58}},"city":{"roads":{"area":914.92,"pct":4.39},"sidewalks":{"area":329.71,"pct":1.58}},"id":"hex:2096:17375"},"type":"Feature"},{"geometry":{"coordinates":[[[-118.15719,33.99328],[-118.15788,33.99425],[-118.15923,33.99424],[-118.15989,33.99325],[-118.1592,33.99228],[-118.15785,33.9923],[-118.15719,33.99328]]],"type":"Polygon"},"properties":{"bbox":{"roads":{"area":1860.95,"pct":4.58}},"city_same":1,"id":"hex:2096:17376"},"type":"Feature"},{"geometry":{"coordinates":[[[-118.15788,33.99425],[-118.15923,33.99424],[-118.15988,33.99515],[-118.15784,33.99431],[-118.15788,33.99425]]],"type":"Polygon"},"properties":{"bbox":{"roads":{"area":370.43,"pct":5.19}},"city_same":1,"id":"hex:2096:17377"},"type":"Feature"},{"geometry":{"coordinates":[[[-118.15716,33.99133],[-118.15581,33.99134],[-118.1558,33.99133],[-118.15585,33.99133],[-118.15719,33.99129],[-118.15716,33.99133]]],"type":"Polygon"},"properties":{"bbox":{"roads":{"area":341.44,"pct":100}},"city":{"roads":{"area":3.32,"pct":0.97}},"id":"hex:2097:17374"},"type":"Feature"},{"geometry":{"coordinates":[[[-118.15515,33.99232],[-118.15584,33.99329],[-118.15719,33.99328],[-118.15785,33.9923],[-118.15716,33.99133],[-118.15581,33.99134],[-118.15515,33.99232]]],"type":"Polygon"},"properties":{"bbox":{"roads":{"area":3970.62,"pct":9.78}},"city":{"roads":{"area":3142.16,"pct":7.74}},"id":"hex:2097:17375"},"type":"Feature"},{"geometry":{"coordinates":[[[-118.15584,33.99329],[-118.15719,33.99328],[-118.15788,33.99425],[-118.15784,33.99431],[-118.15573,33.99344],[-118.15584,33.99329]]],"type":"Polygon"},"properties":{"bbox":{"roads":{"area":726.5,"pct":7.51}},"city_same":1,"id":"hex:2097:17376"},"type":"Feature"},{"geometry":{"coordinates":[[[-118.15581,33.99134],[-118.15515,33.99232],[-118.15379,33.99234],[-118.1531,33.99137],[-118.15341,33.9909],[-118.15359,33.99096],[-118.15386,33.99106],[-118.15445,33.99121],[-118.15495,33.99129],[-118.15503,33.9913],[-118.15535,33.99133],[-118.1558,33.99133],[-118.15581,33.99134]]],"type":"Polygon"},"properties":{"bbox":{"roads":{"area":3648.86,"pct":14.7}},"city":{"roads":{"area":1901.49,"pct":7.66}},"id":"hex:2098:17375"},"type":"Feature"},{"geometry":{"coordinates":[[[-118.15379,33.99234],[-118.15515,33.99232],[-118.15584,33.99329],[-118.15573,33.99344],[-118.1543,33.99286],[-118.15362,33.99259],[-118.15379,33.99234]]],"type":"Polygon"},"properties":{"bbox":{"roads":{"area":324.35,"pct":2.65}},"city_same":1,"id":"hex:2098:17376"},"type":"Feature"},{"geometry":{"coordinates":[[[-118.1531,33.99137],[-118.15236,33.99137],[-118.15268,33.99065],[-118.15341,33.9909],[-118.1531,33.99137]]],"type":"Polygon"},"properties":{"bbox":{"roads":{"area":1176.72,"pct":24.13}},"city":{"roads":{"area":541.62,"pct":11.11}},"id":"hex:2099:17374"},"type":"Feature"},{"geometry":{"coordinates":[[[-118.1531,33.99137],[-118.15379,33.99234],[-118.15362,33.99259],[-118.15209,33.99199],[-118.15236,33.99137],[-118.1531,33.99137]]],"type":"Polygon"},"properties":{"bbox":{"roads":{"area":839.38,"pct":6.96}},"city_same":1,"id":"hex:2099:17375"},"type":"Feature"}],"type":"FeatureCollection","v":2}