{"features":[{"geometry":{"coordinates":[[[-118.239,33.98689],[-118.23895,33.97718],[-118.23765,33.97718],[-118.23765,33.97476],[-118.23026,33.97476],[-118.21747,33.97335],[-118.21763,33.97256],[-118.21074,33.97184],[-118.21197,33.96364],[-118.19238,33.9616],[-118.19722,33.96545],[-118.20019,33.96823],[-118.20192,33.9706],[-118.19961,33.97039],[-118.19953,33.97095],[-118.19989,33.97099],[-118.19979,33.97157],[-118.2028,33.97189],[-118.2037,33.97465],[-118.20384,33.97581],[-118.20614,33.97611],[-118.20625,33.97958],[-118.20397,33.97933],[-118.20399,33.97986],[-118.20262,33.97972],[-118.20262,33.98264],[-118.19755,33.98212],[-118.19747,33.98268],[-118.18979,33.98189],[-118.18901,33.98656],[-118.19018,33.98682],[-118.19007,33.98758],[-118.20092,33.98842],[-118.20265,33.98865],[-118.20283,33.98892],[-118.20418,33.98907],[-118.2041,33.98317],[-118.21267,33.9841],[-118.21281,33.98968],[-118.21501,33.98968],[-118.21505,33.99156],[-118.22367,33.99156],[-118.22365,33.99626],[-118.22384,33.99626],[-118.22384,33.99608],[-118.22528,33.99606],[-118.22528,33.99574],[-118.22968,33.99571],[-118.22971,33.99068],[-118.23037,33.99068],[-118.23037,33.9893],[-118.2315,33.98927],[-118.23149,33.98955],[-118.23315,33.98937],[-118.23897,33.98929],[-118.239,33.98689]]],"type":"Polygon"},"properties":{"type":"boundary"},"type":"Feature"}],"type":"FeatureCollection"}