{"features":[{"geometry":{"coordinates":[[[-118.23884,33.97784],[-118.23837,33.97718],[-118.23895,33.97718],[-118.23895,33.97784],[-118.23884,33.97784]]],"type":"Polygon"},"properties":{"bbox":{"roads":{"area":277.33,"pct":11.86}},"city_same":1,"id":"hex:2056:17368"},"type":"Feature"},{"geometry":{"coordinates":[[[-118.23887,33.97979],[-118.23818,33.97882],[-118.23884,33.97784],[-118.23895,33.97784],[-118.23894,33.97799],[-118.23894,33.97845],[-118.23894,33.97869],[-118.23894,33.97881],[-118.23894,33.97886],[-118.23895,33.97961],[-118.23895,33.97979],[-118.23887,33.97979]]],"type":"Polygon"},"properties":{"bbox":{"roads":{"area":298.88,"pct":3.52}},"city_same":1,"id":"hex:2056:17369"},"type":"Feature"},{"geometry":{"coordinates":[[[-118.2389,33.98175],[-118.23821,33.98078],[-118.23887,33.97979],[-118.23895,33.97979],[-118.23895,33.9804],[-118.23895,33.98043],[-118.23896,33.98119],[-118.23896,33.98175],[-118.2389,33.98175]]],"type":"Polygon"},"properties":{"bbox":{"roads":{"area":1143.63,"pct":14.02},"sidewalks":{"area":193.09,"pct":2.37}},"city_same":1,"id":"hex:2056:17370"},"type":"Feature"},{"geometry":{"coordinates":[[[-118.23893,33.9837],[-118.23824,33.98273],[-118.2389,33.98175],[-118.23896,33.98175],[-118.23896,33.98201],[-118.23896,33.98215],[-118.23897,33.98274],[-118.23897,33.98291],[-118.23897,33.98333],[-118.23898,33.9837],[-118.23893,33.9837]]],"type":"Polygon"},"properties":{"bbox":{"roads":{"area":637.77,"pct":8.14},"sidewalks":{"area":351.73,"pct":4.49}},"city":{"roads":{"area":308.94,"pct":3.94},"sidewalks":{"area":351.73,"pct":4.49}},"id":"hex:2056:17371"},"type":"Feature"},{"geometry":{"coordinates":[[[-118.23896,33.98565],[-118.23827,33.98468],[-118.23893,33.9837],[-118.23898,33.9837],[-118.23898,33.98383],[-118.23898,33.98388],[-118.23897,33.98435],[-118.23897,33.98473],[-118.23896,33.9853],[-118.23897,33.98563],[-118.23897,33.98565],[-118.23896,33.98565]]],"type":"Polygon"},"properties":{"bbox":{"roads":{"area":372.28,"pct":5.08},"sidewalks":{"area":322.01,"pct":4.4}},"city_same":1,"id":"hex:2056:17372"},"type":"Feature"},{"geometry":{"coordinates":[[[-118.23898,33.9876],[-118.23829,33.98663],[-118.23896,33.98565],[-118.23897,33.98565],[-118.23898,33.98614],[-118.23899,33.98665],[-118.23899,33.98669],[-118.239,33.98689],[-118.23899,33.9876],[-118.23898,33.9876]]],"type":"Polygon"},"properties":{"bbox":{"roads":{"area":1019.17,"pct":14.36},"sidewalks":{"area":369.82,"pct":5.21}},"city_same":1,"id":"hex:2056:17373"},"type":"Feature"},{"geometry":{"coordinates":[[[-118.23832,33.98859],[-118.23898,33.9876],[-118.23899,33.9876],[-118.23897,33.98929],[-118.23883,33.98929],[-118.23832,33.98859]]],"type":"Polygon"},"properties":{"bbox":{"roads":{"area":1336.39,"pct":21.46},"sidewalks":{"area":235.12,"pct":3.77}},"city_same":1,"id":"hex:2056:17374"},"type":"Feature"},{"geometry":{"coordinates":[[[-118.23677,33.97493],[-118.23665,33.97476],[-118.23765,33.97476],[-118.23765,33.97492],[-118.23677,33.97493]]],"type":"Polygon"},"properties":{"bbox":{"roads":{"area":421.74,"pct":26.17}},"city_same":1,"id":"hex:2057:17366"},"type":"Feature"},{"geometry":{"coordinates":[[[-118.2368,33.97689],[-118.23611,33.97592],[-118.23677,33.97493],[-118.23765,33.97492],[-118.23765,33.9754],[-118.23765,33.97551],[-118.23765,33.97688],[-118.2368,33.97689]]],"type":"Polygon"},"properties":{"bbox":{"roads":{"area":754.87,"pct":3.14}},"city_same":1,"id":"hex:2057:17367"},"type":"Feature"},{"geometry":{"coordinates":[[[-118.23884,33.97784],[-118.23818,33.97882],[-118.23683,33.97884],[-118.23614,33.97787],[-118.2368,33.97689],[-118.23765,33.97688],[-118.23765,33.97718],[-118.23837,33.97718],[-118.23884,33.97784]]],"type":"Polygon"},"properties":{"bbox":{"roads":{"area":2720.17,"pct":7.03}},"city_same":1,"id":"hex:2057:17368"},"type":"Feature"},{"geometry":{"coordinates":[[[-118.23617,33.97982],[-118.23686,33.98079],[-118.23821,33.98078],[-118.23887,33.97979],[-118.23818,33.97882],[-118.23683,33.97884],[-118.23617,33.97982]]],"type":"Polygon"},"properties":{"bbox":{"roads":{"area":5719,"pct":14.09}},"city_same":1,"id":"hex:2057:17369"},"type":"Feature"},{"geometry":{"coordinates":[[[-118.23619,33.98177],[-118.23688,33.98274],[-118.23824,33.98273],[-118.2389,33.98175],[-118.23821,33.98078],[-118.23686,33.98079],[-118.23619,33.98177]]],"type":"Polygon"},"properties":{"bbox":{"parking":{"area":337.68,"pct":0.83},"roads":{"area":6796.91,"pct":16.74},"sidewalks":{"area":702.6,"pct":1.73}},"city":{"parking":{"area":337.68,"pct":0.83},"roads":{"area":3974.67,"pct":9.79},"sidewalks":{"area":702.6,"pct":1.73}},"id":"hex:2057:17370"},"type":"Feature"},{"geometry":{"coordinates":[[[-118.23622,33.98373],[-118.23691,33.98469],[-118.23827,33.98468],[-118.23893,33.9837],[-118.23824,33.98273],[-118.23688,33.98274],[-118.23622,33.98373]]],"type":"Polygon"},"properties":{"bbox":{"roads":{"area":5913.26,"pct":14.57},"sidewalks":{"area":271.03,"pct":0.67}},"city_same":1,"id":"hex:2057:17371"},"type":"Feature"},{"geometry":{"coordinates":[[[-118.23625,33.98568],[-118.23694,33.98665],[-118.23829,33.98663],[-118.23896,33.98565],[-118.23827,33.98468],[-118.23691,33.98469],[-118.23625,33.98568]]],"type":"Polygon"},"properties":{"bbox":{"roads":{"area":6162.31,"pct":15.18},"sidewalks":{"area":654.87,"pct":1.61}},"city_same":1,"id":"hex:2057:17372"},"type":"Feature"},{"geometry":{"coordinates":[[[-118.23628,33.98763],[-118.23697,33.9886],[-118.23832,33.98859],[-118.23898,33.9876],[-118.23829,33.98663],[-118.23694,33.98665],[-118.23628,33.98763]]],"type":"Polygon"},"properties":{"bbox":{"roads":{"area":8175.1,"pct":20.14},"sidewalks":{"area":1110.02,"pct":2.73}},"city_same":1,"id":"hex:2057:17373"},"type":"Feature"},{"geometry":{"coordinates":[[[-118.23697,33.9886],[-118.23832,33.98859],[-118.23883,33.98929],[-118.23793,33.98929],[-118.23649,33.98931],[-118.23697,33.9886]]],"type":"Polygon"},"properties":{"bbox":{"roads":{"area":5094.78,"pct":38.24},"sidewalks":{"area":252.14,"pct":1.89}},"city_same":1,"id":"hex:2057:17374"},"type":"Feature"},{"geometry":{"coordinates":[[[-118.23677,33.97493],[-118.23611,33.97592],[-118.23476,33.97593],[-118.23407,33.97496],[-118.2342,33.97476],[-118.23474,33.97476],[-118.23665,33.97476],[-118.23677,33.97493]]],"type":"Polygon"},"properties":{"bbox":{"roads":{"area":5915.93,"pct":23.53},"sidewalks":{"area":154.3,"pct":0.61}},"city_same":1,"id":"hex:2058:17367"},"type":"Feature"},{"geometry":{"coordinates":[[[-118.23409,33.97691],[-118.23478,33.97788],[-118.23614,33.97787],[-118.2368,33.97689],[-118.23611,33.97592],[-118.23476,33.97593],[-118.23409,33.97691]]],"type":"Polygon"},"properties":{"bbox":{"parking":{"area":1519.93,"pct":3.74},"roads":{"area":7273.45,"pct":17.92},"sidewalks":{"area":266.41,"pct":0.66}},"city_same":1,"id":"hex:2058:17368"},"type":"Feature"},{"geometry":{"coordinates":[[[-118.23412,33.97886],[-118.23481,33.97983],[-118.23617,33.97982],[-118.23683,33.97884],[-118.23614,33.97787],[-118.23478,33.97788],[-118.23412,33.97886]]],"type":"Polygon"},"properties":{"bbox":{"roads":{"area":8048.74,"pct":19.83},"sidewalks":{"area":499.85,"pct":1.23}},"city_same":1,"id":"hex:2058:17369"},"type":"Feature"},{"geometry":{"coordinates":[[[-118.23415,33.98082],[-118.23484,33.98179],[-118.23619,33.98177],[-118.23686,33.98079],[-118.23617,33.97982],[-118.23481,33.97983],[-118.23415,33.98082]]],"type":"Polygon"},"properties":{"bbox":{"parking":{"area":388.52,"pct":0.96},"roads":{"area":8881.3,"pct":21.88},"sidewalks":{"area":547.09,"pct":1.35}},"city":{"parking":{"area":388.52,"pct":0.96},"roads":{"area":6926.02,"pct":17.06},"sidewalks":{"area":547.09,"pct":1.35}},"id":"hex:2058:17370"},"type":"Feature"},{"geometry":{"coordinates":[[[-118.23418,33.98277],[-118.23487,33.98374],[-118.23622,33.98373],[-118.23688,33.98274],[-118.23619,33.98177],[-118.23484,33.98179],[-118.23418,33.98277]]],"type":"Polygon"},"properties":{"bbox":{"roads":{"area":6253.76,"pct":15.41},"sidewalks":{"area":196.95,"pct":0.49}},"city_same":1,"id":"hex:2058:17371"},"type":"Feature"},{"geometry":{"coordinates":[[[-118.23421,33.98472],[-118.2349,33.98569],[-118.23625,33.98568],[-118.23691,33.98469],[-118.23622,33.98373],[-118.23487,33.98374],[-118.23421,33.98472]]],"type":"Polygon"},"properties":{"bbox":{"roads":{"area":2887.48,"pct":7.11},"sidewalks":{"area":120.78,"pct":0.3}},"city_same":1,"id":"hex:2058:17372"},"type":"Feature"},{"geometry":{"coordinates":[[[-118.23423,33.98667],[-118.23493,33.98764],[-118.23628,33.98763],[-118.23694,33.98665],[-118.23625,33.98568],[-118.2349,33.98569],[-118.23423,33.98667]]],"type":"Polygon"},"properties":{"bbox":{"roads":{"area":5160.72,"pct":12.71},"sidewalks":{"area":648.05,"pct":1.6}},"city_same":1,"id":"hex:2058:17373"},"type":"Feature"},{"geometry":{"coordinates":[[[-118.23426,33.98863],[-118.23493,33.98764],[-118.23628,33.98763],[-118.23697,33.9886],[-118.23649,33.98931],[-118.23477,33.98934],[-118.23426,33.98863]]],"type":"Polygon"},"properties":{"bbox":{"roads":{"area":6715.52,"pct":18.38},"sidewalks":{"area":234.52,"pct":0.64}},"city_same":1,"id":"hex:2058:17374"},"type":"Feature"},{"geometry":{"coordinates":[[[-118.23407,33.97496],[-118.23271,33.97497],[-118.23256,33.97476],[-118.2342,33.97476],[-118.23407,33.97496]]],"type":"Polygon"},"properties":{"bbox":{"roads":{"area":1191.87,"pct":37.9},"sidewalks":{"area":187.21,"pct":5.95}},"city_same":1,"id":"hex:2059:17366"},"type":"Feature"},{"geometry":{"coordinates":[[[-118.23205,33.97596],[-118.23274,33.97693],[-118.23409,33.97691],[-118.23476,33.97593],[-118.23407,33.97496],[-118.23271,33.97497],[-118.23205,33.97596]]],"type":"Polygon"},"properties":{"bbox":{"roads":{"area":5034.39,"pct":12.4},"sidewalks":{"area":123.09,"pct":0.3}},"city_same":1,"id":"hex:2059:17367"},"type":"Feature"},{"geometry":{"coordinates":[[[-118.23208,33.97791],[-118.23277,33.97888],[-118.23412,33.97886],[-118.23478,33.97788],[-118.23409,33.97691],[-118.23274,33.97693],[-118.23208,33.97791]]],"type":"Polygon"},"properties":{"bbox":{"roads":{"area":3717.1,"pct":9.16}},"city_same":1,"id":"hex:2059:17368"},"type":"Feature"},{"geometry":{"coordinates":[[[-118.23211,33.97986],[-118.2328,33.98083],[-118.23415,33.98082],[-118.23481,33.97983],[-118.23412,33.97886],[-118.23277,33.97888],[-118.23211,33.97986]]],"type":"Polygon"},"properties":{"bbox":{"roads":{"area":4654.56,"pct":11.47},"sidewalks":{"area":749.71,"pct":1.85}},"city_same":1,"id":"hex:2059:17369"},"type":"Feature"},{"geometry":{"coordinates":[[[-118.23213,33.98181],[-118.23282,33.98278],[-118.23418,33.98277],[-118.23484,33.98179],[-118.23415,33.98082],[-118.2328,33.98083],[-118.23213,33.98181]]],"type":"Polygon"},"properties":{"bbox":{"roads":{"area":7154.35,"pct":17.62},"sidewalks":{"area":384.64,"pct":0.95}},"city":{"roads":{"area":3700.44,"pct":9.12},"sidewalks":{"area":384.64,"pct":0.95}},"id":"hex:2059:17370"},"type":"Feature"},{"geometry":{"coordinates":[[[-118.23216,33.98377],[-118.23285,33.98474],[-118.23421,33.98472],[-118.23487,33.98374],[-118.23418,33.98277],[-118.23282,33.98278],[-118.23216,33.98377]]],"type":"Polygon"},"properties":{"bbox":{"roads":{"area":4419.24,"pct":10.89}},"city_same":1,"id":"hex:2059:17371"},"type":"Feature"},{"geometry":{"coordinates":[[[-118.23219,33.98572],[-118.23288,33.98669],[-118.23423,33.98667],[-118.2349,33.98569],[-118.23421,33.98472],[-118.23285,33.98474],[-118.23219,33.98572]]],"type":"Polygon"},"properties":{"bbox":{"roads":{"area":5416.24,"pct":13.34},"sidewalks":{"area":506.34,"pct":1.25}},"city_same":1,"id":"hex:2059:17372"},"type":"Feature"},{"geometry":{"coordinates":[[[-118.23222,33.98767],[-118.23291,33.98864],[-118.23426,33.98863],[-118.23493,33.98764],[-118.23423,33.98667],[-118.23288,33.98669],[-118.23222,33.98767]]],"type":"Polygon"},"properties":{"bbox":{"roads":{"area":3806.33,"pct":9.38}},"city_same":1,"id":"hex:2059:17373"},"type":"Feature"},{"geometry":{"coordinates":[[[-118.23291,33.98864],[-118.23426,33.98863],[-118.23477,33.98934],[-118.23315,33.98937],[-118.23293,33.98938],[-118.23246,33.9894],[-118.23239,33.98941],[-118.23291,33.98864]]],"type":"Polygon"},"properties":{"bbox":{"roads":{"area":3185.09,"pct":22.69}},"city_same":1,"id":"hex:2059:17374"},"type":"Feature"},{"geometry":{"coordinates":[[[-118.23271,33.97497],[-118.23205,33.97596],[-118.2307,33.97597],[-118.23001,33.975],[-118.23018,33.97475],[-118.23026,33.97476],[-118.23256,33.97476],[-118.23271,33.97497]]],"type":"Polygon"},"properties":{"bbox":{"roads":{"area":5119.53,"pct":19.47},"sidewalks":{"area":282.94,"pct":1.08}},"city":{"roads":{"area":4009.33,"pct":15.25},"sidewalks":{"area":282.94,"pct":1.08}},"id":"hex:2060:17367"},"type":"Feature"},{"geometry":{"coordinates":[[[-118.23003,33.97695],[-118.23073,33.97792],[-118.23208,33.97791],[-118.23274,33.97693],[-118.23205,33.97596],[-118.2307,33.97597],[-118.23003,33.97695]]],"type":"Polygon"},"properties":{"bbox":{"roads":{"area":5987.74,"pct":14.75},"sidewalks":{"area":34.06,"pct":0.08}},"city":{"roads":{"area":4844.31,"pct":11.93},"sidewalks":{"area":34.06,"pct":0.08}},"id":"hex:2060:17368"},"type":"Feature"},{"geometry":{"coordinates":[[[-118.23006,33.97891],[-118.23075,33.97987],[-118.23211,33.97986],[-118.23277,33.97888],[-118.23208,33.97791],[-118.23073,33.97792],[-118.23006,33.97891]]],"type":"Polygon"},"properties":{"bbox":{"roads":{"area":5104.82,"pct":12.58},"sidewalks":{"area":120.55,"pct":0.3}},"city":{"roads":{"area":4188.29,"pct":10.32},"sidewalks":{"area":120.55,"pct":0.3}},"id":"hex:2060:17369"},"type":"Feature"},{"geometry":{"coordinates":[[[-118.23009,33.98086],[-118.23078,33.98183],[-118.23213,33.98181],[-118.2328,33.98083],[-118.23211,33.97986],[-118.23075,33.97987],[-118.23009,33.98086]]],"type":"Polygon"},"properties":{"bbox":{"roads":{"area":7035.56,"pct":17.33},"sidewalks":{"area":619.05,"pct":1.52}},"city":{"roads":{"area":3986.3,"pct":9.82},"sidewalks":{"area":619.05,"pct":1.52}},"id":"hex:2060:17370"},"type":"Feature"},{"geometry":{"coordinates":[[[-118.23012,33.98281],[-118.23081,33.98378],[-118.23216,33.98377],[-118.23282,33.98278],[-118.23213,33.98181],[-118.23078,33.98183],[-118.23012,33.98281]]],"type":"Polygon"},"properties":{"bbox":{"roads":{"area":5410.93,"pct":13.33}},"city":{"roads":{"area":4667.38,"pct":11.5}},"id":"hex:2060:17371"},"type":"Feature"},{"geometry":{"coordinates":[[[-118.23015,33.98476],[-118.23084,33.98573],[-118.23219,33.98572],[-118.23285,33.98474],[-118.23216,33.98377],[-118.23081,33.98378],[-118.23015,33.98476]]],"type":"Polygon"},"properties":{"bbox":{"roads":{"area":4070.04,"pct":10.03}},"city":{"roads":{"area":3725.35,"pct":9.18}},"id":"hex:2060:17372"},"type":"Feature"},{"geometry":{"coordinates":[[[-118.23018,33.98671],[-118.23087,33.98768],[-118.23222,33.98767],[-118.23288,33.98669],[-118.23219,33.98572],[-118.23084,33.98573],[-118.23018,33.98671]]],"type":"Polygon"},"properties":{"bbox":{"roads":{"area":6273.28,"pct":15.45},"sidewalks":{"area":499.57,"pct":1.23}},"city":{"roads":{"area":5715.61,"pct":14.08},"sidewalks":{"area":499.57,"pct":1.23}},"id":"hex:2060:17373"},"type":"Feature"},{"geometry":{"coordinates":[[[-118.2302,33.98867],[-118.23087,33.98768],[-118.23222,33.98767],[-118.23291,33.98864],[-118.23239,33.98941],[-118.23205,33.98945],[-118.23149,33.98955],[-118.2315,33.98927],[-118.23065,33.98929],[-118.2302,33.98867]]],"type":"Polygon"},"properties":{"bbox":{"roads":{"area":5783.94,"pct":15.75}},"city":{"roads":{"area":5232.38,"pct":14.25}},"id":"hex:2060:17374"},"type":"Feature"},{"geometry":{"coordinates":[[[-118.23023,33.99062],[-118.23037,33.99042],[-118.23037,33.99068],[-118.23028,33.99068],[-118.23023,33.99062]]],"type":"Polygon"},"properties":{"bbox":{"roads":{"area":211.21,"pct":100}},"id":"hex:2060:17375"},"type":"Feature"},{"geometry":{"coordinates":[[[-118.23001,33.975],[-118.22865,33.97501],[-118.22832,33.97454],[-118.23018,33.97475],[-118.23001,33.975]]],"type":"Polygon"},"properties":{"bbox":{"roads":{"area":1808.9,"pct":30.63}},"city_same":1,"id":"hex:2061:17366"},"type":"Feature"},{"geometry":{"coordinates":[[[-118.22799,33.976],[-118.22868,33.97697],[-118.23003,33.97695],[-118.2307,33.97597],[-118.23001,33.975],[-118.22865,33.97501],[-118.22799,33.976]]],"type":"Polygon"},"properties":{"bbox":{"roads":{"area":7317.37,"pct":18.03},"sidewalks":{"area":10.51,"pct":0.03}},"city":{"roads":{"area":5289.13,"pct":13.03},"sidewalks":{"area":10.51,"pct":0.03}},"id":"hex:2061:17367"},"type":"Feature"},{"geometry":{"coordinates":[[[-118.22802,33.97795],[-118.22871,33.97892],[-118.23006,33.97891],[-118.23073,33.97792],[-118.23003,33.97695],[-118.22868,33.97697],[-118.22802,33.97795]]],"type":"Polygon"},"properties":{"bbox":{"roads":{"area":5083.53,"pct":12.52},"sidewalks":{"area":11.48,"pct":0.03}},"city":{"roads":{"area":2810.03,"pct":6.92},"sidewalks":{"area":11.48,"pct":0.03}},"id":"hex:2061:17368"},"type":"Feature"},{"geometry":{"coordinates":[[[-118.22805,33.9799],[-118.22874,33.98087],[-118.23009,33.98086],[-118.23075,33.97987],[-118.23006,33.97891],[-118.22871,33.97892],[-118.22805,33.9799]]],"type":"Polygon"},"properties":{"bbox":{"roads":{"area":5761.2,"pct":14.19}},"city":{"roads":{"area":3546.84,"pct":8.74}},"id":"hex:2061:17369"},"type":"Feature"},{"geometry":{"coordinates":[[[-118.22808,33.98185],[-118.22877,33.98282],[-118.23012,33.98281],[-118.23078,33.98183],[-118.23009,33.98086],[-118.22874,33.98087],[-118.22808,33.98185]]],"type":"Polygon"},"properties":{"bbox":{"roads":{"area":9928.3,"pct":24.46},"sidewalks":{"area":394.6,"pct":0.97}},"city":{"roads":{"area":4289.51,"pct":10.57},"sidewalks":{"area":394.6,"pct":0.97}},"id":"hex:2061:17370"},"type":"Feature"},{"geometry":{"coordinates":[[[-118.2281,33.98381],[-118.22879,33.98478],[-118.23015,33.98476],[-118.23081,33.98378],[-118.23012,33.98281],[-118.22877,33.98282],[-118.2281,33.98381]]],"type":"Polygon"},"properties":{"bbox":{"roads":{"area":6510.7,"pct":16.04}},"city":{"roads":{"area":4311.3,"pct":10.62}},"id":"hex:2061:17371"},"type":"Feature"},{"geometry":{"coordinates":[[[-118.22813,33.98576],[-118.22882,33.98673],[-118.23018,33.98671],[-118.23084,33.98573],[-118.23015,33.98476],[-118.22879,33.98478],[-118.22813,33.98576]]],"type":"Polygon"},"properties":{"bbox":{"roads":{"area":8351.91,"pct":20.57},"sidewalks":{"area":108.11,"pct":0.27}},"city":{"roads":{"area":6621.94,"pct":16.31},"sidewalks":{"area":108.11,"pct":0.27}},"id":"hex:2061:17372"},"type":"Feature"},{"geometry":{"coordinates":[[[-118.22816,33.98771],[-118.22885,33.98868],[-118.2302,33.98867],[-118.23087,33.98768],[-118.23018,33.98671],[-118.22882,33.98673],[-118.22816,33.98771]]],"type":"Polygon"},"properties":{"bbox":{"roads":{"area":7155.53,"pct":17.63}},"city":{"roads":{"area":4519.79,"pct":11.13}},"id":"hex:2061:17373"},"type":"Feature"},{"geometry":{"coordinates":[[[-118.23023,33.99062],[-118.22888,33.99063],[-118.22819,33.98966],[-118.22885,33.98868],[-118.2302,33.98867],[-118.23065,33.98929],[-118.23037,33.9893],[-118.23037,33.99042],[-118.23023,33.99062]]],"type":"Polygon"},"properties":{"bbox":{"roads":{"area":8719.89,"pct":23.51}},"city":{"roads":{"area":6227.75,"pct":16.79}},"id":"hex:2061:17374"},"type":"Feature"},{"geometry":{"coordinates":[[[-118.22891,33.99258],[-118.22822,33.99162],[-118.22888,33.99063],[-118.23023,33.99062],[-118.23028,33.99068],[-118.22971,33.99068],[-118.22969,33.99258],[-118.22891,33.99258]]],"type":"Polygon"},"properties":{"bbox":{"roads":{"area":2108.17,"pct":9.06}},"city":{"roads":{"area":2086.8,"pct":8.97}},"id":"hex:2061:17375"},"type":"Feature"},{"geometry":{"coordinates":[[[-118.22893,33.99454],[-118.22824,33.99357],[-118.22891,33.99258],[-118.22969,33.99258],[-118.22968,33.99453],[-118.22893,33.99454]]],"type":"Polygon"},"properties":{"bbox":{"roads":{"area":1814.36,"pct":8.2}},"city_same":1,"id":"hex:2061:17376"},"type":"Feature"},{"geometry":{"coordinates":[[[-118.22827,33.99552],[-118.22893,33.99454],[-118.22968,33.99453],[-118.22968,33.99571],[-118.22841,33.99572],[-118.22827,33.99552]]],"type":"Polygon"},"properties":{"bbox":{"roads":{"area":1122.05,"pct":8.3},"sidewalks":{"area":183.51,"pct":1.36}},"city_same":1,"id":"hex:2061:17377"},"type":"Feature"},{"geometry":{"coordinates":[[[-118.22865,33.97501],[-118.22799,33.976],[-118.22664,33.97601],[-118.22595,33.97504],[-118.22642,33.97434],[-118.22832,33.97454],[-118.22865,33.97501]]],"type":"Polygon"},"properties":{"bbox":{"roads":{"area":5236.58,"pct":15.29}},"city_same":1,"id":"hex:2062:17367"},"type":"Feature"},{"geometry":{"coordinates":[[[-118.22598,33.97699],[-118.22667,33.97796],[-118.22802,33.97795],[-118.22868,33.97697],[-118.22799,33.976],[-118.22664,33.97601],[-118.22598,33.97699]]],"type":"Polygon"},"properties":{"bbox":{"roads":{"area":5878.46,"pct":14.48}},"city_same":1,"id":"hex:2062:17368"},"type":"Feature"},{"geometry":{"coordinates":[[[-118.226,33.97895],[-118.22669,33.97992],[-118.22805,33.9799],[-118.22871,33.97892],[-118.22802,33.97795],[-118.22667,33.97796],[-118.226,33.97895]]],"type":"Polygon"},"properties":{"bbox":{"roads":{"area":5193.96,"pct":12.79},"sidewalks":{"area":58.64,"pct":0.14}},"city_same":1,"id":"hex:2062:17369"},"type":"Feature"},{"geometry":{"coordinates":[[[-118.22603,33.9809],[-118.22672,33.98187],[-118.22808,33.98185],[-118.22874,33.98087],[-118.22805,33.9799],[-118.22669,33.97992],[-118.22603,33.9809]]],"type":"Polygon"},"properties":{"bbox":{"roads":{"area":6293.61,"pct":15.5},"sidewalks":{"area":204.65,"pct":0.5}},"city":{"roads":{"area":4036.96,"pct":9.94},"sidewalks":{"area":204.65,"pct":0.5}},"id":"hex:2062:17370"},"type":"Feature"},{"geometry":{"coordinates":[[[-118.22606,33.98285],[-118.22675,33.98382],[-118.2281,33.98381],[-118.22877,33.98282],[-118.22808,33.98185],[-118.22672,33.98187],[-118.22606,33.98285]]],"type":"Polygon"},"properties":{"bbox":{"roads":{"area":5906.36,"pct":14.55}},"city_same":1,"id":"hex:2062:17371"},"type":"Feature"},{"geometry":{"coordinates":[[[-118.22609,33.9848],[-118.22678,33.98577],[-118.22813,33.98576],[-118.22879,33.98478],[-118.2281,33.98381],[-118.22675,33.98382],[-118.22609,33.9848]]],"type":"Polygon"},"properties":{"bbox":{"roads":{"area":5749.7,"pct":14.16},"sidewalks":{"area":11.98,"pct":0.03}},"city_same":1,"id":"hex:2062:17372"},"type":"Feature"},{"geometry":{"coordinates":[[[-118.22612,33.98675],[-118.22681,33.98772],[-118.22816,33.98771],[-118.22882,33.98673],[-118.22813,33.98576],[-118.22678,33.98577],[-118.22612,33.98675]]],"type":"Polygon"},"properties":{"bbox":{"roads":{"area":5968.42,"pct":14.7},"sidewalks":{"area":10.64,"pct":0.03}},"city_same":1,"id":"hex:2062:17373"},"type":"Feature"},{"geometry":{"coordinates":[[[-118.22614,33.98871],[-118.22683,33.98968],[-118.22819,33.98966],[-118.22885,33.98868],[-118.22816,33.98771],[-118.22681,33.98772],[-118.22614,33.98871]]],"type":"Polygon"},"properties":{"bbox":{"roads":{"area":8192.5,"pct":20.18},"sidewalks":{"area":18.56,"pct":0.05}},"city_same":1,"id":"hex:2062:17374"},"type":"Feature"},{"geometry":{"coordinates":[[[-118.22617,33.99066],[-118.22686,33.99163],[-118.22822,33.99162],[-118.22888,33.99063],[-118.22819,33.98966],[-118.22683,33.98968],[-118.22617,33.99066]]],"type":"Polygon"},"properties":{"bbox":{"roads":{"area":5310.88,"pct":13.08}},"city_same":1,"id":"hex:2062:17375"},"type":"Feature"},{"geometry":{"coordinates":[[[-118.2262,33.99261],[-118.22689,33.99358],[-118.22824,33.99357],[-118.22891,33.99258],[-118.22822,33.99162],[-118.22686,33.99163],[-118.2262,33.99261]]],"type":"Polygon"},"properties":{"bbox":{"roads":{"area":5584.68,"pct":13.76}},"city_same":1,"id":"hex:2062:17376"},"type":"Feature"},{"geometry":{"coordinates":[[[-118.22623,33.99456],[-118.22692,33.99553],[-118.22827,33.99552],[-118.22893,33.99454],[-118.22824,33.99357],[-118.22689,33.99358],[-118.22623,33.99456]]],"type":"Polygon"},"properties":{"bbox":{"roads":{"area":4405.05,"pct":10.85}},"city_same":1,"id":"hex:2062:17377"},"type":"Feature"},{"geometry":{"coordinates":[[[-118.22692,33.99553],[-118.22827,33.99552],[-118.22841,33.99572],[-118.22679,33.99573],[-118.22692,33.99553]]],"type":"Polygon"},"properties":{"bbox":{"roads":{"area":845.92,"pct":28.13},"sidewalks":{"area":176.04,"pct":5.85}},"city_same":1,"id":"hex:2062:17378"},"type":"Feature"},{"geometry":{"coordinates":[[[-118.22595,33.97504],[-118.2246,33.97506],[-118.2239,33.97409],[-118.22392,33.97406],[-118.22642,33.97434],[-118.22595,33.97504]]],"type":"Polygon"},"properties":{"bbox":{"roads":{"area":4366.09,"pct":25.93},"sidewalks":{"area":17.05,"pct":0.1}},"city_same":1,"id":"hex:2063:17366"},"type":"Feature"},{"geometry":{"coordinates":[[[-118.22393,33.97604],[-118.22462,33.97701],[-118.22598,33.97699],[-118.22664,33.97601],[-118.22595,33.97504],[-118.2246,33.97506],[-118.22393,33.97604]]],"type":"Polygon"},"properties":{"bbox":{"roads":{"area":6706.37,"pct":16.52}},"city_same":1,"id":"hex:2063:17367"},"type":"Feature"},{"geometry":{"coordinates":[[[-118.22396,33.97799],[-118.22465,33.97896],[-118.226,33.97895],[-118.22667,33.97796],[-118.22598,33.97699],[-118.22462,33.97701],[-118.22396,33.97799]]],"type":"Polygon"},"properties":{"bbox":{"roads":{"area":6872.7,"pct":16.93}},"city_same":1,"id":"hex:2063:17368"},"type":"Feature"},{"geometry":{"coordinates":[[[-118.22399,33.97994],[-118.22468,33.98091],[-118.22603,33.9809],[-118.22669,33.97992],[-118.226,33.97895],[-118.22465,33.97896],[-118.22399,33.97994]]],"type":"Polygon"},"properties":{"bbox":{"parking":{"area":1120.85,"pct":2.76},"roads":{"area":6650.43,"pct":16.38},"sidewalks":{"area":514.81,"pct":1.27}},"city_same":1,"id":"hex:2063:17369"},"type":"Feature"},{"geometry":{"coordinates":[[[-118.22402,33.98189],[-118.22471,33.98286],[-118.22606,33.98285],[-118.22672,33.98187],[-118.22603,33.9809],[-118.22468,33.98091],[-118.22402,33.98189]]],"type":"Polygon"},"properties":{"bbox":{"parking":{"area":574.52,"pct":1.42},"roads":{"area":8585.22,"pct":21.15},"sidewalks":{"area":272.92,"pct":0.67}},"city":{"parking":{"area":574.52,"pct":1.42},"roads":{"area":5796.7,"pct":14.28},"sidewalks":{"area":272.92,"pct":0.67}},"id":"hex:2063:17370"},"type":"Feature"},{"geometry":{"coordinates":[[[-118.22404,33.98385],[-118.22473,33.98482],[-118.22609,33.9848],[-118.22675,33.98382],[-118.22606,33.98285],[-118.22471,33.98286],[-118.22404,33.98385]]],"type":"Polygon"},"properties":{"bbox":{"roads":{"area":7481.36,"pct":18.43}},"city_same":1,"id":"hex:2063:17371"},"type":"Feature"},{"geometry":{"coordinates":[[[-118.22407,33.9858],[-118.22476,33.98677],[-118.22612,33.98675],[-118.22678,33.98577],[-118.22609,33.9848],[-118.22473,33.98482],[-118.22407,33.9858]]],"type":"Polygon"},"properties":{"bbox":{"roads":{"area":11103.82,"pct":27.35}},"city_same":1,"id":"hex:2063:17372"},"type":"Feature"},{"geometry":{"coordinates":[[[-118.2241,33.98775],[-118.22479,33.98872],[-118.22614,33.98871],[-118.22681,33.98772],[-118.22612,33.98675],[-118.22476,33.98677],[-118.2241,33.98775]]],"type":"Polygon"},"properties":{"bbox":{"roads":{"area":10134.86,"pct":24.97}},"city_same":1,"id":"hex:2063:17373"},"type":"Feature"},{"geometry":{"coordinates":[[[-118.22413,33.9897],[-118.22482,33.99067],[-118.22617,33.99066],[-118.22683,33.98968],[-118.22614,33.98871],[-118.22479,33.98872],[-118.22413,33.9897]]],"type":"Polygon"},"properties":{"bbox":{"parking":{"area":1104.35,"pct":2.72},"roads":{"area":11806.69,"pct":29.08},"sidewalks":{"area":317.54,"pct":0.78}},"city_same":1,"id":"hex:2063:17374"},"type":"Feature"},{"geometry":{"coordinates":[[[-118.22416,33.99166],[-118.22485,33.99263],[-118.2262,33.99261],[-118.22686,33.99163],[-118.22617,33.99066],[-118.22482,33.99067],[-118.22416,33.99166]]],"type":"Polygon"},"properties":{"bbox":{"roads":{"area":8764.25,"pct":21.59},"sidewalks":{"area":555.98,"pct":1.37}},"city_same":1,"id":"hex:2063:17375"},"type":"Feature"},{"geometry":{"coordinates":[[[-118.22418,33.99361],[-118.22488,33.99458],[-118.22623,33.99456],[-118.22689,33.99358],[-118.2262,33.99261],[-118.22485,33.99263],[-118.22418,33.99361]]],"type":"Polygon"},"properties":{"bbox":{"roads":{"area":7694.56,"pct":18.95},"sidewalks":{"area":558.18,"pct":1.38}},"city_same":1,"id":"hex:2063:17376"},"type":"Feature"},{"geometry":{"coordinates":[[[-118.22421,33.99556],[-118.22488,33.99458],[-118.22623,33.99456],[-118.22692,33.99553],[-118.22679,33.99573],[-118.22528,33.99574],[-118.22528,33.99606],[-118.22458,33.99607],[-118.22421,33.99556]]],"type":"Polygon"},"properties":{"bbox":{"roads":{"area":6556.04,"pct":23.4},"sidewalks":{"area":502.85,"pct":1.79}},"city_same":1,"id":"hex:2063:17377"},"type":"Feature"},{"geometry":{"coordinates":[[[-118.2239,33.97409],[-118.22255,33.9741],[-118.22241,33.97389],[-118.22392,33.97406],[-118.2239,33.97409]]],"type":"Polygon"},"properties":{"bbox":{"roads":{"area":1269.57,"pct":77.77}},"city_same":1,"id":"hex:2064:17366"},"type":"Feature"},{"geometry":{"coordinates":[[[-118.22189,33.97508],[-118.22258,33.97605],[-118.22393,33.97604],[-118.2246,33.97506],[-118.2239,33.97409],[-118.22255,33.9741],[-118.22189,33.97508]]],"type":"Polygon"},"properties":{"bbox":{"roads":{"area":5163.46,"pct":12.72}},"city_same":1,"id":"hex:2064:17367"},"type":"Feature"},{"geometry":{"coordinates":[[[-118.22192,33.97703],[-118.22261,33.978],[-118.22396,33.97799],[-118.22462,33.97701],[-118.22393,33.97604],[-118.22258,33.97605],[-118.22192,33.97703]]],"type":"Polygon"},"properties":{"bbox":{"roads":{"area":6733.26,"pct":16.59}},"city_same":1,"id":"hex:2064:17368"},"type":"Feature"},{"geometry":{"coordinates":[[[-118.22195,33.97899],[-118.22264,33.97996],[-118.22399,33.97994],[-118.22465,33.97896],[-118.22396,33.97799],[-118.22261,33.978],[-118.22195,33.97899]]],"type":"Polygon"},"properties":{"bbox":{"roads":{"area":6405.15,"pct":15.78}},"city_same":1,"id":"hex:2064:17369"},"type":"Feature"},{"geometry":{"coordinates":[[[-118.22197,33.98094],[-118.22266,33.98191],[-118.22402,33.98189],[-118.22468,33.98091],[-118.22399,33.97994],[-118.22264,33.97996],[-118.22197,33.98094]]],"type":"Polygon"},"properties":{"bbox":{"roads":{"area":7898.08,"pct":19.46}},"city":{"roads":{"area":5653.76,"pct":13.93}},"id":"hex:2064:17370"},"type":"Feature"},{"geometry":{"coordinates":[[[-118.222,33.98289],[-118.22269,33.98386],[-118.22404,33.98385],[-118.22471,33.98286],[-118.22402,33.98189],[-118.22266,33.98191],[-118.222,33.98289]]],"type":"Polygon"},"properties":{"bbox":{"roads":{"area":6487.87,"pct":15.98}},"city_same":1,"id":"hex:2064:17371"},"type":"Feature"},{"geometry":{"coordinates":[[[-118.22203,33.98484],[-118.22272,33.98581],[-118.22407,33.9858],[-118.22473,33.98482],[-118.22404,33.98385],[-118.22269,33.98386],[-118.22203,33.98484]]],"type":"Polygon"},"properties":{"bbox":{"roads":{"area":8949.2,"pct":22.05}},"city_same":1,"id":"hex:2064:17372"},"type":"Feature"},{"geometry":{"coordinates":[[[-118.22206,33.9868],[-118.22275,33.98776],[-118.2241,33.98775],[-118.22476,33.98677],[-118.22407,33.9858],[-118.22272,33.98581],[-118.22206,33.9868]]],"type":"Polygon"},"properties":{"bbox":{"roads":{"area":5619.09,"pct":13.84}},"city_same":1,"id":"hex:2064:17373"},"type":"Feature"},{"geometry":{"coordinates":[[[-118.22208,33.98875],[-118.22278,33.98972],[-118.22413,33.9897],[-118.22479,33.98872],[-118.2241,33.98775],[-118.22275,33.98776],[-118.22208,33.98875]]],"type":"Polygon"},"properties":{"bbox":{"parking":{"area":513.26,"pct":1.26},"roads":{"area":7858.52,"pct":19.36}},"city_same":1,"id":"hex:2064:17374"},"type":"Feature"},{"geometry":{"coordinates":[[[-118.22211,33.9907],[-118.22278,33.98972],[-118.22413,33.9897],[-118.22482,33.99067],[-118.22416,33.99166],[-118.22367,33.99166],[-118.22367,33.99156],[-118.22272,33.99156],[-118.22211,33.9907]]],"type":"Polygon"},"properties":{"bbox":{"roads":{"area":4682.42,"pct":11.82},"sidewalks":{"area":572.02,"pct":1.44}},"city_same":1,"id":"hex:2064:17375"},"type":"Feature"},{"geometry":{"coordinates":[[[-118.22416,33.99166],[-118.22485,33.99263],[-118.22418,33.99361],[-118.22366,33.99361],[-118.22366,33.99209],[-118.22367,33.99166],[-118.22416,33.99166]]],"type":"Polygon"},"properties":{"bbox":{"roads":{"area":1536.29,"pct":9.08}},"city_same":1,"id":"hex:2064:17376"},"type":"Feature"},{"geometry":{"coordinates":[[[-118.22418,33.99361],[-118.22488,33.99458],[-118.22421,33.99556],[-118.22366,33.99557],[-118.22366,33.99521],[-118.22366,33.9947],[-118.22366,33.99361],[-118.22418,33.99361]]],"type":"Polygon"},"properties":{"bbox":{"roads":{"area":1631.09,"pct":9.27}},"city_same":1,"id":"hex:2064:17377"},"type":"Feature"},{"geometry":{"coordinates":[[[-118.22421,33.99556],[-118.22458,33.99607],[-118.22384,33.99608],[-118.22384,33.99626],[-118.22365,33.99626],[-118.22366,33.99557],[-118.22421,33.99556]]],"type":"Polygon"},"properties":{"bbox":{"roads":{"area":309.46,"pct":7.27}},"city_same":1,"id":"hex:2064:17378"},"type":"Feature"},{"geometry":{"coordinates":[[[-118.22255,33.9741],[-118.22189,33.97508],[-118.22054,33.9751],[-118.21985,33.97413],[-118.22017,33.97365],[-118.22241,33.97389],[-118.22255,33.9741]]],"type":"Polygon"},"properties":{"bbox":{"roads":{"area":4908.84,"pct":16.92}},"city_same":1,"id":"hex:2065:17366"},"type":"Feature"},{"geometry":{"coordinates":[[[-118.21987,33.97608],[-118.22056,33.97705],[-118.22192,33.97703],[-118.22258,33.97605],[-118.22189,33.97508],[-118.22054,33.9751],[-118.21987,33.97608]]],"type":"Polygon"},"properties":{"bbox":{"roads":{"area":4045.59,"pct":9.97}},"city_same":1,"id":"hex:2065:17367"},"type":"Feature"},{"geometry":{"coordinates":[[[-118.2199,33.97803],[-118.22059,33.979],[-118.22195,33.97899],[-118.22261,33.978],[-118.22192,33.97703],[-118.22056,33.97705],[-118.2199,33.97803]]],"type":"Polygon"},"properties":{"bbox":{"roads":{"area":2765.73,"pct":6.81}},"city_same":1,"id":"hex:2065:17368"},"type":"Feature"},{"geometry":{"coordinates":[[[-118.21993,33.97998],[-118.22062,33.98095],[-118.22197,33.98094],[-118.22264,33.97996],[-118.22195,33.97899],[-118.22059,33.979],[-118.21993,33.97998]]],"type":"Polygon"},"properties":{"bbox":{"roads":{"area":3628.61,"pct":8.94}},"city_same":1,"id":"hex:2065:17369"},"type":"Feature"},{"geometry":{"coordinates":[[[-118.21996,33.98193],[-118.22065,33.9829],[-118.222,33.98289],[-118.22266,33.98191],[-118.22197,33.98094],[-118.22062,33.98095],[-118.21996,33.98193]]],"type":"Polygon"},"properties":{"bbox":{"roads":{"area":6226.38,"pct":15.34}},"city":{"roads":{"area":3317.52,"pct":8.17}},"id":"hex:2065:17370"},"type":"Feature"},{"geometry":{"coordinates":[[[-118.21999,33.98389],[-118.22068,33.98486],[-118.22203,33.98484],[-118.22269,33.98386],[-118.222,33.98289],[-118.22065,33.9829],[-118.21999,33.98389]]],"type":"Polygon"},"properties":{"bbox":{"roads":{"area":4821.68,"pct":11.88}},"city_same":1,"id":"hex:2065:17371"},"type":"Feature"},{"geometry":{"coordinates":[[[-118.22001,33.98584],[-118.2207,33.98681],[-118.22206,33.9868],[-118.22272,33.98581],[-118.22203,33.98484],[-118.22068,33.98486],[-118.22001,33.98584]]],"type":"Polygon"},"properties":{"bbox":{"roads":{"area":5695.36,"pct":14.03}},"city_same":1,"id":"hex:2065:17372"},"type":"Feature"},{"geometry":{"coordinates":[[[-118.22004,33.98779],[-118.22073,33.98876],[-118.22208,33.98875],[-118.22275,33.98776],[-118.22206,33.9868],[-118.2207,33.98681],[-118.22004,33.98779]]],"type":"Polygon"},"properties":{"bbox":{"roads":{"area":4316.71,"pct":10.63}},"city_same":1,"id":"hex:2065:17373"},"type":"Feature"},{"geometry":{"coordinates":[[[-118.22007,33.98974],[-118.22076,33.99071],[-118.22211,33.9907],[-118.22278,33.98972],[-118.22208,33.98875],[-118.22073,33.98876],[-118.22007,33.98974]]],"type":"Polygon"},"properties":{"bbox":{"roads":{"area":6878.07,"pct":16.94},"sidewalks":{"area":580.78,"pct":1.43}},"city_same":1,"id":"hex:2065:17374"},"type":"Feature"},{"geometry":{"coordinates":[[[-118.22076,33.99071],[-118.22211,33.9907],[-118.22272,33.99156],[-118.22019,33.99156],[-118.22076,33.99071]]],"type":"Polygon"},"properties":{"bbox":{"roads":{"area":1639.81,"pct":9.66}},"city_same":1,"id":"hex:2065:17375"},"type":"Feature"},{"geometry":{"coordinates":[[[-118.21985,33.97413],[-118.21849,33.97414],[-118.21797,33.97341],[-118.22017,33.97365],[-118.21985,33.97413]]],"type":"Polygon"},"properties":{"bbox":{"roads":{"area":3947.18,"pct":36.39}},"city":{"roads":{"area":3065.44,"pct":28.26}},"id":"hex:2066:17366"},"type":"Feature"},{"geometry":{"coordinates":[[[-118.21783,33.97512],[-118.21852,33.97609],[-118.21987,33.97608],[-118.22054,33.9751],[-118.21985,33.97413],[-118.21849,33.97414],[-118.21783,33.97512]]],"type":"Polygon"},"properties":{"bbox":{"roads":{"area":4811,"pct":11.85}},"city":{"roads":{"area":1734.37,"pct":4.27}},"id":"hex:2066:17367"},"type":"Feature"},{"geometry":{"coordinates":[[[-118.21786,33.97707],[-118.21855,33.97804],[-118.2199,33.97803],[-118.22056,33.97705],[-118.21987,33.97608],[-118.21852,33.97609],[-118.21786,33.97707]]],"type":"Polygon"},"properties":{"bbox":{"roads":{"area":5725.39,"pct":14.1}},"city":{"roads":{"area":2652.8,"pct":6.53}},"id":"hex:2066:17368"},"type":"Feature"},{"geometry":{"coordinates":[[[-118.21789,33.97903],[-118.21858,33.98],[-118.21993,33.97998],[-118.22059,33.979],[-118.2199,33.97803],[-118.21855,33.97804],[-118.21789,33.97903]]],"type":"Polygon"},"properties":{"bbox":{"roads":{"area":5176.04,"pct":12.75}},"city":{"roads":{"area":1972.95,"pct":4.86}},"id":"hex:2066:17369"},"type":"Feature"},{"geometry":{"coordinates":[[[-118.21791,33.98098],[-118.2186,33.98195],[-118.21996,33.98193],[-118.22062,33.98095],[-118.21993,33.97998],[-118.21858,33.98],[-118.21791,33.98098]]],"type":"Polygon"},"properties":{"bbox":{"roads":{"area":7725.39,"pct":19.03}},"city":{"roads":{"area":1666.31,"pct":4.1}},"id":"hex:2066:17370"},"type":"Feature"},{"geometry":{"coordinates":[[[-118.21794,33.98293],[-118.21863,33.9839],[-118.21999,33.98389],[-118.22065,33.9829],[-118.21996,33.98193],[-118.2186,33.98195],[-118.21794,33.98293]]],"type":"Polygon"},"properties":{"bbox":{"roads":{"area":6030.76,"pct":14.86}},"city":{"roads":{"area":2946.7,"pct":7.26}},"id":"hex:2066:17371"},"type":"Feature"},{"geometry":{"coordinates":[[[-118.21797,33.98488],[-118.21866,33.98585],[-118.22001,33.98584],[-118.22068,33.98486],[-118.21999,33.98389],[-118.21863,33.9839],[-118.21797,33.98488]]],"type":"Polygon"},"properties":{"bbox":{"roads":{"area":8612.13,"pct":21.21}},"city":{"roads":{"area":5395.63,"pct":13.29}},"id":"hex:2066:17372"},"type":"Feature"},{"geometry":{"coordinates":[[[-118.218,33.98684],[-118.21869,33.98781],[-118.22004,33.98779],[-118.2207,33.98681],[-118.22001,33.98584],[-118.21866,33.98585],[-118.218,33.98684]]],"type":"Polygon"},"properties":{"bbox":{"roads":{"area":4727.71,"pct":11.65}},"city":{"roads":{"area":1474.63,"pct":3.63}},"id":"hex:2066:17373"},"type":"Feature"},{"geometry":{"coordinates":[[[-118.21803,33.98879],[-118.21872,33.98976],[-118.22007,33.98974],[-118.22073,33.98876],[-118.22004,33.98779],[-118.21869,33.98781],[-118.21803,33.98879]]],"type":"Polygon"},"properties":{"bbox":{"roads":{"area":8589.36,"pct":21.16}},"city":{"roads":{"area":5442.08,"pct":13.41}},"id":"hex:2066:17374"},"type":"Feature"},{"geometry":{"coordinates":[[[-118.21805,33.99074],[-118.21872,33.98976],[-118.22007,33.98974],[-118.22076,33.99071],[-118.22019,33.99156],[-118.2194,33.99156],[-118.21864,33.99156],[-118.21805,33.99074]]],"type":"Polygon"},"properties":{"bbox":{"roads":{"area":6949.41,"pct":18.08},"sidewalks":{"area":664.63,"pct":1.73}},"city":{"roads":{"area":3914.98,"pct":10.18},"sidewalks":{"area":664.63,"pct":1.73}},"id":"hex:2066:17375"},"type":"Feature"},{"geometry":{"coordinates":[[[-118.21645,33.97318],[-118.21587,33.97237],[-118.21763,33.97256],[-118.21751,33.97317],[-118.21645,33.97318]]],"type":"Polygon"},"properties":{"bbox":{"roads":{"area":641.75,"pct":6.35}},"city_same":1,"id":"hex:2067:17365"},"type":"Feature"},{"geometry":{"coordinates":[[[-118.21849,33.97414],[-118.21783,33.97512],[-118.21648,33.97514],[-118.21579,33.97417],[-118.21645,33.97318],[-118.21751,33.97317],[-118.21747,33.97335],[-118.21797,33.97341],[-118.21849,33.97414]]],"type":"Polygon"},"properties":{"bbox":{"roads":{"area":8267.64,"pct":20.8}},"city_same":1,"id":"hex:2067:17366"},"type":"Feature"},{"geometry":{"coordinates":[[[-118.21582,33.97612],[-118.21651,33.97709],[-118.21786,33.97707],[-118.21852,33.97609],[-118.21783,33.97512],[-118.21648,33.97514],[-118.21582,33.97612]]],"type":"Polygon"},"properties":{"bbox":{"roads":{"area":5407.91,"pct":13.32},"sidewalks":{"area":17.25,"pct":0.04}},"city_same":1,"id":"hex:2067:17367"},"type":"Feature"},{"geometry":{"coordinates":[[[-118.21584,33.97807],[-118.21653,33.97904],[-118.21789,33.97903],[-118.21855,33.97804],[-118.21786,33.97707],[-118.21651,33.97709],[-118.21584,33.97807]]],"type":"Polygon"},"properties":{"bbox":{"roads":{"area":2790.42,"pct":6.87}},"city_same":1,"id":"hex:2067:17368"},"type":"Feature"},{"geometry":{"coordinates":[[[-118.21587,33.98002],[-118.21656,33.98099],[-118.21791,33.98098],[-118.21858,33.98],[-118.21789,33.97903],[-118.21653,33.97904],[-118.21587,33.98002]]],"type":"Polygon"},"properties":{"bbox":{"roads":{"area":2861.81,"pct":7.05},"sidewalks":{"area":10.43,"pct":0.03}},"city_same":1,"id":"hex:2067:17369"},"type":"Feature"},{"geometry":{"coordinates":[[[-118.2159,33.98198],[-118.21659,33.98294],[-118.21794,33.98293],[-118.2186,33.98195],[-118.21791,33.98098],[-118.21656,33.98099],[-118.2159,33.98198]]],"type":"Polygon"},"properties":{"bbox":{"roads":{"area":6159.55,"pct":15.17}},"city":{"roads":{"area":3862.73,"pct":9.52}},"id":"hex:2067:17370"},"type":"Feature"},{"geometry":{"coordinates":[[[-118.21593,33.98393],[-118.21662,33.9849],[-118.21797,33.98488],[-118.21863,33.9839],[-118.21794,33.98293],[-118.21659,33.98294],[-118.21593,33.98393]]],"type":"Polygon"},"properties":{"bbox":{"roads":{"area":6230.33,"pct":15.35}},"city_same":1,"id":"hex:2067:17371"},"type":"Feature"},{"geometry":{"coordinates":[[[-118.21595,33.98588],[-118.21664,33.98685],[-118.218,33.98684],[-118.21866,33.98585],[-118.21797,33.98488],[-118.21662,33.9849],[-118.21595,33.98588]]],"type":"Polygon"},"properties":{"bbox":{"roads":{"area":3848.04,"pct":9.48}},"city_same":1,"id":"hex:2067:17372"},"type":"Feature"},{"geometry":{"coordinates":[[[-118.21598,33.98783],[-118.21667,33.9888],[-118.21803,33.98879],[-118.21869,33.98781],[-118.218,33.98684],[-118.21664,33.98685],[-118.21598,33.98783]]],"type":"Polygon"},"properties":{"bbox":{"roads":{"area":1380.87,"pct":3.4}},"city_same":1,"id":"hex:2067:17373"},"type":"Feature"},{"geometry":{"coordinates":[[[-118.21601,33.98978],[-118.2167,33.99075],[-118.21805,33.99074],[-118.21872,33.98976],[-118.21803,33.98879],[-118.21667,33.9888],[-118.21601,33.98978]]],"type":"Polygon"},"properties":{"bbox":{"roads":{"area":6524.21,"pct":16.07}},"city_same":1,"id":"hex:2067:17374"},"type":"Feature"},{"geometry":{"coordinates":[[[-118.2167,33.99075],[-118.21805,33.99074],[-118.21864,33.99156],[-118.21616,33.99156],[-118.2167,33.99075]]],"type":"Polygon"},"properties":{"bbox":{"roads":{"area":869.38,"pct":5.46}},"city_same":1,"id":"hex:2067:17375"},"type":"Feature"},{"geometry":{"coordinates":[[[-118.21645,33.97318],[-118.21579,33.97417],[-118.21443,33.97418],[-118.21374,33.97321],[-118.21441,33.97223],[-118.21446,33.97223],[-118.21587,33.97237],[-118.21645,33.97318]]],"type":"Polygon"},"properties":{"bbox":{"roads":{"area":5891.84,"pct":14.9}},"city_same":1,"id":"hex:2068:17366"},"type":"Feature"},{"geometry":{"coordinates":[[[-118.21377,33.97516],[-118.21446,33.97613],[-118.21582,33.97612],[-118.21648,33.97514],[-118.21579,33.97417],[-118.21443,33.97418],[-118.21377,33.97516]]],"type":"Polygon"},"properties":{"bbox":{"roads":{"area":2910.82,"pct":7.17}},"city_same":1,"id":"hex:2068:17367"},"type":"Feature"},{"geometry":{"coordinates":[[[-118.2138,33.97711],[-118.21449,33.97808],[-118.21584,33.97807],[-118.21651,33.97709],[-118.21582,33.97612],[-118.21446,33.97613],[-118.2138,33.97711]]],"type":"Polygon"},"properties":{"bbox":{"roads":{"area":4208.14,"pct":10.37}},"city_same":1,"id":"hex:2068:17368"},"type":"Feature"},{"geometry":{"coordinates":[[[-118.21383,33.97907],[-118.21452,33.98004],[-118.21587,33.98002],[-118.21653,33.97904],[-118.21584,33.97807],[-118.21449,33.97808],[-118.21383,33.97907]]],"type":"Polygon"},"properties":{"bbox":{"roads":{"area":3875.2,"pct":9.55},"sidewalks":{"area":25.97,"pct":0.06}},"city_same":1,"id":"hex:2068:17369"},"type":"Feature"},{"geometry":{"coordinates":[[[-118.21386,33.98102],[-118.21455,33.98199],[-118.2159,33.98198],[-118.21656,33.98099],[-118.21587,33.98002],[-118.21452,33.98004],[-118.21386,33.98102]]],"type":"Polygon"},"properties":{"bbox":{"roads":{"area":7325.29,"pct":18.04},"sidewalks":{"area":221.15,"pct":0.54}},"city":{"roads":{"area":4055.72,"pct":9.99},"sidewalks":{"area":221.15,"pct":0.54}},"id":"hex:2068:17370"},"type":"Feature"},{"geometry":{"coordinates":[[[-118.21388,33.98297],[-118.21457,33.98394],[-118.21593,33.98393],[-118.21659,33.98294],[-118.2159,33.98198],[-118.21455,33.98199],[-118.21388,33.98297]]],"type":"Polygon"},"properties":{"bbox":{"roads":{"area":4595.49,"pct":11.32}},"city_same":1,"id":"hex:2068:17371"},"type":"Feature"},{"geometry":{"coordinates":[[[-118.21391,33.98492],[-118.2146,33.98589],[-118.21595,33.98588],[-118.21662,33.9849],[-118.21593,33.98393],[-118.21457,33.98394],[-118.21391,33.98492]]],"type":"Polygon"},"properties":{"bbox":{"roads":{"area":5866.62,"pct":14.45}},"city_same":1,"id":"hex:2068:17372"},"type":"Feature"},{"geometry":{"coordinates":[[[-118.21394,33.98688],[-118.21463,33.98785],[-118.21598,33.98783],[-118.21664,33.98685],[-118.21595,33.98588],[-118.2146,33.98589],[-118.21394,33.98688]]],"type":"Polygon"},"properties":{"bbox":{"parking":{"area":306.99,"pct":0.76},"roads":{"area":4902.62,"pct":12.08}},"city_same":1,"id":"hex:2068:17373"},"type":"Feature"},{"geometry":{"coordinates":[[[-118.21397,33.98883],[-118.21463,33.98785],[-118.21598,33.98783],[-118.21667,33.9888],[-118.21601,33.98978],[-118.21501,33.98979],[-118.21501,33.98968],[-118.21457,33.98968],[-118.21397,33.98883]]],"type":"Polygon"},"properties":{"bbox":{"parking":{"area":10368.02,"pct":25.85},"roads":{"area":7379.83,"pct":18.4}},"city_same":1,"id":"hex:2068:17374"},"type":"Feature"},{"geometry":{"coordinates":[[[-118.21601,33.98978],[-118.2167,33.99075],[-118.21616,33.99156],[-118.21505,33.99156],[-118.21501,33.98979],[-118.21601,33.98978]]],"type":"Polygon"},"properties":{"bbox":{"roads":{"area":2481.8,"pct":10.09}},"city_same":1,"id":"hex:2068:17375"},"type":"Feature"},{"geometry":{"coordinates":[[[-118.21441,33.97223],[-118.21374,33.97321],[-118.21239,33.97322],[-118.2117,33.97225],[-118.2119,33.97196],[-118.2144,33.97222],[-118.21441,33.97223]]],"type":"Polygon"},"properties":{"bbox":{"roads":{"area":4170.15,"pct":17.08}},"city_same":1,"id":"hex:2069:17365"},"type":"Feature"},{"geometry":{"coordinates":[[[-118.21173,33.97421],[-118.21242,33.97518],[-118.21377,33.97516],[-118.21443,33.97418],[-118.21374,33.97321],[-118.21239,33.97322],[-118.21173,33.97421]]],"type":"Polygon"},"properties":{"bbox":{"parking":{"area":14.74,"pct":0.04},"roads":{"area":4264.88,"pct":10.51}},"city_same":1,"id":"hex:2069:17366"},"type":"Feature"},{"geometry":{"coordinates":[[[-118.21176,33.97616],[-118.21245,33.97713],[-118.2138,33.97711],[-118.21446,33.97613],[-118.21377,33.97516],[-118.21242,33.97518],[-118.21176,33.97616]]],"type":"Polygon"},"properties":{"bbox":{"roads":{"area":5068.18,"pct":12.48}},"city":{"roads":{"area":3422.75,"pct":8.43}},"id":"hex:2069:17367"},"type":"Feature"},{"geometry":{"coordinates":[[[-118.21178,33.97811],[-118.21247,33.97908],[-118.21383,33.97907],[-118.21449,33.97808],[-118.2138,33.97711],[-118.21245,33.97713],[-118.21178,33.97811]]],"type":"Polygon"},"properties":{"bbox":{"roads":{"area":3537.34,"pct":8.71}},"city":{"roads":{"area":1828.44,"pct":4.5}},"id":"hex:2069:17368"},"type":"Feature"},{"geometry":{"coordinates":[[[-118.21181,33.98006],[-118.2125,33.98103],[-118.21386,33.98102],[-118.21452,33.98004],[-118.21383,33.97907],[-118.21247,33.97908],[-118.21181,33.98006]]],"type":"Polygon"},"properties":{"bbox":{"roads":{"area":8186.23,"pct":20.17},"sidewalks":{"area":79.76,"pct":0.2}},"city":{"roads":{"area":3803.47,"pct":9.37},"sidewalks":{"area":79.76,"pct":0.2}},"id":"hex:2069:17369"},"type":"Feature"},{"geometry":{"coordinates":[[[-118.21184,33.98202],[-118.21253,33.98298],[-118.21388,33.98297],[-118.21455,33.98199],[-118.21386,33.98102],[-118.2125,33.98103],[-118.21184,33.98202]]],"type":"Polygon"},"properties":{"bbox":{"roads":{"area":5916.01,"pct":14.57},"sidewalks":{"area":310.95,"pct":0.77}},"city":{"roads":{"area":2764.54,"pct":6.81},"sidewalks":{"area":310.95,"pct":0.77}},"id":"hex:2069:17370"},"type":"Feature"},{"geometry":{"coordinates":[[[-118.21187,33.98397],[-118.21253,33.98298],[-118.21388,33.98297],[-118.21457,33.98394],[-118.21391,33.98492],[-118.21269,33.98494],[-118.21268,33.9848],[-118.21267,33.9841],[-118.21191,33.98402],[-118.21187,33.98397]]],"type":"Polygon"},"properties":{"bbox":{"roads":{"area":7667.17,"pct":20.87},"sidewalks":{"area":359.68,"pct":0.98}},"city":{"roads":{"area":5460.48,"pct":14.86},"sidewalks":{"area":359.68,"pct":0.98}},"id":"hex:2069:17371"},"type":"Feature"},{"geometry":{"coordinates":[[[-118.21391,33.98492],[-118.2146,33.98589],[-118.21394,33.98688],[-118.21273,33.98689],[-118.21269,33.98494],[-118.21391,33.98492]]],"type":"Polygon"},"properties":{"bbox":{"roads":{"area":4060.14,"pct":13.08},"sidewalks":{"area":288.63,"pct":0.93}},"city":{"roads":{"area":3314.04,"pct":10.67},"sidewalks":{"area":288.63,"pct":0.93}},"id":"hex:2069:17372"},"type":"Feature"},{"geometry":{"coordinates":[[[-118.21394,33.98688],[-118.21463,33.98785],[-118.21397,33.98883],[-118.21278,33.98884],[-118.21273,33.98689],[-118.21394,33.98688]]],"type":"Polygon"},"properties":{"bbox":{"parking":{"area":6689.46,"pct":21.83},"roads":{"area":5257.55,"pct":17.16},"sidewalks":{"area":305.1,"pct":1}},"city":{"parking":{"area":6689.46,"pct":21.83},"roads":{"area":4239.52,"pct":13.83},"sidewalks":{"area":305.1,"pct":1}},"id":"hex:2069:17373"},"type":"Feature"},{"geometry":{"coordinates":[[[-118.21397,33.98883],[-118.21457,33.98968],[-118.21439,33.98968],[-118.21281,33.98968],[-118.21279,33.98919],[-118.21278,33.98884],[-118.21397,33.98883]]],"type":"Polygon"},"properties":{"bbox":{"parking":{"area":3553.11,"pct":27.8},"roads":{"area":3427.87,"pct":26.82},"sidewalks":{"area":51.94,"pct":0.41}},"city":{"parking":{"area":3553.11,"pct":27.8},"roads":{"area":3024.24,"pct":23.66},"sidewalks":{"area":51.94,"pct":0.41}},"id":"hex:2069:17374"},"type":"Feature"},{"geometry":{"coordinates":[[[-118.21159,33.96445],[-118.21024,33.96446],[-118.20955,33.96349],[-118.20961,33.9634],[-118.21197,33.96364],[-118.21193,33.96394],[-118.21159,33.96445]]],"type":"Polygon"},"properties":{"bbox":{"roads":{"area":2610.83,"pct":14.04},"sidewalks":{"area":180.27,"pct":0.97}},"city":{"roads":{"area":1148.33,"pct":6.17},"sidewalks":{"area":180.27,"pct":0.97}},"id":"hex:2070:17361"},"type":"Feature"},{"geometry":{"coordinates":[[[-118.21027,33.96641],[-118.20958,33.96544],[-118.21024,33.96446],[-118.21159,33.96445],[-118.21181,33.96475],[-118.21156,33.9664],[-118.21027,33.96641]]],"type":"Polygon"},"properties":{"bbox":{"roads":{"area":5707,"pct":16.08}},"city":{"roads":{"area":2691.43,"pct":7.58}},"id":"hex:2070:17362"},"type":"Feature"},{"geometry":{"coordinates":[[[-118.21029,33.96836],[-118.2096,33.96739],[-118.21027,33.96641],[-118.21156,33.9664],[-118.21126,33.96835],[-118.21029,33.96836]]],"type":"Polygon"},"properties":{"bbox":{"roads":{"area":4757.53,"pct":16.16}},"city":{"roads":{"area":1946.19,"pct":6.61}},"id":"hex:2070:17363"},"type":"Feature"},{"geometry":{"coordinates":[[[-118.21032,33.97032],[-118.20963,33.96935],[-118.21029,33.96836],[-118.21126,33.96835],[-118.21097,33.97031],[-118.21032,33.97032]]],"type":"Polygon"},"properties":{"bbox":{"roads":{"area":3970.86,"pct":17.3}},"city":{"roads":{"area":2019.1,"pct":8.8}},"id":"hex:2070:17364"},"type":"Feature"},{"geometry":{"coordinates":[[[-118.2117,33.97225],[-118.21035,33.97227],[-118.20966,33.9713],[-118.21032,33.97032],[-118.21097,33.97031],[-118.21074,33.97184],[-118.2119,33.97196],[-118.2117,33.97225]]],"type":"Polygon"},"properties":{"bbox":{"roads":{"area":2514.16,"pct":12.22}},"city":{"roads":{"area":2140.13,"pct":10.4}},"id":"hex:2070:17365"},"type":"Feature"},{"geometry":{"coordinates":[[[-118.20969,33.97325],[-118.21038,33.97422],[-118.21173,33.97421],[-118.21239,33.97322],[-118.2117,33.97225],[-118.21035,33.97227],[-118.20969,33.97325]]],"type":"Polygon"},"properties":{"bbox":{"parking":{"area":4025.93,"pct":9.92},"roads":{"area":7972.66,"pct":19.64}},"city":{"parking":{"area":4025.93,"pct":9.92},"roads":{"area":7807.25,"pct":19.23}},"id":"hex:2070:17366"},"type":"Feature"},{"geometry":{"coordinates":[[[-118.20971,33.9752],[-118.2104,33.97617],[-118.21176,33.97616],[-118.21242,33.97518],[-118.21173,33.97421],[-118.21038,33.97422],[-118.20971,33.9752]]],"type":"Polygon"},"properties":{"bbox":{"roads":{"area":6141.37,"pct":15.13},"sidewalks":{"area":194.81,"pct":0.48}},"city":{"roads":{"area":4539.29,"pct":11.18},"sidewalks":{"area":194.81,"pct":0.48}},"id":"hex:2070:17367"},"type":"Feature"},{"geometry":{"coordinates":[[[-118.20974,33.97715],[-118.21043,33.97812],[-118.21178,33.97811],[-118.21245,33.97713],[-118.21176,33.97616],[-118.2104,33.97617],[-118.20974,33.97715]]],"type":"Polygon"},"properties":{"bbox":{"roads":{"area":4335.53,"pct":10.68}},"city":{"roads":{"area":4332.63,"pct":10.67}},"id":"hex:2070:17368"},"type":"Feature"},{"geometry":{"coordinates":[[[-118.20977,33.97911],[-118.21046,33.98008],[-118.21181,33.98006],[-118.21247,33.97908],[-118.21178,33.97811],[-118.21043,33.97812],[-118.20977,33.97911]]],"type":"Polygon"},"properties":{"bbox":{"roads":{"area":4100.42,"pct":10.1}},"city_same":1,"id":"hex:2070:17369"},"type":"Feature"},{"geometry":{"coordinates":[[[-118.2098,33.98106],[-118.21049,33.98203],[-118.21184,33.98202],[-118.2125,33.98103],[-118.21181,33.98006],[-118.21046,33.98008],[-118.2098,33.98106]]],"type":"Polygon"},"properties":{"bbox":{"roads":{"area":7297.76,"pct":17.98},"sidewalks":{"area":493.55,"pct":1.22}},"city":{"roads":{"area":4533.22,"pct":11.17},"sidewalks":{"area":493.55,"pct":1.22}},"id":"hex:2070:17370"},"type":"Feature"},{"geometry":{"coordinates":[[[-118.20982,33.98301],[-118.21049,33.98203],[-118.21184,33.98202],[-118.21253,33.98298],[-118.21187,33.98397],[-118.21138,33.98397],[-118.21115,33.98395],[-118.21116,33.9839],[-118.2104,33.98382],[-118.20982,33.98301]]],"type":"Polygon"},"properties":{"bbox":{"roads":{"area":4043.28,"pct":10.18},"sidewalks":{"area":469.42,"pct":1.18}},"city_same":1,"id":"hex:2070:17371"},"type":"Feature"},{"geometry":{"coordinates":[[[-118.21187,33.98397],[-118.21191,33.98402],[-118.21138,33.98397],[-118.21187,33.98397]]],"type":"Polygon"},"properties":{"bbox":{"roads":{"area":105.82,"pct":74.84}},"city_same":1,"id":"hex:2070:17372"},"type":"Feature"},{"geometry":{"coordinates":[[[-118.20955,33.96349],[-118.20819,33.9635],[-118.208,33.96323],[-118.20961,33.9634],[-118.20955,33.96349]]],"type":"Polygon"},"properties":{"bbox":{"roads":{"area":286.26,"pct":10.56},"sidewalks":{"area":210.89,"pct":7.78}},"city_same":1,"id":"hex:2071:17360"},"type":"Feature"},{"geometry":{"coordinates":[[[-118.20753,33.96449],[-118.20822,33.96545],[-118.20958,33.96544],[-118.21024,33.96446],[-118.20955,33.96349],[-118.20819,33.9635],[-118.20753,33.96449]]],"type":"Polygon"},"properties":{"bbox":{"roads":{"area":2556.61,"pct":6.3}},"city_same":1,"id":"hex:2071:17361"},"type":"Feature"},{"geometry":{"coordinates":[[[-118.20756,33.96644],[-118.20825,33.96741],[-118.2096,33.96739],[-118.21027,33.96641],[-118.20958,33.96544],[-118.20822,33.96545],[-118.20756,33.96644]]],"type":"Polygon"},"properties":{"bbox":{"roads":{"area":2560.64,"pct":6.31}},"city_same":1,"id":"hex:2071:17362"},"type":"Feature"},{"geometry":{"coordinates":[[[-118.20759,33.96839],[-118.20828,33.96936],[-118.20963,33.96935],[-118.21029,33.96836],[-118.2096,33.96739],[-118.20825,33.96741],[-118.20759,33.96839]]],"type":"Polygon"},"properties":{"bbox":{"roads":{"area":3563.94,"pct":8.78}},"city":{"roads":{"area":3060.42,"pct":7.54}},"id":"hex:2071:17363"},"type":"Feature"},{"geometry":{"coordinates":[[[-118.20762,33.97034],[-118.20831,33.97131],[-118.20966,33.9713],[-118.21032,33.97032],[-118.20963,33.96935],[-118.20828,33.96936],[-118.20762,33.97034]]],"type":"Polygon"},"properties":{"bbox":{"roads":{"area":5950.99,"pct":14.66}},"city":{"roads":{"area":4009.16,"pct":9.88}},"id":"hex:2071:17364"},"type":"Feature"},{"geometry":{"coordinates":[[[-118.20764,33.97229],[-118.20833,33.97326],[-118.20969,33.97325],[-118.21035,33.97227],[-118.20966,33.9713],[-118.20831,33.97131],[-118.20764,33.97229]]],"type":"Polygon"},"properties":{"bbox":{"roads":{"area":9158.31,"pct":22.56},"sidewalks":{"area":1037.88,"pct":2.56}},"city":{"roads":{"area":7166.87,"pct":17.65},"sidewalks":{"area":1037.88,"pct":2.56}},"id":"hex:2071:17365"},"type":"Feature"},{"geometry":{"coordinates":[[[-118.20767,33.97425],[-118.20836,33.97522],[-118.20971,33.9752],[-118.21038,33.97422],[-118.20969,33.97325],[-118.20833,33.97326],[-118.20767,33.97425]]],"type":"Polygon"},"properties":{"bbox":{"parking":{"area":243.16,"pct":0.6},"roads":{"area":5718.63,"pct":14.09},"sidewalks":{"area":649.69,"pct":1.6}},"city":{"parking":{"area":243.16,"pct":0.6},"roads":{"area":4833.79,"pct":11.91},"sidewalks":{"area":649.69,"pct":1.6}},"id":"hex:2071:17366"},"type":"Feature"},{"geometry":{"coordinates":[[[-118.2077,33.9762],[-118.20839,33.97717],[-118.20974,33.97715],[-118.2104,33.97617],[-118.20971,33.9752],[-118.20836,33.97522],[-118.2077,33.9762]]],"type":"Polygon"},"properties":{"bbox":{"parking":{"area":902.99,"pct":2.22},"roads":{"area":3909.85,"pct":9.63},"sidewalks":{"area":635.49,"pct":1.57}},"city_same":1,"id":"hex:2071:17367"},"type":"Feature"},{"geometry":{"coordinates":[[[-118.20773,33.97815],[-118.20842,33.97912],[-118.20977,33.97911],[-118.21043,33.97812],[-118.20974,33.97715],[-118.20839,33.97717],[-118.20773,33.97815]]],"type":"Polygon"},"properties":{"bbox":{"roads":{"area":3361.83,"pct":8.28}},"city_same":1,"id":"hex:2071:17368"},"type":"Feature"},{"geometry":{"coordinates":[[[-118.20775,33.9801],[-118.20844,33.98107],[-118.2098,33.98106],[-118.21046,33.98008],[-118.20977,33.97911],[-118.20842,33.97912],[-118.20775,33.9801]]],"type":"Polygon"},"properties":{"bbox":{"roads":{"area":7349.39,"pct":18.1}},"city":{"roads":{"area":4144.6,"pct":10.21}},"id":"hex:2071:17369"},"type":"Feature"},{"geometry":{"coordinates":[[[-118.20778,33.98206],[-118.20847,33.98302],[-118.20982,33.98301],[-118.21049,33.98203],[-118.2098,33.98106],[-118.20844,33.98107],[-118.20778,33.98206]]],"type":"Polygon"},"properties":{"bbox":{"roads":{"area":2876.8,"pct":7.09}},"city_same":1,"id":"hex:2071:17370"},"type":"Feature"},{"geometry":{"coordinates":[[[-118.20847,33.98302],[-118.20982,33.98301],[-118.2104,33.98382],[-118.2081,33.98358],[-118.20847,33.98302]]],"type":"Polygon"},"properties":{"bbox":{"roads":{"area":2271.95,"pct":17.93}},"city_same":1,"id":"hex:2071:17371"},"type":"Feature"},{"geometry":{"coordinates":[[[-118.20819,33.9635],[-118.20753,33.96449],[-118.20618,33.9645],[-118.20549,33.96353],[-118.20584,33.963],[-118.208,33.96323],[-118.20819,33.9635]]],"type":"Polygon"},"properties":{"bbox":{"roads":{"area":1756.94,"pct":5.8},"sidewalks":{"area":315.73,"pct":1.04}},"city_same":1,"id":"hex:2072:17361"},"type":"Feature"},{"geometry":{"coordinates":[[[-118.20552,33.96548],[-118.20621,33.96645],[-118.20756,33.96644],[-118.20822,33.96545],[-118.20753,33.96449],[-118.20618,33.9645],[-118.20552,33.96548]]],"type":"Polygon"},"properties":{"bbox":{"roads":{"area":3370.23,"pct":8.3}},"city_same":1,"id":"hex:2072:17362"},"type":"Feature"},{"geometry":{"coordinates":[[[-118.20554,33.96743],[-118.20623,33.9684],[-118.20759,33.96839],[-118.20825,33.96741],[-118.20756,33.96644],[-118.20621,33.96645],[-118.20554,33.96743]]],"type":"Polygon"},"properties":{"bbox":{"roads":{"area":2514.03,"pct":6.19}},"city_same":1,"id":"hex:2072:17363"},"type":"Feature"},{"geometry":{"coordinates":[[[-118.20557,33.96939],[-118.20626,33.97036],[-118.20762,33.97034],[-118.20828,33.96936],[-118.20759,33.96839],[-118.20623,33.9684],[-118.20557,33.96939]]],"type":"Polygon"},"properties":{"bbox":{"roads":{"area":2585.01,"pct":6.37}},"city_same":1,"id":"hex:2072:17364"},"type":"Feature"},{"geometry":{"coordinates":[[[-118.2056,33.97134],[-118.20629,33.97231],[-118.20764,33.97229],[-118.20831,33.97131],[-118.20762,33.97034],[-118.20626,33.97036],[-118.2056,33.97134]]],"type":"Polygon"},"properties":{"bbox":{"roads":{"area":4174.27,"pct":10.28},"sidewalks":{"area":910.74,"pct":2.24}},"city_same":1,"id":"hex:2072:17365"},"type":"Feature"},{"geometry":{"coordinates":[[[-118.20563,33.97329],[-118.20632,33.97426],[-118.20767,33.97425],[-118.20833,33.97326],[-118.20764,33.97229],[-118.20629,33.97231],[-118.20563,33.97329]]],"type":"Polygon"},"properties":{"bbox":{"parking":{"area":1835.77,"pct":4.52},"roads":{"area":3357.96,"pct":8.27},"sidewalks":{"area":213.32,"pct":0.53}},"city_same":1,"id":"hex:2072:17366"},"type":"Feature"},{"geometry":{"coordinates":[[[-118.20565,33.97524],[-118.20634,33.97621],[-118.2077,33.9762],[-118.20836,33.97522],[-118.20767,33.97425],[-118.20632,33.97426],[-118.20565,33.97524]]],"type":"Polygon"},"properties":{"bbox":{"parking":{"area":1938.4,"pct":4.77},"roads":{"area":1802.87,"pct":4.44},"sidewalks":{"area":304.36,"pct":0.75}},"city_same":1,"id":"hex:2072:17367"},"type":"Feature"},{"geometry":{"coordinates":[[[-118.20634,33.97621],[-118.2077,33.9762],[-118.20839,33.97717],[-118.20773,33.97815],[-118.20637,33.97816],[-118.20621,33.97794],[-118.20618,33.97649],[-118.20618,33.97646],[-118.20634,33.97621]]],"type":"Polygon"},"properties":{"bbox":{"roads":{"area":2607.9,"pct":7.11}},"city_same":1,"id":"hex:2072:17368"},"type":"Feature"},{"geometry":{"coordinates":[[[-118.20637,33.97816],[-118.20773,33.97815],[-118.20842,33.97912],[-118.20775,33.9801],[-118.2064,33.98012],[-118.206,33.97955],[-118.20625,33.97958],[-118.20622,33.97839],[-118.20637,33.97816]]],"type":"Polygon"},"properties":{"bbox":{"roads":{"area":3944.11,"pct":10.69}},"city":{"roads":{"area":3581.72,"pct":9.71}},"id":"hex:2072:17369"},"type":"Feature"},{"geometry":{"coordinates":[[[-118.20574,33.9811],[-118.20643,33.98207],[-118.20778,33.98206],[-118.20844,33.98107],[-118.20775,33.9801],[-118.2064,33.98012],[-118.20574,33.9811]]],"type":"Polygon"},"properties":{"bbox":{"roads":{"area":4976.57,"pct":12.26}},"city":{"roads":{"area":3364.78,"pct":8.29}},"id":"hex:2072:17370"},"type":"Feature"},{"geometry":{"coordinates":[[[-118.20576,33.98305],[-118.20643,33.98207],[-118.20778,33.98206],[-118.20847,33.98302],[-118.2081,33.98358],[-118.20599,33.98336],[-118.20576,33.98305]]],"type":"Polygon"},"properties":{"bbox":{"roads":{"area":3432.59,"pct":11.03}},"city_same":1,"id":"hex:2072:17371"},"type":"Feature"},{"geometry":{"coordinates":[[[-118.20549,33.96353],[-118.20414,33.96354],[-118.20359,33.96277],[-118.20584,33.963],[-118.20549,33.96353]]],"type":"Polygon"},"properties":{"bbox":{"roads":{"area":1753.39,"pct":14.74},"sidewalks":{"area":36.98,"pct":0.31}},"city_same":1,"id":"hex:2073:17360"},"type":"Feature"},{"geometry":{"coordinates":[[[-118.20347,33.96452],[-118.20416,33.96549],[-118.20552,33.96548],[-118.20618,33.9645],[-118.20549,33.96353],[-118.20414,33.96354],[-118.20347,33.96452]]],"type":"Polygon"},"properties":{"bbox":{"roads":{"area":6096.23,"pct":15.02}},"city_same":1,"id":"hex:2073:17361"},"type":"Feature"},{"geometry":{"coordinates":[[[-118.2035,33.96648],[-118.20419,33.96745],[-118.20554,33.96743],[-118.20621,33.96645],[-118.20552,33.96548],[-118.20416,33.96549],[-118.2035,33.96648]]],"type":"Polygon"},"properties":{"bbox":{"roads":{"area":4384.13,"pct":10.8}},"city_same":1,"id":"hex:2073:17362"},"type":"Feature"},{"geometry":{"coordinates":[[[-118.20353,33.96843],[-118.20422,33.9694],[-118.20557,33.96939],[-118.20623,33.9684],[-118.20554,33.96743],[-118.20419,33.96745],[-118.20353,33.96843]]],"type":"Polygon"},"properties":{"bbox":{"roads":{"area":3845.43,"pct":9.47}},"city_same":1,"id":"hex:2073:17363"},"type":"Feature"},{"geometry":{"coordinates":[[[-118.20356,33.97038],[-118.20425,33.97135],[-118.2056,33.97134],[-118.20626,33.97036],[-118.20557,33.96939],[-118.20422,33.9694],[-118.20356,33.97038]]],"type":"Polygon"},"properties":{"bbox":{"roads":{"area":4327.9,"pct":10.66},"sidewalks":{"area":481.56,"pct":1.19}},"city_same":1,"id":"hex:2073:17364"},"type":"Feature"},{"geometry":{"coordinates":[[[-118.20358,33.97233],[-118.20427,33.9733],[-118.20563,33.97329],[-118.20629,33.97231],[-118.2056,33.97134],[-118.20425,33.97135],[-118.20358,33.97233]]],"type":"Polygon"},"properties":{"bbox":{"parking":{"area":2992.78,"pct":7.37},"roads":{"area":6795.65,"pct":16.74},"sidewalks":{"area":840.71,"pct":2.07}},"city_same":1,"id":"hex:2073:17365"},"type":"Feature"},{"geometry":{"coordinates":[[[-118.20361,33.97429],[-118.2043,33.97526],[-118.20565,33.97524],[-118.20632,33.97426],[-118.20563,33.97329],[-118.20427,33.9733],[-118.20361,33.97429]]],"type":"Polygon"},"properties":{"bbox":{"parking":{"area":6689.78,"pct":16.48},"roads":{"area":4330.63,"pct":10.67},"sidewalks":{"area":450.27,"pct":1.11}},"city_same":1,"id":"hex:2073:17366"},"type":"Feature"},{"geometry":{"coordinates":[[[-118.2043,33.97526],[-118.20565,33.97524],[-118.20634,33.97621],[-118.20618,33.97646],[-118.20614,33.97611],[-118.20606,33.97611],[-118.20604,33.97602],[-118.20465,33.97588],[-118.20431,33.97584],[-118.20392,33.97582],[-118.2043,33.97526]]],"type":"Polygon"},"properties":{"bbox":{"parking":{"area":146.1,"pct":1.12},"roads":{"area":2092.8,"pct":16.08},"sidewalks":{"area":81.56,"pct":0.63}},"city_same":1,"id":"hex:2073:17367"},"type":"Feature"},{"geometry":{"coordinates":[[[-118.20637,33.97816],[-118.20622,33.97839],[-118.20621,33.97794],[-118.20637,33.97816]]],"type":"Polygon"},"properties":{"bbox":{"roads":{"area":198.01,"pct":55.47}},"city_same":1,"id":"hex:2073:17368"},"type":"Feature"},{"geometry":{"coordinates":[[[-118.2064,33.98012],[-118.20574,33.9811],[-118.20438,33.98111],[-118.20369,33.98014],[-118.20389,33.97985],[-118.20399,33.97986],[-118.20399,33.97984],[-118.20398,33.97971],[-118.20422,33.97936],[-118.206,33.97955],[-118.2064,33.98012]]],"type":"Polygon"},"properties":{"bbox":{"roads":{"area":5597.65,"pct":15.64}},"city":{"roads":{"area":2565.09,"pct":7.17}},"id":"hex:2073:17369"},"type":"Feature"},{"geometry":{"coordinates":[[[-118.20372,33.98209],[-118.20441,33.98306],[-118.20576,33.98305],[-118.20643,33.98207],[-118.20574,33.9811],[-118.20438,33.98111],[-118.20372,33.98209]]],"type":"Polygon"},"properties":{"bbox":{"roads":{"area":3417.97,"pct":8.42}},"city_same":1,"id":"hex:2073:17370"},"type":"Feature"},{"geometry":{"coordinates":[[[[-118.20375,33.98405],[-118.20411,33.98351],[-118.20414,33.9846],[-118.20375,33.98405]]],[[[-118.20441,33.98306],[-118.20576,33.98305],[-118.20599,33.98336],[-118.20432,33.98319],[-118.20441,33.98306]]]],"type":"MultiPolygon"},"properties":{"bbox":{"roads":{"area":1128.87,"pct":20.63}},"city_same":1,"id":"hex:2073:17371"},"type":"Feature"},{"geometry":{"coordinates":[[[-118.20378,33.986],[-118.20416,33.98544],[-118.20416,33.98654],[-118.20378,33.986]]],"type":"Polygon"},"properties":{"bbox":{"roads":{"area":21.47,"pct":0.99}},"city_same":1,"id":"hex:2073:17372"},"type":"Feature"},{"geometry":{"coordinates":[[[-118.2038,33.98795],[-118.20417,33.98741],[-118.20418,33.98848],[-118.2038,33.98795]]],"type":"Polygon"},"properties":{"bbox":{"roads":{"area":173.21,"pct":8.55}},"city_same":1,"id":"hex:2073:17373"},"type":"Feature"},{"geometry":{"coordinates":[[[-118.20414,33.96354],[-118.20347,33.96452],[-118.20212,33.96454],[-118.20143,33.96357],[-118.20208,33.96261],[-118.20359,33.96277],[-118.20414,33.96354]]],"type":"Polygon"},"properties":{"bbox":{"roads":{"area":2609.22,"pct":6.69}},"city_same":1,"id":"hex:2074:17361"},"type":"Feature"},{"geometry":{"coordinates":[[[-118.20146,33.96552],[-118.20215,33.96649],[-118.2035,33.96648],[-118.20416,33.96549],[-118.20347,33.96452],[-118.20212,33.96454],[-118.20146,33.96552]]],"type":"Polygon"},"properties":{"bbox":{"roads":{"area":2596.51,"pct":6.4}},"city_same":1,"id":"hex:2074:17362"},"type":"Feature"},{"geometry":{"coordinates":[[[-118.20149,33.96747],[-118.20218,33.96844],[-118.20353,33.96843],[-118.20419,33.96745],[-118.2035,33.96648],[-118.20215,33.96649],[-118.20149,33.96747]]],"type":"Polygon"},"properties":{"bbox":{"roads":{"area":2584.43,"pct":6.37}},"city_same":1,"id":"hex:2074:17363"},"type":"Feature"},{"geometry":{"coordinates":[[[-118.20151,33.96943],[-118.2022,33.97039],[-118.20356,33.97038],[-118.20422,33.9694],[-118.20353,33.96843],[-118.20218,33.96844],[-118.20151,33.96943]]],"type":"Polygon"},"properties":{"bbox":{"roads":{"area":5604.01,"pct":13.8},"sidewalks":{"area":52.71,"pct":0.13}},"city_same":1,"id":"hex:2074:17364"},"type":"Feature"},{"geometry":{"coordinates":[[[-118.20154,33.97138],[-118.2022,33.97039],[-118.20356,33.97038],[-118.20425,33.97135],[-118.20358,33.97233],[-118.20297,33.97234],[-118.2028,33.97189],[-118.20183,33.97179],[-118.20154,33.97138]]],"type":"Polygon"},"properties":{"bbox":{"parking":{"area":155.12,"pct":0.43},"roads":{"area":10388.08,"pct":28.59},"sidewalks":{"area":1443.63,"pct":3.97}},"city_same":1,"id":"hex:2074:17365"},"type":"Feature"},{"geometry":{"coordinates":[[[-118.20358,33.97233],[-118.20427,33.9733],[-118.20361,33.97429],[-118.2036,33.97429],[-118.20351,33.97395],[-118.20336,33.97343],[-118.20318,33.97288],[-118.20297,33.97234],[-118.20358,33.97233]]],"type":"Polygon"},"properties":{"bbox":{"parking":{"area":1239.41,"pct":9.88},"roads":{"area":1601.38,"pct":12.76},"sidewalks":{"area":271.51,"pct":2.16}},"city_same":1,"id":"hex:2074:17366"},"type":"Feature"},{"geometry":{"coordinates":[[[-118.20361,33.97429],[-118.2043,33.97526],[-118.20392,33.97582],[-118.20384,33.97581],[-118.20386,33.97557],[-118.20382,33.97537],[-118.20374,33.97491],[-118.2037,33.97465],[-118.2036,33.97429],[-118.20361,33.97429]]],"type":"Polygon"},"properties":{"bbox":{"parking":{"area":977.24,"pct":24.2},"roads":{"area":602.75,"pct":14.93}},"city_same":1,"id":"hex:2074:17367"},"type":"Feature"},{"geometry":{"coordinates":[[[[-118.20369,33.98014],[-118.20262,33.98015],[-118.20262,33.97972],[-118.20389,33.97985],[-118.20369,33.98014]]],[[[-118.20398,33.97971],[-118.20397,33.97933],[-118.20422,33.97936],[-118.20398,33.97971]]]],"type":"MultiPolygon"},"properties":{"bbox":{"roads":{"area":1005.74,"pct":20.4}},"city":{"roads":{"area":339.28,"pct":6.88}},"id":"hex:2074:17369"},"type":"Feature"},{"geometry":{"coordinates":[[[-118.20369,33.98014],[-118.20438,33.98111],[-118.20372,33.98209],[-118.20262,33.98211],[-118.20262,33.98015],[-118.20369,33.98014]]],"type":"Polygon"},"properties":{"bbox":{"roads":{"area":1929.82,"pct":6.76}},"city_same":1,"id":"hex:2074:17370"},"type":"Feature"},{"geometry":{"coordinates":[[[-118.20375,33.98405],[-118.2024,33.98406],[-118.20171,33.98309],[-118.20205,33.98258],[-118.20262,33.98264],[-118.20262,33.98211],[-118.20372,33.98209],[-118.20441,33.98306],[-118.20432,33.98319],[-118.2041,33.98317],[-118.20411,33.98351],[-118.20375,33.98405]]],"type":"Polygon"},"properties":{"bbox":{"roads":{"area":4604.53,"pct":12.12}},"city_same":1,"id":"hex:2074:17371"},"type":"Feature"},{"geometry":{"coordinates":[[[-118.20378,33.986],[-118.20242,33.98601],[-118.20173,33.98504],[-118.2024,33.98406],[-118.20375,33.98405],[-118.20414,33.9846],[-118.20415,33.98506],[-118.20416,33.98544],[-118.20378,33.986]]],"type":"Polygon"},"properties":{"bbox":{"roads":{"area":2805.54,"pct":7.13}},"city_same":1,"id":"hex:2074:17372"},"type":"Feature"},{"geometry":{"coordinates":[[[-118.2038,33.98795],[-118.20245,33.98796],[-118.20176,33.987],[-118.20242,33.98601],[-118.20378,33.986],[-118.20416,33.98654],[-118.20417,33.98741],[-118.2038,33.98795]]],"type":"Polygon"},"properties":{"bbox":{"roads":{"area":6360.76,"pct":16.2}},"city_same":1,"id":"hex:2074:17373"},"type":"Feature"},{"geometry":{"coordinates":[[[-118.20245,33.98796],[-118.2038,33.98795],[-118.20418,33.98848],[-118.20418,33.98898],[-118.20418,33.98907],[-118.20403,33.98905],[-118.20298,33.98893],[-118.20283,33.98892],[-118.20265,33.98865],[-118.20204,33.98857],[-118.20245,33.98796]]],"type":"Polygon"},"properties":{"bbox":{"roads":{"area":3134.01,"pct":17.81}},"city_same":1,"id":"hex:2074:17374"},"type":"Feature"},{"geometry":{"coordinates":[[[-118.20143,33.96357],[-118.20008,33.96358],[-118.19939,33.96261],[-118.19957,33.96235],[-118.20208,33.96261],[-118.20143,33.96357]]],"type":"Polygon"},"properties":{"bbox":{"roads":{"area":1284.28,"pct":5.44}},"city_same":1,"id":"hex:2075:17360"},"type":"Feature"},{"geometry":{"coordinates":[[[-118.19942,33.96456],[-118.20011,33.96553],[-118.20146,33.96552],[-118.20212,33.96454],[-118.20143,33.96357],[-118.20008,33.96358],[-118.19942,33.96456]]],"type":"Polygon"},"properties":{"bbox":{"roads":{"area":2961.37,"pct":7.29}},"city_same":1,"id":"hex:2075:17361"},"type":"Feature"},{"geometry":{"coordinates":[[[-118.19944,33.96652],[-118.20013,33.96749],[-118.20149,33.96747],[-118.20215,33.96649],[-118.20146,33.96552],[-118.20011,33.96553],[-118.19944,33.96652]]],"type":"Polygon"},"properties":{"bbox":{"roads":{"area":2653.93,"pct":6.54}},"city_same":1,"id":"hex:2075:17362"},"type":"Feature"},{"geometry":{"coordinates":[[[-118.20013,33.96749],[-118.20149,33.96747],[-118.20218,33.96844],[-118.20151,33.96943],[-118.20113,33.96943],[-118.20077,33.96894],[-118.20019,33.96823],[-118.19986,33.96788],[-118.20013,33.96749]]],"type":"Polygon"},"properties":{"bbox":{"roads":{"area":4187.5,"pct":14.78}},"city_same":1,"id":"hex:2075:17363"},"type":"Feature"},{"geometry":{"coordinates":[[[-118.20151,33.96943],[-118.2022,33.97039],[-118.20154,33.97138],[-118.20019,33.97139],[-118.19959,33.97055],[-118.19961,33.97039],[-118.20032,33.97047],[-118.20184,33.97064],[-118.20192,33.9706],[-118.20147,33.96989],[-118.20113,33.96943],[-118.20151,33.96943]]],"type":"Polygon"},"properties":{"bbox":{"roads":{"area":2289.7,"pct":10.63},"sidewalks":{"area":22.91,"pct":0.11}},"city_same":1,"id":"hex:2075:17364"},"type":"Feature"},{"geometry":{"coordinates":[[[-118.20019,33.97139],[-118.20154,33.97138],[-118.20183,33.97179],[-118.20005,33.97159],[-118.20019,33.97139]]],"type":"Polygon"},"properties":{"bbox":{"roads":{"area":1809.52,"pct":37.27},"sidewalks":{"area":221.72,"pct":4.57}},"city_same":1,"id":"hex:2075:17365"},"type":"Feature"},{"geometry":{"coordinates":[[[-118.20171,33.98309],[-118.20035,33.9831],[-118.19982,33.98235],[-118.20205,33.98258],[-118.20171,33.98309]]],"type":"Polygon"},"properties":{"bbox":{"roads":{"area":1193.87,"pct":10.45}},"city_same":1,"id":"hex:2075:17370"},"type":"Feature"},{"geometry":{"coordinates":[[[-118.19969,33.98409],[-118.20038,33.98506],[-118.20173,33.98504],[-118.2024,33.98406],[-118.20171,33.98309],[-118.20035,33.9831],[-118.19969,33.98409]]],"type":"Polygon"},"properties":{"bbox":{"roads":{"area":2559.66,"pct":6.31}},"city_same":1,"id":"hex:2075:17371"},"type":"Feature"},{"geometry":{"coordinates":[[[-118.19972,33.98604],[-118.20041,33.98701],[-118.20176,33.987],[-118.20242,33.98601],[-118.20173,33.98504],[-118.20038,33.98506],[-118.19972,33.98604]]],"type":"Polygon"},"properties":{"bbox":{"roads":{"area":3080.07,"pct":7.59}},"city_same":1,"id":"hex:2075:17372"},"type":"Feature"},{"geometry":{"coordinates":[[[-118.19974,33.98799],[-118.20041,33.98701],[-118.20176,33.987],[-118.20245,33.98796],[-118.20204,33.98857],[-118.20092,33.98842],[-118.19999,33.98833],[-118.19974,33.98799]]],"type":"Polygon"},"properties":{"bbox":{"roads":{"area":3041.64,"pct":9.61}},"city_same":1,"id":"hex:2075:17373"},"type":"Feature"},{"geometry":{"coordinates":[[[-118.19939,33.96261],[-118.19804,33.96263],[-118.1977,33.96215],[-118.19957,33.96235],[-118.19939,33.96261]]],"type":"Polygon"},"properties":{"bbox":{"roads":{"area":292.72,"pct":4.88}},"city_same":1,"id":"hex:2076:17360"},"type":"Feature"},{"geometry":{"coordinates":[[[-118.19737,33.96361],[-118.19806,33.96458],[-118.19942,33.96456],[-118.20008,33.96358],[-118.19939,33.96261],[-118.19804,33.96263],[-118.19737,33.96361]]],"type":"Polygon"},"properties":{"bbox":{"roads":{"area":2604.28,"pct":6.42}},"city_same":1,"id":"hex:2076:17361"},"type":"Feature"},{"geometry":{"coordinates":[[[-118.1974,33.96556],[-118.19806,33.96458],[-118.19942,33.96456],[-118.20011,33.96553],[-118.19944,33.96652],[-118.19843,33.96653],[-118.19792,33.9661],[-118.19761,33.96585],[-118.1974,33.96556]]],"type":"Polygon"},"properties":{"bbox":{"roads":{"area":4819.62,"pct":12.24}},"city_same":1,"id":"hex:2076:17362"},"type":"Feature"},{"geometry":{"coordinates":[[[-118.19944,33.96652],[-118.20013,33.96749],[-118.19986,33.96788],[-118.19939,33.96739],[-118.19877,33.96681],[-118.19843,33.96653],[-118.19944,33.96652]]],"type":"Polygon"},"properties":{"bbox":{"roads":{"area":2406.53,"pct":25.57}},"city_same":1,"id":"hex:2076:17363"},"type":"Feature"},{"geometry":{"coordinates":[[[-118.20019,33.97139],[-118.20005,33.97159],[-118.19979,33.97157],[-118.19989,33.97099],[-118.19953,33.97095],[-118.19959,33.97055],[-118.20019,33.97139]]],"type":"Polygon"},"properties":{"bbox":{"roads":{"area":523.32,"pct":23.99},"sidewalks":{"area":44.81,"pct":2.05}},"city_same":1,"id":"hex:2076:17365"},"type":"Feature"},{"geometry":{"coordinates":[[[-118.20035,33.9831],[-118.19969,33.98409],[-118.19834,33.9841],[-118.19765,33.98313],[-118.19828,33.98219],[-118.19982,33.98235],[-118.20035,33.9831]]],"type":"Polygon"},"properties":{"bbox":{"roads":{"area":3956.1,"pct":10.23}},"city_same":1,"id":"hex:2076:17371"},"type":"Feature"},{"geometry":{"coordinates":[[[-118.19767,33.98508],[-118.19836,33.98605],[-118.19972,33.98604],[-118.20038,33.98506],[-118.19969,33.98409],[-118.19834,33.9841],[-118.19767,33.98508]]],"type":"Polygon"},"properties":{"bbox":{"roads":{"area":3806.34,"pct":9.38},"sidewalks":{"area":279.48,"pct":0.69}},"city_same":1,"id":"hex:2076:17372"},"type":"Feature"},{"geometry":{"coordinates":[[[-118.1977,33.98703],[-118.19839,33.988],[-118.19974,33.98799],[-118.20041,33.98701],[-118.19972,33.98604],[-118.19836,33.98605],[-118.1977,33.98703]]],"type":"Polygon"},"properties":{"bbox":{"parking":{"area":3215.43,"pct":7.92},"roads":{"area":4010.75,"pct":9.88}},"city_same":1,"id":"hex:2076:17373"},"type":"Feature"},{"geometry":{"coordinates":[[[-118.19839,33.988],[-118.19974,33.98799],[-118.19999,33.98833],[-118.19875,33.98822],[-118.19828,33.98817],[-118.19839,33.988]]],"type":"Polygon"},"properties":{"bbox":{"roads":{"area":399.98,"pct":10.14}},"city_same":1,"id":"hex:2076:17374"},"type":"Feature"},{"geometry":{"coordinates":[[[-118.19804,33.96263],[-118.19737,33.96361],[-118.19602,33.96362],[-118.19533,33.96265],[-118.1958,33.96195],[-118.1977,33.96215],[-118.19804,33.96263]]],"type":"Polygon"},"properties":{"bbox":{"roads":{"area":1539.72,"pct":4.51}},"city_same":1,"id":"hex:2077:17360"},"type":"Feature"},{"geometry":{"coordinates":[[[-118.19602,33.96362],[-118.19737,33.96361],[-118.19806,33.96458],[-118.1974,33.96556],[-118.19725,33.96556],[-118.19716,33.96549],[-118.19722,33.96545],[-118.19566,33.96416],[-118.19602,33.96362]]],"type":"Polygon"},"properties":{"bbox":{"roads":{"area":3630.62,"pct":12.89}},"city_same":1,"id":"hex:2077:17361"},"type":"Feature"},{"geometry":{"coordinates":[[[-118.1974,33.96556],[-118.19761,33.96585],[-118.19725,33.96556],[-118.1974,33.96556]]],"type":"Polygon"},"properties":{"bbox":{"roads":{"area":204.13,"pct":87.87}},"city_same":1,"id":"hex:2077:17362"},"type":"Feature"},{"geometry":{"coordinates":[[[-118.19765,33.98313],[-118.19629,33.98314],[-118.19585,33.98251],[-118.19747,33.98268],[-118.19755,33.98212],[-118.19828,33.98219],[-118.19765,33.98313]]],"type":"Polygon"},"properties":{"bbox":{"roads":{"area":1574.03,"pct":12.65},"sidewalks":{"area":4,"pct":0.03}},"city_same":1,"id":"hex:2077:17370"},"type":"Feature"},{"geometry":{"coordinates":[[[-118.19563,33.98413],[-118.19632,33.9851],[-118.19767,33.98508],[-118.19834,33.9841],[-118.19765,33.98313],[-118.19629,33.98314],[-118.19563,33.98413]]],"type":"Polygon"},"properties":{"bbox":{"parking":{"area":1374.89,"pct":3.39},"roads":{"area":3382.77,"pct":8.33}},"city_same":1,"id":"hex:2077:17371"},"type":"Feature"},{"geometry":{"coordinates":[[[-118.19566,33.98608],[-118.19635,33.98705],[-118.1977,33.98703],[-118.19836,33.98605],[-118.19767,33.98508],[-118.19632,33.9851],[-118.19566,33.98608]]],"type":"Polygon"},"properties":{"bbox":{"parking":{"area":4174.05,"pct":10.28},"roads":{"area":3245.61,"pct":8}},"city_same":1,"id":"hex:2077:17372"},"type":"Feature"},{"geometry":{"coordinates":[[[-118.19635,33.98705],[-118.1977,33.98703],[-118.19839,33.988],[-118.19828,33.98817],[-118.19659,33.98802],[-118.19573,33.98797],[-118.19635,33.98705]]],"type":"Polygon"},"properties":{"bbox":{"parking":{"area":12.38,"pct":0.06},"roads":{"area":2598.82,"pct":12.04}},"city_same":1,"id":"hex:2077:17373"},"type":"Feature"},{"geometry":{"coordinates":[[[-118.19533,33.96265],[-118.19398,33.96266],[-118.19329,33.9617],[-118.19329,33.96169],[-118.1958,33.96195],[-118.19533,33.96265]]],"type":"Polygon"},"properties":{"bbox":{"roads":{"area":1509.67,"pct":9.2}},"city_same":1,"id":"hex:2078:17360"},"type":"Feature"},{"geometry":{"coordinates":[[[-118.19398,33.96266],[-118.19533,33.96265],[-118.19602,33.96362],[-118.19566,33.96416],[-118.19564,33.96414],[-118.19551,33.96405],[-118.19493,33.96362],[-118.19404,33.96291],[-118.19389,33.96279],[-118.19398,33.96266]]],"type":"Polygon"},"properties":{"bbox":{"roads":{"area":2694.32,"pct":16.69}},"city_same":1,"id":"hex:2078:17361"},"type":"Feature"},{"geometry":{"coordinates":[[[-118.19629,33.98314],[-118.19563,33.98413],[-118.19428,33.98414],[-118.19359,33.98317],[-118.19415,33.98234],[-118.19585,33.98251],[-118.19629,33.98314]]],"type":"Polygon"},"properties":{"bbox":{"roads":{"area":3112.17,"pct":8.45}},"city_same":1,"id":"hex:2078:17371"},"type":"Feature"},{"geometry":{"coordinates":[[[-118.19362,33.98512],[-118.19431,33.98609],[-118.19566,33.98608],[-118.19632,33.9851],[-118.19563,33.98413],[-118.19428,33.98414],[-118.19362,33.98512]]],"type":"Polygon"},"properties":{"bbox":{"roads":{"area":3433.95,"pct":8.46}},"city_same":1,"id":"hex:2078:17372"},"type":"Feature"},{"geometry":{"coordinates":[[[-118.19364,33.98707],[-118.19431,33.98609],[-118.19566,33.98608],[-118.19635,33.98705],[-118.19573,33.98797],[-118.1942,33.98786],[-118.19364,33.98707]]],"type":"Polygon"},"properties":{"bbox":{"roads":{"area":3876.74,"pct":10}},"city_same":1,"id":"hex:2078:17373"},"type":"Feature"},{"geometry":{"coordinates":[[[-118.19329,33.9617],[-118.1925,33.9617],[-118.19238,33.9616],[-118.19329,33.96169],[-118.19329,33.9617]]],"type":"Polygon"},"properties":{"bbox":{"roads":{"area":149.35,"pct":33.3}},"city_same":1,"id":"hex:2079:17359"},"type":"Feature"},{"geometry":{"coordinates":[[[-118.19329,33.9617],[-118.19398,33.96266],[-118.19389,33.96279],[-118.19297,33.96209],[-118.1925,33.9617],[-118.19329,33.9617]]],"type":"Polygon"},"properties":{"bbox":{"roads":{"area":599.41,"pct":10.97}},"city_same":1,"id":"hex:2079:17360"},"type":"Feature"},{"geometry":{"coordinates":[[[-118.19359,33.98317],[-118.19223,33.98318],[-118.19154,33.98221],[-118.19163,33.98208],[-118.19415,33.98234],[-118.19359,33.98317]]],"type":"Polygon"},"properties":{"bbox":{"roads":{"area":1856.26,"pct":9.28}},"city_same":1,"id":"hex:2079:17370"},"type":"Feature"},{"geometry":{"coordinates":[[[-118.19157,33.98417],[-118.19226,33.98514],[-118.19362,33.98512],[-118.19428,33.98414],[-118.19359,33.98317],[-118.19223,33.98318],[-118.19157,33.98417]]],"type":"Polygon"},"properties":{"bbox":{"roads":{"area":3848.16,"pct":9.48}},"city_same":1,"id":"hex:2079:17371"},"type":"Feature"},{"geometry":{"coordinates":[[[-118.1916,33.98612],[-118.19229,33.98709],[-118.19364,33.98707],[-118.19431,33.98609],[-118.19362,33.98512],[-118.19226,33.98514],[-118.1916,33.98612]]],"type":"Polygon"},"properties":{"bbox":{"roads":{"area":4642.63,"pct":11.44}},"city_same":1,"id":"hex:2079:17372"},"type":"Feature"},{"geometry":{"coordinates":[[[-118.19229,33.98709],[-118.19364,33.98707],[-118.1942,33.98786],[-118.19188,33.9877],[-118.19229,33.98709]]],"type":"Polygon"},"properties":{"bbox":{"roads":{"area":1367.19,"pct":10.41}},"city_same":1,"id":"hex:2079:17373"},"type":"Feature"},{"geometry":{"coordinates":[[[-118.19154,33.98221],[-118.19019,33.98223],[-118.18997,33.98191],[-118.19163,33.98208],[-118.19154,33.98221]]],"type":"Polygon"},"properties":{"bbox":{"roads":{"area":882.29,"pct":25.97}},"city_same":1,"id":"hex:2080:17370"},"type":"Feature"},{"geometry":{"coordinates":[[[-118.19019,33.98223],[-118.19154,33.98221],[-118.19223,33.98318],[-118.19157,33.98417],[-118.19022,33.98418],[-118.18956,33.98326],[-118.18958,33.98313],[-118.19019,33.98223]]],"type":"Polygon"},"properties":{"bbox":{"roads":{"area":3488.35,"pct":8.6}},"city_same":1,"id":"hex:2080:17371"},"type":"Feature"},{"geometry":{"coordinates":[[[-118.18956,33.98516],[-118.19025,33.98613],[-118.1916,33.98612],[-118.19226,33.98514],[-118.19157,33.98417],[-118.19022,33.98418],[-118.18956,33.98516]]],"type":"Polygon"},"properties":{"bbox":{"roads":{"area":4833.57,"pct":11.91}},"city_same":1,"id":"hex:2080:17372"},"type":"Feature"},{"geometry":{"coordinates":[[[-118.19025,33.98613],[-118.1916,33.98612],[-118.19229,33.98709],[-118.19188,33.9877],[-118.19007,33.98758],[-118.19018,33.98682],[-118.18983,33.98674],[-118.19025,33.98613]]],"type":"Polygon"},"properties":{"bbox":{"roads":{"area":2806.49,"pct":9.42}},"city_same":1,"id":"hex:2080:17373"},"type":"Feature"},{"geometry":{"coordinates":[[[-118.19019,33.98223],[-118.18958,33.98313],[-118.18978,33.98198],[-118.18979,33.98189],[-118.18997,33.98191],[-118.19019,33.98223]]],"type":"Polygon"},"properties":{"bbox":{"roads":{"area":328.36,"pct":10.42}},"city_same":1,"id":"hex:2081:17370"},"type":"Feature"},{"geometry":{"coordinates":[[[-118.19022,33.98418],[-118.18956,33.98516],[-118.18924,33.98516],[-118.18956,33.98326],[-118.19022,33.98418]]],"type":"Polygon"},"properties":{"bbox":{"roads":{"area":779.58,"pct":8.22}},"city_same":1,"id":"hex:2081:17371"},"type":"Feature"},{"geometry":{"coordinates":[[[-118.18956,33.98516],[-118.19025,33.98613],[-118.18983,33.98674],[-118.18901,33.98656],[-118.18924,33.98516],[-118.18956,33.98516]]],"type":"Polygon"},"properties":{"bbox":{"roads":{"area":1378.51,"pct":10.7}},"city_same":1,"id":"hex:2081:17372"},"type":"Feature"}],"type":"FeatureCollection","v":2}