{"features":[{"geometry":{"coordinates":[[[[-122.22709,38.22594],[-122.22635,38.22604],[-122.22636,38.2216],[-122.22788,38.22155],[-122.22786,38.22587],[-122.22709,38.22594]],[[-122.22713,38.22239],[-122.22711,38.22197],[-122.22675,38.22196],[-122.22673,38.22244],[-122.22713,38.22239]],[[-122.22712,38.22304],[-122.22713,38.22256],[-122.22672,38.22256],[-122.22674,38.22305],[-122.22712,38.22304]],[[-122.22757,38.22433],[-122.22758,38.22387],[-122.22739,38.22375],[-122.2272,38.22418],[-122.22733,38.22445],[-122.22757,38.22433]]],[[[-122.28375,38.20191],[-122.28375,38.20203],[-122.28087,38.20205],[-122.28059,38.20548],[-122.26531,38.20831],[-122.26284,38.20473],[-122.26213,38.20503],[-122.26191,38.20487],[-122.26169,38.20496],[-122.26172,38.20521],[-122.25918,38.20632],[-122.25728,38.20741],[-122.25642,38.20755],[-122.25635,38.20668],[-122.25716,38.20659],[-122.25727,38.20634],[-122.25786,38.20635],[-122.25788,38.20578],[-122.25723,38.20578],[-122.25727,38.2047],[-122.25742,38.20474],[-122.2577,38.20443],[-122.25749,38.20426],[-122.25723,38.20453],[-122.25587,38.20453],[-122.25594,38.19756],[-122.25578,38.19538],[-122.255,38.19512],[-122.2549,38.1948],[-122.25508,38.19392],[-122.25275,38.1907],[-122.25473,38.19068],[-122.2548,38.189],[-122.25385,38.18864],[-122.25211,38.18852],[-122.25136,38.18813],[-122.2509,38.18739],[-122.25105,38.18637],[-122.25093,38.18638],[-122.25076,38.18458],[-122.25048,38.1863],[-122.25046,38.18793],[-122.24996,38.19035],[-122.24875,38.19291],[-122.24694,38.19287],[-122.24692,38.19387],[-122.24546,38.1925],[-122.24502,38.19248],[-122.2438,38.19125],[-122.24334,38.19051],[-122.24187,38.1833],[-122.24081,38.1798],[-122.24088,38.17892],[-122.24257,38.17633],[-122.24247,38.17536],[-122.23987,38.17766],[-122.23868,38.17287],[-122.24191,38.17156],[-122.2413,38.16894],[-122.24084,38.16894],[-122.24073,38.16852],[-122.23786,38.16865],[-122.23789,38.16886],[-122.23697,38.1689],[-122.23644,38.16791],[-122.23482,38.16672],[-122.23178,38.1666],[-122.23191,38.16535],[-122.23171,38.16482],[-122.23185,38.16394],[-122.23287,38.16401],[-122.2328,38.16351],[-122.2332,38.16292],[-122.23334,38.16309],[-122.23352,38.16281],[-122.23336,38.16267],[-122.23389,38.16228],[-122.23369,38.16216],[-122.2341,38.16197],[-122.23392,38.16182],[-122.23405,38.16162],[-122.23432,38.16167],[-122.23429,38.16125],[-122.23449,38.16134],[-122.23464,38.1612],[-122.23441,38.16107],[-122.2349,38.16081],[-122.23457,38.16082],[-122.23442,38.16017],[-122.23065,38.16109],[-122.23109,38.15965],[-122.23002,38.15608],[-122.23199,38.15518],[-122.26479,38.15533],[-122.26475,38.16076],[-122.26707,38.16115],[-122.2671,38.16193],[-122.26875,38.16591],[-122.26906,38.1671],[-122.26912,38.16822],[-122.26887,38.16996],[-122.26914,38.17134],[-122.27072,38.17368],[-122.27204,38.18106],[-122.27675,38.18108],[-122.27693,38.18299],[-122.27667,38.18411],[-122.28262,38.18385],[-122.28164,38.18624],[-122.27926,38.18911],[-122.27869,38.18913],[-122.2786,38.19697],[-122.28385,38.19705],[-122.28375,38.20191]],[[-122.23323,38.16344],[-122.23316,38.16315],[-122.23296,38.16345],[-122.23323,38.16344]],[[-122.23656,38.15989],[-122.23644,38.15997],[-122.23659,38.16035],[-122.23701,38.1602],[-122.23678,38.1599],[-122.23656,38.15989]],[[-122.23695,38.15986],[-122.23728,38.15979],[-122.23729,38.15992],[-122.2369,38.15996],[-122.2371,38.16015],[-122.23753,38.1601],[-122.23754,38.15973],[-122.23708,38.15968],[-122.2368,38.15977],[-122.23695,38.15986]],[[-122.2377,38.15976],[-122.23773,38.1601],[-122.2384,38.16016],[-122.23843,38.15991],[-122.23822,38.15966],[-122.2377,38.15976]],[[-122.24917,38.17794],[-122.24936,38.17773],[-122.2491,38.17758],[-122.24863,38.17778],[-122.24811,38.17776],[-122.24727,38.17807],[-122.24757,38.17842],[-122.24791,38.1782],[-122.24807,38.17828],[-122.24917,38.17794]],[[-122.26049,38.19231],[-122.26049,38.19189],[-122.26015,38.19178],[-122.26011,38.19234],[-122.26049,38.19231]],[[-122.26104,38.19229],[-122.261,38.1921],[-122.26063,38.19202],[-122.26063,38.19242],[-122.26099,38.19243],[-122.26104,38.19229]],[[-122.27737,38.18458],[-122.27731,38.18433],[-122.27674,38.18436],[-122.2768,38.18483],[-122.27721,38.18481],[-122.27737,38.18458]],[[-122.2782,38.19363],[-122.27826,38.19318],[-122.27783,38.19317],[-122.27784,38.19361],[-122.2782,38.19363]],[[-122.27823,38.19253],[-122.27825,38.19196],[-122.27784,38.19198],[-122.27784,38.19251],[-122.27823,38.19253]],[[-122.27824,38.19307],[-122.27824,38.19264],[-122.27787,38.19262],[-122.27784,38.19307],[-122.27824,38.19307]],[[-122.27982,38.18533],[-122.28028,38.1853],[-122.28037,38.18442],[-122.27952,38.18435],[-122.27917,38.18456],[-122.27925,38.18518],[-122.27982,38.18533]],[[-122.2815,38.1851],[-122.2819,38.18433],[-122.28186,38.18416],[-122.28129,38.18402],[-122.28056,38.18447],[-122.28037,38.1853],[-122.2815,38.1851]]]],"type":"MultiPolygon"},"properties":{"type":"boundary"},"type":"Feature"}],"type":"FeatureCollection"}