{"features":[{"geometry":{"coordinates":[[[-122.72962,38.33341],[-122.729,38.33448],[-122.72693,38.33354],[-122.72694,38.33592],[-122.7246,38.3359],[-122.72458,38.3346],[-122.71982,38.33452],[-122.71723,38.33367],[-122.71569,38.33535],[-122.72242,38.33922],[-122.72224,38.3423],[-122.72331,38.34305],[-122.71333,38.3431],[-122.71279,38.34191],[-122.71273,38.33704],[-122.7124,38.33691],[-122.71239,38.33622],[-122.71201,38.33547],[-122.71152,38.33527],[-122.71045,38.33521],[-122.70901,38.33458],[-122.70848,38.33414],[-122.70798,38.3333],[-122.70653,38.33383],[-122.70522,38.3317],[-122.70642,38.33126],[-122.7062,38.33054],[-122.70548,38.3298],[-122.70418,38.329],[-122.704,38.32819],[-122.69797,38.33067],[-122.69723,38.32954],[-122.69597,38.33006],[-122.69673,38.33119],[-122.69643,38.33132],[-122.69567,38.33018],[-122.69359,38.33106],[-122.69435,38.3322],[-122.69226,38.33308],[-122.6929,38.33411],[-122.69076,38.3349],[-122.6896,38.33306],[-122.69006,38.33273],[-122.68942,38.33206],[-122.68931,38.33156],[-122.68774,38.32874],[-122.68953,38.32871],[-122.68842,38.32693],[-122.69005,38.32636],[-122.69243,38.33005],[-122.69668,38.32821],[-122.69281,38.3216],[-122.69179,38.3216],[-122.69067,38.31983],[-122.6957,38.31982],[-122.69495,38.31804],[-122.69809,38.3181],[-122.69857,38.31787],[-122.6991,38.31832],[-122.70361,38.31495],[-122.70518,38.31625],[-122.70604,38.31659],[-122.71315,38.315],[-122.71279,38.31564],[-122.71433,38.31658],[-122.71419,38.31775],[-122.71345,38.31921],[-122.71286,38.32109],[-122.71306,38.32133],[-122.71461,38.32133],[-122.71536,38.32149],[-122.71453,38.32355],[-122.71667,38.32406],[-122.72092,38.32547],[-122.72188,38.32701],[-122.72105,38.32729],[-122.72053,38.32802],[-122.7221,38.32857],[-122.72387,38.32856],[-122.72644,38.32909],[-122.72672,38.32922],[-122.72686,38.32966],[-122.72838,38.32929],[-122.72704,38.33146],[-122.72642,38.333],[-122.72962,38.33341]]],"type":"Polygon"},"properties":{"type":"boundary"},"type":"Feature"}],"type":"FeatureCollection"}