{"features":[{"geometry":{"coordinates":[[[-122.72825,38.33408],[-122.72882,38.33331],[-122.72898,38.33333],[-122.72962,38.33341],[-122.7296,38.33349],[-122.72951,38.33363],[-122.72938,38.33386],[-122.72927,38.33405],[-122.72918,38.3342],[-122.72913,38.33427],[-122.72902,38.33445],[-122.729,38.33448],[-122.72872,38.33435],[-122.72845,38.33422],[-122.72831,38.33416],[-122.72825,38.33408]]],"type":"Polygon"},"properties":{"bbox":{"roads":{"area":1312.34,"pct":15.18}},"city":{"roads":{"area":784.7,"pct":9.08}},"id":"hex:3491:24496"},"type":"Feature"},{"geometry":{"coordinates":[[[-122.72827,38.3294],[-122.72794,38.3294],[-122.72797,38.32939],[-122.72811,38.32936],[-122.72816,38.32935],[-122.72834,38.32931],[-122.72834,38.32931],[-122.72827,38.3294]]],"type":"Polygon"},"properties":{"bbox":{"roads":{"area":104.93,"pct":69.72}},"city_same":1,"id":"hex:3492:24493"},"type":"Feature"},{"geometry":{"coordinates":[[[-122.72712,38.33096],[-122.72655,38.33018],[-122.72693,38.32966],[-122.72704,38.32965],[-122.72724,38.32959],[-122.72731,38.32957],[-122.72744,38.32953],[-122.72763,38.32947],[-122.72775,38.32944],[-122.72794,38.3294],[-122.72827,38.3294],[-122.72829,38.32942],[-122.72815,38.32964],[-122.72813,38.32968],[-122.72807,38.32978],[-122.72798,38.32992],[-122.72794,38.32999],[-122.72755,38.33063],[-122.72742,38.33084],[-122.72737,38.33091],[-122.72734,38.33096],[-122.72712,38.33096]]],"type":"Polygon"},"properties":{"bbox":{"parking":{"area":245.71,"pct":1.77},"roads":{"area":1901.64,"pct":13.72}},"city_same":1,"id":"hex:3492:24494"},"type":"Feature"},{"geometry":{"coordinates":[[[-122.72655,38.33174],[-122.72712,38.33096],[-122.72734,38.33096],[-122.72724,38.33113],[-122.7272,38.33121],[-122.72711,38.33135],[-122.72704,38.33146],[-122.72692,38.3317],[-122.72689,38.33179],[-122.72683,38.33194],[-122.72678,38.33206],[-122.72655,38.33174]]],"type":"Polygon"},"properties":{"bbox":{"roads":{"area":301.51,"pct":11.18}},"city_same":1,"id":"hex:3492:24495"},"type":"Feature"},{"geometry":{"coordinates":[[[-122.72654,38.3333],[-122.72673,38.33305],[-122.72696,38.33308],[-122.72706,38.33309],[-122.72882,38.33331],[-122.72825,38.33408],[-122.72814,38.33408],[-122.72788,38.33397],[-122.72761,38.33384],[-122.72735,38.33373],[-122.72693,38.33354],[-122.72693,38.33383],[-122.72654,38.3333]]],"type":"Polygon"},"properties":{"bbox":{"roads":{"area":2526.85,"pct":19.86}},"city":{"roads":{"area":848.16,"pct":6.67}},"id":"hex:3492:24496"},"type":"Feature"},{"geometry":{"coordinates":[[[[-122.72653,38.33486],[-122.72693,38.33432],[-122.72694,38.33541],[-122.72653,38.33486]]],[[[-122.72825,38.33408],[-122.72831,38.33416],[-122.72814,38.33408],[-122.72825,38.33408]]]],"type":"MultiPolygon"},"properties":{"bbox":{"roads":{"area":35.3,"pct":1.64}},"city_same":1,"id":"hex:3492:24497"},"type":"Feature"},{"geometry":{"coordinates":[[[-122.72655,38.33018],[-122.72541,38.33017],[-122.72484,38.32939],[-122.72523,38.32886],[-122.72644,38.32909],[-122.72652,38.32917],[-122.72672,38.32922],[-122.72678,38.32941],[-122.72684,38.32957],[-122.72686,38.32966],[-122.72693,38.32966],[-122.72655,38.33018]]],"type":"Polygon"},"properties":{"bbox":{"parking":{"area":2168.89,"pct":11.4},"roads":{"area":1275.54,"pct":6.7}},"city_same":1,"id":"hex:3493:24493"},"type":"Feature"},{"geometry":{"coordinates":[[[-122.72483,38.33095],[-122.7254,38.33174],[-122.72655,38.33174],[-122.72712,38.33096],[-122.72655,38.33018],[-122.72541,38.33017],[-122.72483,38.33095]]],"type":"Polygon"},"properties":{"bbox":{"roads":{"area":1659.85,"pct":6.39}},"city_same":1,"id":"hex:3493:24494"},"type":"Feature"},{"geometry":{"coordinates":[[[-122.72654,38.3333],[-122.7254,38.3333],[-122.72483,38.33251],[-122.7254,38.33174],[-122.72655,38.33174],[-122.72678,38.33206],[-122.72677,38.33209],[-122.72674,38.33215],[-122.72666,38.33238],[-122.7265,38.33279],[-122.72642,38.333],[-122.72673,38.33305],[-122.72654,38.3333]]],"type":"Polygon"},"properties":{"bbox":{"roads":{"area":4183.18,"pct":18.34}},"city":{"roads":{"area":2410.14,"pct":10.57}},"id":"hex:3493:24495"},"type":"Feature"},{"geometry":{"coordinates":[[[-122.72653,38.33486],[-122.72539,38.33486],[-122.72482,38.33408],[-122.7254,38.3333],[-122.72654,38.3333],[-122.72693,38.33383],[-122.72693,38.33432],[-122.72653,38.33486]]],"type":"Polygon"},"properties":{"bbox":{"roads":{"area":1551.19,"pct":6.07}},"city_same":1,"id":"hex:3493:24496"},"type":"Feature"},{"geometry":{"coordinates":[[[-122.72484,38.32939],[-122.72369,38.32939],[-122.72313,38.32861],[-122.72316,38.32856],[-122.7232,38.32855],[-122.72367,38.32856],[-122.7238,38.32856],[-122.72387,38.32856],[-122.72397,38.3286],[-122.72404,38.32864],[-122.72523,38.32886],[-122.72484,38.32939]]],"type":"Polygon"},"properties":{"bbox":{"roads":{"area":189.31,"pct":1.63}},"city_same":1,"id":"hex:3494:24493"},"type":"Feature"},{"geometry":{"coordinates":[[[-122.72311,38.33173],[-122.72368,38.33251],[-122.72483,38.33251],[-122.7254,38.33174],[-122.72483,38.33095],[-122.72369,38.33095],[-122.72311,38.33173]]],"type":"Polygon"},"properties":{"bbox":{"roads":{"area":39.31,"pct":0.15}},"city_same":1,"id":"hex:3494:24495"},"type":"Feature"},{"geometry":{"coordinates":[[[-122.72311,38.33329],[-122.72368,38.33407],[-122.72482,38.33408],[-122.7254,38.3333],[-122.72483,38.33251],[-122.72368,38.33251],[-122.72311,38.33329]]],"type":"Polygon"},"properties":{"bbox":{"roads":{"area":4423.43,"pct":17.03}},"city":{"roads":{"area":2685.04,"pct":10.33}},"id":"hex:3494:24496"},"type":"Feature"},{"geometry":{"coordinates":[[[-122.72368,38.33407],[-122.72482,38.33408],[-122.72539,38.33486],[-122.72481,38.33564],[-122.7246,38.33564],[-122.72459,38.33507],[-122.72459,38.33506],[-122.72459,38.33492],[-122.72458,38.33472],[-122.72458,38.3346],[-122.72449,38.3346],[-122.72329,38.3346],[-122.72368,38.33407]]],"type":"Polygon"},"properties":{"bbox":{"roads":{"area":859.91,"pct":6.41}},"city_same":1,"id":"hex:3494:24497"},"type":"Feature"},{"geometry":{"coordinates":[[[-122.72481,38.33564],[-122.72501,38.3359],[-122.72469,38.3359],[-122.7246,38.3359],[-122.72461,38.33577],[-122.7246,38.33564],[-122.72481,38.33564]]],"type":"Polygon"},"properties":{"bbox":{"roads":{"area":63.4,"pct":8.15}},"city_same":1,"id":"hex:3494:24498"},"type":"Feature"},{"geometry":{"coordinates":[[[-122.72313,38.32861],[-122.72198,38.32861],[-122.7219,38.32849],[-122.7221,38.32857],[-122.72214,38.32857],[-122.72229,38.32856],[-122.7225,38.32856],[-122.72252,38.32856],[-122.72266,38.32856],[-122.72298,38.32857],[-122.72316,38.32856],[-122.72313,38.32861]]],"type":"Polygon"},"properties":{"bbox":{"roads":{"area":439.81,"pct":79.55}},"city_same":1,"id":"hex:3495:24492"},"type":"Feature"},{"geometry":{"coordinates":[[[-122.72141,38.32938],[-122.72198,38.33017],[-122.72312,38.33017],[-122.72369,38.32939],[-122.72313,38.32861],[-122.72198,38.32861],[-122.72141,38.32938]]],"type":"Polygon"},"properties":{"bbox":{"roads":{"area":1229.14,"pct":4.73}},"city_same":1,"id":"hex:3495:24493"},"type":"Feature"},{"geometry":{"coordinates":[[[-122.7214,38.33095],[-122.72197,38.33173],[-122.72311,38.33173],[-122.72369,38.33095],[-122.72312,38.33017],[-122.72198,38.33017],[-122.7214,38.33095]]],"type":"Polygon"},"properties":{"bbox":{"roads":{"area":333.61,"pct":1.28}},"city_same":1,"id":"hex:3495:24494"},"type":"Feature"},{"geometry":{"coordinates":[[[-122.72139,38.33251],[-122.72196,38.33329],[-122.72311,38.33329],[-122.72368,38.33251],[-122.72311,38.33173],[-122.72197,38.33173],[-122.72139,38.33251]]],"type":"Polygon"},"properties":{"bbox":{"roads":{"area":4233.56,"pct":16.29}},"city":{"roads":{"area":1696.66,"pct":6.53}},"id":"hex:3495:24495"},"type":"Feature"},{"geometry":{"coordinates":[[[-122.72139,38.33407],[-122.72196,38.33329],[-122.72311,38.33329],[-122.72368,38.33407],[-122.72329,38.3346],[-122.72228,38.3346],[-122.72227,38.33454],[-122.72173,38.33453],[-122.72139,38.33407]]],"type":"Polygon"},"properties":{"bbox":{"roads":{"area":475.59,"pct":2.12}},"city_same":1,"id":"hex:3495:24496"},"type":"Feature"},{"geometry":{"coordinates":[[[-122.72194,38.33953],[-122.72137,38.33875],[-122.72141,38.3387],[-122.7219,38.339],[-122.72208,38.3391],[-122.7222,38.33915],[-122.72224,38.33917],[-122.72227,38.33918],[-122.72238,38.33921],[-122.72242,38.33922],[-122.72238,38.33953],[-122.72194,38.33953]]],"type":"Polygon"},"properties":{"bbox":{"roads":{"area":354.05,"pct":10.5},"sidewalks":{"area":45.84,"pct":1.36}},"city_same":1,"id":"hex:3495:24499"},"type":"Feature"},{"geometry":{"coordinates":[[[-122.72193,38.34265],[-122.72136,38.34187],[-122.72193,38.34109],[-122.72224,38.34109],[-122.72225,38.34136],[-122.72225,38.34179],[-122.72227,38.34223],[-122.72225,38.34228],[-122.72224,38.3423],[-122.72235,38.34237],[-122.72245,38.34244],[-122.72256,38.34251],[-122.72277,38.34266],[-122.72193,38.34265]]],"type":"Polygon"},"properties":{"bbox":{"roads":{"area":286.83,"pct":2.85}},"city_same":1,"id":"hex:3495:24501"},"type":"Feature"},{"geometry":{"coordinates":[[[-122.72027,38.32626],[-122.71971,38.32548],[-122.71995,38.32515],[-122.72053,38.32535],[-122.72092,38.32547],[-122.72141,38.32626],[-122.72027,38.32626]]],"type":"Polygon"},"properties":{"bbox":{"roads":{"area":154.27,"pct":1.42}},"city_same":1,"id":"hex:3496:24491"},"type":"Feature"},{"geometry":{"coordinates":[[[-122.72027,38.32782],[-122.7197,38.32704],[-122.72027,38.32626],[-122.72141,38.32626],[-122.72188,38.32701],[-122.72179,38.32703],[-122.72166,38.32706],[-122.72139,38.32714],[-122.72132,38.32716],[-122.72124,38.32719],[-122.72115,38.32723],[-122.72105,38.32729],[-122.72067,38.32782],[-122.72027,38.32782]]],"type":"Polygon"},"properties":{"bbox":{"roads":{"area":1553.92,"pct":7.61}},"city_same":1,"id":"hex:3496:24492"},"type":"Feature"},{"geometry":{"coordinates":[[[-122.72198,38.32861],[-122.72141,38.32938],[-122.72026,38.32938],[-122.71969,38.3286],[-122.72027,38.32782],[-122.72067,38.32782],[-122.72053,38.32802],[-122.72083,38.32813],[-122.72135,38.32829],[-122.72146,38.32833],[-122.72173,38.32843],[-122.72177,38.32845],[-122.72186,38.32847],[-122.7219,38.32849],[-122.72198,38.32861]]],"type":"Polygon"},"properties":{"bbox":{"roads":{"area":1432.17,"pct":6.51}},"city_same":1,"id":"hex:3496:24493"},"type":"Feature"},{"geometry":{"coordinates":[[[-122.71969,38.33016],[-122.72026,38.33094],[-122.7214,38.33095],[-122.72198,38.33017],[-122.72141,38.32938],[-122.72026,38.32938],[-122.71969,38.33016]]],"type":"Polygon"},"properties":{"bbox":{"roads":{"area":907.08,"pct":3.49}},"city_same":1,"id":"hex:3496:24494"},"type":"Feature"},{"geometry":{"coordinates":[[[-122.71968,38.33172],[-122.72025,38.3325],[-122.72139,38.33251],[-122.72197,38.33173],[-122.7214,38.33095],[-122.72026,38.33094],[-122.71968,38.33172]]],"type":"Polygon"},"properties":{"bbox":{"roads":{"area":4003.58,"pct":15.41}},"city":{"roads":{"area":2184.45,"pct":8.41}},"id":"hex:3496:24495"},"type":"Feature"},{"geometry":{"coordinates":[[[-122.71968,38.33328],[-122.72024,38.33406],[-122.72139,38.33407],[-122.72196,38.33329],[-122.72139,38.33251],[-122.72025,38.3325],[-122.71968,38.33328]]],"type":"Polygon"},"properties":{"bbox":{"roads":{"area":1559.7,"pct":6}},"city_same":1,"id":"hex:3496:24496"},"type":"Feature"},{"geometry":{"coordinates":[[[-122.72024,38.33406],[-122.72139,38.33407],[-122.72173,38.33453],[-122.72118,38.33453],[-122.71991,38.33452],[-122.72024,38.33406]]],"type":"Polygon"},"properties":{"bbox":{"roads":{"area":495.84,"pct":7.47}},"city_same":1,"id":"hex:3496:24497"},"type":"Feature"},{"geometry":{"coordinates":[[[-122.72137,38.33875],[-122.72023,38.33875],[-122.71966,38.33797],[-122.71981,38.33776],[-122.72019,38.33799],[-122.72034,38.33807],[-122.72111,38.33853],[-122.72136,38.33868],[-122.72141,38.3387],[-122.72137,38.33875]]],"type":"Polygon"},"properties":{"bbox":{"roads":{"area":530.93,"pct":7.38},"sidewalks":{"area":235.9,"pct":3.28}},"city_same":1,"id":"hex:3496:24499"},"type":"Feature"},{"geometry":{"coordinates":[[[-122.71965,38.33953],[-122.72022,38.34031],[-122.72136,38.34031],[-122.72194,38.33953],[-122.72137,38.33875],[-122.72023,38.33875],[-122.71965,38.33953]]],"type":"Polygon"},"properties":{"bbox":{"roads":{"area":1823.31,"pct":7.02},"sidewalks":{"area":27.47,"pct":0.11}},"city_same":1,"id":"hex:3496:24500"},"type":"Feature"},{"geometry":{"coordinates":[[[-122.71964,38.34109],[-122.72021,38.34187],[-122.72136,38.34187],[-122.72193,38.34109],[-122.72136,38.34031],[-122.72022,38.34031],[-122.71964,38.34109]]],"type":"Polygon"},"properties":{"bbox":{"roads":{"area":1553.92,"pct":5.98}},"city_same":1,"id":"hex:3496:24501"},"type":"Feature"},{"geometry":{"coordinates":[[[-122.71964,38.34265],[-122.72021,38.34187],[-122.72136,38.34187],[-122.72193,38.34265],[-122.72162,38.34307],[-122.71995,38.34307],[-122.71964,38.34265]]],"type":"Polygon"},"properties":{"bbox":{"roads":{"area":2118.31,"pct":10.08},"sidewalks":{"area":384.23,"pct":1.83}},"city_same":1,"id":"hex:3496:24502"},"type":"Feature"},{"geometry":{"coordinates":[[[-122.71971,38.32548],[-122.71856,38.32548],[-122.71799,38.32469],[-122.71811,38.32454],[-122.71995,38.32515],[-122.71971,38.32548]]],"type":"Polygon"},"properties":{"bbox":{"roads":{"area":139.66,"pct":1.44}},"city_same":1,"id":"hex:3497:24490"},"type":"Feature"},{"geometry":{"coordinates":[[[-122.71799,38.32625],[-122.71856,38.32704],[-122.7197,38.32704],[-122.72027,38.32626],[-122.71971,38.32548],[-122.71856,38.32548],[-122.71799,38.32625]]],"type":"Polygon"},"properties":{"bbox":{"roads":{"area":2494.92,"pct":9.6}},"city_same":1,"id":"hex:3497:24491"},"type":"Feature"},{"geometry":{"coordinates":[[[-122.71798,38.32782],[-122.71855,38.3286],[-122.71969,38.3286],[-122.72027,38.32782],[-122.7197,38.32704],[-122.71856,38.32704],[-122.71798,38.32782]]],"type":"Polygon"},"properties":{"bbox":{"roads":{"area":2253.47,"pct":8.67}},"city_same":1,"id":"hex:3497:24492"},"type":"Feature"},{"geometry":{"coordinates":[[[-122.71797,38.32938],[-122.71854,38.33016],[-122.71969,38.33016],[-122.72026,38.32938],[-122.71969,38.3286],[-122.71855,38.3286],[-122.71797,38.32938]]],"type":"Polygon"},"properties":{"bbox":{"roads":{"area":724.66,"pct":2.79}},"city_same":1,"id":"hex:3497:24493"},"type":"Feature"},{"geometry":{"coordinates":[[[-122.71797,38.33094],[-122.71854,38.33172],[-122.71968,38.33172],[-122.72026,38.33094],[-122.71969,38.33016],[-122.71854,38.33016],[-122.71797,38.33094]]],"type":"Polygon"},"properties":{"bbox":{"roads":{"area":1532.14,"pct":5.9}},"city_same":1,"id":"hex:3497:24494"},"type":"Feature"},{"geometry":{"coordinates":[[[-122.71796,38.3325],[-122.71853,38.33328],[-122.71968,38.33328],[-122.72025,38.3325],[-122.71968,38.33172],[-122.71854,38.33172],[-122.71796,38.3325]]],"type":"Polygon"},"properties":{"bbox":{"roads":{"area":2456.34,"pct":9.45}},"city":{"roads":{"area":325.48,"pct":1.25}},"id":"hex:3497:24495"},"type":"Feature"},{"geometry":{"coordinates":[[[-122.71853,38.33328],[-122.71968,38.33328],[-122.72024,38.33406],[-122.71991,38.33452],[-122.71982,38.33452],[-122.7197,38.33449],[-122.71942,38.33442],[-122.7191,38.33433],[-122.71884,38.33426],[-122.71874,38.33424],[-122.71849,38.33414],[-122.71822,38.33404],[-122.71806,38.334],[-122.71801,38.33399],[-122.71853,38.33328]]],"type":"Polygon"},"properties":{"bbox":{"roads":{"area":4218.44,"pct":23.79}},"city_same":1,"id":"hex:3497:24496"},"type":"Feature"},{"geometry":{"coordinates":[[[-122.71966,38.33797],[-122.71851,38.33796],[-122.71794,38.33718],[-122.7182,38.33683],[-122.71841,38.33695],[-122.71874,38.33714],[-122.71899,38.33729],[-122.71934,38.33748],[-122.71981,38.33776],[-122.71966,38.33797]]],"type":"Polygon"},"properties":{"bbox":{"roads":{"area":710.91,"pct":6.72},"sidewalks":{"area":263.06,"pct":2.49}},"city_same":1,"id":"hex:3497:24498"},"type":"Feature"},{"geometry":{"coordinates":[[[-122.71794,38.33874],[-122.71851,38.33952],[-122.71965,38.33953],[-122.72023,38.33875],[-122.71966,38.33797],[-122.71851,38.33796],[-122.71794,38.33874]]],"type":"Polygon"},"properties":{"bbox":{"roads":{"area":2705.93,"pct":10.42},"sidewalks":{"area":512.72,"pct":1.97}},"city_same":1,"id":"hex:3497:24499"},"type":"Feature"},{"geometry":{"coordinates":[[[-122.71793,38.3403],[-122.7185,38.34108],[-122.71964,38.34109],[-122.72022,38.34031],[-122.71965,38.33953],[-122.71851,38.33952],[-122.71793,38.3403]]],"type":"Polygon"},"properties":{"bbox":{"roads":{"area":2198.21,"pct":8.46},"sidewalks":{"area":408.29,"pct":1.57}},"city_same":1,"id":"hex:3497:24500"},"type":"Feature"},{"geometry":{"coordinates":[[[-122.71793,38.34186],[-122.71849,38.34265],[-122.71964,38.34265],[-122.72021,38.34187],[-122.71964,38.34109],[-122.7185,38.34108],[-122.71793,38.34186]]],"type":"Polygon"},"properties":{"bbox":{"roads":{"area":2950.96,"pct":11.36},"sidewalks":{"area":280.01,"pct":1.08}},"city_same":1,"id":"hex:3497:24501"},"type":"Feature"},{"geometry":{"coordinates":[[[-122.71849,38.34265],[-122.71964,38.34265],[-122.71995,38.34307],[-122.71979,38.34307],[-122.71818,38.34308],[-122.71849,38.34265]]],"type":"Polygon"},"properties":{"bbox":{"roads":{"area":583,"pct":9.69}},"city_same":1,"id":"hex:3497:24502"},"type":"Feature"},{"geometry":{"coordinates":[[[-122.71799,38.32469],[-122.71685,38.32469],[-122.71633,38.32398],[-122.71667,38.32406],[-122.71811,38.32454],[-122.71799,38.32469]]],"type":"Polygon"},"properties":{"bbox":{"roads":{"area":166.4,"pct":2.85}},"city_same":1,"id":"hex:3498:24490"},"type":"Feature"},{"geometry":{"coordinates":[[[-122.71627,38.32547],[-122.71684,38.32625],[-122.71799,38.32625],[-122.71856,38.32548],[-122.71799,38.32469],[-122.71685,38.32469],[-122.71627,38.32547]]],"type":"Polygon"},"properties":{"bbox":{"roads":{"area":749.69,"pct":2.89}},"city_same":1,"id":"hex:3498:24491"},"type":"Feature"},{"geometry":{"coordinates":[[[-122.71627,38.32703],[-122.71684,38.32781],[-122.71798,38.32782],[-122.71856,38.32704],[-122.71799,38.32625],[-122.71684,38.32625],[-122.71627,38.32703]]],"type":"Polygon"},"properties":{"bbox":{"roads":{"area":1441.2,"pct":5.55}},"city_same":1,"id":"hex:3498:24492"},"type":"Feature"},{"geometry":{"coordinates":[[[-122.71626,38.32859],[-122.71683,38.32937],[-122.71797,38.32938],[-122.71855,38.3286],[-122.71798,38.32782],[-122.71684,38.32781],[-122.71626,38.32859]]],"type":"Polygon"},"properties":{"bbox":{"roads":{"area":1149.27,"pct":4.42}},"city_same":1,"id":"hex:3498:24493"},"type":"Feature"},{"geometry":{"coordinates":[[[-122.71625,38.33015],[-122.71682,38.33093],[-122.71797,38.33094],[-122.71854,38.33016],[-122.71797,38.32938],[-122.71683,38.32937],[-122.71625,38.33015]]],"type":"Polygon"},"properties":{"bbox":{"roads":{"area":2699.61,"pct":10.39}},"city_same":1,"id":"hex:3498:24494"},"type":"Feature"},{"geometry":{"coordinates":[[[-122.71625,38.33171],[-122.71682,38.3325],[-122.71796,38.3325],[-122.71854,38.33172],[-122.71797,38.33094],[-122.71682,38.33093],[-122.71625,38.33171]]],"type":"Polygon"},"properties":{"bbox":{"roads":{"area":3370.27,"pct":12.97},"sidewalks":{"area":9.46,"pct":0.04}},"city":{"roads":{"area":647.46,"pct":2.49},"sidewalks":{"area":9.46,"pct":0.04}},"id":"hex:3498:24495"},"type":"Feature"},{"geometry":{"coordinates":[[[-122.71681,38.33406],[-122.71624,38.33327],[-122.71682,38.3325],[-122.71796,38.3325],[-122.71853,38.33328],[-122.71801,38.33399],[-122.71786,38.33393],[-122.71755,38.3338],[-122.71723,38.33367],[-122.71685,38.33406],[-122.71681,38.33406]]],"type":"Polygon"},"properties":{"bbox":{"roads":{"area":315.5,"pct":1.34}},"city_same":1,"id":"hex:3498:24496"},"type":"Feature"},{"geometry":{"coordinates":[[[-122.71794,38.33718],[-122.7168,38.33718],[-122.71623,38.3364],[-122.71661,38.33589],[-122.71668,38.33593],[-122.71686,38.33604],[-122.71691,38.33607],[-122.71706,38.33616],[-122.71759,38.33648],[-122.71762,38.33649],[-122.71785,38.33664],[-122.7182,38.33683],[-122.71794,38.33718]]],"type":"Polygon"},"properties":{"bbox":{"roads":{"area":1524.51,"pct":11.07},"sidewalks":{"area":302.74,"pct":2.2}},"city_same":1,"id":"hex:3498:24498"},"type":"Feature"},{"geometry":{"coordinates":[[[-122.71622,38.33796],[-122.71679,38.33874],[-122.71794,38.33874],[-122.71851,38.33796],[-122.71794,38.33718],[-122.7168,38.33718],[-122.71622,38.33796]]],"type":"Polygon"},"properties":{"bbox":{"roads":{"area":3196.81,"pct":12.3},"sidewalks":{"area":818.55,"pct":3.15}},"city_same":1,"id":"hex:3498:24499"},"type":"Feature"},{"geometry":{"coordinates":[[[-122.71622,38.33952],[-122.71679,38.3403],[-122.71793,38.3403],[-122.71851,38.33952],[-122.71794,38.33874],[-122.71679,38.33874],[-122.71622,38.33952]]],"type":"Polygon"},"properties":{"bbox":{"roads":{"area":2017.88,"pct":7.77},"sidewalks":{"area":20.27,"pct":0.08}},"city_same":1,"id":"hex:3498:24500"},"type":"Feature"},{"geometry":{"coordinates":[[[-122.71621,38.34108],[-122.71678,38.34186],[-122.71793,38.34186],[-122.7185,38.34108],[-122.71793,38.3403],[-122.71679,38.3403],[-122.71621,38.34108]]],"type":"Polygon"},"properties":{"bbox":{"roads":{"area":3147.66,"pct":12.12}},"city_same":1,"id":"hex:3498:24501"},"type":"Feature"},{"geometry":{"coordinates":[[[-122.71621,38.34264],[-122.71678,38.34186],[-122.71793,38.34186],[-122.71849,38.34265],[-122.71818,38.34308],[-122.71653,38.34308],[-122.71621,38.34264]]],"type":"Polygon"},"properties":{"bbox":{"roads":{"area":2576.53,"pct":12.07},"sidewalks":{"area":482.45,"pct":2.26}},"city_same":1,"id":"hex:3498:24502"},"type":"Feature"},{"geometry":{"coordinates":[[[-122.71457,38.32156],[-122.71473,38.32135],[-122.71474,38.32135],[-122.71494,38.32139],[-122.71506,38.32142],[-122.71536,38.32149],[-122.71533,38.32155],[-122.71506,38.32223],[-122.71457,38.32156]]],"type":"Polygon"},"properties":{"bbox":{"roads":{"area":484.25,"pct":13.84}},"city":{"roads":{"area":226.54,"pct":6.47}},"id":"hex:3499:24488"},"type":"Feature"},{"geometry":{"coordinates":[[[-122.71685,38.32469],[-122.71627,38.32547],[-122.71513,38.32547],[-122.71456,38.32468],[-122.71514,38.32391],[-122.71602,38.32391],[-122.71633,38.32398],[-122.71685,38.32469]]],"type":"Polygon"},"properties":{"bbox":{"roads":{"area":701.64,"pct":2.71}},"city_same":1,"id":"hex:3499:24490"},"type":"Feature"},{"geometry":{"coordinates":[[[-122.71455,38.32625],[-122.71512,38.32703],[-122.71627,38.32703],[-122.71684,38.32625],[-122.71627,38.32547],[-122.71513,38.32547],[-122.71455,38.32625]]],"type":"Polygon"},"properties":{"bbox":{"roads":{"area":2443.12,"pct":9.4}},"city_same":1,"id":"hex:3499:24491"},"type":"Feature"},{"geometry":{"coordinates":[[[-122.71455,38.32781],[-122.71512,38.32859],[-122.71626,38.32859],[-122.71684,38.32781],[-122.71627,38.32703],[-122.71512,38.32703],[-122.71455,38.32781]]],"type":"Polygon"},"properties":{"bbox":{"roads":{"area":1721.78,"pct":6.63}},"city_same":1,"id":"hex:3499:24492"},"type":"Feature"},{"geometry":{"coordinates":[[[-122.71454,38.32937],[-122.71511,38.33015],[-122.71625,38.33015],[-122.71683,38.32937],[-122.71626,38.32859],[-122.71512,38.32859],[-122.71454,38.32937]]],"type":"Polygon"},"properties":{"bbox":{"roads":{"area":1850.53,"pct":7.12}},"city_same":1,"id":"hex:3499:24493"},"type":"Feature"},{"geometry":{"coordinates":[[[-122.71454,38.33093],[-122.7151,38.33171],[-122.71625,38.33171],[-122.71682,38.33093],[-122.71625,38.33015],[-122.71511,38.33015],[-122.71454,38.33093]]],"type":"Polygon"},"properties":{"bbox":{"roads":{"area":4393.09,"pct":16.91},"sidewalks":{"area":331.69,"pct":1.28}},"city":{"roads":{"area":2774.19,"pct":10.68},"sidewalks":{"area":331.69,"pct":1.28}},"id":"hex:3499:24494"},"type":"Feature"},{"geometry":{"coordinates":[[[-122.71453,38.33249],[-122.7151,38.33327],[-122.71624,38.33327],[-122.71682,38.3325],[-122.71625,38.33171],[-122.7151,38.33171],[-122.71453,38.33249]]],"type":"Polygon"},"properties":{"bbox":{"parking":{"area":2762.1,"pct":10.63},"roads":{"area":1813,"pct":6.98},"sidewalks":{"area":285.14,"pct":1.1}},"city":{"parking":{"area":2762.1,"pct":10.63},"roads":{"area":1057.72,"pct":4.07},"sidewalks":{"area":285.14,"pct":1.1}},"id":"hex:3499:24495"},"type":"Feature"},{"geometry":{"coordinates":[[[-122.71509,38.33483],[-122.71452,38.33405],[-122.7151,38.33327],[-122.71624,38.33327],[-122.71681,38.33406],[-122.71667,38.33425],[-122.71611,38.33484],[-122.71509,38.33483]]],"type":"Polygon"},"properties":{"bbox":{"parking":{"area":3908.43,"pct":15.26},"roads":{"area":1821.43,"pct":7.11}},"city_same":1,"id":"hex:3499:24496"},"type":"Feature"},{"geometry":{"coordinates":[[[-122.71623,38.3364],[-122.71509,38.33639],[-122.71452,38.33561],[-122.71509,38.33483],[-122.71611,38.33484],[-122.71571,38.33526],[-122.71569,38.33535],[-122.71586,38.33545],[-122.71596,38.33551],[-122.71601,38.33554],[-122.71615,38.33562],[-122.71655,38.33585],[-122.71661,38.33589],[-122.71623,38.3364]]],"type":"Polygon"},"properties":{"bbox":{"roads":{"area":881.95,"pct":4.35},"sidewalks":{"area":93.08,"pct":0.46}},"city_same":1,"id":"hex:3499:24497"},"type":"Feature"},{"geometry":{"coordinates":[[[-122.71451,38.33717],[-122.71508,38.33795],[-122.71622,38.33796],[-122.7168,38.33718],[-122.71623,38.3364],[-122.71509,38.33639],[-122.71451,38.33717]]],"type":"Polygon"},"properties":{"bbox":{"roads":{"area":2206.96,"pct":8.49},"sidewalks":{"area":132.25,"pct":0.51}},"city_same":1,"id":"hex:3499:24498"},"type":"Feature"},{"geometry":{"coordinates":[[[-122.7145,38.33873],[-122.71507,38.33952],[-122.71622,38.33952],[-122.71679,38.33874],[-122.71622,38.33796],[-122.71508,38.33795],[-122.7145,38.33873]]],"type":"Polygon"},"properties":{"bbox":{"roads":{"area":1835.79,"pct":7.07}},"city_same":1,"id":"hex:3499:24499"},"type":"Feature"},{"geometry":{"coordinates":[[[-122.7145,38.34029],[-122.71507,38.34108],[-122.71621,38.34108],[-122.71679,38.3403],[-122.71622,38.33952],[-122.71507,38.33952],[-122.7145,38.34029]]],"type":"Polygon"},"properties":{"bbox":{"roads":{"area":3743.12,"pct":14.41}},"city_same":1,"id":"hex:3499:24500"},"type":"Feature"},{"geometry":{"coordinates":[[[-122.71449,38.34186],[-122.71506,38.34264],[-122.71621,38.34264],[-122.71678,38.34186],[-122.71621,38.34108],[-122.71507,38.34108],[-122.71449,38.34186]]],"type":"Polygon"},"properties":{"bbox":{"roads":{"area":3081.94,"pct":11.86},"sidewalks":{"area":666.02,"pct":2.56}},"city_same":1,"id":"hex:3499:24501"},"type":"Feature"},{"geometry":{"coordinates":[[[-122.71506,38.34264],[-122.71621,38.34264],[-122.71653,38.34308],[-122.7162,38.34309],[-122.71473,38.34309],[-122.71506,38.34264]]],"type":"Polygon"},"properties":{"bbox":{"roads":{"area":344.24,"pct":5.36}},"city_same":1,"id":"hex:3499:24502"},"type":"Feature"},{"geometry":{"coordinates":[[[-122.71345,38.31688],[-122.71288,38.3161],[-122.71308,38.31582],[-122.71433,38.31658],[-122.71427,38.31688],[-122.71345,38.31688]]],"type":"Polygon"},"properties":{"bbox":{"roads":{"area":181.95,"pct":2.33}},"city_same":1,"id":"hex:3500:24485"},"type":"Feature"},{"geometry":{"coordinates":[[[-122.71344,38.31844],[-122.71287,38.31766],[-122.71345,38.31688],[-122.71427,38.31688],[-122.71423,38.31704],[-122.71419,38.31775],[-122.71384,38.31844],[-122.71344,38.31844]]],"type":"Polygon"},"properties":{"bbox":{"roads":{"area":921.89,"pct":6.26}},"city_same":1,"id":"hex:3500:24486"},"type":"Feature"},{"geometry":{"coordinates":[[[-122.71287,38.31922],[-122.71344,38.31844],[-122.71384,38.31844],[-122.71345,38.31921],[-122.71327,38.31978],[-122.71287,38.31922]]],"type":"Polygon"},"properties":{"bbox":{"roads":{"area":1062.2,"pct":20.07}},"city_same":1,"id":"hex:3500:24487"},"type":"Feature"},{"geometry":{"coordinates":[[[[-122.71286,38.32078],[-122.71303,38.32055],[-122.71293,38.32087],[-122.71286,38.32078]]],[[[-122.71457,38.32156],[-122.71343,38.32156],[-122.71326,38.32133],[-122.71348,38.32133],[-122.71358,38.32133],[-122.71371,38.32133],[-122.71375,38.32133],[-122.71379,38.32133],[-122.71402,38.32133],[-122.7141,38.32133],[-122.71417,38.32133],[-122.71423,38.32133],[-122.71434,38.32133],[-122.71442,38.32133],[-122.71461,38.32133],[-122.71473,38.32135],[-122.71457,38.32156]]]],"type":"MultiPolygon"},"properties":{"bbox":{"roads":{"area":1177.16,"pct":37.83}},"city":{"roads":{"area":151.82,"pct":4.88}},"id":"hex:3500:24488"},"type":"Feature"},{"geometry":{"coordinates":[[[-122.71457,38.32312],[-122.71342,38.32312],[-122.71285,38.32234],[-122.71343,38.32156],[-122.71457,38.32156],[-122.71506,38.32223],[-122.71487,38.32272],[-122.71457,38.32312]]],"type":"Polygon"},"properties":{"bbox":{"roads":{"area":4281.65,"pct":16.67}},"city":{"roads":{"area":1057.29,"pct":4.12}},"id":"hex:3500:24489"},"type":"Feature"},{"geometry":{"coordinates":[[[-122.71514,38.32391],[-122.71456,38.32468],[-122.71342,38.32468],[-122.71285,38.3239],[-122.71342,38.32312],[-122.71457,38.32312],[-122.71466,38.32325],[-122.71453,38.32355],[-122.71496,38.32366],[-122.71514,38.32391]]],"type":"Polygon"},"properties":{"bbox":{"roads":{"area":2546.9,"pct":10.07}},"city":{"roads":{"area":1393.1,"pct":5.51}},"id":"hex:3500:24490"},"type":"Feature"},{"geometry":{"coordinates":[[[-122.71284,38.32546],[-122.71341,38.32624],[-122.71455,38.32625],[-122.71513,38.32547],[-122.71456,38.32468],[-122.71342,38.32468],[-122.71284,38.32546]]],"type":"Polygon"},"properties":{"bbox":{"roads":{"area":1630.72,"pct":6.28}},"city":{"roads":{"area":1396.02,"pct":5.37}},"id":"hex:3500:24491"},"type":"Feature"},{"geometry":{"coordinates":[[[-122.71283,38.32702],[-122.7134,38.3278],[-122.71455,38.32781],[-122.71512,38.32703],[-122.71455,38.32625],[-122.71341,38.32624],[-122.71283,38.32702]]],"type":"Polygon"},"properties":{"bbox":{"roads":{"area":2094.01,"pct":8.06}},"city":{"roads":{"area":1983.41,"pct":7.63}},"id":"hex:3500:24492"},"type":"Feature"},{"geometry":{"coordinates":[[[-122.71283,38.32858],[-122.7134,38.32937],[-122.71454,38.32937],[-122.71512,38.32859],[-122.71455,38.32781],[-122.7134,38.3278],[-122.71283,38.32858]]],"type":"Polygon"},"properties":{"bbox":{"roads":{"area":1605.92,"pct":6.18}},"city":{"roads":{"area":1239.34,"pct":4.77}},"id":"hex:3500:24493"},"type":"Feature"},{"geometry":{"coordinates":[[[-122.71282,38.33014],[-122.71339,38.33093],[-122.71454,38.33093],[-122.71511,38.33015],[-122.71454,38.32937],[-122.7134,38.32937],[-122.71282,38.33014]]],"type":"Polygon"},"properties":{"bbox":{"roads":{"area":1921.74,"pct":7.4}},"city":{"roads":{"area":639.99,"pct":2.46}},"id":"hex:3500:24494"},"type":"Feature"},{"geometry":{"coordinates":[[[-122.71282,38.33171],[-122.71339,38.33249],[-122.71453,38.33249],[-122.7151,38.33171],[-122.71454,38.33093],[-122.71339,38.33093],[-122.71282,38.33171]]],"type":"Polygon"},"properties":{"bbox":{"roads":{"area":6384.86,"pct":24.58},"sidewalks":{"area":476.77,"pct":1.84}},"city":{"roads":{"area":1225.43,"pct":4.72},"sidewalks":{"area":476.77,"pct":1.84}},"id":"hex:3500:24495"},"type":"Feature"},{"geometry":{"coordinates":[[[-122.71281,38.33327],[-122.71338,38.33405],[-122.71452,38.33405],[-122.7151,38.33327],[-122.71453,38.33249],[-122.71339,38.33249],[-122.71281,38.33327]]],"type":"Polygon"},"properties":{"bbox":{"parking":{"area":12016.24,"pct":46.25},"roads":{"area":5601.1,"pct":21.56},"sidewalks":{"area":296.48,"pct":1.14}},"city":{"parking":{"area":12016.24,"pct":46.25},"roads":{"area":2862.27,"pct":11.02},"sidewalks":{"area":296.48,"pct":1.14}},"id":"hex:3500:24496"},"type":"Feature"},{"geometry":{"coordinates":[[[-122.7128,38.33483],[-122.71337,38.33561],[-122.71452,38.33561],[-122.71509,38.33483],[-122.71452,38.33405],[-122.71338,38.33405],[-122.7128,38.33483]]],"type":"Polygon"},"properties":{"bbox":{"parking":{"area":2065.86,"pct":7.95},"roads":{"area":3990.33,"pct":15.36},"sidewalks":{"area":226.63,"pct":0.87}},"city":{"parking":{"area":2065.86,"pct":7.95},"roads":{"area":2353.43,"pct":9.06},"sidewalks":{"area":226.63,"pct":0.87}},"id":"hex:3500:24497"},"type":"Feature"},{"geometry":{"coordinates":[[[-122.7128,38.33639],[-122.71337,38.33717],[-122.71451,38.33717],[-122.71509,38.33639],[-122.71452,38.33561],[-122.71337,38.33561],[-122.7128,38.33639]]],"type":"Polygon"},"properties":{"bbox":{"roads":{"area":3279.09,"pct":12.62}},"city":{"roads":{"area":1588.94,"pct":6.12}},"id":"hex:3500:24498"},"type":"Feature"},{"geometry":{"coordinates":[[[-122.71279,38.33795],[-122.71336,38.33873],[-122.7145,38.33873],[-122.71508,38.33795],[-122.71451,38.33717],[-122.71337,38.33717],[-122.71279,38.33795]]],"type":"Polygon"},"properties":{"bbox":{"roads":{"area":4798.13,"pct":18.47},"sidewalks":{"area":250.37,"pct":0.96}},"city":{"roads":{"area":1976.51,"pct":7.61},"sidewalks":{"area":250.37,"pct":0.96}},"id":"hex:3500:24499"},"type":"Feature"},{"geometry":{"coordinates":[[[-122.71279,38.33951],[-122.71335,38.34029],[-122.7145,38.34029],[-122.71507,38.33952],[-122.7145,38.33873],[-122.71336,38.33873],[-122.71279,38.33951]]],"type":"Polygon"},"properties":{"bbox":{"roads":{"area":5710.27,"pct":21.98},"sidewalks":{"area":231.3,"pct":0.89}},"city":{"roads":{"area":2576.94,"pct":9.92},"sidewalks":{"area":231.3,"pct":0.89}},"id":"hex:3500:24500"},"type":"Feature"},{"geometry":{"coordinates":[[[-122.71335,38.34029],[-122.7145,38.34029],[-122.71507,38.34108],[-122.71449,38.34186],[-122.71335,38.34185],[-122.71278,38.34107],[-122.71278,38.34107],[-122.71335,38.34029]]],"type":"Polygon"},"properties":{"bbox":{"roads":{"area":5946.34,"pct":22.89},"sidewalks":{"area":367.4,"pct":1.41}},"city":{"roads":{"area":3048.19,"pct":11.73},"sidewalks":{"area":367.4,"pct":1.41}},"id":"hex:3500:24501"},"type":"Feature"},{"geometry":{"coordinates":[[[-122.71335,38.34185],[-122.71449,38.34186],[-122.71506,38.34264],[-122.71473,38.34309],[-122.71333,38.3431],[-122.71333,38.34308],[-122.71325,38.34289],[-122.71323,38.34286],[-122.71304,38.34246],[-122.71299,38.34234],[-122.71335,38.34185]]],"type":"Polygon"},"properties":{"bbox":{"roads":{"area":3286.51,"pct":16.53},"sidewalks":{"area":187.01,"pct":0.94}},"city":{"roads":{"area":1340.6,"pct":6.74},"sidewalks":{"area":187.01,"pct":0.94}},"id":"hex:3500:24502"},"type":"Feature"},{"geometry":{"coordinates":[[[-122.71288,38.3161],[-122.71173,38.31609],[-122.71126,38.31544],[-122.71302,38.31503],[-122.71315,38.315],[-122.7131,38.31508],[-122.71304,38.31518],[-122.71301,38.31524],[-122.71292,38.3154],[-122.71289,38.31545],[-122.7128,38.31562],[-122.71279,38.31564],[-122.71308,38.31582],[-122.71288,38.3161]]],"type":"Polygon"},"properties":{"bbox":{"roads":{"area":456.79,"pct":3.63}},"city_same":1,"id":"hex:3501:24484"},"type":"Feature"},{"geometry":{"coordinates":[[[-122.71116,38.31687],[-122.71173,38.31765],[-122.71287,38.31766],[-122.71345,38.31688],[-122.71288,38.3161],[-122.71173,38.31609],[-122.71116,38.31687]]],"type":"Polygon"},"properties":{"bbox":{"roads":{"area":2574.56,"pct":9.91}},"city_same":1,"id":"hex:3501:24485"},"type":"Feature"},{"geometry":{"coordinates":[[[-122.71115,38.31843],[-122.71172,38.31921],[-122.71287,38.31922],[-122.71344,38.31844],[-122.71287,38.31766],[-122.71173,38.31765],[-122.71115,38.31843]]],"type":"Polygon"},"properties":{"bbox":{"roads":{"area":2104.62,"pct":8.1}},"city_same":1,"id":"hex:3501:24486"},"type":"Feature"},{"geometry":{"coordinates":[[[-122.71286,38.32078],[-122.71172,38.32078],[-122.71115,38.31999],[-122.71172,38.31921],[-122.71287,38.31922],[-122.71327,38.31978],[-122.71303,38.32055],[-122.71286,38.32078]]],"type":"Polygon"},"properties":{"bbox":{"roads":{"area":3751,"pct":14.94}},"city_same":1,"id":"hex:3501:24487"},"type":"Feature"},{"geometry":{"coordinates":[[[-122.71343,38.32156],[-122.71285,38.32234],[-122.71171,38.32234],[-122.71114,38.32155],[-122.71172,38.32078],[-122.71286,38.32078],[-122.71293,38.32087],[-122.71286,38.32109],[-122.71306,38.32133],[-122.71319,38.32133],[-122.71326,38.32133],[-122.71343,38.32156]]],"type":"Polygon"},"properties":{"bbox":{"roads":{"area":3444.54,"pct":13.64}},"city":{"roads":{"area":2132.09,"pct":8.45}},"id":"hex:3501:24488"},"type":"Feature"},{"geometry":{"coordinates":[[[-122.71113,38.32312],[-122.7117,38.3239],[-122.71285,38.3239],[-122.71342,38.32312],[-122.71285,38.32234],[-122.71171,38.32234],[-122.71113,38.32312]]],"type":"Polygon"},"properties":{"bbox":{"roads":{"area":3585.38,"pct":13.8}},"city":{"roads":{"area":1683.41,"pct":6.48}},"id":"hex:3501:24489"},"type":"Feature"},{"geometry":{"coordinates":[[[-122.71113,38.32468],[-122.7117,38.32546],[-122.71284,38.32546],[-122.71342,38.32468],[-122.71285,38.3239],[-122.7117,38.3239],[-122.71113,38.32468]]],"type":"Polygon"},"properties":{"bbox":{"roads":{"area":5155.1,"pct":19.84}},"city":{"roads":{"area":1855.77,"pct":7.14}},"id":"hex:3501:24490"},"type":"Feature"},{"geometry":{"coordinates":[[[-122.71112,38.32624],[-122.71169,38.32702],[-122.71283,38.32702],[-122.71341,38.32624],[-122.71284,38.32546],[-122.7117,38.32546],[-122.71112,38.32624]]],"type":"Polygon"},"properties":{"bbox":{"roads":{"area":4663.9,"pct":17.95}},"city":{"roads":{"area":975.71,"pct":3.76}},"id":"hex:3501:24491"},"type":"Feature"},{"geometry":{"coordinates":[[[-122.71112,38.3278],[-122.71168,38.32858],[-122.71283,38.32858],[-122.7134,38.3278],[-122.71283,38.32702],[-122.71169,38.32702],[-122.71112,38.3278]]],"type":"Polygon"},"properties":{"bbox":{"roads":{"area":6793.02,"pct":26.15}},"city":{"roads":{"area":2478.62,"pct":9.54}},"id":"hex:3501:24492"},"type":"Feature"},{"geometry":{"coordinates":[[[-122.71111,38.32936],[-122.71168,38.33014],[-122.71282,38.33014],[-122.7134,38.32937],[-122.71283,38.32858],[-122.71168,38.32858],[-122.71111,38.32936]]],"type":"Polygon"},"properties":{"bbox":{"parking":{"area":1304.03,"pct":5.02},"roads":{"area":7507.27,"pct":28.9}},"city":{"parking":{"area":1304.03,"pct":5.02},"roads":{"area":1362.38,"pct":5.24}},"id":"hex:3501:24493"},"type":"Feature"},{"geometry":{"coordinates":[[[-122.7111,38.33092],[-122.71167,38.3317],[-122.71282,38.33171],[-122.71339,38.33093],[-122.71282,38.33014],[-122.71168,38.33014],[-122.7111,38.33092]]],"type":"Polygon"},"properties":{"bbox":{"parking":{"area":1782.46,"pct":6.86},"roads":{"area":8520.89,"pct":32.8},"sidewalks":{"area":496.1,"pct":1.91}},"city":{"parking":{"area":1782.46,"pct":6.86},"roads":{"area":2490.28,"pct":9.59},"sidewalks":{"area":496.1,"pct":1.91}},"id":"hex:3501:24494"},"type":"Feature"},{"geometry":{"coordinates":[[[-122.7111,38.33248],[-122.71167,38.33326],[-122.71281,38.33327],[-122.71339,38.33249],[-122.71282,38.33171],[-122.71167,38.3317],[-122.7111,38.33248]]],"type":"Polygon"},"properties":{"bbox":{"roads":{"area":7560.62,"pct":29.1},"sidewalks":{"area":225.7,"pct":0.87}},"city":{"roads":{"area":2644.1,"pct":10.18},"sidewalks":{"area":225.7,"pct":0.87}},"id":"hex:3501:24495"},"type":"Feature"},{"geometry":{"coordinates":[[[-122.71109,38.33404],[-122.71166,38.33482],[-122.7128,38.33483],[-122.71338,38.33405],[-122.71281,38.33327],[-122.71167,38.33326],[-122.71109,38.33404]]],"type":"Polygon"},"properties":{"bbox":{"parking":{"area":0.9,"pct":0},"roads":{"area":8213.95,"pct":31.62},"sidewalks":{"area":449.81,"pct":1.73}},"city":{"parking":{"area":0.9,"pct":0},"roads":{"area":3751.23,"pct":14.44},"sidewalks":{"area":449.81,"pct":1.73}},"id":"hex:3501:24496"},"type":"Feature"},{"geometry":{"coordinates":[[[-122.71166,38.33482],[-122.7128,38.33483],[-122.71337,38.33561],[-122.7128,38.33639],[-122.71239,38.33639],[-122.71239,38.33622],[-122.71237,38.33618],[-122.71229,38.336],[-122.71225,38.33594],[-122.71221,38.33587],[-122.71201,38.33547],[-122.7119,38.3354],[-122.71181,38.33535],[-122.71178,38.33533],[-122.71152,38.33527],[-122.71141,38.33525],[-122.71134,38.33525],[-122.71166,38.33482]]],"type":"Polygon"},"properties":{"bbox":{"parking":{"area":133.33,"pct":0.79},"roads":{"area":6477.82,"pct":38.48},"sidewalks":{"area":187.52,"pct":1.11}},"city":{"parking":{"area":133.33,"pct":0.79},"roads":{"area":1579.22,"pct":9.38},"sidewalks":{"area":187.52,"pct":1.11}},"id":"hex:3501:24497"},"type":"Feature"},{"geometry":{"coordinates":[[[-122.7128,38.33639],[-122.71337,38.33717],[-122.71279,38.33795],[-122.71274,38.33795],[-122.71273,38.33704],[-122.71264,38.33704],[-122.71254,38.33704],[-122.71243,38.33696],[-122.7124,38.33691],[-122.71239,38.33639],[-122.7128,38.33639]]],"type":"Polygon"},"properties":{"bbox":{"roads":{"area":4080.15,"pct":56.04},"sidewalks":{"area":12.07,"pct":0.17}},"city":{"sidewalks":{"area":12.07,"pct":0.17}},"id":"hex:3501:24498"},"type":"Feature"},{"geometry":{"coordinates":[[[-122.71279,38.33795],[-122.71336,38.33873],[-122.71279,38.33951],[-122.71276,38.33951],[-122.71274,38.33795],[-122.71279,38.33795]]],"type":"Polygon"},"properties":{"bbox":{"roads":{"area":3404.5,"pct":69.69},"sidewalks":{"area":5.08,"pct":0.1}},"city":{"sidewalks":{"area":5.08,"pct":0.1}},"id":"hex:3501:24499"},"type":"Feature"},{"geometry":{"coordinates":[[[-122.71279,38.33951],[-122.71335,38.34029],[-122.71278,38.34107],[-122.71277,38.34045],[-122.71276,38.33951],[-122.71279,38.33951]]],"type":"Polygon"},"properties":{"bbox":{"roads":{"area":3064.88,"pct":67.97}},"id":"hex:3501:24500"},"type":"Feature"},{"geometry":{"coordinates":[[[-122.71335,38.34185],[-122.71299,38.34234],[-122.71279,38.34191],[-122.71278,38.34107],[-122.71335,38.34185]]],"type":"Polygon"},"properties":{"bbox":{"roads":{"area":2373.5,"pct":68.45}},"city":{"roads":{"area":3.1,"pct":0.09}},"id":"hex:3501:24501"},"type":"Feature"},{"geometry":{"coordinates":[[[-122.71173,38.31609],[-122.71116,38.31687],[-122.71001,38.31687],[-122.70945,38.31609],[-122.70964,38.31582],[-122.71121,38.31545],[-122.71126,38.31544],[-122.71173,38.31609]]],"type":"Polygon"},"properties":{"bbox":{"roads":{"area":2002.97,"pct":9.13}},"city_same":1,"id":"hex:3502:24485"},"type":"Feature"},{"geometry":{"coordinates":[[[-122.70944,38.31765],[-122.71001,38.31843],[-122.71115,38.31843],[-122.71173,38.31765],[-122.71116,38.31687],[-122.71001,38.31687],[-122.70944,38.31765]]],"type":"Polygon"},"properties":{"bbox":{"roads":{"area":1068.4,"pct":4.11}},"city_same":1,"id":"hex:3502:24486"},"type":"Feature"},{"geometry":{"coordinates":[[[-122.70943,38.31921],[-122.71,38.31999],[-122.71115,38.31999],[-122.71172,38.31921],[-122.71115,38.31843],[-122.71001,38.31843],[-122.70943,38.31921]]],"type":"Polygon"},"properties":{"bbox":{"roads":{"area":200.56,"pct":0.77}},"city_same":1,"id":"hex:3502:24487"},"type":"Feature"},{"geometry":{"coordinates":[[[-122.70943,38.32077],[-122.71,38.32155],[-122.71114,38.32155],[-122.71172,38.32078],[-122.71115,38.31999],[-122.71,38.31999],[-122.70943,38.32077]]],"type":"Polygon"},"properties":{"bbox":{"roads":{"area":2817.32,"pct":10.84}},"city_same":1,"id":"hex:3502:24488"},"type":"Feature"},{"geometry":{"coordinates":[[[-122.70942,38.32233],[-122.70999,38.32311],[-122.71113,38.32312],[-122.71171,38.32234],[-122.71114,38.32155],[-122.71,38.32155],[-122.70942,38.32233]]],"type":"Polygon"},"properties":{"bbox":{"roads":{"area":3012.8,"pct":11.6}},"city":{"roads":{"area":1775.01,"pct":6.83}},"id":"hex:3502:24489"},"type":"Feature"},{"geometry":{"coordinates":[[[-122.70941,38.32389],[-122.70998,38.32467],[-122.71113,38.32468],[-122.7117,38.3239],[-122.71113,38.32312],[-122.70999,38.32311],[-122.70941,38.32389]]],"type":"Polygon"},"properties":{"bbox":{"parking":{"area":210.06,"pct":0.81},"roads":{"area":1501.45,"pct":5.78}},"city_same":1,"id":"hex:3502:24490"},"type":"Feature"},{"geometry":{"coordinates":[[[-122.70941,38.32545],[-122.70998,38.32623],[-122.71112,38.32624],[-122.7117,38.32546],[-122.71113,38.32468],[-122.70998,38.32467],[-122.70941,38.32545]]],"type":"Polygon"},"properties":{"bbox":{"roads":{"area":1474.98,"pct":5.68}},"city_same":1,"id":"hex:3502:24491"},"type":"Feature"},{"geometry":{"coordinates":[[[-122.7094,38.32701],[-122.70997,38.3278],[-122.71112,38.3278],[-122.71169,38.32702],[-122.71112,38.32624],[-122.70998,38.32623],[-122.7094,38.32701]]],"type":"Polygon"},"properties":{"bbox":{"roads":{"area":2205.72,"pct":8.49}},"city_same":1,"id":"hex:3502:24492"},"type":"Feature"},{"geometry":{"coordinates":[[[-122.70939,38.33014],[-122.70996,38.33092],[-122.7111,38.33092],[-122.71168,38.33014],[-122.71111,38.32936],[-122.70997,38.32936],[-122.70939,38.33014]]],"type":"Polygon"},"properties":{"bbox":{"parking":{"area":1755.59,"pct":6.76},"roads":{"area":3050.26,"pct":11.74},"sidewalks":{"area":429.73,"pct":1.65}},"city":{"parking":{"area":1755.59,"pct":6.76},"roads":{"area":1431.87,"pct":5.51},"sidewalks":{"area":429.73,"pct":1.65}},"id":"hex:3502:24494"},"type":"Feature"},{"geometry":{"coordinates":[[[-122.70938,38.3317],[-122.70995,38.33248],[-122.7111,38.33248],[-122.71167,38.3317],[-122.7111,38.33092],[-122.70996,38.33092],[-122.70938,38.3317]]],"type":"Polygon"},"properties":{"bbox":{"parking":{"area":2251.23,"pct":8.66},"roads":{"area":5588.85,"pct":21.51},"sidewalks":{"area":431.23,"pct":1.66}},"city":{"parking":{"area":2251.23,"pct":8.66},"roads":{"area":5194.62,"pct":19.99},"sidewalks":{"area":431.23,"pct":1.66}},"id":"hex:3502:24495"},"type":"Feature"},{"geometry":{"coordinates":[[[-122.70938,38.33326],[-122.70995,38.33404],[-122.71109,38.33404],[-122.71167,38.33326],[-122.7111,38.33248],[-122.70995,38.33248],[-122.70938,38.33326]]],"type":"Polygon"},"properties":{"bbox":{"roads":{"area":2147.86,"pct":8.27},"sidewalks":{"area":208.29,"pct":0.8}},"city_same":1,"id":"hex:3502:24496"},"type":"Feature"},{"geometry":{"coordinates":[[[-122.70995,38.33404],[-122.71109,38.33404],[-122.71166,38.33482],[-122.71134,38.33525],[-122.71071,38.33525],[-122.71058,38.33524],[-122.71045,38.33521],[-122.71012,38.3351],[-122.70981,38.33498],[-122.70965,38.33492],[-122.70939,38.33479],[-122.70995,38.33404]]],"type":"Polygon"},"properties":{"bbox":{"parking":{"area":1437.02,"pct":7.43},"roads":{"area":1902.49,"pct":9.83},"sidewalks":{"area":277.5,"pct":1.43}},"city_same":1,"id":"hex:3502:24497"},"type":"Feature"},{"geometry":{"coordinates":[[[-122.70945,38.31609],[-122.71001,38.31687],[-122.70944,38.31765],[-122.7083,38.31765],[-122.70773,38.31686],[-122.70826,38.31614],[-122.70854,38.31608],[-122.70945,38.31609]]],"type":"Polygon"},"properties":{"bbox":{"roads":{"area":419.14,"pct":1.62}},"city_same":1,"id":"hex:3503:24485"},"type":"Feature"},{"geometry":{"coordinates":[[[-122.70772,38.31842],[-122.70829,38.31921],[-122.70943,38.31921],[-122.71001,38.31843],[-122.70944,38.31765],[-122.7083,38.31765],[-122.70772,38.31842]]],"type":"Polygon"},"properties":{"bbox":{"roads":{"area":2172.8,"pct":8.36}},"city_same":1,"id":"hex:3503:24486"},"type":"Feature"},{"geometry":{"coordinates":[[[-122.70771,38.31999],[-122.70828,38.32077],[-122.70943,38.32077],[-122.71,38.31999],[-122.70943,38.31921],[-122.70829,38.31921],[-122.70771,38.31999]]],"type":"Polygon"},"properties":{"bbox":{"roads":{"area":1622.7,"pct":6.25}},"city_same":1,"id":"hex:3503:24487"},"type":"Feature"},{"geometry":{"coordinates":[[[-122.70771,38.32155],[-122.70828,38.32233],[-122.70942,38.32233],[-122.71,38.32155],[-122.70943,38.32077],[-122.70828,38.32077],[-122.70771,38.32155]]],"type":"Polygon"},"properties":{"bbox":{"roads":{"area":650.74,"pct":2.5}},"city_same":1,"id":"hex:3503:24488"},"type":"Feature"},{"geometry":{"coordinates":[[[-122.7077,38.32311],[-122.70827,38.32389],[-122.70941,38.32389],[-122.70999,38.32311],[-122.70942,38.32233],[-122.70828,38.32233],[-122.7077,38.32311]]],"type":"Polygon"},"properties":{"bbox":{"roads":{"area":3164.85,"pct":12.18},"sidewalks":{"area":42.99,"pct":0.17}},"city":{"roads":{"area":1927.32,"pct":7.42},"sidewalks":{"area":42.99,"pct":0.17}},"id":"hex:3503:24489"},"type":"Feature"},{"geometry":{"coordinates":[[[-122.7077,38.32467],[-122.70826,38.32545],[-122.70941,38.32545],[-122.70998,38.32467],[-122.70941,38.32389],[-122.70827,38.32389],[-122.7077,38.32467]]],"type":"Polygon"},"properties":{"bbox":{"parking":{"area":83.17,"pct":0.32},"roads":{"area":1666.7,"pct":6.42},"sidewalks":{"area":10.37,"pct":0.04}},"city_same":1,"id":"hex:3503:24490"},"type":"Feature"},{"geometry":{"coordinates":[[[-122.70769,38.32623],[-122.70826,38.32701],[-122.7094,38.32701],[-122.70998,38.32623],[-122.70941,38.32545],[-122.70826,38.32545],[-122.70769,38.32623]]],"type":"Polygon"},"properties":{"bbox":{"roads":{"area":2703.54,"pct":10.41}},"city_same":1,"id":"hex:3503:24491"},"type":"Feature"},{"geometry":{"coordinates":[[[-122.70768,38.32779],[-122.70825,38.32857],[-122.7094,38.32857],[-122.70997,38.3278],[-122.7094,38.32701],[-122.70826,38.32701],[-122.70768,38.32779]]],"type":"Polygon"},"properties":{"bbox":{"roads":{"area":2480.66,"pct":9.55},"sidewalks":{"area":293.46,"pct":1.13}},"city":{"roads":{"area":2476.06,"pct":9.53},"sidewalks":{"area":293.46,"pct":1.13}},"id":"hex:3503:24492"},"type":"Feature"},{"geometry":{"coordinates":[[[-122.70768,38.32935],[-122.70825,38.33013],[-122.70939,38.33014],[-122.70997,38.32936],[-122.7094,38.32857],[-122.70825,38.32857],[-122.70768,38.32935]]],"type":"Polygon"},"properties":{"bbox":{"roads":{"area":3347.36,"pct":12.88},"sidewalks":{"area":567.01,"pct":2.18}},"city":{"roads":{"area":1971.93,"pct":7.59},"sidewalks":{"area":567.01,"pct":2.18}},"id":"hex:3503:24493"},"type":"Feature"},{"geometry":{"coordinates":[[[-122.70767,38.33091],[-122.70824,38.33169],[-122.70938,38.3317],[-122.70996,38.33092],[-122.70939,38.33014],[-122.70825,38.33013],[-122.70767,38.33091]]],"type":"Polygon"},"properties":{"bbox":{"parking":{"area":1624.55,"pct":6.25},"roads":{"area":2806.26,"pct":10.8}},"city_same":1,"id":"hex:3503:24494"},"type":"Feature"},{"geometry":{"coordinates":[[[-122.70766,38.33247],[-122.70823,38.33325],[-122.70938,38.33326],[-122.70995,38.33248],[-122.70938,38.3317],[-122.70824,38.33169],[-122.70766,38.33247]]],"type":"Polygon"},"properties":{"bbox":{"roads":{"area":2521.64,"pct":9.71},"sidewalks":{"area":6.05,"pct":0.02}},"city_same":1,"id":"hex:3503:24495"},"type":"Feature"},{"geometry":{"coordinates":[[[-122.70823,38.33325],[-122.70938,38.33326],[-122.70995,38.33404],[-122.70939,38.33479],[-122.7092,38.33469],[-122.70911,38.33464],[-122.70906,38.33461],[-122.70901,38.33458],[-122.70868,38.33431],[-122.70856,38.3342],[-122.70851,38.33416],[-122.70848,38.33414],[-122.7084,38.33402],[-122.70837,38.33397],[-122.70835,38.33393],[-122.70828,38.33381],[-122.70825,38.33377],[-122.70817,38.33363],[-122.70809,38.33351],[-122.70808,38.33347],[-122.70823,38.33325]]],"type":"Polygon"},"properties":{"bbox":{"roads":{"area":776.5,"pct":4.56}},"city_same":1,"id":"hex:3503:24496"},"type":"Feature"},{"geometry":{"coordinates":[[[-122.70773,38.31686],[-122.70658,38.31686],[-122.70634,38.31653],[-122.70744,38.3163],[-122.70826,38.31614],[-122.70773,38.31686]]],"type":"Polygon"},"properties":{"bbox":{"roads":{"area":880.7,"pct":11.59}},"city_same":1,"id":"hex:3504:24485"},"type":"Feature"},{"geometry":{"coordinates":[[[-122.70601,38.31764],[-122.70658,38.31842],[-122.70772,38.31842],[-122.7083,38.31765],[-122.70773,38.31686],[-122.70658,38.31686],[-122.70601,38.31764]]],"type":"Polygon"},"properties":{"bbox":{"roads":{"area":1694.93,"pct":6.52}},"city_same":1,"id":"hex:3504:24486"},"type":"Feature"},{"geometry":{"coordinates":[[[-122.706,38.3192],[-122.70657,38.31998],[-122.70771,38.31999],[-122.70829,38.31921],[-122.70772,38.31842],[-122.70658,38.31842],[-122.706,38.3192]]],"type":"Polygon"},"properties":{"bbox":{"roads":{"area":495.35,"pct":1.91}},"city_same":1,"id":"hex:3504:24487"},"type":"Feature"},{"geometry":{"coordinates":[[[-122.70599,38.32232],[-122.70656,38.3231],[-122.7077,38.32311],[-122.70828,38.32233],[-122.70771,38.32155],[-122.70656,38.32154],[-122.70599,38.32232]]],"type":"Polygon"},"properties":{"bbox":{"roads":{"area":1598.79,"pct":6.15}},"city_same":1,"id":"hex:3504:24489"},"type":"Feature"},{"geometry":{"coordinates":[[[-122.70598,38.32388],[-122.70655,38.32467],[-122.7077,38.32467],[-122.70827,38.32389],[-122.7077,38.32311],[-122.70656,38.3231],[-122.70598,38.32388]]],"type":"Polygon"},"properties":{"bbox":{"roads":{"area":2238.89,"pct":8.62},"sidewalks":{"area":345.08,"pct":1.33}},"city":{"roads":{"area":1325.59,"pct":5.1},"sidewalks":{"area":345.08,"pct":1.33}},"id":"hex:3504:24490"},"type":"Feature"},{"geometry":{"coordinates":[[[-122.70598,38.32544],[-122.70655,38.32623],[-122.70769,38.32623],[-122.70826,38.32545],[-122.7077,38.32467],[-122.70655,38.32467],[-122.70598,38.32544]]],"type":"Polygon"},"properties":{"bbox":{"parking":{"area":1689.55,"pct":6.5},"roads":{"area":3521.13,"pct":13.55},"sidewalks":{"area":488.58,"pct":1.88}},"city":{"parking":{"area":1689.55,"pct":6.5},"roads":{"area":2171.98,"pct":8.36},"sidewalks":{"area":488.58,"pct":1.88}},"id":"hex:3504:24491"},"type":"Feature"},{"geometry":{"coordinates":[[[-122.70597,38.32701],[-122.70654,38.32779],[-122.70768,38.32779],[-122.70826,38.32701],[-122.70769,38.32623],[-122.70655,38.32623],[-122.70597,38.32701]]],"type":"Polygon"},"properties":{"bbox":{"parking":{"area":509.73,"pct":1.96},"roads":{"area":5455.63,"pct":21},"sidewalks":{"area":568.53,"pct":2.19}},"city":{"parking":{"area":509.73,"pct":1.96},"roads":{"area":1992.63,"pct":7.67},"sidewalks":{"area":568.53,"pct":2.19}},"id":"hex:3504:24492"},"type":"Feature"},{"geometry":{"coordinates":[[[-122.70596,38.32857],[-122.70653,38.32935],[-122.70768,38.32935],[-122.70825,38.32857],[-122.70768,38.32779],[-122.70654,38.32779],[-122.70596,38.32857]]],"type":"Polygon"},"properties":{"bbox":{"parking":{"area":430.79,"pct":1.66},"roads":{"area":3455.88,"pct":13.3},"sidewalks":{"area":454.2,"pct":1.75}},"city":{"parking":{"area":430.79,"pct":1.66},"roads":{"area":1953.1,"pct":7.52},"sidewalks":{"area":454.2,"pct":1.75}},"id":"hex:3504:24493"},"type":"Feature"},{"geometry":{"coordinates":[[[-122.70596,38.33013],[-122.70653,38.33091],[-122.70767,38.33091],[-122.70825,38.33013],[-122.70768,38.32935],[-122.70653,38.32935],[-122.70596,38.33013]]],"type":"Polygon"},"properties":{"bbox":{"roads":{"area":3134.14,"pct":12.06}},"city_same":1,"id":"hex:3504:24494"},"type":"Feature"},{"geometry":{"coordinates":[[[-122.70653,38.33091],[-122.70767,38.33091],[-122.70824,38.33169],[-122.70766,38.33247],[-122.70652,38.33247],[-122.70595,38.33169],[-122.70621,38.33134],[-122.70642,38.33126],[-122.70641,38.33119],[-122.70639,38.3311],[-122.70653,38.33091]]],"type":"Polygon"},"properties":{"bbox":{"roads":{"area":2486.37,"pct":9.64},"sidewalks":{"area":114.63,"pct":0.44}},"city_same":1,"id":"hex:3504:24495"},"type":"Feature"},{"geometry":{"coordinates":[[[-122.70652,38.33247],[-122.70766,38.33247],[-122.70823,38.33325],[-122.70808,38.33347],[-122.70804,38.3334],[-122.70798,38.3333],[-122.70726,38.33356],[-122.70679,38.33373],[-122.70653,38.33383],[-122.70625,38.33344],[-122.70606,38.3331],[-122.70652,38.33247]]],"type":"Polygon"},"properties":{"bbox":{"roads":{"area":1320.07,"pct":7.11},"sidewalks":{"area":250.1,"pct":1.35}},"city_same":1,"id":"hex:3504:24496"},"type":"Feature"},{"geometry":{"coordinates":[[[-122.70658,38.31686],[-122.70601,38.31764],[-122.70486,38.31764],[-122.7043,38.31685],[-122.70487,38.31608],[-122.70496,38.31608],[-122.7051,38.31619],[-122.70518,38.31625],[-122.70526,38.31629],[-122.7054,38.31633],[-122.70555,38.31638],[-122.70584,38.31647],[-122.70598,38.31654],[-122.70604,38.31659],[-122.70634,38.31653],[-122.70658,38.31686]]],"type":"Polygon"},"properties":{"bbox":{"roads":{"area":2507.98,"pct":11.2}},"city_same":1,"id":"hex:3505:24485"},"type":"Feature"},{"geometry":{"coordinates":[[[-122.70429,38.31842],[-122.70486,38.3192],[-122.706,38.3192],[-122.70658,38.31842],[-122.70601,38.31764],[-122.70486,38.31764],[-122.70429,38.31842]]],"type":"Polygon"},"properties":{"bbox":{"roads":{"area":1152.29,"pct":4.44}},"city_same":1,"id":"hex:3505:24486"},"type":"Feature"},{"geometry":{"coordinates":[[[-122.70428,38.31998],[-122.70485,38.32076],[-122.706,38.32076],[-122.70657,38.31998],[-122.706,38.3192],[-122.70486,38.3192],[-122.70428,38.31998]]],"type":"Polygon"},"properties":{"bbox":{"roads":{"area":2356.11,"pct":9.07}},"city_same":1,"id":"hex:3505:24487"},"type":"Feature"},{"geometry":{"coordinates":[[[-122.70428,38.32154],[-122.70485,38.32232],[-122.70599,38.32232],[-122.70656,38.32154],[-122.706,38.32076],[-122.70485,38.32076],[-122.70428,38.32154]]],"type":"Polygon"},"properties":{"bbox":{"roads":{"area":2421.3,"pct":9.32},"sidewalks":{"area":205.89,"pct":0.79}},"city_same":1,"id":"hex:3505:24488"},"type":"Feature"},{"geometry":{"coordinates":[[[-122.70427,38.3231],[-122.70484,38.32388],[-122.70598,38.32388],[-122.70656,38.3231],[-122.70599,38.32232],[-122.70485,38.32232],[-122.70427,38.3231]]],"type":"Polygon"},"properties":{"bbox":{"roads":{"area":2033.29,"pct":7.83}},"city_same":1,"id":"hex:3505:24489"},"type":"Feature"},{"geometry":{"coordinates":[[[-122.70426,38.32466],[-122.70483,38.32544],[-122.70598,38.32544],[-122.70655,38.32467],[-122.70598,38.32388],[-122.70484,38.32388],[-122.70426,38.32466]]],"type":"Polygon"},"properties":{"bbox":{"parking":{"area":749.87,"pct":2.89},"roads":{"area":3750.21,"pct":14.43},"sidewalks":{"area":419.84,"pct":1.62}},"city":{"parking":{"area":749.87,"pct":2.89},"roads":{"area":2732.86,"pct":10.52},"sidewalks":{"area":419.84,"pct":1.62}},"id":"hex:3505:24490"},"type":"Feature"},{"geometry":{"coordinates":[[[-122.70426,38.32622],[-122.70483,38.327],[-122.70597,38.32701],[-122.70655,38.32623],[-122.70598,38.32544],[-122.70483,38.32544],[-122.70426,38.32622]]],"type":"Polygon"},"properties":{"bbox":{"parking":{"area":519.98,"pct":2},"roads":{"area":5423.44,"pct":20.87},"sidewalks":{"area":847.86,"pct":3.26}},"city":{"parking":{"area":519.98,"pct":2},"roads":{"area":2146.78,"pct":8.26},"sidewalks":{"area":847.86,"pct":3.26}},"id":"hex:3505:24491"},"type":"Feature"},{"geometry":{"coordinates":[[[-122.70425,38.32778],[-122.70482,38.32856],[-122.70596,38.32857],[-122.70654,38.32779],[-122.70597,38.32701],[-122.70483,38.327],[-122.70425,38.32778]]],"type":"Polygon"},"properties":{"bbox":{"roads":{"area":2229.72,"pct":8.58},"sidewalks":{"area":37.44,"pct":0.14}},"city_same":1,"id":"hex:3505:24492"},"type":"Feature"},{"geometry":{"coordinates":[[[-122.70482,38.32856],[-122.70596,38.32857],[-122.70653,38.32935],[-122.70596,38.33013],[-122.70576,38.33013],[-122.70564,38.32995],[-122.70557,38.32987],[-122.70548,38.3298],[-122.70524,38.32963],[-122.7052,38.32961],[-122.70508,38.32953],[-122.70451,38.32925],[-122.70437,38.32917],[-122.70482,38.32856]]],"type":"Polygon"},"properties":{"bbox":{"roads":{"area":1211.56,"pct":6.23},"sidewalks":{"area":125.39,"pct":0.64}},"city_same":1,"id":"hex:3505:24493"},"type":"Feature"},{"geometry":{"coordinates":[[[-122.70595,38.33169],[-122.70652,38.33247],[-122.70606,38.3331],[-122.70551,38.33219],[-122.70522,38.3317],[-122.70526,38.33169],[-122.70595,38.33169]]],"type":"Polygon"},"properties":{"bbox":{"roads":{"area":865.21,"pct":10.1},"sidewalks":{"area":179.29,"pct":2.09}},"city_same":1,"id":"hex:3505:24495"},"type":"Feature"},{"geometry":{"coordinates":[[[-122.70316,38.31529],[-122.70316,38.31529],[-122.70361,38.31495],[-122.70375,38.31506],[-122.70382,38.31512],[-122.70383,38.31513],[-122.70403,38.31529],[-122.70316,38.31529]]],"type":"Polygon"},"properties":{"bbox":{"roads":{"area":331.67,"pct":22.46}},"city_same":1,"id":"hex:3506:24484"},"type":"Feature"},{"geometry":{"coordinates":[[[-122.70487,38.31608],[-122.7043,38.31685],[-122.70315,38.31685],[-122.70258,38.31607],[-122.70316,38.31529],[-122.70403,38.31529],[-122.70423,38.31546],[-122.70473,38.31588],[-122.70487,38.31608]]],"type":"Polygon"},"properties":{"bbox":{"roads":{"area":1456.66,"pct":5.78}},"city_same":1,"id":"hex:3506:24485"},"type":"Feature"},{"geometry":{"coordinates":[[[-122.70258,38.31763],[-122.70315,38.31841],[-122.70429,38.31842],[-122.70486,38.31764],[-122.7043,38.31685],[-122.70315,38.31685],[-122.70258,38.31763]]],"type":"Polygon"},"properties":{"bbox":{"roads":{"area":270.78,"pct":1.04}},"city_same":1,"id":"hex:3506:24486"},"type":"Feature"},{"geometry":{"coordinates":[[[-122.70257,38.31919],[-122.70314,38.31997],[-122.70428,38.31998],[-122.70486,38.3192],[-122.70429,38.31842],[-122.70315,38.31841],[-122.70257,38.31919]]],"type":"Polygon"},"properties":{"bbox":{"roads":{"area":1190.56,"pct":4.58}},"city_same":1,"id":"hex:3506:24487"},"type":"Feature"},{"geometry":{"coordinates":[[[-122.70256,38.32075],[-122.70313,38.32153],[-122.70428,38.32154],[-122.70485,38.32076],[-122.70428,38.31998],[-122.70314,38.31997],[-122.70256,38.32075]]],"type":"Polygon"},"properties":{"bbox":{"roads":{"area":2704.42,"pct":10.41},"sidewalks":{"area":132.05,"pct":0.51}},"city_same":1,"id":"hex:3506:24488"},"type":"Feature"},{"geometry":{"coordinates":[[[-122.70256,38.32231],[-122.70313,38.3231],[-122.70427,38.3231],[-122.70485,38.32232],[-122.70428,38.32154],[-122.70313,38.32153],[-122.70256,38.32231]]],"type":"Polygon"},"properties":{"bbox":{"parking":{"area":20.9,"pct":0.08},"roads":{"area":2696.4,"pct":10.38},"sidewalks":{"area":271.96,"pct":1.05}},"city":{"parking":{"area":20.9,"pct":0.08},"roads":{"area":1751.73,"pct":6.74},"sidewalks":{"area":271.96,"pct":1.05}},"id":"hex:3506:24489"},"type":"Feature"},{"geometry":{"coordinates":[[[-122.70255,38.32387],[-122.70312,38.32466],[-122.70426,38.32466],[-122.70484,38.32388],[-122.70427,38.3231],[-122.70313,38.3231],[-122.70255,38.32387]]],"type":"Polygon"},"properties":{"bbox":{"roads":{"area":3287.73,"pct":12.65},"sidewalks":{"area":330.87,"pct":1.27}},"city":{"roads":{"area":2058.1,"pct":7.92},"sidewalks":{"area":330.87,"pct":1.27}},"id":"hex:3506:24490"},"type":"Feature"},{"geometry":{"coordinates":[[[-122.70254,38.32544],[-122.70311,38.32622],[-122.70426,38.32622],[-122.70483,38.32544],[-122.70426,38.32466],[-122.70312,38.32466],[-122.70254,38.32544]]],"type":"Polygon"},"properties":{"bbox":{"roads":{"area":1698.17,"pct":6.54},"sidewalks":{"area":121.15,"pct":0.47}},"city_same":1,"id":"hex:3506:24491"},"type":"Feature"},{"geometry":{"coordinates":[[[-122.70254,38.327],[-122.70311,38.32778],[-122.70425,38.32778],[-122.70483,38.327],[-122.70426,38.32622],[-122.70311,38.32622],[-122.70254,38.327]]],"type":"Polygon"},"properties":{"bbox":{"parking":{"area":1686.6,"pct":6.49},"roads":{"area":4402.44,"pct":16.95},"sidewalks":{"area":649.18,"pct":2.5}},"city":{"parking":{"area":1686.6,"pct":6.49},"roads":{"area":2056.79,"pct":7.92},"sidewalks":{"area":649.18,"pct":2.5}},"id":"hex:3506:24492"},"type":"Feature"},{"geometry":{"coordinates":[[[-122.70253,38.32856],[-122.70311,38.32778],[-122.70425,38.32778],[-122.70482,38.32856],[-122.70437,38.32917],[-122.70437,38.32917],[-122.70426,38.32908],[-122.7042,38.32901],[-122.70418,38.329],[-122.70413,38.32892],[-122.70407,38.32874],[-122.70404,38.32857],[-122.70403,38.32837],[-122.70403,38.32832],[-122.70403,38.3283],[-122.70402,38.32828],[-122.70401,38.32822],[-122.704,38.32819],[-122.70395,38.32821],[-122.70266,38.32873],[-122.70253,38.32856]]],"type":"Polygon"},"properties":{"bbox":{"roads":{"area":918.14,"pct":6.41},"sidewalks":{"area":129.97,"pct":0.91}},"city_same":1,"id":"hex:3506:24493"},"type":"Feature"},{"geometry":{"coordinates":[[[-122.70086,38.31841],[-122.70143,38.31919],[-122.70257,38.31919],[-122.70315,38.31841],[-122.70258,38.31763],[-122.70143,38.31763],[-122.70086,38.31841]]],"type":"Polygon"},"properties":{"bbox":{"roads":{"area":2488.13,"pct":9.58}},"city_same":1,"id":"hex:3507:24486"},"type":"Feature"},{"geometry":{"coordinates":[[[-122.70085,38.31997],[-122.70142,38.32075],[-122.70256,38.32075],[-122.70314,38.31997],[-122.70257,38.31919],[-122.70143,38.31919],[-122.70085,38.31997]]],"type":"Polygon"},"properties":{"bbox":{"roads":{"area":2576.73,"pct":9.92},"sidewalks":{"area":209.94,"pct":0.81}},"city":{"roads":{"area":1659.7,"pct":6.39},"sidewalks":{"area":209.94,"pct":0.81}},"id":"hex:3507:24487"},"type":"Feature"},{"geometry":{"coordinates":[[[-122.70084,38.32153],[-122.70141,38.32231],[-122.70256,38.32231],[-122.70313,38.32153],[-122.70256,38.32075],[-122.70142,38.32075],[-122.70084,38.32153]]],"type":"Polygon"},"properties":{"bbox":{"parking":{"area":843.33,"pct":3.25},"roads":{"area":3822.97,"pct":14.71},"sidewalks":{"area":490.24,"pct":1.89}},"city":{"parking":{"area":843.33,"pct":3.25},"roads":{"area":2084.71,"pct":8.02},"sidewalks":{"area":490.24,"pct":1.89}},"id":"hex:3507:24488"},"type":"Feature"},{"geometry":{"coordinates":[[[-122.70084,38.32309],[-122.70141,38.32387],[-122.70255,38.32387],[-122.70313,38.3231],[-122.70256,38.32231],[-122.70141,38.32231],[-122.70084,38.32309]]],"type":"Polygon"},"properties":{"bbox":{"parking":{"area":1212.1,"pct":4.67},"roads":{"area":2465.36,"pct":9.49},"sidewalks":{"area":639.74,"pct":2.46}},"city_same":1,"id":"hex:3507:24489"},"type":"Feature"},{"geometry":{"coordinates":[[[-122.70083,38.32465],[-122.7014,38.32543],[-122.70254,38.32544],[-122.70312,38.32466],[-122.70255,38.32387],[-122.70141,38.32387],[-122.70083,38.32465]]],"type":"Polygon"},"properties":{"bbox":{"roads":{"area":3014.39,"pct":11.6},"sidewalks":{"area":515.91,"pct":1.99}},"city_same":1,"id":"hex:3507:24490"},"type":"Feature"},{"geometry":{"coordinates":[[[-122.70083,38.32621],[-122.70139,38.32699],[-122.70254,38.327],[-122.70311,38.32622],[-122.70254,38.32544],[-122.7014,38.32543],[-122.70083,38.32621]]],"type":"Polygon"},"properties":{"bbox":{"roads":{"area":1177.96,"pct":4.53},"sidewalks":{"area":90.89,"pct":0.35}},"city_same":1,"id":"hex:3507:24491"},"type":"Feature"},{"geometry":{"coordinates":[[[-122.70082,38.32777],[-122.70139,38.32855],[-122.70253,38.32856],[-122.70311,38.32778],[-122.70254,38.327],[-122.70139,38.32699],[-122.70082,38.32777]]],"type":"Polygon"},"properties":{"bbox":{"roads":{"area":5097.3,"pct":19.62},"sidewalks":{"area":710.91,"pct":2.74}},"city":{"roads":{"area":2726.81,"pct":10.5},"sidewalks":{"area":710.91,"pct":2.74}},"id":"hex:3507:24492"},"type":"Feature"},{"geometry":{"coordinates":[[[-122.70081,38.32933],[-122.70139,38.32855],[-122.70253,38.32856],[-122.70266,38.32873],[-122.70243,38.32882],[-122.70144,38.32923],[-122.70117,38.32935],[-122.7009,38.32946],[-122.70081,38.32933]]],"type":"Polygon"},"properties":{"bbox":{"roads":{"area":948.13,"pct":12.53}},"city_same":1,"id":"hex:3507:24493"},"type":"Feature"},{"geometry":{"coordinates":[[[-122.70143,38.31763],[-122.70086,38.31841],[-122.69971,38.3184],[-122.69945,38.31804],[-122.70032,38.31739],[-122.70094,38.31694],[-122.70143,38.31763]]],"type":"Polygon"},"properties":{"bbox":{"roads":{"area":83.94,"pct":0.52}},"city_same":1,"id":"hex:3508:24486"},"type":"Feature"},{"geometry":{"coordinates":[[[-122.69914,38.31918],[-122.69971,38.31996],[-122.70085,38.31997],[-122.70143,38.31919],[-122.70086,38.31841],[-122.69971,38.3184],[-122.69914,38.31918]]],"type":"Polygon"},"properties":{"bbox":{"roads":{"area":3159.77,"pct":12.16},"sidewalks":{"area":143.76,"pct":0.55}},"city":{"roads":{"area":1727.33,"pct":6.65},"sidewalks":{"area":143.76,"pct":0.55}},"id":"hex:3508:24487"},"type":"Feature"},{"geometry":{"coordinates":[[[-122.69913,38.32074],[-122.6997,38.32153],[-122.70084,38.32153],[-122.70142,38.32075],[-122.70085,38.31997],[-122.69971,38.31996],[-122.69913,38.32074]]],"type":"Polygon"},"properties":{"bbox":{"roads":{"area":1893.17,"pct":7.29},"sidewalks":{"area":2.75,"pct":0.01}},"city_same":1,"id":"hex:3508:24488"},"type":"Feature"},{"geometry":{"coordinates":[[[-122.69913,38.3223],[-122.69969,38.32309],[-122.70084,38.32309],[-122.70141,38.32231],[-122.70084,38.32153],[-122.6997,38.32153],[-122.69913,38.3223]]],"type":"Polygon"},"properties":{"bbox":{"parking":{"area":503.5,"pct":1.94},"roads":{"area":818.29,"pct":3.15},"sidewalks":{"area":25.13,"pct":0.1}},"city_same":1,"id":"hex:3508:24489"},"type":"Feature"},{"geometry":{"coordinates":[[[-122.69912,38.32387],[-122.69969,38.32465],[-122.70083,38.32465],[-122.70141,38.32387],[-122.70084,38.32309],[-122.69969,38.32309],[-122.69912,38.32387]]],"type":"Polygon"},"properties":{"bbox":{"roads":{"area":1590.21,"pct":6.12},"sidewalks":{"area":559.56,"pct":2.15}},"city_same":1,"id":"hex:3508:24490"},"type":"Feature"},{"geometry":{"coordinates":[[[-122.69911,38.32543],[-122.69968,38.32621],[-122.70083,38.32621],[-122.7014,38.32543],[-122.70083,38.32465],[-122.69969,38.32465],[-122.69911,38.32543]]],"type":"Polygon"},"properties":{"bbox":{"roads":{"area":2226.08,"pct":8.57},"sidewalks":{"area":1134.26,"pct":4.37}},"city_same":1,"id":"hex:3508:24491"},"type":"Feature"},{"geometry":{"coordinates":[[[-122.69911,38.32699],[-122.69967,38.32777],[-122.70082,38.32777],[-122.70139,38.32699],[-122.70083,38.32621],[-122.69968,38.32621],[-122.69911,38.32699]]],"type":"Polygon"},"properties":{"bbox":{"roads":{"area":1577.04,"pct":6.07},"sidewalks":{"area":75.35,"pct":0.29}},"city_same":1,"id":"hex:3508:24492"},"type":"Feature"},{"geometry":{"coordinates":[[[-122.6991,38.32855],[-122.69967,38.32933],[-122.70081,38.32933],[-122.70139,38.32855],[-122.70082,38.32777],[-122.69967,38.32777],[-122.6991,38.32855]]],"type":"Polygon"},"properties":{"bbox":{"parking":{"area":23.5,"pct":0.09},"roads":{"area":4285.16,"pct":16.49},"sidewalks":{"area":629.44,"pct":2.42}},"city":{"parking":{"area":23.5,"pct":0.09},"roads":{"area":1554.49,"pct":5.98},"sidewalks":{"area":629.44,"pct":2.42}},"id":"hex:3508:24493"},"type":"Feature"},{"geometry":{"coordinates":[[[-122.69909,38.33011],[-122.69967,38.32933],[-122.70081,38.32933],[-122.7009,38.32946],[-122.70042,38.32965],[-122.69996,38.32984],[-122.69914,38.33018],[-122.69909,38.33011]]],"type":"Polygon"},"properties":{"bbox":{"roads":{"area":374.37,"pct":5.81}},"city_same":1,"id":"hex:3508:24494"},"type":"Feature"},{"geometry":{"coordinates":[[[-122.69971,38.3184],[-122.69914,38.31918],[-122.69799,38.31918],[-122.69743,38.3184],[-122.69767,38.31806],[-122.69778,38.31807],[-122.69791,38.3181],[-122.698,38.31811],[-122.69809,38.3181],[-122.69819,38.31809],[-122.69827,38.31806],[-122.69829,38.31805],[-122.6985,38.31793],[-122.69857,38.31787],[-122.69863,38.31792],[-122.6988,38.31806],[-122.69885,38.3181],[-122.69891,38.31815],[-122.6991,38.31832],[-122.69939,38.31808],[-122.69945,38.31804],[-122.69971,38.3184]]],"type":"Polygon"},"properties":{"bbox":{"roads":{"area":1494.51,"pct":7.75}},"city":{"roads":{"area":773.97,"pct":4.01}},"id":"hex:3509:24486"},"type":"Feature"},{"geometry":{"coordinates":[[[-122.69742,38.31996],[-122.69799,38.32074],[-122.69913,38.32074],[-122.69971,38.31996],[-122.69914,38.31918],[-122.69799,38.31918],[-122.69742,38.31996]]],"type":"Polygon"},"properties":{"bbox":{"roads":{"area":1320.8,"pct":5.08}},"city_same":1,"id":"hex:3509:24487"},"type":"Feature"},{"geometry":{"coordinates":[[[-122.69741,38.32152],[-122.69798,38.3223],[-122.69913,38.3223],[-122.6997,38.32153],[-122.69913,38.32074],[-122.69799,38.32074],[-122.69741,38.32152]]],"type":"Polygon"},"properties":{"bbox":{"parking":{"area":790.97,"pct":3.04},"roads":{"area":2262.2,"pct":8.71},"sidewalks":{"area":597.39,"pct":2.3}},"city_same":1,"id":"hex:3509:24488"},"type":"Feature"},{"geometry":{"coordinates":[[[-122.69741,38.32308],[-122.69797,38.32386],[-122.69912,38.32387],[-122.69969,38.32309],[-122.69913,38.3223],[-122.69798,38.3223],[-122.69741,38.32308]]],"type":"Polygon"},"properties":{"bbox":{"roads":{"area":969.91,"pct":3.73},"sidewalks":{"area":534.94,"pct":2.06}},"city_same":1,"id":"hex:3509:24489"},"type":"Feature"},{"geometry":{"coordinates":[[[-122.6974,38.32464],[-122.69797,38.32542],[-122.69911,38.32543],[-122.69969,38.32465],[-122.69912,38.32387],[-122.69797,38.32386],[-122.6974,38.32464]]],"type":"Polygon"},"properties":{"bbox":{"roads":{"area":2445.69,"pct":9.41},"sidewalks":{"area":1243.83,"pct":4.79}},"city_same":1,"id":"hex:3509:24490"},"type":"Feature"},{"geometry":{"coordinates":[[[-122.69739,38.3262],[-122.69796,38.32698],[-122.69911,38.32699],[-122.69968,38.32621],[-122.69911,38.32543],[-122.69797,38.32542],[-122.69739,38.3262]]],"type":"Polygon"},"properties":{"bbox":{"roads":{"area":2052.35,"pct":7.9},"sidewalks":{"area":968.94,"pct":3.73}},"city_same":1,"id":"hex:3509:24491"},"type":"Feature"},{"geometry":{"coordinates":[[[-122.69739,38.32776],[-122.69796,38.32855],[-122.6991,38.32855],[-122.69967,38.32777],[-122.69911,38.32699],[-122.69796,38.32698],[-122.69739,38.32776]]],"type":"Polygon"},"properties":{"bbox":{"parking":{"area":18315.88,"pct":70.5},"roads":{"area":4261.32,"pct":16.4},"sidewalks":{"area":604.52,"pct":2.33}},"city_same":1,"id":"hex:3509:24492"},"type":"Feature"},{"geometry":{"coordinates":[[[-122.69738,38.32932],[-122.69795,38.33011],[-122.69909,38.33011],[-122.69967,38.32933],[-122.6991,38.32855],[-122.69796,38.32855],[-122.69738,38.32932]]],"type":"Polygon"},"properties":{"bbox":{"parking":{"area":3547.98,"pct":13.66},"roads":{"area":5641.79,"pct":21.72},"sidewalks":{"area":501.19,"pct":1.93}},"city":{"parking":{"area":3547.98,"pct":13.66},"roads":{"area":3261.29,"pct":12.55},"sidewalks":{"area":501.19,"pct":1.93}},"id":"hex:3509:24493"},"type":"Feature"},{"geometry":{"coordinates":[[[-122.69795,38.33011],[-122.69909,38.33011],[-122.69914,38.33018],[-122.69797,38.33067],[-122.69791,38.33059],[-122.69776,38.33036],[-122.69795,38.33011]]],"type":"Polygon"},"properties":{"bbox":{"roads":{"area":475.68,"pct":11.38}},"city_same":1,"id":"hex:3509:24494"},"type":"Feature"},{"geometry":{"coordinates":[[[-122.69743,38.3184],[-122.69628,38.3184],[-122.69603,38.31804],[-122.69633,38.31804],[-122.69699,38.31805],[-122.69732,38.31805],[-122.69753,38.31805],[-122.69767,38.31806],[-122.69743,38.3184]]],"type":"Polygon"},"properties":{"bbox":{"roads":{"area":714.24,"pct":15}},"city_same":1,"id":"hex:3510:24486"},"type":"Feature"},{"geometry":{"coordinates":[[[-122.69571,38.31917],[-122.69627,38.31996],[-122.69742,38.31996],[-122.69799,38.31918],[-122.69743,38.3184],[-122.69628,38.3184],[-122.69571,38.31917]]],"type":"Polygon"},"properties":{"bbox":{"roads":{"area":2426.35,"pct":9.34}},"city_same":1,"id":"hex:3510:24487"},"type":"Feature"},{"geometry":{"coordinates":[[[-122.6957,38.32074],[-122.69627,38.32152],[-122.69741,38.32152],[-122.69799,38.32074],[-122.69742,38.31996],[-122.69627,38.31996],[-122.6957,38.32074]]],"type":"Polygon"},"properties":{"bbox":{"roads":{"area":1284.94,"pct":4.95},"sidewalks":{"area":0.84,"pct":0}},"city_same":1,"id":"hex:3510:24488"},"type":"Feature"},{"geometry":{"coordinates":[[[-122.69569,38.3223],[-122.69626,38.32308],[-122.69741,38.32308],[-122.69798,38.3223],[-122.69741,38.32152],[-122.69627,38.32152],[-122.69569,38.3223]]],"type":"Polygon"},"properties":{"bbox":{"roads":{"area":2937.44,"pct":11.31},"sidewalks":{"area":778.76,"pct":3}},"city_same":1,"id":"hex:3510:24489"},"type":"Feature"},{"geometry":{"coordinates":[[[-122.69569,38.32386],[-122.69626,38.32464],[-122.6974,38.32464],[-122.69797,38.32386],[-122.69741,38.32308],[-122.69626,38.32308],[-122.69569,38.32386]]],"type":"Polygon"},"properties":{"bbox":{"roads":{"area":1637.39,"pct":6.3},"sidewalks":{"area":858.25,"pct":3.3}},"city_same":1,"id":"hex:3510:24490"},"type":"Feature"},{"geometry":{"coordinates":[[[-122.69568,38.32542],[-122.69625,38.3262],[-122.69739,38.3262],[-122.69797,38.32542],[-122.6974,38.32464],[-122.69626,38.32464],[-122.69568,38.32542]]],"type":"Polygon"},"properties":{"bbox":{"roads":{"area":1596.63,"pct":6.15},"sidewalks":{"area":840.92,"pct":3.24}},"city_same":1,"id":"hex:3510:24491"},"type":"Feature"},{"geometry":{"coordinates":[[[-122.69625,38.3262],[-122.69739,38.3262],[-122.69796,38.32698],[-122.69739,38.32776],[-122.69641,38.32776],[-122.69637,38.3277],[-122.69581,38.32679],[-122.69625,38.3262]]],"type":"Polygon"},"properties":{"bbox":{"parking":{"area":381.41,"pct":1.58},"roads":{"area":1948.37,"pct":8.07},"sidewalks":{"area":987.24,"pct":4.09}},"city_same":1,"id":"hex:3510:24492"},"type":"Feature"},{"geometry":{"coordinates":[[[-122.69739,38.32776],[-122.69796,38.32855],[-122.69738,38.32932],[-122.69624,38.32932],[-122.69572,38.32862],[-122.69654,38.32827],[-122.69668,38.32821],[-122.69641,38.32776],[-122.69739,38.32776]]],"type":"Polygon"},"properties":{"bbox":{"parking":{"area":5762.82,"pct":25.94},"roads":{"area":3091.88,"pct":13.92},"sidewalks":{"area":5.74,"pct":0.03}},"city_same":1,"id":"hex:3510:24493"},"type":"Feature"},{"geometry":{"coordinates":[[[-122.69623,38.33088],[-122.69566,38.3301],[-122.69624,38.32932],[-122.69738,38.32932],[-122.69795,38.33011],[-122.69776,38.33036],[-122.69723,38.32954],[-122.69705,38.32961],[-122.69699,38.32964],[-122.69682,38.32971],[-122.69676,38.32973],[-122.69665,38.32978],[-122.69662,38.32979],[-122.69626,38.32994],[-122.6962,38.32996],[-122.69607,38.33002],[-122.69597,38.33006],[-122.69604,38.33017],[-122.69653,38.33088],[-122.69623,38.33088]]],"type":"Polygon"},"properties":{"bbox":{"roads":{"area":2249.64,"pct":20.31},"sidewalks":{"area":395.73,"pct":3.57}},"city":{"roads":{"area":833.5,"pct":7.52},"sidewalks":{"area":395.73,"pct":3.57}},"id":"hex:3510:24494"},"type":"Feature"},{"geometry":{"coordinates":[[[-122.69628,38.3184],[-122.69571,38.31917],[-122.69542,38.31917],[-122.69495,38.31804],[-122.69551,38.31804],[-122.69603,38.31804],[-122.69628,38.3184]]],"type":"Polygon"},"properties":{"bbox":{"roads":{"area":470.05,"pct":5.01}},"city_same":1,"id":"hex:3511:24486"},"type":"Feature"},{"geometry":{"coordinates":[[[-122.69571,38.31917],[-122.69627,38.31996],[-122.6957,38.32074],[-122.69456,38.32073],[-122.69399,38.31995],[-122.69408,38.31982],[-122.6957,38.31982],[-122.69555,38.31947],[-122.69542,38.31917],[-122.69571,38.31917]]],"type":"Polygon"},"properties":{"bbox":{"roads":{"area":1864.12,"pct":10.27}},"city_same":1,"id":"hex:3511:24487"},"type":"Feature"},{"geometry":{"coordinates":[[[-122.69398,38.32151],[-122.69455,38.32229],[-122.69569,38.3223],[-122.69627,38.32152],[-122.6957,38.32074],[-122.69456,38.32073],[-122.69398,38.32151]]],"type":"Polygon"},"properties":{"bbox":{"roads":{"area":3153.72,"pct":12.14},"sidewalks":{"area":337.24,"pct":1.3}},"city_same":1,"id":"hex:3511:24488"},"type":"Feature"},{"geometry":{"coordinates":[[[-122.69397,38.32307],[-122.69454,38.32385],[-122.69569,38.32386],[-122.69626,38.32308],[-122.69569,38.3223],[-122.69455,38.32229],[-122.69397,38.32307]]],"type":"Polygon"},"properties":{"bbox":{"roads":{"area":1526.81,"pct":5.88},"sidewalks":{"area":588.87,"pct":2.27}},"city_same":1,"id":"hex:3511:24489"},"type":"Feature"},{"geometry":{"coordinates":[[[-122.69454,38.32385],[-122.69569,38.32386],[-122.69626,38.32464],[-122.69568,38.32542],[-122.69496,38.32542],[-122.69425,38.32425],[-122.69454,38.32385]]],"type":"Polygon"},"properties":{"bbox":{"roads":{"area":1520.06,"pct":7.08},"sidewalks":{"area":895.74,"pct":4.17}},"city_same":1,"id":"hex:3511:24490"},"type":"Feature"},{"geometry":{"coordinates":[[[-122.69568,38.32542],[-122.69625,38.3262],[-122.69581,38.32679],[-122.69496,38.32542],[-122.69568,38.32542]]],"type":"Polygon"},"properties":{"bbox":{"roads":{"area":682.9,"pct":8.47},"sidewalks":{"area":374.05,"pct":4.64}},"city_same":1,"id":"hex:3511:24491"},"type":"Feature"},{"geometry":{"coordinates":[[[-122.69624,38.32932],[-122.69566,38.3301],[-122.69452,38.3301],[-122.69398,38.32936],[-122.6941,38.32931],[-122.69416,38.32928],[-122.69437,38.3292],[-122.69444,38.32917],[-122.69451,38.32914],[-122.69473,38.32904],[-122.69481,38.32901],[-122.69526,38.32882],[-122.69572,38.32862],[-122.69624,38.32932]]],"type":"Polygon"},"properties":{"bbox":{"roads":{"area":2208.33,"pct":10.9},"sidewalks":{"area":238.75,"pct":1.18}},"city_same":1,"id":"hex:3511:24493"},"type":"Feature"},{"geometry":{"coordinates":[[[-122.69394,38.33088],[-122.69452,38.3301],[-122.69566,38.3301],[-122.69623,38.33088],[-122.69618,38.33095],[-122.69567,38.33018],[-122.6956,38.33021],[-122.69529,38.33034],[-122.69499,38.33047],[-122.69438,38.33073],[-122.69425,38.33079],[-122.69407,38.33087],[-122.694,38.33089],[-122.69396,38.33091],[-122.69394,38.33088]]],"type":"Polygon"},"properties":{"bbox":{"roads":{"area":1322.61,"pct":22.33},"sidewalks":{"area":219.96,"pct":3.71}},"city":{"roads":{"area":310.15,"pct":5.24},"sidewalks":{"area":219.96,"pct":3.71}},"id":"hex:3511:24494"},"type":"Feature"},{"geometry":{"coordinates":[[[-122.69399,38.31995],[-122.69284,38.31995],[-122.69275,38.31982],[-122.69408,38.31982],[-122.69399,38.31995]]],"type":"Polygon"},"properties":{"bbox":{"roads":{"area":25.25,"pct":1.69}},"city_same":1,"id":"hex:3512:24487"},"type":"Feature"},{"geometry":{"coordinates":[[[-122.69227,38.32073],[-122.69284,38.32151],[-122.69398,38.32151],[-122.69456,38.32073],[-122.69399,38.31995],[-122.69284,38.31995],[-122.69227,38.32073]]],"type":"Polygon"},"properties":{"bbox":{"roads":{"area":2540.54,"pct":9.78}},"city_same":1,"id":"hex:3512:24488"},"type":"Feature"},{"geometry":{"coordinates":[[[-122.69284,38.32151],[-122.69398,38.32151],[-122.69455,38.32229],[-122.69397,38.32307],[-122.69361,38.32307],[-122.69356,38.32298],[-122.693,38.32194],[-122.69281,38.3216],[-122.69277,38.3216],[-122.69284,38.32151]]],"type":"Polygon"},"properties":{"bbox":{"roads":{"area":1783.15,"pct":10.94},"sidewalks":{"area":137.53,"pct":0.84}},"city_same":1,"id":"hex:3512:24489"},"type":"Feature"},{"geometry":{"coordinates":[[[-122.69452,38.3301],[-122.69394,38.33088],[-122.6928,38.33087],[-122.69223,38.33009],[-122.69236,38.32992],[-122.69238,38.32995],[-122.69243,38.33005],[-122.69285,38.32984],[-122.6931,38.32971],[-122.6933,38.32963],[-122.6939,38.32939],[-122.69398,38.32936],[-122.69452,38.3301]]],"type":"Polygon"},"properties":{"bbox":{"roads":{"area":1550.3,"pct":7.3},"sidewalks":{"area":48.05,"pct":0.23}},"city":{"roads":{"area":1534.82,"pct":7.22},"sidewalks":{"area":48.05,"pct":0.23}},"id":"hex:3512:24494"},"type":"Feature"},{"geometry":{"coordinates":[[[-122.69279,38.33243],[-122.69222,38.33165],[-122.6928,38.33087],[-122.69394,38.33088],[-122.69396,38.33091],[-122.69387,38.33094],[-122.6938,38.33098],[-122.69373,38.331],[-122.69359,38.33106],[-122.69366,38.33117],[-122.69424,38.33203],[-122.694,38.33235],[-122.69379,38.33244],[-122.69279,38.33243]]],"type":"Polygon"},"properties":{"bbox":{"roads":{"area":3901.85,"pct":17.98},"sidewalks":{"area":365.2,"pct":1.68}},"city":{"roads":{"area":1761.05,"pct":8.11},"sidewalks":{"area":365.2,"pct":1.68}},"id":"hex:3512:24495"},"type":"Feature"},{"geometry":{"coordinates":[[[[-122.69278,38.334],[-122.69222,38.33321],[-122.69228,38.33312],[-122.69259,38.33361],[-122.69269,38.33378],[-122.69273,38.33384],[-122.69283,38.334],[-122.69278,38.334]]],[[[-122.69279,38.33243],[-122.69379,38.33244],[-122.69233,38.33305],[-122.69279,38.33243]]]],"type":"MultiPolygon"},"properties":{"bbox":{"roads":{"area":397.46,"pct":10.66}},"city_same":1,"id":"hex:3512:24496"},"type":"Feature"},{"geometry":{"coordinates":[[[-122.69284,38.31995],[-122.69227,38.32073],[-122.69124,38.32072],[-122.69067,38.31983],[-122.69275,38.31982],[-122.69284,38.31995]]],"type":"Polygon"},"properties":{"bbox":{"roads":{"area":1073.06,"pct":7.52}},"city_same":1,"id":"hex:3513:24487"},"type":"Feature"},{"geometry":{"coordinates":[[[-122.69227,38.32073],[-122.69284,38.32151],[-122.69277,38.3216],[-122.69257,38.3216],[-122.69189,38.3216],[-122.69186,38.3216],[-122.69185,38.3216],[-122.69179,38.3216],[-122.69124,38.32072],[-122.69227,38.32073]]],"type":"Polygon"},"properties":{"bbox":{"roads":{"area":736.08,"pct":8.19},"sidewalks":{"area":2.29,"pct":0.03}},"city_same":1,"id":"hex:3513:24488"},"type":"Feature"},{"geometry":{"coordinates":[[[-122.69109,38.32853],[-122.69052,38.32775],[-122.69075,38.32744],[-122.69146,38.32853],[-122.69109,38.32853]]],"type":"Polygon"},"properties":{"bbox":{"roads":{"area":197.05,"pct":5.39}},"city_same":1,"id":"hex:3513:24492"},"type":"Feature"},{"geometry":{"coordinates":[[[-122.69223,38.33009],[-122.69108,38.33009],[-122.69052,38.32931],[-122.69109,38.32853],[-122.69146,38.32853],[-122.69171,38.32893],[-122.69208,38.3295],[-122.69224,38.32973],[-122.69236,38.32992],[-122.69223,38.33009]]],"type":"Polygon"},"properties":{"bbox":{"roads":{"area":1341.88,"pct":7.71},"sidewalks":{"area":268.53,"pct":1.54}},"city_same":1,"id":"hex:3513:24493"},"type":"Feature"},{"geometry":{"coordinates":[[[-122.69051,38.33087],[-122.69108,38.33165],[-122.69222,38.33165],[-122.6928,38.33087],[-122.69223,38.33009],[-122.69108,38.33009],[-122.69051,38.33087]]],"type":"Polygon"},"properties":{"bbox":{"parking":{"area":4175.79,"pct":16.07},"roads":{"area":2695.98,"pct":10.38},"sidewalks":{"area":475.95,"pct":1.83}},"city":{"parking":{"area":4175.79,"pct":16.07},"roads":{"area":2559.62,"pct":9.85},"sidewalks":{"area":475.95,"pct":1.83}},"id":"hex:3513:24494"},"type":"Feature"},{"geometry":{"coordinates":[[[-122.69222,38.33321],[-122.69107,38.33321],[-122.6905,38.33243],[-122.69108,38.33165],[-122.69222,38.33165],[-122.69279,38.33243],[-122.69233,38.33305],[-122.69226,38.33308],[-122.69227,38.3331],[-122.69228,38.33312],[-122.69222,38.33321]]],"type":"Polygon"},"properties":{"bbox":{"parking":{"area":1.93,"pct":0.01},"roads":{"area":4250.13,"pct":16.37},"sidewalks":{"area":243.78,"pct":0.94}},"city":{"parking":{"area":1.93,"pct":0.01},"roads":{"area":1914.7,"pct":7.37},"sidewalks":{"area":243.78,"pct":0.94}},"id":"hex:3513:24495"},"type":"Feature"},{"geometry":{"coordinates":[[[-122.69106,38.33477],[-122.6905,38.33399],[-122.69107,38.33321],[-122.69222,38.33321],[-122.69278,38.334],[-122.69262,38.33422],[-122.6911,38.33477],[-122.69106,38.33477]]],"type":"Polygon"},"properties":{"bbox":{"roads":{"area":1318.34,"pct":5.74}},"city_same":1,"id":"hex:3513:24496"},"type":"Feature"},{"geometry":{"coordinates":[[[-122.69052,38.32775],[-122.68938,38.32774],[-122.68881,38.32696],[-122.68898,38.32673],[-122.69005,38.32636],[-122.69012,38.32647],[-122.69024,38.32665],[-122.69061,38.32722],[-122.69075,38.32744],[-122.69052,38.32775]]],"type":"Polygon"},"properties":{"bbox":{"roads":{"area":765.2,"pct":4.45}},"city_same":1,"id":"hex:3514:24492"},"type":"Feature"},{"geometry":{"coordinates":[[[-122.68938,38.32774],[-122.69052,38.32775],[-122.69109,38.32853],[-122.69052,38.32931],[-122.68937,38.3293],[-122.68894,38.32871],[-122.68907,38.32871],[-122.68945,38.32871],[-122.68953,38.32871],[-122.68942,38.32853],[-122.68936,38.32842],[-122.68915,38.3281],[-122.68914,38.32807],[-122.68938,38.32774]]],"type":"Polygon"},"properties":{"bbox":{"roads":{"area":2202.92,"pct":9.37},"sidewalks":{"area":306.01,"pct":1.3}},"city_same":1,"id":"hex:3514:24493"},"type":"Feature"},{"geometry":{"coordinates":[[[-122.6888,38.33008],[-122.68936,38.33086],[-122.69051,38.33087],[-122.69108,38.33009],[-122.69052,38.32931],[-122.68937,38.3293],[-122.6888,38.33008]]],"type":"Polygon"},"properties":{"bbox":{"roads":{"area":1372.25,"pct":5.28}},"city_same":1,"id":"hex:3514:24494"},"type":"Feature"},{"geometry":{"coordinates":[[[-122.68936,38.33086],[-122.69051,38.33087],[-122.69108,38.33165],[-122.6905,38.33243],[-122.68973,38.33243],[-122.68956,38.33227],[-122.68947,38.33214],[-122.68942,38.33206],[-122.68926,38.3317],[-122.68931,38.33156],[-122.68911,38.33122],[-122.68936,38.33086]]],"type":"Polygon"},"properties":{"bbox":{"roads":{"area":1504.34,"pct":6.81},"sidewalks":{"area":22.6,"pct":0.1}},"city":{"roads":{"area":1493.25,"pct":6.76},"sidewalks":{"area":22.6,"pct":0.1}},"id":"hex:3514:24495"},"type":"Feature"},{"geometry":{"coordinates":[[[-122.6905,38.33243],[-122.69107,38.33321],[-122.6905,38.33399],[-122.69021,38.33399],[-122.68979,38.33329],[-122.68968,38.33314],[-122.68966,38.33312],[-122.6896,38.33306],[-122.68972,38.33297],[-122.69006,38.33273],[-122.68973,38.33243],[-122.6905,38.33243]]],"type":"Polygon"},"properties":{"bbox":{"roads":{"area":2704.73,"pct":20.16},"sidewalks":{"area":73.79,"pct":0.55}},"city":{"roads":{"area":1251.47,"pct":9.33},"sidewalks":{"area":73.79,"pct":0.55}},"id":"hex:3514:24496"},"type":"Feature"},{"geometry":{"coordinates":[[[-122.6905,38.33399],[-122.69106,38.33477],[-122.69105,38.33479],[-122.69076,38.3349],[-122.69061,38.33465],[-122.69044,38.33437],[-122.69021,38.33399],[-122.6905,38.33399]]],"type":"Polygon"},"properties":{"bbox":{"roads":{"area":394.01,"pct":14.28}},"city_same":1,"id":"hex:3514:24497"},"type":"Feature"},{"geometry":{"coordinates":[[[-122.68937,38.3293],[-122.6888,38.33008],[-122.68845,38.33008],[-122.68796,38.32916],[-122.68774,38.32874],[-122.68793,38.32873],[-122.68803,38.32871],[-122.68894,38.32871],[-122.68937,38.3293]]],"type":"Polygon"},"properties":{"bbox":{"roads":{"area":768.79,"pct":5.65}},"city_same":1,"id":"hex:3515:24493"},"type":"Feature"}],"type":"FeatureCollection","v":2}