{"features":[{"geometry":{"coordinates":[[[[-118.37841,33.9589],[-118.37752,33.96019],[-118.37661,33.961],[-118.3753,33.96174],[-118.37124,33.96337],[-118.37162,33.96685],[-118.37192,33.96739],[-118.37248,33.96717],[-118.37284,33.96765],[-118.37239,33.968],[-118.37015,33.96799],[-118.37019,33.98164],[-118.36693,33.98163],[-118.36673,33.98189],[-118.36625,33.98164],[-118.33518,33.98176],[-118.33521,33.97269],[-118.33309,33.97269],[-118.33308,33.96727],[-118.32648,33.96727],[-118.32647,33.97091],[-118.32236,33.97092],[-118.32232,33.9708],[-118.32189,33.9708],[-118.32184,33.97092],[-118.31775,33.97092],[-118.31783,33.93072],[-118.32214,33.93072],[-118.32216,33.92916],[-118.32648,33.92917],[-118.32648,33.92881],[-118.32575,33.92881],[-118.32576,33.92672],[-118.32637,33.92671],[-118.32637,33.92612],[-118.32673,33.92611],[-118.32682,33.92573],[-118.32921,33.92536],[-118.33277,33.92518],[-118.33522,33.92539],[-118.33667,33.92594],[-118.33728,33.92717],[-118.33735,33.92948],[-118.33629,33.92949],[-118.3363,33.93083],[-118.34495,33.93081],[-118.34496,33.93159],[-118.34612,33.93208],[-118.3463,33.93266],[-118.34603,33.93278],[-118.34604,33.93314],[-118.34557,33.93315],[-118.34557,33.93351],[-118.34504,33.93351],[-118.34504,33.93674],[-118.34618,33.93674],[-118.34618,33.93746],[-118.34558,33.93747],[-118.34558,33.93782],[-118.34537,33.93782],[-118.34537,33.9383],[-118.34466,33.9383],[-118.34466,33.93904],[-118.34447,33.93904],[-118.3446,33.94137],[-118.34445,33.94137],[-118.34445,33.94266],[-118.3471,33.94266],[-118.34711,33.94233],[-118.34778,33.94237],[-118.34779,33.94265],[-118.35199,33.94265],[-118.35199,33.9419],[-118.35494,33.94189],[-118.35495,33.94454],[-118.35647,33.94466],[-118.35647,33.94431],[-118.35691,33.9443],[-118.35692,33.94398],[-118.35809,33.94398],[-118.35809,33.94434],[-118.35908,33.94432],[-118.35908,33.94409],[-118.35971,33.94408],[-118.35971,33.94431],[-118.36033,33.94432],[-118.36033,33.94466],[-118.36192,33.94466],[-118.36192,33.94501],[-118.363,33.94499],[-118.36301,33.94466],[-118.36634,33.9446],[-118.36753,33.94312],[-118.36774,33.94182],[-118.36904,33.94181],[-118.3691,33.94264],[-118.36955,33.9429],[-118.36956,33.94318],[-118.36907,33.94355],[-118.36906,33.94527],[-118.37018,33.94526],[-118.37015,33.95261],[-118.37884,33.95261],[-118.37876,33.9589],[-118.37841,33.9589]],[[-118.33702,33.95048],[-118.33644,33.95026],[-118.33548,33.95045],[-118.33644,33.95031],[-118.33702,33.95048]],[[-118.34004,33.94966],[-118.34017,33.94928],[-118.33973,33.94914],[-118.33902,33.94986],[-118.33714,33.9505],[-118.33819,33.95073],[-118.33868,33.95068],[-118.33923,33.95098],[-118.33989,33.95069],[-118.34004,33.94966]],[[-118.3408,33.9689],[-118.34104,33.96868],[-118.34056,33.96858],[-118.34014,33.96867],[-118.34022,33.96899],[-118.3408,33.9689]]],[[[-118.37556,33.98297],[-118.37181,33.98206],[-118.3718,33.97985],[-118.37446,33.97971],[-118.37623,33.98161],[-118.37675,33.98266],[-118.37556,33.98297]]]],"type":"MultiPolygon"},"properties":{"type":"boundary"},"type":"Feature"}],"type":"FeatureCollection"}