{"features":[{"geometry":{"coordinates":[[[[-118.32231,33.91647],[-118.29165,33.91639],[-118.29189,33.89403],[-118.2909,33.87122],[-118.30911,33.87131],[-118.3091,33.87289],[-118.31132,33.87287],[-118.31199,33.87544],[-118.31237,33.87609],[-118.31349,33.87706],[-118.31349,33.88713],[-118.32646,33.88297],[-118.32654,33.9165],[-118.32231,33.91647]],[[-118.30747,33.88247],[-118.30727,33.88247],[-118.30722,33.88265],[-118.30685,33.88264],[-118.30694,33.88246],[-118.30674,33.88247],[-118.30674,33.88286],[-118.30747,33.88278],[-118.30747,33.88247]],[[-118.3257,33.90534],[-118.32567,33.90908],[-118.32528,33.90935],[-118.31799,33.90934],[-118.31799,33.90945],[-118.32511,33.90946],[-118.32567,33.90927],[-118.32569,33.91633],[-118.32589,33.91633],[-118.32591,33.90273],[-118.3262,33.90205],[-118.32591,33.90205],[-118.3257,33.90297],[-118.3257,33.90534]],[[-118.32618,33.91282],[-118.32638,33.9128],[-118.32602,33.91266],[-118.32618,33.91282]]],[[[-118.29064,33.86631],[-118.29165,33.86556],[-118.29808,33.86555],[-118.29807,33.86642],[-118.29452,33.86648],[-118.29436,33.87057],[-118.29917,33.87056],[-118.29933,33.86571],[-118.30912,33.86566],[-118.30911,33.87114],[-118.29089,33.87102],[-118.29064,33.86631]]],[[[-118.3135,33.87286],[-118.31349,33.87684],[-118.31264,33.87611],[-118.31213,33.87525],[-118.31152,33.87287],[-118.3135,33.87286]]]],"type":"MultiPolygon"},"properties":{"type":"boundary"},"type":"Feature"}],"type":"FeatureCollection"}