{"features":[{"geometry":{"coordinates":[[[[-118.07035,34.0571],[-118.0696,34.06068],[-118.06892,34.06152],[-118.06747,34.06276],[-118.06772,34.06285],[-118.06609,34.06409],[-118.06536,34.06338],[-118.06504,34.0636],[-118.06482,34.0634],[-118.06393,34.0634],[-118.06393,34.06378],[-118.06354,34.06378],[-118.06354,34.06407],[-118.06318,34.06408],[-118.06315,34.06361],[-118.06061,34.06356],[-118.06062,34.06433],[-118.06023,34.06433],[-118.06004,34.06349],[-118.05966,34.06349],[-118.05966,34.06376],[-118.05944,34.06376],[-118.05945,34.06348],[-118.05905,34.06349],[-118.05905,34.06377],[-118.05753,34.06377],[-118.05753,34.06363],[-118.05691,34.06364],[-118.0569,34.06391],[-118.05654,34.06391],[-118.05654,34.06363],[-118.05579,34.06363],[-118.05579,34.06342],[-118.05548,34.06342],[-118.05532,34.06231],[-118.0562,34.06232],[-118.0562,34.06191],[-118.05653,34.0619],[-118.05653,34.06158],[-118.05677,34.06158],[-118.05677,34.06073],[-118.05795,34.06073],[-118.05796,34.05937],[-118.05825,34.05937],[-118.05819,34.05868],[-118.05786,34.05869],[-118.05786,34.05903],[-118.05727,34.05903],[-118.05723,34.05885],[-118.0564,34.05885],[-118.05639,34.05671],[-118.05569,34.0567],[-118.05569,34.05646],[-118.05491,34.05646],[-118.05492,34.05729],[-118.05349,34.05729],[-118.0535,34.05907],[-118.04641,34.05903],[-118.04642,34.05919],[-118.04577,34.05918],[-118.04578,34.05903],[-118.04466,34.05901],[-118.04394,34.05871],[-118.04085,34.05871],[-118.04087,34.05815],[-118.0402,34.05817],[-118.04017,34.0587],[-118.03808,34.05869],[-118.03807,34.05712],[-118.03735,34.05712],[-118.03733,34.05658],[-118.03655,34.05658],[-118.03656,34.05606],[-118.03464,34.05605],[-118.03464,34.05347],[-118.03414,34.05347],[-118.03414,34.05319],[-118.03435,34.05319],[-118.03443,34.05217],[-118.0349,34.05178],[-118.03462,34.05155],[-118.03414,34.05191],[-118.02824,34.0469],[-118.02774,34.04729],[-118.02664,34.04643],[-118.02639,34.04662],[-118.02601,34.04631],[-118.02829,34.04449],[-118.02918,34.04524],[-118.03079,34.04393],[-118.02996,34.04318],[-118.03147,34.04189],[-118.02814,34.03905],[-118.03811,34.03475],[-118.04321,34.03559],[-118.04482,34.03512],[-118.04464,34.03494],[-118.04515,34.03463],[-118.04565,34.03369],[-118.04659,34.0333],[-118.04852,34.03311],[-118.04717,34.03389],[-118.04737,34.03408],[-118.04538,34.03623],[-118.04539,34.03699],[-118.04607,34.03756],[-118.04767,34.03624],[-118.04822,34.03669],[-118.04889,34.03614],[-118.04974,34.03679],[-118.04995,34.03678],[-118.04984,34.03687],[-118.05015,34.03714],[-118.0494,34.03782],[-118.04974,34.0381],[-118.05253,34.03589],[-118.05319,34.0364],[-118.05451,34.03588],[-118.05555,34.03766],[-118.05127,34.03929],[-118.04903,34.03897],[-118.05049,34.04018],[-118.05064,34.04007],[-118.05086,34.04026],[-118.05072,34.04082],[-118.05202,34.04188],[-118.05167,34.04218],[-118.05254,34.04258],[-118.05253,34.04277],[-118.05348,34.04277],[-118.05348,34.04353],[-118.05567,34.04353],[-118.05567,34.04321],[-118.05683,34.0432],[-118.05683,34.04458],[-118.05783,34.04458],[-118.05783,34.04529],[-118.06005,34.04529],[-118.06007,34.04679],[-118.06066,34.04679],[-118.06067,34.04716],[-118.0611,34.04715],[-118.0611,34.05031],[-118.06221,34.05031],[-118.0622,34.05077],[-118.06433,34.05076],[-118.06433,34.05054],[-118.06508,34.05055],[-118.06508,34.05154],[-118.06656,34.05154],[-118.06654,34.05086],[-118.06698,34.05086],[-118.06698,34.05108],[-118.0676,34.05108],[-118.06759,34.05178],[-118.06876,34.05178],[-118.06876,34.05274],[-118.06921,34.05273],[-118.0699,34.05362],[-118.07035,34.0571]]],[[[-118.06824,34.06401],[-118.06799,34.06423],[-118.06649,34.06448],[-118.06853,34.06298],[-118.06824,34.06401]]]],"type":"MultiPolygon"},"properties":{"type":"boundary"},"type":"Feature"}],"type":"FeatureCollection"}