{"features":[{"geometry":{"coordinates":[[[-118.0693,34.05363],[-118.06861,34.05266],[-118.06876,34.05244],[-118.06876,34.05274],[-118.06921,34.05273],[-118.06956,34.05308],[-118.0699,34.05362],[-118.0693,34.05363]]],"type":"Polygon"},"properties":{"bbox":{"roads":{"area":215.52,"pct":3.67}},"city_same":1,"id":"hex:2140:17406"},"type":"Feature"},{"geometry":{"coordinates":[[[-118.06932,34.05558],[-118.06863,34.05461],[-118.0693,34.05363],[-118.0699,34.05362],[-118.0699,34.05362],[-118.07021,34.05557],[-118.06932,34.05558]]],"type":"Polygon"},"properties":{"bbox":{"roads":{"area":1261.09,"pct":5.81}},"city_same":1,"id":"hex:2140:17407"},"type":"Feature"},{"geometry":{"coordinates":[[[-118.06935,34.05753],[-118.06866,34.05656],[-118.06932,34.05558],[-118.07021,34.05557],[-118.07039,34.05669],[-118.07035,34.0571],[-118.07033,34.05721],[-118.07028,34.05752],[-118.06935,34.05753]]],"type":"Polygon"},"properties":{"bbox":{"roads":{"area":1499.7,"pct":5.68}},"city_same":1,"id":"hex:2140:17408"},"type":"Feature"},{"geometry":{"coordinates":[[[-118.06937,34.05948],[-118.06868,34.05851],[-118.06935,34.05753],[-118.07028,34.05752],[-118.07003,34.05897],[-118.06992,34.05948],[-118.06937,34.05948]]],"type":"Polygon"},"properties":{"bbox":{"roads":{"area":1299.7,"pct":5.99}},"city_same":1,"id":"hex:2140:17409"},"type":"Feature"},{"geometry":{"coordinates":[[[-118.06871,34.06047],[-118.06937,34.05948],[-118.06992,34.05948],[-118.06968,34.06051],[-118.0696,34.06068],[-118.06936,34.06108],[-118.06923,34.06121],[-118.06871,34.06047]]],"type":"Polygon"},"properties":{"bbox":{"roads":{"area":546.2,"pct":4.67}},"city_same":1,"id":"hex:2140:17410"},"type":"Feature"},{"geometry":{"coordinates":[[[-118.06861,34.05266],[-118.06726,34.05267],[-118.06657,34.0517],[-118.06699,34.05108],[-118.0676,34.05108],[-118.06759,34.05178],[-118.06835,34.05178],[-118.06876,34.05178],[-118.06876,34.05244],[-118.06861,34.05266]]],"type":"Polygon"},"properties":{"bbox":{"roads":{"area":3811.67,"pct":17.09},"sidewalks":{"area":124.04,"pct":0.56}},"city_same":1,"id":"hex:2141:17405"},"type":"Feature"},{"geometry":{"coordinates":[[[-118.06659,34.05365],[-118.06728,34.05462],[-118.06863,34.05461],[-118.0693,34.05363],[-118.06861,34.05266],[-118.06726,34.05267],[-118.06659,34.05365]]],"type":"Polygon"},"properties":{"bbox":{"roads":{"area":3636.31,"pct":8.96}},"city_same":1,"id":"hex:2141:17406"},"type":"Feature"},{"geometry":{"coordinates":[[[-118.06662,34.0556],[-118.0673,34.05657],[-118.06866,34.05656],[-118.06932,34.05558],[-118.06863,34.05461],[-118.06728,34.05462],[-118.06662,34.0556]]],"type":"Polygon"},"properties":{"bbox":{"roads":{"area":4285.42,"pct":10.56}},"city_same":1,"id":"hex:2141:17407"},"type":"Feature"},{"geometry":{"coordinates":[[[-118.06664,34.05756],[-118.06733,34.05853],[-118.06868,34.05851],[-118.06935,34.05753],[-118.06866,34.05656],[-118.0673,34.05657],[-118.06664,34.05756]]],"type":"Polygon"},"properties":{"bbox":{"roads":{"area":4051.18,"pct":9.98}},"city_same":1,"id":"hex:2141:17408"},"type":"Feature"},{"geometry":{"coordinates":[[[-118.06666,34.05951],[-118.06735,34.06048],[-118.06871,34.06047],[-118.06937,34.05948],[-118.06868,34.05851],[-118.06733,34.05853],[-118.06666,34.05951]]],"type":"Polygon"},"properties":{"bbox":{"roads":{"area":4894.39,"pct":12.06}},"city_same":1,"id":"hex:2141:17409"},"type":"Feature"},{"geometry":{"coordinates":[[[-118.06738,34.06243],[-118.06669,34.06146],[-118.06735,34.06048],[-118.06871,34.06047],[-118.06923,34.06121],[-118.06892,34.06152],[-118.06786,34.06243],[-118.06738,34.06243]]],"type":"Polygon"},"properties":{"bbox":{"roads":{"area":2904.08,"pct":8.58}},"city_same":1,"id":"hex:2141:17410"},"type":"Feature"},{"geometry":{"coordinates":[[[[-118.06671,34.06341],[-118.06738,34.06243],[-118.06786,34.06243],[-118.06747,34.06276],[-118.06746,34.06285],[-118.06772,34.06285],[-118.06681,34.06355],[-118.06671,34.06341]]],[[[-118.06714,34.06402],[-118.06853,34.06298],[-118.06824,34.06401],[-118.06799,34.06423],[-118.06738,34.06435],[-118.06714,34.06402]]]],"type":"MultiPolygon"},"properties":{"bbox":{"roads":{"area":781.09,"pct":6.17},"sidewalks":{"area":103.87,"pct":0.82}},"city":{"roads":{"area":303.48,"pct":2.4},"sidewalks":{"area":103.87,"pct":0.82}},"id":"hex:2141:17411"},"type":"Feature"},{"geometry":{"coordinates":[[[[-118.06452,34.05074],[-118.06465,34.05055],[-118.06508,34.05055],[-118.06508,34.05153],[-118.06452,34.05074]]],[[[-118.06657,34.0517],[-118.06521,34.05171],[-118.06509,34.05154],[-118.06656,34.05154],[-118.06654,34.05086],[-118.06698,34.05086],[-118.06698,34.05108],[-118.06699,34.05108],[-118.06657,34.0517]]]],"type":"MultiPolygon"},"properties":{"bbox":{"roads":{"area":233.77,"pct":2.91}},"city_same":1,"id":"hex:2142:17405"},"type":"Feature"},{"geometry":{"coordinates":[[[-118.06455,34.05269],[-118.06524,34.05366],[-118.06659,34.05365],[-118.06726,34.05267],[-118.06657,34.0517],[-118.06521,34.05171],[-118.06455,34.05269]]],"type":"Polygon"},"properties":{"bbox":{"roads":{"area":3182.08,"pct":7.84}},"city_same":1,"id":"hex:2142:17406"},"type":"Feature"},{"geometry":{"coordinates":[[[-118.06457,34.05464],[-118.06526,34.05561],[-118.06662,34.0556],[-118.06728,34.05462],[-118.06659,34.05365],[-118.06524,34.05366],[-118.06457,34.05464]]],"type":"Polygon"},"properties":{"bbox":{"roads":{"area":3826.19,"pct":9.43}},"city_same":1,"id":"hex:2142:17407"},"type":"Feature"},{"geometry":{"coordinates":[[[-118.0646,34.0566],[-118.06529,34.05757],[-118.06664,34.05756],[-118.0673,34.05657],[-118.06662,34.0556],[-118.06526,34.05561],[-118.0646,34.0566]]],"type":"Polygon"},"properties":{"bbox":{"roads":{"area":2736.56,"pct":6.74}},"city_same":1,"id":"hex:2142:17408"},"type":"Feature"},{"geometry":{"coordinates":[[[-118.06462,34.05855],[-118.06531,34.05952],[-118.06666,34.05951],[-118.06733,34.05853],[-118.06664,34.05756],[-118.06529,34.05757],[-118.06462,34.05855]]],"type":"Polygon"},"properties":{"bbox":{"roads":{"area":3855.51,"pct":9.5}},"city_same":1,"id":"hex:2142:17409"},"type":"Feature"},{"geometry":{"coordinates":[[[-118.06464,34.0605],[-118.06533,34.06147],[-118.06669,34.06146],[-118.06735,34.06048],[-118.06666,34.05951],[-118.06531,34.05952],[-118.06464,34.0605]]],"type":"Polygon"},"properties":{"bbox":{"roads":{"area":2654.83,"pct":6.54}},"city":{"roads":{"area":2647.16,"pct":6.52}},"id":"hex:2142:17410"},"type":"Feature"},{"geometry":{"coordinates":[[[-118.06467,34.06245],[-118.06533,34.06147],[-118.06669,34.06146],[-118.06738,34.06243],[-118.06671,34.06341],[-118.06541,34.06342],[-118.06536,34.06338],[-118.06534,34.0634],[-118.06467,34.06245]]],"type":"Polygon"},"properties":{"bbox":{"roads":{"area":11901.5,"pct":29.33},"sidewalks":{"area":479.4,"pct":1.18}},"city":{"roads":{"area":4073.31,"pct":10.04},"sidewalks":{"area":479.4,"pct":1.18}},"id":"hex:2142:17411"},"type":"Feature"},{"geometry":{"coordinates":[[[[-118.06738,34.06435],[-118.0666,34.0645],[-118.06655,34.06454],[-118.06649,34.06448],[-118.06659,34.06442],[-118.06688,34.06421],[-118.06714,34.06402],[-118.06738,34.06435]]],[[[-118.06671,34.06341],[-118.06681,34.06355],[-118.06647,34.06382],[-118.06616,34.06403],[-118.06609,34.06409],[-118.06625,34.06424],[-118.06541,34.06342],[-118.06671,34.06341]]]],"type":"MultiPolygon"},"properties":{"bbox":{"roads":{"area":2268.03,"pct":31.9}},"city":{"roads":{"area":338.56,"pct":4.76}},"id":"hex:2142:17412"},"type":"Feature"},{"geometry":{"coordinates":[[[-118.06452,34.05074],[-118.06433,34.05074],[-118.06433,34.05054],[-118.06465,34.05055],[-118.06452,34.05074]]],"type":"Polygon"},"properties":{"bbox":{"roads":{"area":234.93,"pct":45.44}},"id":"hex:2143:17404"},"type":"Feature"},{"geometry":{"coordinates":[[[-118.06521,34.05171],[-118.06455,34.05269],[-118.06319,34.0527],[-118.0625,34.05173],[-118.06316,34.05077],[-118.06433,34.05076],[-118.06433,34.05074],[-118.06452,34.05074],[-118.06508,34.05153],[-118.06508,34.05154],[-118.06509,34.05154],[-118.06521,34.05171]]],"type":"Polygon"},"properties":{"bbox":{"roads":{"area":11280.57,"pct":27.92}},"city":{"roads":{"area":5527.75,"pct":13.68}},"id":"hex:2143:17405"},"type":"Feature"},{"geometry":{"coordinates":[[[-118.06253,34.05369],[-118.06322,34.05466],[-118.06457,34.05464],[-118.06524,34.05366],[-118.06455,34.05269],[-118.06319,34.0527],[-118.06253,34.05369]]],"type":"Polygon"},"properties":{"bbox":{"roads":{"area":6521.01,"pct":16.06}},"city":{"roads":{"area":927.74,"pct":2.29}},"id":"hex:2143:17406"},"type":"Feature"},{"geometry":{"coordinates":[[[-118.06255,34.05564],[-118.06324,34.05661],[-118.0646,34.0566],[-118.06526,34.05561],[-118.06457,34.05464],[-118.06322,34.05466],[-118.06255,34.05564]]],"type":"Polygon"},"properties":{"bbox":{"roads":{"area":8135.02,"pct":20.04}},"city":{"roads":{"area":2745.85,"pct":6.76}},"id":"hex:2143:17407"},"type":"Feature"},{"geometry":{"coordinates":[[[-118.06258,34.05759],[-118.06327,34.05856],[-118.06462,34.05855],[-118.06529,34.05757],[-118.0646,34.0566],[-118.06324,34.05661],[-118.06258,34.05759]]],"type":"Polygon"},"properties":{"bbox":{"roads":{"area":6595.7,"pct":16.25}},"city":{"roads":{"area":1077.94,"pct":2.66}},"id":"hex:2143:17408"},"type":"Feature"},{"geometry":{"coordinates":[[[-118.0626,34.05954],[-118.06329,34.06051],[-118.06464,34.0605],[-118.06531,34.05952],[-118.06462,34.05855],[-118.06327,34.05856],[-118.0626,34.05954]]],"type":"Polygon"},"properties":{"bbox":{"roads":{"area":9257.8,"pct":22.81}},"city":{"roads":{"area":4520.17,"pct":11.13}},"id":"hex:2143:17409"},"type":"Feature"},{"geometry":{"coordinates":[[[-118.06263,34.0615],[-118.06331,34.06247],[-118.06467,34.06245],[-118.06533,34.06147],[-118.06464,34.0605],[-118.06329,34.06051],[-118.06263,34.0615]]],"type":"Polygon"},"properties":{"bbox":{"roads":{"area":9175.68,"pct":22.6}},"city":{"roads":{"area":6078.55,"pct":14.97}},"id":"hex:2143:17410"},"type":"Feature"},{"geometry":{"coordinates":[[[-118.06265,34.06345],[-118.06331,34.06247],[-118.06467,34.06245],[-118.06534,34.0634],[-118.06504,34.0636],[-118.06482,34.0634],[-118.06393,34.0634],[-118.06393,34.06378],[-118.06354,34.06378],[-118.06354,34.06407],[-118.06318,34.06408],[-118.06315,34.06361],[-118.06311,34.06361],[-118.06276,34.0636],[-118.06265,34.06345]]],"type":"Polygon"},"properties":{"bbox":{"roads":{"area":4721.58,"pct":18.96}},"city":{"roads":{"area":2894.66,"pct":11.62}},"id":"hex:2143:17411"},"type":"Feature"},{"geometry":{"coordinates":[[[-118.06044,34.04882],[-118.0611,34.04785],[-118.0611,34.04975],[-118.0611,34.04975],[-118.06044,34.04882]]],"type":"Polygon"},"properties":{"bbox":{"roads":{"area":534.93,"pct":8.3}},"city_same":1,"id":"hex:2144:17404"},"type":"Feature"},{"geometry":{"coordinates":[[[-118.0625,34.05173],[-118.06115,34.05175],[-118.06046,34.05078],[-118.0611,34.04983],[-118.0611,34.05031],[-118.06221,34.05031],[-118.0622,34.05077],[-118.06316,34.05077],[-118.0625,34.05173]]],"type":"Polygon"},"properties":{"bbox":{"roads":{"area":1131.04,"pct":3.98}},"city_same":1,"id":"hex:2144:17405"},"type":"Feature"},{"geometry":{"coordinates":[[[-118.06048,34.05273],[-118.06117,34.0537],[-118.06253,34.05369],[-118.06319,34.0527],[-118.0625,34.05173],[-118.06115,34.05175],[-118.06048,34.05273]]],"type":"Polygon"},"properties":{"bbox":{"roads":{"area":5259.87,"pct":12.96}},"city_same":1,"id":"hex:2144:17406"},"type":"Feature"},{"geometry":{"coordinates":[[[-118.06051,34.05468],[-118.0612,34.05565],[-118.06255,34.05564],[-118.06322,34.05466],[-118.06253,34.05369],[-118.06117,34.0537],[-118.06051,34.05468]]],"type":"Polygon"},"properties":{"bbox":{"roads":{"area":2394.81,"pct":5.9}},"city_same":1,"id":"hex:2144:17407"},"type":"Feature"},{"geometry":{"coordinates":[[[-118.06053,34.05663],[-118.06122,34.0576],[-118.06258,34.05759],[-118.06324,34.05661],[-118.06255,34.05564],[-118.0612,34.05565],[-118.06053,34.05663]]],"type":"Polygon"},"properties":{"bbox":{"roads":{"area":2407.75,"pct":5.93}},"city_same":1,"id":"hex:2144:17408"},"type":"Feature"},{"geometry":{"coordinates":[[[-118.06056,34.05858],[-118.06125,34.05955],[-118.0626,34.05954],[-118.06327,34.05856],[-118.06258,34.05759],[-118.06122,34.0576],[-118.06056,34.05858]]],"type":"Polygon"},"properties":{"bbox":{"roads":{"area":4313.58,"pct":10.63}},"city_same":1,"id":"hex:2144:17409"},"type":"Feature"},{"geometry":{"coordinates":[[[-118.06058,34.06054],[-118.06127,34.06151],[-118.06263,34.0615],[-118.06329,34.06051],[-118.0626,34.05954],[-118.06125,34.05955],[-118.06058,34.06054]]],"type":"Polygon"},"properties":{"bbox":{"roads":{"area":3431.16,"pct":8.45}},"city_same":1,"id":"hex:2144:17410"},"type":"Feature"},{"geometry":{"coordinates":[[[-118.06061,34.06249],[-118.0613,34.06346],[-118.06265,34.06345],[-118.06331,34.06247],[-118.06263,34.0615],[-118.06127,34.06151],[-118.06061,34.06249]]],"type":"Polygon"},"properties":{"bbox":{"roads":{"area":6920.27,"pct":17.05}},"city":{"roads":{"area":4956,"pct":12.21}},"id":"hex:2144:17411"},"type":"Feature"},{"geometry":{"coordinates":[[[-118.06041,34.04687],[-118.05906,34.04688],[-118.05837,34.04591],[-118.05879,34.04529],[-118.06005,34.04529],[-118.06007,34.04679],[-118.06047,34.04679],[-118.06041,34.04687]]],"type":"Polygon"},"properties":{"bbox":{"roads":{"area":2473.93,"pct":10.74}},"city_same":1,"id":"hex:2145:17402"},"type":"Feature"},{"geometry":{"coordinates":[[[-118.06044,34.04882],[-118.05908,34.04883],[-118.05839,34.04786],[-118.05906,34.04688],[-118.06041,34.04687],[-118.0611,34.04783],[-118.0611,34.04785],[-118.06044,34.04882]]],"type":"Polygon"},"properties":{"bbox":{"roads":{"area":4708.07,"pct":11.6}},"city_same":1,"id":"hex:2145:17403"},"type":"Feature"},{"geometry":{"coordinates":[[[-118.06046,34.05078],[-118.05911,34.05079],[-118.05842,34.04982],[-118.05908,34.04883],[-118.06044,34.04882],[-118.0611,34.04975],[-118.0611,34.04983],[-118.06046,34.05078]]],"type":"Polygon"},"properties":{"bbox":{"parking":{"area":175.05,"pct":0.43},"roads":{"area":4934.9,"pct":12.16}},"city_same":1,"id":"hex:2145:17404"},"type":"Feature"},{"geometry":{"coordinates":[[[-118.05844,34.05177],[-118.05913,34.05274],[-118.06048,34.05273],[-118.06115,34.05175],[-118.06046,34.05078],[-118.05911,34.05079],[-118.05844,34.05177]]],"type":"Polygon"},"properties":{"bbox":{"roads":{"area":6695.94,"pct":16.49}},"city_same":1,"id":"hex:2145:17405"},"type":"Feature"},{"geometry":{"coordinates":[[[-118.05847,34.05372],[-118.05915,34.05469],[-118.06051,34.05468],[-118.06117,34.0537],[-118.06048,34.05273],[-118.05913,34.05274],[-118.05847,34.05372]]],"type":"Polygon"},"properties":{"bbox":{"roads":{"area":4053.57,"pct":9.99}},"city_same":1,"id":"hex:2145:17406"},"type":"Feature"},{"geometry":{"coordinates":[[[-118.05849,34.05567],[-118.05918,34.05664],[-118.06053,34.05663],[-118.0612,34.05565],[-118.06051,34.05468],[-118.05915,34.05469],[-118.05849,34.05567]]],"type":"Polygon"},"properties":{"bbox":{"roads":{"area":3794.85,"pct":9.35}},"city_same":1,"id":"hex:2145:17407"},"type":"Feature"},{"geometry":{"coordinates":[[[-118.05851,34.05763],[-118.0592,34.0586],[-118.06056,34.05858],[-118.06122,34.0576],[-118.06053,34.05663],[-118.05918,34.05664],[-118.05851,34.05763]]],"type":"Polygon"},"properties":{"bbox":{"roads":{"area":3498.71,"pct":8.62}},"city_same":1,"id":"hex:2145:17408"},"type":"Feature"},{"geometry":{"coordinates":[[[-118.05854,34.05958],[-118.05923,34.06055],[-118.06058,34.06054],[-118.06125,34.05955],[-118.06056,34.05858],[-118.0592,34.0586],[-118.05854,34.05958]]],"type":"Polygon"},"properties":{"bbox":{"roads":{"area":3967.14,"pct":9.77}},"city_same":1,"id":"hex:2145:17409"},"type":"Feature"},{"geometry":{"coordinates":[[[-118.05856,34.06153],[-118.05925,34.0625],[-118.06061,34.06249],[-118.06127,34.06151],[-118.06058,34.06054],[-118.05923,34.06055],[-118.05856,34.06153]]],"type":"Polygon"},"properties":{"bbox":{"roads":{"area":3681.9,"pct":9.07}},"city_same":1,"id":"hex:2145:17410"},"type":"Feature"},{"geometry":{"coordinates":[[[-118.05859,34.06348],[-118.05925,34.0625],[-118.06061,34.06249],[-118.0613,34.06346],[-118.06122,34.06356],[-118.06102,34.06356],[-118.06061,34.06356],[-118.06062,34.06433],[-118.06023,34.06433],[-118.06023,34.06391],[-118.06003,34.06392],[-118.06004,34.06349],[-118.05966,34.06349],[-118.05966,34.06376],[-118.05944,34.06376],[-118.05945,34.06348],[-118.05905,34.06349],[-118.05905,34.06377],[-118.05879,34.06377],[-118.05859,34.06348]]],"type":"Polygon"},"properties":{"bbox":{"roads":{"area":4977.55,"pct":18.42}},"city":{"roads":{"area":3066.38,"pct":11.35}},"id":"hex:2145:17411"},"type":"Feature"},{"geometry":{"coordinates":[[[-118.05837,34.04591],[-118.05701,34.04592],[-118.05633,34.04495],[-118.05683,34.04421],[-118.05683,34.04458],[-118.05783,34.04458],[-118.05783,34.04529],[-118.05879,34.04529],[-118.05837,34.04591]]],"type":"Polygon"},"properties":{"bbox":{"roads":{"area":1347.83,"pct":6.13}},"city_same":1,"id":"hex:2146:17402"},"type":"Feature"},{"geometry":{"coordinates":[[[-118.05635,34.04691],[-118.05704,34.04788],[-118.05839,34.04786],[-118.05906,34.04688],[-118.05837,34.04591],[-118.05701,34.04592],[-118.05635,34.04691]]],"type":"Polygon"},"properties":{"bbox":{"roads":{"area":4369.35,"pct":10.76}},"city_same":1,"id":"hex:2146:17403"},"type":"Feature"},{"geometry":{"coordinates":[[[-118.05637,34.04886],[-118.05706,34.04983],[-118.05842,34.04982],[-118.05908,34.04883],[-118.05839,34.04786],[-118.05704,34.04788],[-118.05637,34.04886]]],"type":"Polygon"},"properties":{"bbox":{"roads":{"area":3438.99,"pct":8.47}},"city_same":1,"id":"hex:2146:17404"},"type":"Feature"},{"geometry":{"coordinates":[[[-118.0564,34.05081],[-118.05709,34.05178],[-118.05844,34.05177],[-118.05911,34.05079],[-118.05842,34.04982],[-118.05706,34.04983],[-118.0564,34.05081]]],"type":"Polygon"},"properties":{"bbox":{"roads":{"area":2687.2,"pct":6.62}},"city_same":1,"id":"hex:2146:17405"},"type":"Feature"},{"geometry":{"coordinates":[[[-118.05642,34.05276],[-118.05711,34.05373],[-118.05847,34.05372],[-118.05913,34.05274],[-118.05844,34.05177],[-118.05709,34.05178],[-118.05642,34.05276]]],"type":"Polygon"},"properties":{"bbox":{"roads":{"area":4578.5,"pct":11.28}},"city_same":1,"id":"hex:2146:17406"},"type":"Feature"},{"geometry":{"coordinates":[[[-118.05645,34.05471],[-118.05714,34.05569],[-118.05849,34.05567],[-118.05915,34.05469],[-118.05847,34.05372],[-118.05711,34.05373],[-118.05645,34.05471]]],"type":"Polygon"},"properties":{"bbox":{"roads":{"area":3136.44,"pct":7.73}},"city_same":1,"id":"hex:2146:17407"},"type":"Feature"},{"geometry":{"coordinates":[[[-118.05647,34.05667],[-118.05716,34.05764],[-118.05851,34.05763],[-118.05918,34.05664],[-118.05849,34.05567],[-118.05714,34.05569],[-118.05647,34.05667]]],"type":"Polygon"},"properties":{"bbox":{"roads":{"area":3284.89,"pct":8.09}},"city_same":1,"id":"hex:2146:17408"},"type":"Feature"},{"geometry":{"coordinates":[[[-118.05649,34.05862],[-118.05716,34.05764],[-118.05851,34.05763],[-118.0592,34.0586],[-118.05854,34.05958],[-118.05796,34.05958],[-118.05796,34.05937],[-118.05825,34.05937],[-118.05825,34.05918],[-118.0582,34.05918],[-118.05819,34.05868],[-118.05786,34.05869],[-118.05786,34.05903],[-118.05727,34.05903],[-118.05723,34.05898],[-118.05723,34.05885],[-118.05666,34.05885],[-118.05649,34.05862]]],"type":"Polygon"},"properties":{"bbox":{"roads":{"area":3897.99,"pct":12.18}},"city_same":1,"id":"hex:2146:17409"},"type":"Feature"},{"geometry":{"coordinates":[[[-118.05854,34.05958],[-118.05923,34.06055],[-118.05856,34.06153],[-118.05721,34.06154],[-118.05677,34.06093],[-118.05677,34.06073],[-118.05795,34.06073],[-118.05796,34.05958],[-118.05854,34.05958]]],"type":"Polygon"},"properties":{"bbox":{"roads":{"area":3778.06,"pct":13.94}},"city_same":1,"id":"hex:2146:17410"},"type":"Feature"},{"geometry":{"coordinates":[[[-118.05654,34.06252],[-118.05723,34.06349],[-118.05859,34.06348],[-118.05925,34.0625],[-118.05856,34.06153],[-118.05721,34.06154],[-118.05654,34.06252]]],"type":"Polygon"},"properties":{"bbox":{"roads":{"area":7018.06,"pct":17.29}},"city":{"roads":{"area":4024.04,"pct":9.91}},"id":"hex:2146:17411"},"type":"Feature"},{"geometry":{"coordinates":[[[-118.05723,34.06349],[-118.05859,34.06348],[-118.05879,34.06377],[-118.05851,34.06377],[-118.05852,34.0638],[-118.0582,34.0638],[-118.0582,34.06377],[-118.05753,34.06377],[-118.05753,34.06363],[-118.05714,34.06364],[-118.05723,34.06349]]],"type":"Polygon"},"properties":{"bbox":{"roads":{"area":291.65,"pct":7.36}},"city_same":1,"id":"hex:2146:17412"},"type":"Feature"},{"geometry":{"coordinates":[[[-118.05421,34.03814],[-118.05487,34.03716],[-118.05525,34.03715],[-118.05555,34.03766],[-118.05425,34.03819],[-118.05421,34.03814]]],"type":"Polygon"},"properties":{"bbox":{"roads":{"area":889.4,"pct":13.64}},"city":{"roads":{"area":36.97,"pct":0.57}},"id":"hex:2147:17398"},"type":"Feature"},{"geometry":{"coordinates":[[[-118.05633,34.04495],[-118.05497,34.04496],[-118.05428,34.04399],[-118.0546,34.04353],[-118.05567,34.04353],[-118.05567,34.04321],[-118.05645,34.04321],[-118.05683,34.04375],[-118.05683,34.04421],[-118.05633,34.04495]]],"type":"Polygon"},"properties":{"bbox":{"roads":{"area":3391.24,"pct":9.99}},"city_same":1,"id":"hex:2147:17401"},"type":"Feature"},{"geometry":{"coordinates":[[[-118.05431,34.04595],[-118.055,34.04692],[-118.05635,34.04691],[-118.05701,34.04592],[-118.05633,34.04495],[-118.05497,34.04496],[-118.05431,34.04595]]],"type":"Polygon"},"properties":{"bbox":{"roads":{"area":5223.44,"pct":12.87}},"city_same":1,"id":"hex:2147:17402"},"type":"Feature"},{"geometry":{"coordinates":[[[-118.05433,34.0479],[-118.05502,34.04887],[-118.05637,34.04886],[-118.05704,34.04788],[-118.05635,34.04691],[-118.055,34.04692],[-118.05433,34.0479]]],"type":"Polygon"},"properties":{"bbox":{"roads":{"area":3937.82,"pct":9.7}},"city_same":1,"id":"hex:2147:17403"},"type":"Feature"},{"geometry":{"coordinates":[[[-118.05435,34.04985],[-118.05504,34.05082],[-118.0564,34.05081],[-118.05706,34.04983],[-118.05637,34.04886],[-118.05502,34.04887],[-118.05435,34.04985]]],"type":"Polygon"},"properties":{"bbox":{"roads":{"area":4026.14,"pct":9.92}},"city_same":1,"id":"hex:2147:17404"},"type":"Feature"},{"geometry":{"coordinates":[[[-118.05438,34.0518],[-118.05507,34.05277],[-118.05642,34.05276],[-118.05709,34.05178],[-118.0564,34.05081],[-118.05504,34.05082],[-118.05438,34.0518]]],"type":"Polygon"},"properties":{"bbox":{"roads":{"area":8585.11,"pct":21.15}},"city_same":1,"id":"hex:2147:17405"},"type":"Feature"},{"geometry":{"coordinates":[[[-118.0544,34.05376],[-118.05509,34.05473],[-118.05645,34.05471],[-118.05711,34.05373],[-118.05642,34.05276],[-118.05507,34.05277],[-118.0544,34.05376]]],"type":"Polygon"},"properties":{"bbox":{"roads":{"area":3498.87,"pct":8.62}},"city_same":1,"id":"hex:2147:17406"},"type":"Feature"},{"geometry":{"coordinates":[[[-118.05443,34.05571],[-118.05509,34.05473],[-118.05645,34.05471],[-118.05714,34.05569],[-118.05647,34.05667],[-118.05569,34.05667],[-118.05569,34.05646],[-118.05496,34.05646],[-118.05443,34.05571]]],"type":"Polygon"},"properties":{"bbox":{"roads":{"area":3845.74,"pct":9.82}},"city_same":1,"id":"hex:2147:17407"},"type":"Feature"},{"geometry":{"coordinates":[[[[-118.05647,34.05667],[-118.05716,34.05764],[-118.05649,34.05862],[-118.0564,34.05862],[-118.05639,34.05671],[-118.05569,34.0567],[-118.05569,34.05667],[-118.05647,34.05667]]],[[[-118.05491,34.05698],[-118.05492,34.05729],[-118.0547,34.05729],[-118.05491,34.05698]]]],"type":"MultiPolygon"},"properties":{"bbox":{"roads":{"area":474.92,"pct":5.25}},"city_same":1,"id":"hex:2147:17408"},"type":"Feature"},{"geometry":{"coordinates":[[[-118.05649,34.05862],[-118.05666,34.05885],[-118.0564,34.05885],[-118.0564,34.05862],[-118.05649,34.05862]]],"type":"Polygon"},"properties":{"bbox":{"roads":{"area":87.82,"pct":21.2}},"city_same":1,"id":"hex:2147:17409"},"type":"Feature"},{"geometry":{"coordinates":[[[-118.05721,34.06154],[-118.05654,34.06252],[-118.05533,34.06253],[-118.05532,34.06231],[-118.0562,34.06232],[-118.0562,34.06191],[-118.05653,34.0619],[-118.05653,34.06158],[-118.05677,34.06158],[-118.05677,34.06093],[-118.05721,34.06154]]],"type":"Polygon"},"properties":{"bbox":{"roads":{"area":825.69,"pct":9.41}},"city_same":1,"id":"hex:2147:17410"},"type":"Feature"},{"geometry":{"coordinates":[[[-118.05654,34.06252],[-118.05723,34.06349],[-118.05714,34.06364],[-118.05691,34.06364],[-118.0569,34.06391],[-118.05654,34.06391],[-118.05654,34.06363],[-118.05579,34.06363],[-118.05579,34.06342],[-118.05548,34.06342],[-118.05547,34.06274],[-118.05533,34.06273],[-118.05533,34.06253],[-118.05654,34.06252]]],"type":"Polygon"},"properties":{"bbox":{"roads":{"area":3164.63,"pct":18.54}},"city":{"roads":{"area":1313.76,"pct":7.7}},"id":"hex:2147:17411"},"type":"Feature"},{"geometry":{"coordinates":[[[-118.05428,34.04399],[-118.05293,34.04401],[-118.05224,34.04304],[-118.05254,34.0426],[-118.05253,34.04277],[-118.05348,34.04277],[-118.05348,34.04353],[-118.0546,34.04353],[-118.05428,34.04399]]],"type":"Polygon"},"properties":{"bbox":{"roads":{"area":1031.95,"pct":6.17}},"city_same":1,"id":"hex:2148:17401"},"type":"Feature"},{"geometry":{"coordinates":[[[-118.05226,34.04499],[-118.05295,34.04596],[-118.05431,34.04595],[-118.05497,34.04496],[-118.05428,34.04399],[-118.05293,34.04401],[-118.05226,34.04499]]],"type":"Polygon"},"properties":{"bbox":{"roads":{"area":2983.01,"pct":7.35}},"city_same":1,"id":"hex:2148:17402"},"type":"Feature"},{"geometry":{"coordinates":[[[-118.05229,34.04694],[-118.05298,34.04791],[-118.05433,34.0479],[-118.055,34.04692],[-118.05431,34.04595],[-118.05295,34.04596],[-118.05229,34.04694]]],"type":"Polygon"},"properties":{"bbox":{"roads":{"area":3222.6,"pct":7.94}},"city_same":1,"id":"hex:2148:17403"},"type":"Feature"},{"geometry":{"coordinates":[[[-118.05231,34.04889],[-118.053,34.04986],[-118.05435,34.04985],[-118.05502,34.04887],[-118.05433,34.0479],[-118.05298,34.04791],[-118.05231,34.04889]]],"type":"Polygon"},"properties":{"bbox":{"roads":{"area":3162.42,"pct":7.79}},"city_same":1,"id":"hex:2148:17404"},"type":"Feature"},{"geometry":{"coordinates":[[[-118.05234,34.05084],[-118.05302,34.05182],[-118.05438,34.0518],[-118.05504,34.05082],[-118.05435,34.04985],[-118.053,34.04986],[-118.05234,34.05084]]],"type":"Polygon"},"properties":{"bbox":{"roads":{"area":3159.45,"pct":7.78}},"city_same":1,"id":"hex:2148:17405"},"type":"Feature"},{"geometry":{"coordinates":[[[-118.05236,34.0528],[-118.05305,34.05377],[-118.0544,34.05376],[-118.05507,34.05277],[-118.05438,34.0518],[-118.05302,34.05182],[-118.05236,34.0528]]],"type":"Polygon"},"properties":{"bbox":{"roads":{"area":5112.38,"pct":12.59}},"city_same":1,"id":"hex:2148:17406"},"type":"Feature"},{"geometry":{"coordinates":[[[-118.05238,34.05475],[-118.05307,34.05572],[-118.05443,34.05571],[-118.05509,34.05473],[-118.0544,34.05376],[-118.05305,34.05377],[-118.05238,34.05475]]],"type":"Polygon"},"properties":{"bbox":{"roads":{"area":3944.93,"pct":9.72}},"city_same":1,"id":"hex:2148:17407"},"type":"Feature"},{"geometry":{"coordinates":[[[-118.0531,34.05767],[-118.05241,34.0567],[-118.05307,34.05572],[-118.05443,34.05571],[-118.05496,34.05646],[-118.05491,34.05646],[-118.05491,34.05698],[-118.0547,34.05729],[-118.05349,34.05729],[-118.05349,34.05767],[-118.0531,34.05767]]],"type":"Polygon"},"properties":{"bbox":{"roads":{"area":3305.32,"pct":9.23}},"city_same":1,"id":"hex:2148:17408"},"type":"Feature"},{"geometry":{"coordinates":[[[-118.05243,34.05865],[-118.0531,34.05767],[-118.05349,34.05767],[-118.0535,34.05907],[-118.05273,34.05907],[-118.05243,34.05865]]],"type":"Polygon"},"properties":{"bbox":{"roads":{"area":871.69,"pct":7.73}},"city_same":1,"id":"hex:2148:17409"},"type":"Feature"},{"geometry":{"coordinates":[[[-118.05283,34.0362],[-118.05217,34.03718],[-118.05089,34.03719],[-118.05253,34.03589],[-118.05272,34.03604],[-118.05283,34.0362]]],"type":"Polygon"},"properties":{"bbox":{"roads":{"area":214.98,"pct":1.95}},"city_same":1,"id":"hex:2149:17397"},"type":"Feature"},{"geometry":{"coordinates":[[[-118.05084,34.03914],[-118.05015,34.03817],[-118.05072,34.03732],[-118.05089,34.03719],[-118.05217,34.03718],[-118.05286,34.03815],[-118.05229,34.03898],[-118.05196,34.03911],[-118.05189,34.03913],[-118.05084,34.03914]]],"type":"Polygon"},"properties":{"bbox":{"roads":{"area":572.97,"pct":1.42}},"city_same":1,"id":"hex:2149:17398"},"type":"Feature"},{"geometry":{"coordinates":[[[[-118.05086,34.04109],[-118.05017,34.04012],[-118.05026,34.03999],[-118.05049,34.04018],[-118.05064,34.04007],[-118.05086,34.04026],[-118.05072,34.04082],[-118.05106,34.04109],[-118.05086,34.04109]]],[[[-118.05084,34.03914],[-118.05189,34.03913],[-118.05127,34.03929],[-118.05079,34.03922],[-118.05084,34.03914]]]],"type":"MultiPolygon"},"properties":{"bbox":{"roads":{"area":1008.06,"pct":24.08}},"city":{"roads":{"area":917.63,"pct":21.92}},"id":"hex:2149:17399"},"type":"Feature"},{"geometry":{"coordinates":[[[-118.05224,34.04304],[-118.05088,34.04305],[-118.0502,34.04208],[-118.05086,34.04109],[-118.05106,34.04109],[-118.05202,34.04188],[-118.05167,34.04218],[-118.05254,34.04258],[-118.05254,34.0426],[-118.05224,34.04304]]],"type":"Polygon"},"properties":{"bbox":{"roads":{"area":4948.75,"pct":18.11}},"city_same":1,"id":"hex:2149:17400"},"type":"Feature"},{"geometry":{"coordinates":[[[-118.05022,34.04403],[-118.05091,34.045],[-118.05226,34.04499],[-118.05293,34.04401],[-118.05224,34.04304],[-118.05088,34.04305],[-118.05022,34.04403]]],"type":"Polygon"},"properties":{"bbox":{"roads":{"area":5324.77,"pct":13.12}},"city_same":1,"id":"hex:2149:17401"},"type":"Feature"},{"geometry":{"coordinates":[[[-118.05024,34.04598],[-118.05093,34.04695],[-118.05229,34.04694],[-118.05295,34.04596],[-118.05226,34.04499],[-118.05091,34.045],[-118.05024,34.04598]]],"type":"Polygon"},"properties":{"bbox":{"roads":{"area":6003.91,"pct":14.79}},"city_same":1,"id":"hex:2149:17402"},"type":"Feature"},{"geometry":{"coordinates":[[[-118.05027,34.04793],[-118.05096,34.0489],[-118.05231,34.04889],[-118.05298,34.04791],[-118.05229,34.04694],[-118.05093,34.04695],[-118.05027,34.04793]]],"type":"Polygon"},"properties":{"bbox":{"roads":{"area":5061.38,"pct":12.47}},"city_same":1,"id":"hex:2149:17403"},"type":"Feature"},{"geometry":{"coordinates":[[[-118.05029,34.04989],[-118.05098,34.05086],[-118.05234,34.05084],[-118.053,34.04986],[-118.05231,34.04889],[-118.05096,34.0489],[-118.05029,34.04989]]],"type":"Polygon"},"properties":{"bbox":{"roads":{"area":5632.91,"pct":13.88}},"city_same":1,"id":"hex:2149:17404"},"type":"Feature"},{"geometry":{"coordinates":[[[-118.05032,34.05184],[-118.05101,34.05281],[-118.05236,34.0528],[-118.05302,34.05182],[-118.05234,34.05084],[-118.05098,34.05086],[-118.05032,34.05184]]],"type":"Polygon"},"properties":{"bbox":{"roads":{"area":9390.12,"pct":23.13}},"city_same":1,"id":"hex:2149:17405"},"type":"Feature"},{"geometry":{"coordinates":[[[-118.05034,34.05379],[-118.05103,34.05476],[-118.05238,34.05475],[-118.05305,34.05377],[-118.05236,34.0528],[-118.05101,34.05281],[-118.05034,34.05379]]],"type":"Polygon"},"properties":{"bbox":{"roads":{"area":5474.37,"pct":13.49}},"city_same":1,"id":"hex:2149:17406"},"type":"Feature"},{"geometry":{"coordinates":[[[-118.05036,34.05574],[-118.05105,34.05671],[-118.05241,34.0567],[-118.05307,34.05572],[-118.05238,34.05475],[-118.05103,34.05476],[-118.05036,34.05574]]],"type":"Polygon"},"properties":{"bbox":{"roads":{"area":6282.03,"pct":15.47}},"city_same":1,"id":"hex:2149:17407"},"type":"Feature"},{"geometry":{"coordinates":[[[-118.05039,34.0577],[-118.05108,34.05867],[-118.05243,34.05865],[-118.0531,34.05767],[-118.05241,34.0567],[-118.05105,34.05671],[-118.05039,34.0577]]],"type":"Polygon"},"properties":{"bbox":{"roads":{"area":5581.74,"pct":13.75}},"city_same":1,"id":"hex:2149:17408"},"type":"Feature"},{"geometry":{"coordinates":[[[-118.05108,34.05867],[-118.05243,34.05865],[-118.05273,34.05907],[-118.0508,34.05907],[-118.05108,34.05867]]],"type":"Polygon"},"properties":{"bbox":{"roads":{"area":957.02,"pct":13.78}},"city_same":1,"id":"hex:2149:17409"},"type":"Feature"},{"geometry":{"coordinates":[[[-118.04806,34.03331],[-118.0482,34.0331],[-118.04841,34.03309],[-118.04852,34.03311],[-118.04809,34.03336],[-118.04806,34.03331]]],"type":"Polygon"},"properties":{"bbox":{"roads":{"area":222.5,"pct":41.7}},"id":"hex:2150:17396"},"type":"Feature"},{"geometry":{"coordinates":[[[-118.05015,34.03817],[-118.04879,34.03818],[-118.0481,34.03721],[-118.04876,34.03625],[-118.04878,34.03623],[-118.049,34.03623],[-118.04974,34.03679],[-118.04985,34.0367],[-118.04995,34.03678],[-118.04984,34.03687],[-118.05015,34.03714],[-118.0498,34.03743],[-118.04982,34.03745],[-118.04958,34.03765],[-118.0494,34.03782],[-118.04974,34.0381],[-118.05072,34.03732],[-118.05015,34.03817]]],"type":"Polygon"},"properties":{"bbox":{"roads":{"area":3235.14,"pct":12.2}},"city_same":1,"id":"hex:2150:17398"},"type":"Feature"},{"geometry":{"coordinates":[[[-118.05017,34.04012],[-118.04882,34.04014],[-118.04813,34.03917],[-118.04879,34.03818],[-118.05015,34.03817],[-118.05084,34.03914],[-118.05079,34.03922],[-118.04903,34.03897],[-118.05005,34.03981],[-118.05026,34.03999],[-118.05017,34.04012]]],"type":"Polygon"},"properties":{"bbox":{"roads":{"area":7138.48,"pct":21.63}},"city":{"roads":{"area":1928.69,"pct":5.84}},"id":"hex:2150:17399"},"type":"Feature"},{"geometry":{"coordinates":[[[-118.04815,34.04112],[-118.04884,34.04209],[-118.0502,34.04208],[-118.05086,34.04109],[-118.05017,34.04012],[-118.04882,34.04014],[-118.04815,34.04112]]],"type":"Polygon"},"properties":{"bbox":{"roads":{"area":9031.97,"pct":22.25}},"city":{"roads":{"area":9004.42,"pct":22.18}},"id":"hex:2150:17400"},"type":"Feature"},{"geometry":{"coordinates":[[[-118.04818,34.04307],[-118.04887,34.04404],[-118.05022,34.04403],[-118.05088,34.04305],[-118.0502,34.04208],[-118.04884,34.04209],[-118.04818,34.04307]]],"type":"Polygon"},"properties":{"bbox":{"parking":{"area":547.56,"pct":1.35},"roads":{"area":2843.22,"pct":7}},"city_same":1,"id":"hex:2150:17401"},"type":"Feature"},{"geometry":{"coordinates":[[[-118.0482,34.04502],[-118.04889,34.04599],[-118.05024,34.04598],[-118.05091,34.045],[-118.05022,34.04403],[-118.04887,34.04404],[-118.0482,34.04502]]],"type":"Polygon"},"properties":{"bbox":{"parking":{"area":275.22,"pct":0.68},"roads":{"area":3903.77,"pct":9.62}},"city_same":1,"id":"hex:2150:17402"},"type":"Feature"},{"geometry":{"coordinates":[[[-118.04822,34.04698],[-118.04891,34.04795],[-118.05027,34.04793],[-118.05093,34.04695],[-118.05024,34.04598],[-118.04889,34.04599],[-118.04822,34.04698]]],"type":"Polygon"},"properties":{"bbox":{"roads":{"area":3432.37,"pct":8.46}},"city_same":1,"id":"hex:2150:17403"},"type":"Feature"},{"geometry":{"coordinates":[[[-118.04825,34.04893],[-118.04894,34.0499],[-118.05029,34.04989],[-118.05096,34.0489],[-118.05027,34.04793],[-118.04891,34.04795],[-118.04825,34.04893]]],"type":"Polygon"},"properties":{"bbox":{"roads":{"area":4716.55,"pct":11.62}},"city_same":1,"id":"hex:2150:17404"},"type":"Feature"},{"geometry":{"coordinates":[[[-118.04827,34.05088],[-118.04896,34.05185],[-118.05032,34.05184],[-118.05098,34.05086],[-118.05029,34.04989],[-118.04894,34.0499],[-118.04827,34.05088]]],"type":"Polygon"},"properties":{"bbox":{"roads":{"area":4777.18,"pct":11.77}},"city_same":1,"id":"hex:2150:17405"},"type":"Feature"},{"geometry":{"coordinates":[[[-118.0483,34.05283],[-118.04899,34.0538],[-118.05034,34.05379],[-118.05101,34.05281],[-118.05032,34.05184],[-118.04896,34.05185],[-118.0483,34.05283]]],"type":"Polygon"},"properties":{"bbox":{"roads":{"area":4275.29,"pct":10.53}},"city_same":1,"id":"hex:2150:17406"},"type":"Feature"},{"geometry":{"coordinates":[[[-118.04832,34.05478],[-118.04901,34.05575],[-118.05036,34.05574],[-118.05103,34.05476],[-118.05034,34.05379],[-118.04899,34.0538],[-118.04832,34.05478]]],"type":"Polygon"},"properties":{"bbox":{"roads":{"area":4485.6,"pct":11.05}},"city_same":1,"id":"hex:2150:17407"},"type":"Feature"},{"geometry":{"coordinates":[[[-118.04834,34.05674],[-118.04903,34.05771],[-118.05039,34.0577],[-118.05105,34.05671],[-118.05036,34.05574],[-118.04901,34.05575],[-118.04834,34.05674]]],"type":"Polygon"},"properties":{"bbox":{"roads":{"area":4478.45,"pct":11.03}},"city_same":1,"id":"hex:2150:17408"},"type":"Feature"},{"geometry":{"coordinates":[[[-118.04837,34.05869],[-118.04903,34.05771],[-118.05039,34.0577],[-118.05108,34.05867],[-118.0508,34.05907],[-118.04997,34.05907],[-118.04998,34.059],[-118.0486,34.05901],[-118.04837,34.05869]]],"type":"Polygon"},"properties":{"bbox":{"roads":{"area":2709.74,"pct":9.26}},"city_same":1,"id":"hex:2150:17409"},"type":"Feature"},{"geometry":{"coordinates":[[[-118.04604,34.0343],[-118.0467,34.03332],[-118.04806,34.03331],[-118.04809,34.03336],[-118.04717,34.03389],[-118.04737,34.03408],[-118.04728,34.03425],[-118.0465,34.03496],[-118.04604,34.0343]]],"type":"Polygon"},"properties":{"bbox":{"roads":{"area":2679.97,"pct":17.34}},"city":{"roads":{"area":609.05,"pct":3.94}},"id":"hex:2151:17396"},"type":"Feature"},{"geometry":{"coordinates":[[[-118.0481,34.03721],[-118.04675,34.03722],[-118.04665,34.03708],[-118.04767,34.03624],[-118.04822,34.03669],[-118.04827,34.03665],[-118.04876,34.03625],[-118.0481,34.03721]]],"type":"Polygon"},"properties":{"bbox":{"roads":{"area":1395.58,"pct":12.82}},"city_same":1,"id":"hex:2151:17397"},"type":"Feature"},{"geometry":{"coordinates":[[[-118.04609,34.03821],[-118.04677,34.03918],[-118.04813,34.03917],[-118.04879,34.03818],[-118.0481,34.03721],[-118.04675,34.03722],[-118.04609,34.03821]]],"type":"Polygon"},"properties":{"bbox":{"roads":{"area":8161.22,"pct":20.1}},"city":{"roads":{"area":2868.49,"pct":7.07}},"id":"hex:2151:17398"},"type":"Feature"},{"geometry":{"coordinates":[[[-118.04611,34.04016],[-118.0468,34.04113],[-118.04815,34.04112],[-118.04882,34.04014],[-118.04813,34.03917],[-118.04677,34.03918],[-118.04611,34.04016]]],"type":"Polygon"},"properties":{"bbox":{"roads":{"area":3833.18,"pct":9.44}},"city":{"roads":{"area":2672.49,"pct":6.58}},"id":"hex:2151:17399"},"type":"Feature"},{"geometry":{"coordinates":[[[-118.04613,34.04211],[-118.04682,34.04308],[-118.04818,34.04307],[-118.04884,34.04209],[-118.04815,34.04112],[-118.0468,34.04113],[-118.04613,34.04211]]],"type":"Polygon"},"properties":{"bbox":{"roads":{"area":4822.43,"pct":11.88}},"city_same":1,"id":"hex:2151:17400"},"type":"Feature"},{"geometry":{"coordinates":[[[-118.04616,34.04406],[-118.04685,34.04503],[-118.0482,34.04502],[-118.04887,34.04404],[-118.04818,34.04307],[-118.04682,34.04308],[-118.04616,34.04406]]],"type":"Polygon"},"properties":{"bbox":{"parking":{"area":1129.23,"pct":2.78},"roads":{"area":4818.35,"pct":11.87}},"city_same":1,"id":"hex:2151:17401"},"type":"Feature"},{"geometry":{"coordinates":[[[-118.04618,34.04602],[-118.04687,34.04699],[-118.04822,34.04698],[-118.04889,34.04599],[-118.0482,34.04502],[-118.04685,34.04503],[-118.04618,34.04602]]],"type":"Polygon"},"properties":{"bbox":{"parking":{"area":950.5,"pct":2.34},"roads":{"area":4711.45,"pct":11.61}},"city_same":1,"id":"hex:2151:17402"},"type":"Feature"},{"geometry":{"coordinates":[[[-118.04621,34.04797],[-118.04689,34.04894],[-118.04825,34.04893],[-118.04891,34.04795],[-118.04822,34.04698],[-118.04687,34.04699],[-118.04621,34.04797]]],"type":"Polygon"},"properties":{"bbox":{"roads":{"area":4043.68,"pct":9.96}},"city_same":1,"id":"hex:2151:17403"},"type":"Feature"},{"geometry":{"coordinates":[[[-118.04623,34.04992],[-118.04692,34.05089],[-118.04827,34.05088],[-118.04894,34.0499],[-118.04825,34.04893],[-118.04689,34.04894],[-118.04623,34.04992]]],"type":"Polygon"},"properties":{"bbox":{"roads":{"area":4089.45,"pct":10.07}},"city_same":1,"id":"hex:2151:17404"},"type":"Feature"},{"geometry":{"coordinates":[[[-118.04625,34.05187],[-118.04694,34.05284],[-118.0483,34.05283],[-118.04896,34.05185],[-118.04827,34.05088],[-118.04692,34.05089],[-118.04625,34.05187]]],"type":"Polygon"},"properties":{"bbox":{"roads":{"area":7424.03,"pct":18.29}},"city_same":1,"id":"hex:2151:17405"},"type":"Feature"},{"geometry":{"coordinates":[[[-118.04628,34.05383],[-118.04697,34.0548],[-118.04832,34.05478],[-118.04899,34.0538],[-118.0483,34.05283],[-118.04694,34.05284],[-118.04628,34.05383]]],"type":"Polygon"},"properties":{"bbox":{"roads":{"area":3993.55,"pct":9.84}},"city_same":1,"id":"hex:2151:17406"},"type":"Feature"},{"geometry":{"coordinates":[[[-118.0463,34.05578],[-118.04699,34.05675],[-118.04834,34.05674],[-118.04901,34.05575],[-118.04832,34.05478],[-118.04697,34.0548],[-118.0463,34.05578]]],"type":"Polygon"},"properties":{"bbox":{"roads":{"area":4330.42,"pct":10.67}},"city_same":1,"id":"hex:2151:17407"},"type":"Feature"},{"geometry":{"coordinates":[[[-118.04633,34.05773],[-118.04701,34.0587],[-118.04837,34.05869],[-118.04903,34.05771],[-118.04834,34.05674],[-118.04699,34.05675],[-118.04633,34.05773]]],"type":"Polygon"},"properties":{"bbox":{"roads":{"area":4176.87,"pct":10.29}},"city_same":1,"id":"hex:2151:17408"},"type":"Feature"},{"geometry":{"coordinates":[[[-118.04701,34.0587],[-118.04837,34.05869],[-118.0486,34.05901],[-118.04679,34.05903],[-118.04701,34.0587]]],"type":"Polygon"},"properties":{"bbox":{"roads":{"area":280.54,"pct":5.33}},"city_same":1,"id":"hex:2151:17409"},"type":"Feature"},{"geometry":{"coordinates":[[[-118.0467,34.03332],[-118.04604,34.0343],[-118.04535,34.03431],[-118.04544,34.03417],[-118.04565,34.03369],[-118.04623,34.0334],[-118.04659,34.0333],[-118.04669,34.0333],[-118.0467,34.03332]]],"type":"Polygon"},"properties":{"bbox":{"roads":{"area":242.62,"pct":3.64}},"city_same":1,"id":"hex:2152:17396"},"type":"Feature"},{"geometry":{"coordinates":[[[-118.04471,34.03627],[-118.04409,34.0354],[-118.04436,34.03531],[-118.04482,34.03512],[-118.04464,34.03494],[-118.04505,34.03474],[-118.04511,34.03457],[-118.04515,34.03463],[-118.04535,34.03431],[-118.04604,34.0343],[-118.0465,34.03496],[-118.04612,34.0353],[-118.04587,34.03581],[-118.04538,34.03623],[-118.04538,34.03626],[-118.04471,34.03627]]],"type":"Polygon"},"properties":{"bbox":{"roads":{"area":4390.98,"pct":15.78}},"city":{"roads":{"area":1285,"pct":4.62}},"id":"hex:2152:17397"},"type":"Feature"},{"geometry":{"coordinates":[[[-118.04675,34.03722],[-118.04609,34.03821],[-118.04473,34.03822],[-118.04404,34.03725],[-118.04471,34.03627],[-118.04538,34.03626],[-118.04539,34.03699],[-118.04607,34.03756],[-118.04665,34.03708],[-118.04675,34.03722]]],"type":"Polygon"},"properties":{"bbox":{"roads":{"area":1820.56,"pct":6.14}},"city_same":1,"id":"hex:2152:17398"},"type":"Feature"},{"geometry":{"coordinates":[[[-118.04407,34.0392],[-118.04476,34.04017],[-118.04611,34.04016],[-118.04677,34.03918],[-118.04609,34.03821],[-118.04473,34.03822],[-118.04407,34.0392]]],"type":"Polygon"},"properties":{"bbox":{"roads":{"area":9562.45,"pct":23.56}},"city":{"roads":{"area":2619.62,"pct":6.45}},"id":"hex:2152:17399"},"type":"Feature"},{"geometry":{"coordinates":[[[-118.04409,34.04115],[-118.04478,34.04212],[-118.04613,34.04211],[-118.0468,34.04113],[-118.04611,34.04016],[-118.04476,34.04017],[-118.04409,34.04115]]],"type":"Polygon"},"properties":{"bbox":{"roads":{"area":4010.66,"pct":9.88}},"city_same":1,"id":"hex:2152:17400"},"type":"Feature"},{"geometry":{"coordinates":[[[-118.04411,34.0431],[-118.0448,34.04408],[-118.04616,34.04406],[-118.04682,34.04308],[-118.04613,34.04211],[-118.04478,34.04212],[-118.04411,34.0431]]],"type":"Polygon"},"properties":{"bbox":{"roads":{"area":4152.44,"pct":10.23}},"city_same":1,"id":"hex:2152:17401"},"type":"Feature"},{"geometry":{"coordinates":[[[-118.04414,34.04506],[-118.04483,34.04603],[-118.04618,34.04602],[-118.04685,34.04503],[-118.04616,34.04406],[-118.0448,34.04408],[-118.04414,34.04506]]],"type":"Polygon"},"properties":{"bbox":{"parking":{"area":1560.76,"pct":3.84},"roads":{"area":5396.42,"pct":13.29}},"city_same":1,"id":"hex:2152:17402"},"type":"Feature"},{"geometry":{"coordinates":[[[-118.04416,34.04701],[-118.04485,34.04798],[-118.04621,34.04797],[-118.04687,34.04699],[-118.04618,34.04602],[-118.04483,34.04603],[-118.04416,34.04701]]],"type":"Polygon"},"properties":{"bbox":{"roads":{"area":4772.27,"pct":11.76}},"city_same":1,"id":"hex:2152:17403"},"type":"Feature"},{"geometry":{"coordinates":[[[-118.04419,34.04896],[-118.04488,34.04993],[-118.04623,34.04992],[-118.04689,34.04894],[-118.04621,34.04797],[-118.04485,34.04798],[-118.04419,34.04896]]],"type":"Polygon"},"properties":{"bbox":{"roads":{"area":3455.41,"pct":8.51}},"city_same":1,"id":"hex:2152:17404"},"type":"Feature"},{"geometry":{"coordinates":[[[-118.04421,34.05091],[-118.0449,34.05188],[-118.04625,34.05187],[-118.04692,34.05089],[-118.04623,34.04992],[-118.04488,34.04993],[-118.04421,34.05091]]],"type":"Polygon"},"properties":{"bbox":{"roads":{"area":4701.46,"pct":11.58}},"city_same":1,"id":"hex:2152:17405"},"type":"Feature"},{"geometry":{"coordinates":[[[-118.04423,34.05287],[-118.04492,34.05384],[-118.04628,34.05383],[-118.04694,34.05284],[-118.04625,34.05187],[-118.0449,34.05188],[-118.04423,34.05287]]],"type":"Polygon"},"properties":{"bbox":{"roads":{"area":3623.08,"pct":8.92}},"city_same":1,"id":"hex:2152:17406"},"type":"Feature"},{"geometry":{"coordinates":[[[-118.04426,34.05482],[-118.04495,34.05579],[-118.0463,34.05578],[-118.04697,34.0548],[-118.04628,34.05383],[-118.04492,34.05384],[-118.04426,34.05482]]],"type":"Polygon"},"properties":{"bbox":{"roads":{"area":1808.74,"pct":4.46}},"city_same":1,"id":"hex:2152:17407"},"type":"Feature"},{"geometry":{"coordinates":[[[-118.04428,34.05677],[-118.04497,34.05774],[-118.04633,34.05773],[-118.04699,34.05675],[-118.0463,34.05578],[-118.04495,34.05579],[-118.04428,34.05677]]],"type":"Polygon"},"properties":{"bbox":{"roads":{"area":2819.75,"pct":6.95}},"city_same":1,"id":"hex:2152:17408"},"type":"Feature"},{"geometry":{"coordinates":[[[-118.04431,34.05872],[-118.04497,34.05774],[-118.04633,34.05773],[-118.04701,34.0587],[-118.04679,34.05903],[-118.04641,34.05903],[-118.04642,34.05919],[-118.04577,34.05918],[-118.04578,34.05903],[-118.04466,34.05901],[-118.04444,34.05891],[-118.04431,34.05872]]],"type":"Polygon"},"properties":{"bbox":{"roads":{"area":2894.41,"pct":9.92}},"city_same":1,"id":"hex:2152:17409"},"type":"Feature"},{"geometry":{"coordinates":[[[-118.04471,34.03627],[-118.04404,34.03725],[-118.04269,34.03726],[-118.042,34.03629],[-118.04255,34.03548],[-118.04321,34.03559],[-118.04382,34.03548],[-118.04409,34.0354],[-118.04471,34.03627]]],"type":"Polygon"},"properties":{"bbox":{"roads":{"area":6301.38,"pct":16.88}},"city":{"roads":{"area":3946.8,"pct":10.57}},"id":"hex:2153:17397"},"type":"Feature"},{"geometry":{"coordinates":[[[-118.04202,34.03824],[-118.04271,34.03921],[-118.04407,34.0392],[-118.04473,34.03822],[-118.04404,34.03725],[-118.04269,34.03726],[-118.04202,34.03824]]],"type":"Polygon"},"properties":{"bbox":{"roads":{"area":10297.04,"pct":25.37}},"city":{"roads":{"area":1892.87,"pct":4.66}},"id":"hex:2153:17398"},"type":"Feature"},{"geometry":{"coordinates":[[[-118.04205,34.04019],[-118.04274,34.04116],[-118.04409,34.04115],[-118.04476,34.04017],[-118.04407,34.0392],[-118.04271,34.03921],[-118.04205,34.04019]]],"type":"Polygon"},"properties":{"bbox":{"roads":{"area":3394.29,"pct":8.36}},"city_same":1,"id":"hex:2153:17399"},"type":"Feature"},{"geometry":{"coordinates":[[[-118.04207,34.04215],[-118.04276,34.04312],[-118.04411,34.0431],[-118.04478,34.04212],[-118.04409,34.04115],[-118.04274,34.04116],[-118.04207,34.04215]]],"type":"Polygon"},"properties":{"bbox":{"roads":{"area":2606.51,"pct":6.42}},"city_same":1,"id":"hex:2153:17400"},"type":"Feature"},{"geometry":{"coordinates":[[[-118.0421,34.0441],[-118.04278,34.04507],[-118.04414,34.04506],[-118.0448,34.04408],[-118.04411,34.0431],[-118.04276,34.04312],[-118.0421,34.0441]]],"type":"Polygon"},"properties":{"bbox":{"parking":{"area":2057.32,"pct":5.07},"roads":{"area":3104.26,"pct":7.65}},"city_same":1,"id":"hex:2153:17401"},"type":"Feature"},{"geometry":{"coordinates":[[[-118.04212,34.04605],[-118.04281,34.04702],[-118.04416,34.04701],[-118.04483,34.04603],[-118.04414,34.04506],[-118.04278,34.04507],[-118.04212,34.04605]]],"type":"Polygon"},"properties":{"bbox":{"roads":{"area":6498.67,"pct":16.01}},"city_same":1,"id":"hex:2153:17402"},"type":"Feature"},{"geometry":{"coordinates":[[[-118.04214,34.048],[-118.04283,34.04897],[-118.04419,34.04896],[-118.04485,34.04798],[-118.04416,34.04701],[-118.04281,34.04702],[-118.04214,34.048]]],"type":"Polygon"},"properties":{"bbox":{"roads":{"area":5888.24,"pct":14.5}},"city_same":1,"id":"hex:2153:17403"},"type":"Feature"},{"geometry":{"coordinates":[[[-118.04217,34.04996],[-118.04286,34.05093],[-118.04421,34.05091],[-118.04488,34.04993],[-118.04419,34.04896],[-118.04283,34.04897],[-118.04217,34.04996]]],"type":"Polygon"},"properties":{"bbox":{"roads":{"area":4280.31,"pct":10.54}},"city_same":1,"id":"hex:2153:17404"},"type":"Feature"},{"geometry":{"coordinates":[[[-118.04219,34.05191],[-118.04288,34.05288],[-118.04423,34.05287],[-118.0449,34.05188],[-118.04421,34.05091],[-118.04286,34.05093],[-118.04219,34.05191]]],"type":"Polygon"},"properties":{"bbox":{"roads":{"area":7475.5,"pct":18.41}},"city_same":1,"id":"hex:2153:17405"},"type":"Feature"},{"geometry":{"coordinates":[[[-118.04221,34.05386],[-118.0429,34.05483],[-118.04426,34.05482],[-118.04492,34.05384],[-118.04423,34.05287],[-118.04288,34.05288],[-118.04221,34.05386]]],"type":"Polygon"},"properties":{"bbox":{"roads":{"area":2852.47,"pct":7.03}},"city_same":1,"id":"hex:2153:17406"},"type":"Feature"},{"geometry":{"coordinates":[[[-118.04224,34.05581],[-118.04293,34.05678],[-118.04428,34.05677],[-118.04495,34.05579],[-118.04426,34.05482],[-118.0429,34.05483],[-118.04224,34.05581]]],"type":"Polygon"},"properties":{"bbox":{"roads":{"area":3828.34,"pct":9.43}},"city_same":1,"id":"hex:2153:17407"},"type":"Feature"},{"geometry":{"coordinates":[[[-118.04226,34.05776],[-118.04293,34.05678],[-118.04428,34.05677],[-118.04497,34.05774],[-118.04431,34.05872],[-118.04401,34.05873],[-118.04394,34.05871],[-118.04347,34.05871],[-118.04294,34.05871],[-118.04226,34.05776]]],"type":"Polygon"},"properties":{"bbox":{"roads":{"area":4239.68,"pct":10.5}},"city_same":1,"id":"hex:2153:17408"},"type":"Feature"},{"geometry":{"coordinates":[[[-118.04431,34.05872],[-118.04444,34.05891],[-118.04411,34.05875],[-118.04401,34.05873],[-118.04431,34.05872]]],"type":"Polygon"},"properties":{"bbox":{"roads":{"area":61.68,"pct":25.24}},"city_same":1,"id":"hex:2153:17409"},"type":"Feature"},{"geometry":{"coordinates":[[[-118.042,34.03629],[-118.04065,34.0363],[-118.03996,34.03533],[-118.04012,34.03508],[-118.04255,34.03548],[-118.042,34.03629]]],"type":"Polygon"},"properties":{"bbox":{"roads":{"area":4481.3,"pct":21.06}},"city":{"roads":{"area":1957.02,"pct":9.2}},"id":"hex:2154:17397"},"type":"Feature"},{"geometry":{"coordinates":[[[-118.03998,34.03728],[-118.04067,34.03825],[-118.04202,34.03824],[-118.04269,34.03726],[-118.042,34.03629],[-118.04065,34.0363],[-118.03998,34.03728]]],"type":"Polygon"},"properties":{"bbox":{"roads":{"area":11056.03,"pct":27.23}},"city":{"roads":{"area":3543.66,"pct":8.73}},"id":"hex:2154:17398"},"type":"Feature"},{"geometry":{"coordinates":[[[-118.04,34.03923],[-118.04069,34.04021],[-118.04205,34.04019],[-118.04271,34.03921],[-118.04202,34.03824],[-118.04067,34.03825],[-118.04,34.03923]]],"type":"Polygon"},"properties":{"bbox":{"roads":{"area":4089.96,"pct":10.08}},"city_same":1,"id":"hex:2154:17399"},"type":"Feature"},{"geometry":{"coordinates":[[[-118.04003,34.04119],[-118.04072,34.04216],[-118.04207,34.04215],[-118.04274,34.04116],[-118.04205,34.04019],[-118.04069,34.04021],[-118.04003,34.04119]]],"type":"Polygon"},"properties":{"bbox":{"roads":{"area":2615.66,"pct":6.44}},"city_same":1,"id":"hex:2154:17400"},"type":"Feature"},{"geometry":{"coordinates":[[[-118.04005,34.04314],[-118.04074,34.04411],[-118.0421,34.0441],[-118.04276,34.04312],[-118.04207,34.04215],[-118.04072,34.04216],[-118.04005,34.04314]]],"type":"Polygon"},"properties":{"bbox":{"parking":{"area":94.6,"pct":0.23},"roads":{"area":2353.93,"pct":5.8}},"city_same":1,"id":"hex:2154:17401"},"type":"Feature"},{"geometry":{"coordinates":[[[-118.04008,34.04509],[-118.04077,34.04606],[-118.04212,34.04605],[-118.04278,34.04507],[-118.0421,34.0441],[-118.04074,34.04411],[-118.04008,34.04509]]],"type":"Polygon"},"properties":{"bbox":{"roads":{"area":5051.86,"pct":12.44}},"city_same":1,"id":"hex:2154:17402"},"type":"Feature"},{"geometry":{"coordinates":[[[-118.0401,34.04704],[-118.04079,34.04801],[-118.04214,34.048],[-118.04281,34.04702],[-118.04212,34.04605],[-118.04077,34.04606],[-118.0401,34.04704]]],"type":"Polygon"},"properties":{"bbox":{"roads":{"area":6500.02,"pct":16.01}},"city":{"roads":{"area":5050.6,"pct":12.44}},"id":"hex:2154:17403"},"type":"Feature"},{"geometry":{"coordinates":[[[-118.04012,34.049],[-118.04081,34.04997],[-118.04217,34.04996],[-118.04283,34.04897],[-118.04214,34.048],[-118.04079,34.04801],[-118.04012,34.049]]],"type":"Polygon"},"properties":{"bbox":{"roads":{"area":6657.27,"pct":16.4}},"city":{"roads":{"area":4571.18,"pct":11.26}},"id":"hex:2154:17404"},"type":"Feature"},{"geometry":{"coordinates":[[[-118.04015,34.05095],[-118.04084,34.05192],[-118.04219,34.05191],[-118.04286,34.05093],[-118.04217,34.04996],[-118.04081,34.04997],[-118.04015,34.05095]]],"type":"Polygon"},"properties":{"bbox":{"roads":{"area":6726.3,"pct":16.57}},"city_same":1,"id":"hex:2154:17405"},"type":"Feature"},{"geometry":{"coordinates":[[[-118.04017,34.0529],[-118.04086,34.05387],[-118.04221,34.05386],[-118.04288,34.05288],[-118.04219,34.05191],[-118.04084,34.05192],[-118.04017,34.0529]]],"type":"Polygon"},"properties":{"bbox":{"roads":{"area":4224.91,"pct":10.41}},"city_same":1,"id":"hex:2154:17406"},"type":"Feature"},{"geometry":{"coordinates":[[[-118.0402,34.05485],[-118.04088,34.05582],[-118.04224,34.05581],[-118.0429,34.05483],[-118.04221,34.05386],[-118.04086,34.05387],[-118.0402,34.05485]]],"type":"Polygon"},"properties":{"bbox":{"roads":{"area":5491.19,"pct":13.53}},"city_same":1,"id":"hex:2154:17407"},"type":"Feature"},{"geometry":{"coordinates":[[[-118.04022,34.05681],[-118.04091,34.05778],[-118.04226,34.05776],[-118.04293,34.05678],[-118.04224,34.05581],[-118.04088,34.05582],[-118.04022,34.05681]]],"type":"Polygon"},"properties":{"bbox":{"roads":{"area":6057.17,"pct":14.92}},"city_same":1,"id":"hex:2154:17408"},"type":"Feature"},{"geometry":{"coordinates":[[[-118.04091,34.05778],[-118.04226,34.05776],[-118.04294,34.05871],[-118.04227,34.05872],[-118.04227,34.0587],[-118.04121,34.05869],[-118.04121,34.05871],[-118.04085,34.05871],[-118.04087,34.05815],[-118.04069,34.05814],[-118.04069,34.05817],[-118.04064,34.05817],[-118.04091,34.05778]]],"type":"Polygon"},"properties":{"bbox":{"roads":{"area":3230.16,"pct":19.14}},"city_same":1,"id":"hex:2154:17409"},"type":"Feature"},{"geometry":{"coordinates":[[[-118.03996,34.03533],[-118.0386,34.03534],[-118.0382,34.03477],[-118.04012,34.03508],[-118.03996,34.03533]]],"type":"Polygon"},"properties":{"bbox":{"roads":{"area":771.08,"pct":11.55}},"city":{"roads":{"area":560.65,"pct":8.4}},"id":"hex:2155:17396"},"type":"Feature"},{"geometry":{"coordinates":[[[-118.03794,34.03632],[-118.03863,34.03729],[-118.03998,34.03728],[-118.04065,34.0363],[-118.03996,34.03533],[-118.0386,34.03534],[-118.03794,34.03632]]],"type":"Polygon"},"properties":{"bbox":{"roads":{"area":11173.11,"pct":27.52},"sidewalks":{"area":541.16,"pct":1.33}},"city":{"roads":{"area":3646.26,"pct":8.98},"sidewalks":{"area":541.16,"pct":1.33}},"id":"hex:2155:17397"},"type":"Feature"},{"geometry":{"coordinates":[[[-118.03796,34.03828],[-118.03865,34.03925],[-118.04,34.03923],[-118.04067,34.03825],[-118.03998,34.03728],[-118.03863,34.03729],[-118.03796,34.03828]]],"type":"Polygon"},"properties":{"bbox":{"roads":{"area":10373.23,"pct":25.55},"sidewalks":{"area":183.37,"pct":0.45}},"city":{"roads":{"area":1729.91,"pct":4.26},"sidewalks":{"area":183.37,"pct":0.45}},"id":"hex:2155:17398"},"type":"Feature"},{"geometry":{"coordinates":[[[-118.03799,34.04023],[-118.03867,34.0412],[-118.04003,34.04119],[-118.04069,34.04021],[-118.04,34.03923],[-118.03865,34.03925],[-118.03799,34.04023]]],"type":"Polygon"},"properties":{"bbox":{"roads":{"area":3504.53,"pct":8.63}},"city_same":1,"id":"hex:2155:17399"},"type":"Feature"},{"geometry":{"coordinates":[[[-118.03801,34.04218],[-118.0387,34.04315],[-118.04005,34.04314],[-118.04072,34.04216],[-118.04003,34.04119],[-118.03867,34.0412],[-118.03801,34.04218]]],"type":"Polygon"},"properties":{"bbox":{"roads":{"area":4023.97,"pct":9.91}},"city_same":1,"id":"hex:2155:17400"},"type":"Feature"},{"geometry":{"coordinates":[[[-118.03803,34.04413],[-118.03872,34.0451],[-118.04008,34.04509],[-118.04074,34.04411],[-118.04005,34.04314],[-118.0387,34.04315],[-118.03803,34.04413]]],"type":"Polygon"},"properties":{"bbox":{"roads":{"area":3694.02,"pct":9.1}},"city_same":1,"id":"hex:2155:17401"},"type":"Feature"},{"geometry":{"coordinates":[[[-118.03806,34.04609],[-118.03875,34.04706],[-118.0401,34.04704],[-118.04077,34.04606],[-118.04008,34.04509],[-118.03872,34.0451],[-118.03806,34.04609]]],"type":"Polygon"},"properties":{"bbox":{"roads":{"area":3754.92,"pct":9.25}},"city_same":1,"id":"hex:2155:17402"},"type":"Feature"},{"geometry":{"coordinates":[[[-118.03808,34.04804],[-118.03877,34.04901],[-118.04012,34.049],[-118.04079,34.04801],[-118.0401,34.04704],[-118.03875,34.04706],[-118.03808,34.04804]]],"type":"Polygon"},"properties":{"bbox":{"roads":{"area":5151.05,"pct":12.69}},"city":{"roads":{"area":5040.95,"pct":12.42}},"id":"hex:2155:17403"},"type":"Feature"},{"geometry":{"coordinates":[[[-118.0381,34.04999],[-118.03879,34.05096],[-118.04015,34.05095],[-118.04081,34.04997],[-118.04012,34.049],[-118.03877,34.04901],[-118.0381,34.04999]]],"type":"Polygon"},"properties":{"bbox":{"roads":{"area":6704.44,"pct":16.52}},"city":{"roads":{"area":3568.69,"pct":8.79}},"id":"hex:2155:17404"},"type":"Feature"},{"geometry":{"coordinates":[[[-118.03813,34.05194],[-118.03882,34.05291],[-118.04017,34.0529],[-118.04084,34.05192],[-118.04015,34.05095],[-118.03879,34.05096],[-118.03813,34.05194]]],"type":"Polygon"},"properties":{"bbox":{"roads":{"area":5715.82,"pct":14.08}},"city_same":1,"id":"hex:2155:17405"},"type":"Feature"},{"geometry":{"coordinates":[[[-118.03815,34.05389],[-118.03884,34.05486],[-118.0402,34.05485],[-118.04086,34.05387],[-118.04017,34.0529],[-118.03882,34.05291],[-118.03815,34.05389]]],"type":"Polygon"},"properties":{"bbox":{"roads":{"area":4270.61,"pct":10.52}},"city_same":1,"id":"hex:2155:17406"},"type":"Feature"},{"geometry":{"coordinates":[[[-118.03818,34.05585],[-118.03887,34.05682],[-118.04022,34.05681],[-118.04088,34.05582],[-118.0402,34.05485],[-118.03884,34.05486],[-118.03818,34.05585]]],"type":"Polygon"},"properties":{"bbox":{"roads":{"area":4526.95,"pct":11.15}},"city_same":1,"id":"hex:2155:17407"},"type":"Feature"},{"geometry":{"coordinates":[[[-118.0382,34.0578],[-118.03887,34.05682],[-118.04022,34.05681],[-118.04091,34.05778],[-118.04064,34.05817],[-118.0402,34.05817],[-118.04017,34.0587],[-118.03883,34.05869],[-118.0382,34.0578]]],"type":"Polygon"},"properties":{"bbox":{"roads":{"area":4083.05,"pct":10.71}},"city_same":1,"id":"hex:2155:17408"},"type":"Feature"},{"geometry":{"coordinates":[[[-118.0386,34.03534],[-118.03794,34.03632],[-118.03658,34.03633],[-118.03608,34.03563],[-118.03811,34.03475],[-118.0382,34.03477],[-118.0386,34.03534]]],"type":"Polygon"},"properties":{"bbox":{"roads":{"area":3944.06,"pct":15.65}},"city":{"roads":{"area":2832.71,"pct":11.24}},"id":"hex:2156:17397"},"type":"Feature"},{"geometry":{"coordinates":[[[-118.03592,34.03732],[-118.03661,34.03829],[-118.03796,34.03828],[-118.03863,34.03729],[-118.03794,34.03632],[-118.03658,34.03633],[-118.03592,34.03732]]],"type":"Polygon"},"properties":{"bbox":{"roads":{"area":12420.31,"pct":30.6},"sidewalks":{"area":41.29,"pct":0.1}},"city":{"roads":{"area":813.2,"pct":2},"sidewalks":{"area":41.29,"pct":0.1}},"id":"hex:2156:17398"},"type":"Feature"},{"geometry":{"coordinates":[[[-118.03594,34.03927],[-118.03663,34.04024],[-118.03799,34.04023],[-118.03865,34.03925],[-118.03796,34.03828],[-118.03661,34.03829],[-118.03594,34.03927]]],"type":"Polygon"},"properties":{"bbox":{"roads":{"area":7326.61,"pct":18.05},"sidewalks":{"area":279.87,"pct":0.69}},"city":{"roads":{"area":2779.85,"pct":6.85},"sidewalks":{"area":279.87,"pct":0.69}},"id":"hex:2156:17399"},"type":"Feature"},{"geometry":{"coordinates":[[[-118.03597,34.04122],[-118.03666,34.04219],[-118.03801,34.04218],[-118.03867,34.0412],[-118.03799,34.04023],[-118.03663,34.04024],[-118.03597,34.04122]]],"type":"Polygon"},"properties":{"bbox":{"roads":{"area":4467.54,"pct":11.01}},"city":{"roads":{"area":4391.53,"pct":10.82}},"id":"hex:2156:17400"},"type":"Feature"},{"geometry":{"coordinates":[[[-118.03599,34.04317],[-118.03668,34.04414],[-118.03803,34.04413],[-118.0387,34.04315],[-118.03801,34.04218],[-118.03666,34.04219],[-118.03599,34.04317]]],"type":"Polygon"},"properties":{"bbox":{"roads":{"area":3710.4,"pct":9.14}},"city_same":1,"id":"hex:2156:17401"},"type":"Feature"},{"geometry":{"coordinates":[[[-118.03601,34.04513],[-118.0367,34.0461],[-118.03806,34.04609],[-118.03872,34.0451],[-118.03803,34.04413],[-118.03668,34.04414],[-118.03601,34.04513]]],"type":"Polygon"},"properties":{"bbox":{"roads":{"area":2952.12,"pct":7.27}},"city_same":1,"id":"hex:2156:17402"},"type":"Feature"},{"geometry":{"coordinates":[[[-118.03604,34.04708],[-118.03673,34.04805],[-118.03808,34.04804],[-118.03875,34.04706],[-118.03806,34.04609],[-118.0367,34.0461],[-118.03604,34.04708]]],"type":"Polygon"},"properties":{"bbox":{"roads":{"area":3183.18,"pct":7.84}},"city_same":1,"id":"hex:2156:17403"},"type":"Feature"},{"geometry":{"coordinates":[[[-118.03606,34.04903],[-118.03675,34.05],[-118.0381,34.04999],[-118.03877,34.04901],[-118.03808,34.04804],[-118.03673,34.04805],[-118.03606,34.04903]]],"type":"Polygon"},"properties":{"bbox":{"roads":{"area":2150.99,"pct":5.3}},"city_same":1,"id":"hex:2156:17404"},"type":"Feature"},{"geometry":{"coordinates":[[[-118.03609,34.05098],[-118.03677,34.05195],[-118.03813,34.05194],[-118.03879,34.05096],[-118.0381,34.04999],[-118.03675,34.05],[-118.03609,34.05098]]],"type":"Polygon"},"properties":{"bbox":{"roads":{"area":10318.39,"pct":25.42}},"city":{"roads":{"area":7096.73,"pct":17.48}},"id":"hex:2156:17405"},"type":"Feature"},{"geometry":{"coordinates":[[[-118.03611,34.05294],[-118.0368,34.05391],[-118.03815,34.05389],[-118.03882,34.05291],[-118.03813,34.05194],[-118.03677,34.05195],[-118.03611,34.05294]]],"type":"Polygon"},"properties":{"bbox":{"roads":{"area":3640.09,"pct":8.97}},"city_same":1,"id":"hex:2156:17406"},"type":"Feature"},{"geometry":{"coordinates":[[[-118.03613,34.05489],[-118.03682,34.05586],[-118.03818,34.05585],[-118.03884,34.05486],[-118.03815,34.05389],[-118.0368,34.05391],[-118.03613,34.05489]]],"type":"Polygon"},"properties":{"bbox":{"roads":{"area":4030.23,"pct":9.93}},"city_same":1,"id":"hex:2156:17407"},"type":"Feature"},{"geometry":{"coordinates":[[[-118.03682,34.05586],[-118.03818,34.05585],[-118.03887,34.05682],[-118.0382,34.0578],[-118.03808,34.0578],[-118.03807,34.05712],[-118.03735,34.05712],[-118.03733,34.05658],[-118.03655,34.05658],[-118.03655,34.05625],[-118.03682,34.05586]]],"type":"Polygon"},"properties":{"bbox":{"roads":{"area":3316.48,"pct":13.89}},"city_same":1,"id":"hex:2156:17408"},"type":"Feature"},{"geometry":{"coordinates":[[[-118.0382,34.0578],[-118.03883,34.05869],[-118.03808,34.05869],[-118.03808,34.0578],[-118.0382,34.0578]]],"type":"Polygon"},"properties":{"bbox":{"roads":{"area":1013.43,"pct":25.26}},"city_same":1,"id":"hex:2156:17409"},"type":"Feature"},{"geometry":{"coordinates":[[[-118.03658,34.03633],[-118.03592,34.03732],[-118.03457,34.03733],[-118.03399,34.03652],[-118.03608,34.03563],[-118.03658,34.03633]]],"type":"Polygon"},"properties":{"bbox":{"roads":{"area":9750.62,"pct":34.95}},"city":{"roads":{"area":1162.75,"pct":4.17}},"id":"hex:2157:17397"},"type":"Feature"},{"geometry":{"coordinates":[[[-118.0339,34.03831],[-118.03459,34.03928],[-118.03594,34.03927],[-118.03661,34.03829],[-118.03592,34.03732],[-118.03457,34.03733],[-118.0339,34.03831]]],"type":"Polygon"},"properties":{"bbox":{"roads":{"area":2869.36,"pct":7.07}},"city":{"roads":{"area":2866.23,"pct":7.06}},"id":"hex:2157:17398"},"type":"Feature"},{"geometry":{"coordinates":[[[-118.03392,34.04026],[-118.03461,34.04123],[-118.03597,34.04122],[-118.03663,34.04024],[-118.03594,34.03927],[-118.03459,34.03928],[-118.03392,34.04026]]],"type":"Polygon"},"properties":{"bbox":{"roads":{"area":5329,"pct":13.13}},"city":{"roads":{"area":2841.66,"pct":7}},"id":"hex:2157:17399"},"type":"Feature"},{"geometry":{"coordinates":[[[-118.03395,34.04221],[-118.03464,34.04319],[-118.03599,34.04317],[-118.03666,34.04219],[-118.03597,34.04122],[-118.03461,34.04123],[-118.03395,34.04221]]],"type":"Polygon"},"properties":{"bbox":{"roads":{"area":6568.41,"pct":16.18}},"city":{"roads":{"area":3335.4,"pct":8.22}},"id":"hex:2157:17400"},"type":"Feature"},{"geometry":{"coordinates":[[[-118.03397,34.04417],[-118.03466,34.04514],[-118.03601,34.04513],[-118.03668,34.04414],[-118.03599,34.04317],[-118.03464,34.04319],[-118.03397,34.04417]]],"type":"Polygon"},"properties":{"bbox":{"roads":{"area":3765.07,"pct":9.27}},"city_same":1,"id":"hex:2157:17401"},"type":"Feature"},{"geometry":{"coordinates":[[[-118.03399,34.04612],[-118.03468,34.04709],[-118.03604,34.04708],[-118.0367,34.0461],[-118.03601,34.04513],[-118.03466,34.04514],[-118.03399,34.04612]]],"type":"Polygon"},"properties":{"bbox":{"roads":{"area":3503.69,"pct":8.63}},"city_same":1,"id":"hex:2157:17402"},"type":"Feature"},{"geometry":{"coordinates":[[[-118.03402,34.04807],[-118.03471,34.04904],[-118.03606,34.04903],[-118.03673,34.04805],[-118.03604,34.04708],[-118.03468,34.04709],[-118.03402,34.04807]]],"type":"Polygon"},"properties":{"bbox":{"roads":{"area":2991.15,"pct":7.37}},"city_same":1,"id":"hex:2157:17403"},"type":"Feature"},{"geometry":{"coordinates":[[[-118.03404,34.05002],[-118.03473,34.05099],[-118.03609,34.05098],[-118.03675,34.05],[-118.03606,34.04903],[-118.03471,34.04904],[-118.03404,34.05002]]],"type":"Polygon"},"properties":{"bbox":{"roads":{"area":6440.44,"pct":15.87}},"city_same":1,"id":"hex:2157:17404"},"type":"Feature"},{"geometry":{"coordinates":[[[-118.03473,34.05099],[-118.03609,34.05098],[-118.03677,34.05195],[-118.03611,34.05294],[-118.03475,34.05295],[-118.03437,34.0524],[-118.03437,34.05232],[-118.03443,34.05217],[-118.0349,34.05178],[-118.03462,34.05155],[-118.03414,34.05191],[-118.03412,34.0519],[-118.03473,34.05099]]],"type":"Polygon"},"properties":{"bbox":{"parking":{"area":188.19,"pct":0.5},"roads":{"area":5646.48,"pct":15}},"city":{"parking":{"area":188.19,"pct":0.5},"roads":{"area":3252.89,"pct":8.64}},"id":"hex:2157:17405"},"type":"Feature"},{"geometry":{"coordinates":[[[-118.03475,34.05295],[-118.03611,34.05294],[-118.0368,34.05391],[-118.03613,34.05489],[-118.03478,34.0549],[-118.03464,34.0547],[-118.03464,34.05347],[-118.0344,34.05347],[-118.03475,34.05295]]],"type":"Polygon"},"properties":{"bbox":{"parking":{"area":131.44,"pct":0.36},"roads":{"area":5744.11,"pct":15.69}},"city":{"parking":{"area":131.44,"pct":0.36},"roads":{"area":2729.21,"pct":7.46}},"id":"hex:2157:17406"},"type":"Feature"},{"geometry":{"coordinates":[[[-118.03478,34.0549],[-118.03613,34.05489],[-118.03682,34.05586],[-118.03655,34.05625],[-118.03656,34.05606],[-118.03464,34.05605],[-118.03464,34.05511],[-118.03478,34.0549]]],"type":"Polygon"},"properties":{"bbox":{"roads":{"area":3899.38,"pct":17.43}},"city":{"roads":{"area":2191.44,"pct":9.79}},"id":"hex:2157:17407"},"type":"Feature"},{"geometry":{"coordinates":[[[-118.03457,34.03733],[-118.0339,34.03831],[-118.03255,34.03832],[-118.03191,34.03742],[-118.0339,34.03656],[-118.03399,34.03652],[-118.03457,34.03733]]],"type":"Polygon"},"properties":{"bbox":{"roads":{"area":1633.75,"pct":5.35}},"city":{"roads":{"area":861.27,"pct":2.82}},"id":"hex:2158:17398"},"type":"Feature"},{"geometry":{"coordinates":[[[-118.03188,34.0393],[-118.03257,34.04027],[-118.03392,34.04026],[-118.03459,34.03928],[-118.0339,34.03831],[-118.03255,34.03832],[-118.03188,34.0393]]],"type":"Polygon"},"properties":{"bbox":{"roads":{"area":3805.53,"pct":9.37}},"city_same":1,"id":"hex:2158:17399"},"type":"Feature"},{"geometry":{"coordinates":[[[-118.0319,34.04126],[-118.03259,34.04223],[-118.03395,34.04221],[-118.03461,34.04123],[-118.03392,34.04026],[-118.03257,34.04027],[-118.0319,34.04126]]],"type":"Polygon"},"properties":{"bbox":{"roads":{"area":2588.26,"pct":6.38}},"city_same":1,"id":"hex:2158:17400"},"type":"Feature"},{"geometry":{"coordinates":[[[-118.03193,34.04321],[-118.03262,34.04418],[-118.03397,34.04417],[-118.03464,34.04319],[-118.03395,34.04221],[-118.03259,34.04223],[-118.03193,34.04321]]],"type":"Polygon"},"properties":{"bbox":{"roads":{"area":7752.95,"pct":19.1}},"city":{"roads":{"area":4137.23,"pct":10.19}},"id":"hex:2158:17401"},"type":"Feature"},{"geometry":{"coordinates":[[[-118.03195,34.04516],[-118.03264,34.04613],[-118.03399,34.04612],[-118.03466,34.04514],[-118.03397,34.04417],[-118.03262,34.04418],[-118.03195,34.04516]]],"type":"Polygon"},"properties":{"bbox":{"roads":{"area":1564.36,"pct":3.85}},"city_same":1,"id":"hex:2158:17402"},"type":"Feature"},{"geometry":{"coordinates":[[[-118.03198,34.04711],[-118.03266,34.04808],[-118.03402,34.04807],[-118.03468,34.04709],[-118.03399,34.04612],[-118.03264,34.04613],[-118.03198,34.04711]]],"type":"Polygon"},"properties":{"bbox":{"roads":{"area":2133.3,"pct":5.26}},"city_same":1,"id":"hex:2158:17403"},"type":"Feature"},{"geometry":{"coordinates":[[[-118.032,34.04906],[-118.03269,34.05004],[-118.03404,34.05002],[-118.03471,34.04904],[-118.03402,34.04807],[-118.03266,34.04808],[-118.032,34.04906]]],"type":"Polygon"},"properties":{"bbox":{"roads":{"area":6350,"pct":15.64}},"city_same":1,"id":"hex:2158:17404"},"type":"Feature"},{"geometry":{"coordinates":[[[-118.03269,34.05004],[-118.03404,34.05002],[-118.03473,34.05099],[-118.03412,34.0519],[-118.03241,34.05045],[-118.03269,34.05004]]],"type":"Polygon"},"properties":{"bbox":{"roads":{"area":1817.89,"pct":7.31}},"city_same":1,"id":"hex:2158:17405"},"type":"Feature"},{"geometry":{"coordinates":[[[-118.03475,34.05295],[-118.0344,34.05347],[-118.03414,34.05347],[-118.03414,34.05319],[-118.03435,34.05319],[-118.03437,34.0524],[-118.03475,34.05295]]],"type":"Polygon"},"properties":{"bbox":{"roads":{"area":103.12,"pct":3.54}},"city_same":1,"id":"hex:2158:17406"},"type":"Feature"},{"geometry":{"coordinates":[[[-118.03255,34.03832],[-118.03188,34.0393],[-118.03053,34.03931],[-118.02984,34.03834],[-118.02987,34.0383],[-118.03191,34.03742],[-118.03255,34.03832]]],"type":"Polygon"},"properties":{"bbox":{"roads":{"area":1104.63,"pct":3.33}},"city_same":1,"id":"hex:2159:17398"},"type":"Feature"},{"geometry":{"coordinates":[[[-118.02986,34.0403],[-118.03053,34.03931],[-118.03188,34.0393],[-118.03257,34.04027],[-118.0319,34.04126],[-118.03075,34.04127],[-118.03025,34.04084],[-118.02986,34.0403]]],"type":"Polygon"},"properties":{"bbox":{"roads":{"area":1347.74,"pct":3.36}},"city_same":1,"id":"hex:2159:17399"},"type":"Feature"},{"geometry":{"coordinates":[[[-118.0319,34.04126],[-118.03259,34.04223],[-118.03193,34.04321],[-118.03057,34.04322],[-118.03032,34.04287],[-118.03147,34.04189],[-118.03075,34.04127],[-118.0319,34.04126]]],"type":"Polygon"},"properties":{"bbox":{"roads":{"area":2028.2,"pct":7.41}},"city_same":1,"id":"hex:2159:17400"},"type":"Feature"},{"geometry":{"coordinates":[[[-118.03057,34.04322],[-118.03193,34.04321],[-118.03262,34.04418],[-118.03195,34.04516],[-118.0306,34.04517],[-118.03011,34.04448],[-118.03079,34.04393],[-118.03036,34.04354],[-118.03057,34.04322]]],"type":"Polygon"},"properties":{"bbox":{"roads":{"area":7503.86,"pct":20.46}},"city":{"roads":{"area":4192.19,"pct":11.43}},"id":"hex:2159:17401"},"type":"Feature"},{"geometry":{"coordinates":[[[-118.02993,34.04615],[-118.03062,34.04712],[-118.03198,34.04711],[-118.03264,34.04613],[-118.03195,34.04516],[-118.0306,34.04517],[-118.02993,34.04615]]],"type":"Polygon"},"properties":{"bbox":{"roads":{"area":7336.7,"pct":18.07},"sidewalks":{"area":10.58,"pct":0.03}},"city":{"roads":{"area":5033.26,"pct":12.4},"sidewalks":{"area":10.58,"pct":0.03}},"id":"hex:2159:17402"},"type":"Feature"},{"geometry":{"coordinates":[[[-118.02996,34.04811],[-118.03062,34.04712],[-118.03198,34.04711],[-118.03266,34.04808],[-118.032,34.04906],[-118.0308,34.04907],[-118.03041,34.04875],[-118.02996,34.04811]]],"type":"Polygon"},"properties":{"bbox":{"roads":{"area":7515.2,"pct":18.63}},"city":{"roads":{"area":4755.86,"pct":11.79}},"id":"hex:2159:17403"},"type":"Feature"},{"geometry":{"coordinates":[[[-118.032,34.04906],[-118.03269,34.05004],[-118.03241,34.05045],[-118.0308,34.04907],[-118.032,34.04906]]],"type":"Polygon"},"properties":{"bbox":{"roads":{"area":557.59,"pct":4.91}},"city_same":1,"id":"hex:2159:17404"},"type":"Feature"},{"geometry":{"coordinates":[[[-118.02984,34.03834],[-118.03053,34.03931],[-118.02986,34.0403],[-118.02961,34.0403],[-118.02946,34.04017],[-118.02814,34.03905],[-118.02977,34.03834],[-118.02984,34.03834]]],"type":"Polygon"},"properties":{"bbox":{"parking":{"area":65.86,"pct":0.26},"roads":{"area":1291.62,"pct":5.04}},"city_same":1,"id":"hex:2160:17399"},"type":"Feature"},{"geometry":{"coordinates":[[[-118.02986,34.0403],[-118.03025,34.04084],[-118.02961,34.0403],[-118.02986,34.0403]]],"type":"Polygon"},"properties":{"bbox":{"roads":{"area":71.07,"pct":10.3}},"city_same":1,"id":"hex:2160:17400"},"type":"Feature"},{"geometry":{"coordinates":[[[-118.0306,34.04517],[-118.02993,34.04615],[-118.02858,34.04616],[-118.02789,34.04519],[-118.02834,34.04453],[-118.02918,34.04524],[-118.03011,34.04448],[-118.0306,34.04517]]],"type":"Polygon"},"properties":{"bbox":{"roads":{"area":6540.88,"pct":22.41}},"city":{"roads":{"area":3409.04,"pct":11.68}},"id":"hex:2160:17402"},"type":"Feature"},{"geometry":{"coordinates":[[[-118.02791,34.04715],[-118.02858,34.04616],[-118.02993,34.04615],[-118.03062,34.04712],[-118.02996,34.04811],[-118.02966,34.04811],[-118.02824,34.0469],[-118.02792,34.04715],[-118.02791,34.04715]]],"type":"Polygon"},"properties":{"bbox":{"roads":{"area":4744.23,"pct":15.06}},"city":{"roads":{"area":2895.84,"pct":9.19}},"id":"hex:2160:17403"},"type":"Feature"},{"geometry":{"coordinates":[[[-118.02996,34.04811],[-118.03041,34.04875],[-118.02966,34.04811],[-118.02996,34.04811]]],"type":"Polygon"},"properties":{"bbox":{"roads":{"area":28.05,"pct":2.87}},"city_same":1,"id":"hex:2160:17404"},"type":"Feature"},{"geometry":{"coordinates":[[[-118.02789,34.04519],[-118.02858,34.04616],[-118.02791,34.04715],[-118.02758,34.04715],[-118.02702,34.04669],[-118.02698,34.04672],[-118.02664,34.04643],[-118.02639,34.04662],[-118.02601,34.04631],[-118.0274,34.0452],[-118.02789,34.04519]]],"type":"Polygon"},"properties":{"bbox":{"roads":{"area":3515.64,"pct":12.19}},"city_same":1,"id":"hex:2161:17402"},"type":"Feature"},{"geometry":{"coordinates":[[[-118.02791,34.04715],[-118.02792,34.04715],[-118.02774,34.04729],[-118.02758,34.04715],[-118.02791,34.04715]]],"type":"Polygon"},"properties":{"bbox":{"roads":{"area":55.56,"pct":22.74}},"city_same":1,"id":"hex:2161:17403"},"type":"Feature"}],"type":"FeatureCollection","v":2}