{"features":[{"geometry":{"coordinates":[[[-118.06821,34.17302],[-118.06695,34.17243],[-118.0656,34.17242],[-118.06567,34.17934],[-118.03015,34.1794],[-118.03023,34.17095],[-118.03001,34.17077],[-118.03035,34.17037],[-118.02962,34.16999],[-118.03014,34.16982],[-118.03014,34.16893],[-118.02947,34.16783],[-118.02967,34.16685],[-118.03847,34.16688],[-118.03841,34.15726],[-118.06796,34.15681],[-118.06821,34.17302]],[[-118.03289,34.17331],[-118.0335,34.17272],[-118.03293,34.17232],[-118.03236,34.17313],[-118.03289,34.17331]],[[-118.03875,34.1652],[-118.03968,34.1645],[-118.0397,34.16432],[-118.03895,34.16474],[-118.0387,34.16502],[-118.03875,34.1652]],[[-118.0388,34.16428],[-118.03871,34.16468],[-118.0392,34.16438],[-118.03894,34.1642],[-118.0388,34.16428]],[[-118.03877,34.16616],[-118.0388,34.16628],[-118.03909,34.16623],[-118.03993,34.1656],[-118.03974,34.16541],[-118.03877,34.16616]],[[-118.03886,34.16566],[-118.03888,34.16593],[-118.04,34.16503],[-118.03993,34.16485],[-118.03886,34.16566]],[[-118.03881,34.16531],[-118.03884,34.1655],[-118.03992,34.16474],[-118.03982,34.16454],[-118.03881,34.16531]],[[-118.03899,34.1664],[-118.0392,34.16653],[-118.03981,34.16593],[-118.03899,34.1664]],[[-118.03927,34.16403],[-118.03933,34.16419],[-118.03963,34.16416],[-118.03944,34.16397],[-118.03927,34.16403]],[[-118.03945,34.16647],[-118.03934,34.16664],[-118.04022,34.16627],[-118.04001,34.16609],[-118.03945,34.16647]],[[-118.04003,34.16415],[-118.03984,34.16421],[-118.03997,34.16443],[-118.04041,34.16424],[-118.04026,34.16411],[-118.04003,34.16415]],[[-118.03988,34.16578],[-118.04007,34.16589],[-118.04078,34.16532],[-118.04048,34.16535],[-118.03988,34.16578]],[[-118.03995,34.1653],[-118.04009,34.16545],[-118.04065,34.16508],[-118.04045,34.16503],[-118.03995,34.1653]],[[-118.04051,34.1644],[-118.04005,34.16449],[-118.04007,34.16468],[-118.0406,34.16454],[-118.04051,34.1644]],[[-118.04013,34.16472],[-118.04026,34.165],[-118.0407,34.16481],[-118.04064,34.16459],[-118.04013,34.16472]],[[-118.04025,34.16663],[-118.04099,34.16605],[-118.04051,34.16624],[-118.04014,34.16655],[-118.04025,34.16663]],[[-118.0407,34.16556],[-118.04015,34.16597],[-118.04039,34.16618],[-118.04085,34.16594],[-118.04087,34.16561],[-118.0407,34.16556]],[[-118.04072,34.16651],[-118.04078,34.16668],[-118.04131,34.16658],[-118.04148,34.16651],[-118.04145,34.16632],[-118.04072,34.16651]],[[-118.04306,34.17641],[-118.0431,34.17624],[-118.04256,34.176],[-118.04238,34.17642],[-118.04178,34.17699],[-118.04177,34.17733],[-118.0419,34.17736],[-118.04226,34.17688],[-118.04306,34.17641]],[[-118.05002,34.17453],[-118.05009,34.17433],[-118.05044,34.17419],[-118.05014,34.17398],[-118.04989,34.17422],[-118.05002,34.17453]],[[-118.05654,34.17455],[-118.05701,34.17429],[-118.05693,34.1741],[-118.05572,34.17407],[-118.05548,34.17462],[-118.05654,34.17455]],[[-118.06209,34.17201],[-118.06128,34.17197],[-118.06097,34.17216],[-118.06094,34.17323],[-118.06119,34.17328],[-118.06235,34.17227],[-118.06209,34.17201]]],"type":"Polygon"},"properties":{"type":"boundary"},"type":"Feature"}],"type":"FeatureCollection"}