{"features":[{"geometry":{"coordinates":[[[-118.06794,34.16103],[-118.06803,34.16089],[-118.06804,34.16116],[-118.06794,34.16103]]],"type":"Polygon"},"properties":{"bbox":{"roads":{"area":110.42,"pct":84.65}},"city_same":1,"id":"hex:2141:17461"},"type":"Feature"},{"geometry":{"coordinates":[[[-118.06796,34.16298],[-118.06806,34.16283],[-118.06807,34.16297],[-118.06808,34.16312],[-118.06808,34.16314],[-118.06796,34.16298]]],"type":"Polygon"},"properties":{"bbox":{"roads":{"area":117.05,"pct":72}},"city_same":1,"id":"hex:2141:17462"},"type":"Feature"},{"geometry":{"coordinates":[[[-118.06799,34.16493],[-118.0681,34.16477],[-118.0681,34.16509],[-118.06799,34.16493]]],"type":"Polygon"},"properties":{"bbox":{"roads":{"area":101.7,"pct":57.13}},"city_same":1,"id":"hex:2141:17463"},"type":"Feature"},{"geometry":{"coordinates":[[[-118.06801,34.16688],[-118.06812,34.16672],[-118.06813,34.16705],[-118.06801,34.16688]]],"type":"Polygon"},"properties":{"bbox":{"roads":{"area":99.46,"pct":52.45}},"city_same":1,"id":"hex:2141:17464"},"type":"Feature"},{"geometry":{"coordinates":[[[-118.06804,34.16884],[-118.06816,34.16865],[-118.06816,34.16873],[-118.06817,34.16902],[-118.06804,34.16884]]],"type":"Polygon"},"properties":{"bbox":{"roads":{"area":133.39,"pct":54.44}},"city_same":1,"id":"hex:2141:17465"},"type":"Feature"},{"geometry":{"coordinates":[[[-118.06806,34.17079],[-118.06819,34.1706],[-118.06819,34.17097],[-118.06806,34.17079]]],"type":"Polygon"},"properties":{"bbox":{"roads":{"area":121.9,"pct":50.51}},"city_same":1,"id":"hex:2141:17466"},"type":"Feature"},{"geometry":{"coordinates":[[[-118.06809,34.17274],[-118.06822,34.17254],[-118.06822,34.17277],[-118.06822,34.17292],[-118.06809,34.17274]]],"type":"Polygon"},"properties":{"bbox":{"roads":{"area":125.93,"pct":48.58}},"city_same":1,"id":"hex:2141:17467"},"type":"Feature"},{"geometry":{"coordinates":[[[-118.06789,34.15712],[-118.06653,34.15713],[-118.06633,34.15685],[-118.06678,34.15684],[-118.06796,34.15681],[-118.06796,34.15689],[-118.06797,34.15701],[-118.06789,34.15712]]],"type":"Polygon"},"properties":{"bbox":{"roads":{"area":664.72,"pct":14.42},"sidewalks":{"area":7.45,"pct":0.16}},"city_same":1,"id":"hex:2142:17459"},"type":"Feature"},{"geometry":{"coordinates":[[[-118.06791,34.15907],[-118.06656,34.15909],[-118.06587,34.15812],[-118.06653,34.15713],[-118.06789,34.15712],[-118.06797,34.15723],[-118.06799,34.1581],[-118.06799,34.15896],[-118.06791,34.15907]]],"type":"Polygon"},"properties":{"bbox":{"roads":{"area":2192.9,"pct":6.2}},"city_same":1,"id":"hex:2142:17460"},"type":"Feature"},{"geometry":{"coordinates":[[[-118.06794,34.16103],[-118.06658,34.16104],[-118.06589,34.16007],[-118.06656,34.15909],[-118.06791,34.15907],[-118.068,34.15919],[-118.068,34.15923],[-118.06801,34.1599],[-118.06801,34.16044],[-118.06803,34.16089],[-118.06794,34.16103]]],"type":"Polygon"},"properties":{"bbox":{"roads":{"area":3001.01,"pct":8.48}},"city_same":1,"id":"hex:2142:17461"},"type":"Feature"},{"geometry":{"coordinates":[[[-118.06796,34.16298],[-118.06661,34.16299],[-118.06592,34.16202],[-118.06658,34.16104],[-118.06794,34.16103],[-118.06804,34.16116],[-118.06806,34.1618],[-118.06806,34.16272],[-118.06806,34.16283],[-118.06796,34.16298]]],"type":"Polygon"},"properties":{"bbox":{"roads":{"area":4871.75,"pct":13.63}},"city_same":1,"id":"hex:2142:17462"},"type":"Feature"},{"geometry":{"coordinates":[[[-118.06799,34.16493],[-118.06663,34.16494],[-118.06594,34.16397],[-118.06661,34.16299],[-118.06796,34.16298],[-118.06808,34.16314],[-118.06809,34.16407],[-118.06809,34.1646],[-118.0681,34.16477],[-118.06799,34.16493]]],"type":"Polygon"},"properties":{"bbox":{"roads":{"area":2803.44,"pct":7.82}},"city_same":1,"id":"hex:2142:17463"},"type":"Feature"},{"geometry":{"coordinates":[[[-118.06801,34.16688],[-118.06666,34.16689],[-118.06597,34.16592],[-118.06663,34.16494],[-118.06799,34.16493],[-118.0681,34.16509],[-118.0681,34.16553],[-118.06811,34.16609],[-118.06811,34.16625],[-118.06812,34.16669],[-118.06812,34.16672],[-118.06801,34.16688]]],"type":"Polygon"},"properties":{"bbox":{"roads":{"area":3746.89,"pct":10.47}},"city_same":1,"id":"hex:2142:17464"},"type":"Feature"},{"geometry":{"coordinates":[[[-118.06804,34.16884],[-118.06668,34.16885],[-118.06599,34.16788],[-118.06666,34.16689],[-118.06801,34.16688],[-118.06813,34.16705],[-118.06814,34.1677],[-118.06814,34.16778],[-118.06816,34.16865],[-118.06804,34.16884]]],"type":"Polygon"},"properties":{"bbox":{"roads":{"area":2514.32,"pct":6.98}},"city_same":1,"id":"hex:2142:17465"},"type":"Feature"},{"geometry":{"coordinates":[[[-118.06806,34.17079],[-118.06671,34.1708],[-118.06602,34.16983],[-118.06668,34.16885],[-118.06804,34.16884],[-118.06817,34.16902],[-118.06818,34.16981],[-118.06819,34.1706],[-118.06806,34.17079]]],"type":"Polygon"},"properties":{"bbox":{"roads":{"area":2311.94,"pct":6.39}},"city_same":1,"id":"hex:2142:17466"},"type":"Feature"},{"geometry":{"coordinates":[[[-118.06604,34.17178],[-118.06671,34.1708],[-118.06806,34.17079],[-118.06819,34.17097],[-118.06819,34.1712],[-118.0682,34.17155],[-118.06822,34.172],[-118.06822,34.17254],[-118.06809,34.17274],[-118.06762,34.17274],[-118.06695,34.17243],[-118.0665,34.17243],[-118.06604,34.17178]]],"type":"Polygon"},"properties":{"bbox":{"roads":{"area":2884.91,"pct":8.48}},"city_same":1,"id":"hex:2142:17467"},"type":"Feature"},{"geometry":{"coordinates":[[[-118.06809,34.17274],[-118.06822,34.17292],[-118.06821,34.17302],[-118.06762,34.17274],[-118.06809,34.17274]]],"type":"Polygon"},"properties":{"bbox":{"roads":{"area":44.1,"pct":6.07}},"city_same":1,"id":"hex:2142:17468"},"type":"Feature"},{"geometry":{"coordinates":[[[-118.06653,34.15713],[-118.06587,34.15812],[-118.06451,34.15813],[-118.06382,34.15716],[-118.064,34.15689],[-118.06466,34.15688],[-118.06615,34.15686],[-118.06633,34.15685],[-118.06653,34.15713]]],"type":"Polygon"},"properties":{"bbox":{"roads":{"area":2548.58,"pct":9.33}},"city_same":1,"id":"hex:2143:17459"},"type":"Feature"},{"geometry":{"coordinates":[[[-118.06385,34.15911],[-118.06454,34.16008],[-118.06589,34.16007],[-118.06656,34.15909],[-118.06587,34.15812],[-118.06451,34.15813],[-118.06385,34.15911]]],"type":"Polygon"},"properties":{"bbox":{"roads":{"area":3225.39,"pct":7.95}},"city_same":1,"id":"hex:2143:17460"},"type":"Feature"},{"geometry":{"coordinates":[[[-118.06387,34.16106],[-118.06456,34.16203],[-118.06592,34.16202],[-118.06658,34.16104],[-118.06589,34.16007],[-118.06454,34.16008],[-118.06387,34.16106]]],"type":"Polygon"},"properties":{"bbox":{"roads":{"area":5131.82,"pct":12.64}},"city_same":1,"id":"hex:2143:17461"},"type":"Feature"},{"geometry":{"coordinates":[[[-118.0639,34.16301],[-118.06459,34.16398],[-118.06594,34.16397],[-118.06661,34.16299],[-118.06592,34.16202],[-118.06456,34.16203],[-118.0639,34.16301]]],"type":"Polygon"},"properties":{"bbox":{"roads":{"area":3322.95,"pct":8.19}},"city_same":1,"id":"hex:2143:17462"},"type":"Feature"},{"geometry":{"coordinates":[[[-118.06392,34.16497],[-118.06461,34.16594],[-118.06597,34.16592],[-118.06663,34.16494],[-118.06594,34.16397],[-118.06459,34.16398],[-118.06392,34.16497]]],"type":"Polygon"},"properties":{"bbox":{"roads":{"area":4051.19,"pct":9.98}},"city_same":1,"id":"hex:2143:17463"},"type":"Feature"},{"geometry":{"coordinates":[[[-118.06394,34.16692],[-118.06464,34.16789],[-118.06599,34.16788],[-118.06666,34.16689],[-118.06597,34.16592],[-118.06461,34.16594],[-118.06394,34.16692]]],"type":"Polygon"},"properties":{"bbox":{"roads":{"area":4421,"pct":10.89}},"city_same":1,"id":"hex:2143:17464"},"type":"Feature"},{"geometry":{"coordinates":[[[-118.06397,34.16887],[-118.06466,34.16984],[-118.06602,34.16983],[-118.06668,34.16885],[-118.06599,34.16788],[-118.06464,34.16789],[-118.06397,34.16887]]],"type":"Polygon"},"properties":{"bbox":{"roads":{"area":3184.72,"pct":7.85}},"city_same":1,"id":"hex:2143:17465"},"type":"Feature"},{"geometry":{"coordinates":[[[-118.06399,34.17082],[-118.06468,34.17179],[-118.06604,34.17178],[-118.06671,34.1708],[-118.06602,34.16983],[-118.06466,34.16984],[-118.06399,34.17082]]],"type":"Polygon"},"properties":{"bbox":{"roads":{"area":2099.16,"pct":5.17}},"city_same":1,"id":"hex:2143:17466"},"type":"Feature"},{"geometry":{"coordinates":[[[-118.06471,34.17375],[-118.06402,34.17278],[-118.06468,34.17179],[-118.06604,34.17178],[-118.0665,34.17243],[-118.0656,34.17242],[-118.0656,34.17374],[-118.06471,34.17375]]],"type":"Polygon"},"properties":{"bbox":{"roads":{"area":1054.07,"pct":3.62}},"city_same":1,"id":"hex:2143:17467"},"type":"Feature"},{"geometry":{"coordinates":[[[-118.06473,34.1757],[-118.06404,34.17473],[-118.06471,34.17375],[-118.0656,34.17374],[-118.0656,34.17513],[-118.06561,34.17569],[-118.06473,34.1757]]],"type":"Polygon"},"properties":{"bbox":{"roads":{"area":203.54,"pct":0.84}},"city_same":1,"id":"hex:2143:17468"},"type":"Feature"},{"geometry":{"coordinates":[[[-118.06382,34.15716],[-118.06247,34.15717],[-118.06229,34.15692],[-118.06276,34.15691],[-118.06389,34.15689],[-118.064,34.15689],[-118.06382,34.15716]]],"type":"Polygon"},"properties":{"bbox":{"roads":{"area":579.88,"pct":14.38}},"city_same":1,"id":"hex:2144:17459"},"type":"Feature"},{"geometry":{"coordinates":[[[-118.0618,34.15815],[-118.06249,34.15912],[-118.06385,34.15911],[-118.06451,34.15813],[-118.06382,34.15716],[-118.06247,34.15717],[-118.0618,34.15815]]],"type":"Polygon"},"properties":{"bbox":{"roads":{"area":2514.86,"pct":6.2}},"city_same":1,"id":"hex:2144:17460"},"type":"Feature"},{"geometry":{"coordinates":[[[-118.06183,34.1601],[-118.06252,34.16107],[-118.06387,34.16106],[-118.06454,34.16008],[-118.06385,34.15911],[-118.06249,34.15912],[-118.06183,34.1601]]],"type":"Polygon"},"properties":{"bbox":{"roads":{"area":4753.99,"pct":11.71}},"city_same":1,"id":"hex:2144:17461"},"type":"Feature"},{"geometry":{"coordinates":[[[-118.06185,34.16206],[-118.06254,34.16303],[-118.0639,34.16301],[-118.06456,34.16203],[-118.06387,34.16106],[-118.06252,34.16107],[-118.06185,34.16206]]],"type":"Polygon"},"properties":{"bbox":{"roads":{"area":4513.24,"pct":11.12}},"city_same":1,"id":"hex:2144:17462"},"type":"Feature"},{"geometry":{"coordinates":[[[-118.06187,34.16401],[-118.06256,34.16498],[-118.06392,34.16497],[-118.06459,34.16398],[-118.0639,34.16301],[-118.06254,34.16303],[-118.06187,34.16401]]],"type":"Polygon"},"properties":{"bbox":{"roads":{"area":2277.99,"pct":5.61}},"city_same":1,"id":"hex:2144:17463"},"type":"Feature"},{"geometry":{"coordinates":[[[-118.0619,34.16596],[-118.06259,34.16693],[-118.06394,34.16692],[-118.06461,34.16594],[-118.06392,34.16497],[-118.06256,34.16498],[-118.0619,34.16596]]],"type":"Polygon"},"properties":{"bbox":{"roads":{"area":3065.68,"pct":7.55}},"city_same":1,"id":"hex:2144:17464"},"type":"Feature"},{"geometry":{"coordinates":[[[-118.06192,34.16791],[-118.06261,34.16888],[-118.06397,34.16887],[-118.06464,34.16789],[-118.06394,34.16692],[-118.06259,34.16693],[-118.06192,34.16791]]],"type":"Polygon"},"properties":{"bbox":{"roads":{"area":1919.39,"pct":4.73}},"city_same":1,"id":"hex:2144:17465"},"type":"Feature"},{"geometry":{"coordinates":[[[-118.06195,34.16986],[-118.06264,34.17083],[-118.06399,34.17082],[-118.06466,34.16984],[-118.06397,34.16887],[-118.06261,34.16888],[-118.06195,34.16986]]],"type":"Polygon"},"properties":{"bbox":{"roads":{"area":1915.27,"pct":4.72}},"city_same":1,"id":"hex:2144:17466"},"type":"Feature"},{"geometry":{"coordinates":[[[-118.06197,34.17182],[-118.06264,34.17083],[-118.06399,34.17082],[-118.06468,34.17179],[-118.06402,34.17278],[-118.06266,34.17279],[-118.06232,34.1723],[-118.06235,34.17227],[-118.06218,34.17208],[-118.06213,34.17204],[-118.06197,34.17182]]],"type":"Polygon"},"properties":{"bbox":{"roads":{"area":1522.79,"pct":3.76}},"city_same":1,"id":"hex:2144:17467"},"type":"Feature"},{"geometry":{"coordinates":[[[-118.062,34.17377],[-118.06269,34.17474],[-118.06404,34.17473],[-118.06471,34.17375],[-118.06402,34.17278],[-118.06266,34.17279],[-118.062,34.17377]]],"type":"Polygon"},"properties":{"bbox":{"roads":{"area":2433.44,"pct":5.99}},"city_same":1,"id":"hex:2144:17468"},"type":"Feature"},{"geometry":{"coordinates":[[[-118.06247,34.15717],[-118.0618,34.15815],[-118.06044,34.15816],[-118.05975,34.15719],[-118.05991,34.15696],[-118.06229,34.15692],[-118.06247,34.15717]]],"type":"Polygon"},"properties":{"bbox":{"roads":{"area":1439.06,"pct":5.42}},"city_same":1,"id":"hex:2145:17459"},"type":"Feature"},{"geometry":{"coordinates":[[[-118.05978,34.15914],[-118.06047,34.16011],[-118.06183,34.1601],[-118.06249,34.15912],[-118.0618,34.15815],[-118.06044,34.15816],[-118.05978,34.15914]]],"type":"Polygon"},"properties":{"bbox":{"roads":{"area":1998.73,"pct":4.92}},"city_same":1,"id":"hex:2145:17460"},"type":"Feature"},{"geometry":{"coordinates":[[[-118.0598,34.1611],[-118.06049,34.16207],[-118.06185,34.16206],[-118.06252,34.16107],[-118.06183,34.1601],[-118.06047,34.16011],[-118.0598,34.1611]]],"type":"Polygon"},"properties":{"bbox":{"roads":{"area":5018.54,"pct":12.36}},"city_same":1,"id":"hex:2145:17461"},"type":"Feature"},{"geometry":{"coordinates":[[[-118.05983,34.16305],[-118.06052,34.16402],[-118.06187,34.16401],[-118.06254,34.16303],[-118.06185,34.16206],[-118.06049,34.16207],[-118.05983,34.16305]]],"type":"Polygon"},"properties":{"bbox":{"parking":{"area":85.11,"pct":0.21},"roads":{"area":3008.14,"pct":7.41}},"city_same":1,"id":"hex:2145:17462"},"type":"Feature"},{"geometry":{"coordinates":[[[-118.05985,34.165],[-118.06054,34.16597],[-118.0619,34.16596],[-118.06256,34.16498],[-118.06187,34.16401],[-118.06052,34.16402],[-118.05985,34.165]]],"type":"Polygon"},"properties":{"bbox":{"roads":{"area":3129.01,"pct":7.71}},"city_same":1,"id":"hex:2145:17463"},"type":"Feature"},{"geometry":{"coordinates":[[[-118.05988,34.16695],[-118.06057,34.16792],[-118.06192,34.16791],[-118.06259,34.16693],[-118.0619,34.16596],[-118.06054,34.16597],[-118.05988,34.16695]]],"type":"Polygon"},"properties":{"bbox":{"roads":{"area":3320.38,"pct":8.18}},"city_same":1,"id":"hex:2145:17464"},"type":"Feature"},{"geometry":{"coordinates":[[[-118.0599,34.16891],[-118.06059,34.16988],[-118.06195,34.16986],[-118.06261,34.16888],[-118.06192,34.16791],[-118.06057,34.16792],[-118.0599,34.16891]]],"type":"Polygon"},"properties":{"bbox":{"roads":{"area":2591.79,"pct":6.38}},"city_same":1,"id":"hex:2145:17465"},"type":"Feature"},{"geometry":{"coordinates":[[[-118.05993,34.17086],[-118.06062,34.17183],[-118.06197,34.17182],[-118.06264,34.17083],[-118.06195,34.16986],[-118.06059,34.16988],[-118.05993,34.17086]]],"type":"Polygon"},"properties":{"bbox":{"parking":{"area":875.9,"pct":2.16},"roads":{"area":3265.62,"pct":8.04}},"city_same":1,"id":"hex:2145:17466"},"type":"Feature"},{"geometry":{"coordinates":[[[-118.06266,34.17279],[-118.062,34.17377],[-118.06064,34.17378],[-118.05995,34.17281],[-118.06062,34.17183],[-118.06197,34.17182],[-118.06213,34.17204],[-118.06209,34.17201],[-118.06193,34.17197],[-118.0617,34.17196],[-118.06128,34.17197],[-118.06116,34.17199],[-118.061,34.17208],[-118.06097,34.17216],[-118.06105,34.17268],[-118.06102,34.17287],[-118.06094,34.17323],[-118.0611,34.17327],[-118.06119,34.17328],[-118.06135,34.17317],[-118.06158,34.17305],[-118.06188,34.17277],[-118.06216,34.17249],[-118.06232,34.1723],[-118.06266,34.17279]]],"type":"Polygon"},"properties":{"bbox":{"roads":{"area":1528.78,"pct":5.38}},"city_same":1,"id":"hex:2145:17467"},"type":"Feature"},{"geometry":{"coordinates":[[[-118.05997,34.17476],[-118.06066,34.17573],[-118.06202,34.17572],[-118.06269,34.17474],[-118.062,34.17377],[-118.06064,34.17378],[-118.05997,34.17476]]],"type":"Polygon"},"properties":{"bbox":{"roads":{"area":182.35,"pct":0.45}},"city_same":1,"id":"hex:2145:17468"},"type":"Feature"},{"geometry":{"coordinates":[[[-118.05975,34.15719],[-118.0584,34.1572],[-118.05824,34.15698],[-118.0596,34.15696],[-118.05975,34.15696],[-118.05991,34.15696],[-118.05975,34.15719]]],"type":"Polygon"},"properties":{"bbox":{"roads":{"area":1014.68,"pct":28.96}},"city_same":1,"id":"hex:2146:17459"},"type":"Feature"},{"geometry":{"coordinates":[[[-118.05773,34.15819],[-118.05842,34.15916],[-118.05978,34.15914],[-118.06044,34.15816],[-118.05975,34.15719],[-118.0584,34.1572],[-118.05773,34.15819]]],"type":"Polygon"},"properties":{"bbox":{"roads":{"area":2985.06,"pct":7.35}},"city_same":1,"id":"hex:2146:17460"},"type":"Feature"},{"geometry":{"coordinates":[[[-118.05776,34.16014],[-118.05845,34.16111],[-118.0598,34.1611],[-118.06047,34.16011],[-118.05978,34.15914],[-118.05842,34.15916],[-118.05776,34.16014]]],"type":"Polygon"},"properties":{"bbox":{"roads":{"area":4296.82,"pct":10.58}},"city_same":1,"id":"hex:2146:17461"},"type":"Feature"},{"geometry":{"coordinates":[[[-118.05778,34.16209],[-118.05847,34.16306],[-118.05983,34.16305],[-118.06049,34.16207],[-118.0598,34.1611],[-118.05845,34.16111],[-118.05778,34.16209]]],"type":"Polygon"},"properties":{"bbox":{"roads":{"area":5961.36,"pct":14.68}},"city_same":1,"id":"hex:2146:17462"},"type":"Feature"},{"geometry":{"coordinates":[[[-118.05781,34.16404],[-118.0585,34.16501],[-118.05985,34.165],[-118.06052,34.16402],[-118.05983,34.16305],[-118.05847,34.16306],[-118.05781,34.16404]]],"type":"Polygon"},"properties":{"bbox":{"roads":{"area":4817.36,"pct":11.87}},"city_same":1,"id":"hex:2146:17463"},"type":"Feature"},{"geometry":{"coordinates":[[[-118.05783,34.16599],[-118.05852,34.16697],[-118.05988,34.16695],[-118.06054,34.16597],[-118.05985,34.165],[-118.0585,34.16501],[-118.05783,34.16599]]],"type":"Polygon"},"properties":{"bbox":{"roads":{"area":3986.44,"pct":9.82}},"city_same":1,"id":"hex:2146:17464"},"type":"Feature"},{"geometry":{"coordinates":[[[-118.05785,34.16795],[-118.05855,34.16892],[-118.0599,34.16891],[-118.06057,34.16792],[-118.05988,34.16695],[-118.05852,34.16697],[-118.05785,34.16795]]],"type":"Polygon"},"properties":{"bbox":{"roads":{"area":2498.85,"pct":6.16}},"city_same":1,"id":"hex:2146:17465"},"type":"Feature"},{"geometry":{"coordinates":[[[-118.05788,34.1699],[-118.05857,34.17087],[-118.05993,34.17086],[-118.06059,34.16988],[-118.0599,34.16891],[-118.05855,34.16892],[-118.05788,34.1699]]],"type":"Polygon"},"properties":{"bbox":{"roads":{"area":2863.86,"pct":7.05}},"city_same":1,"id":"hex:2146:17466"},"type":"Feature"},{"geometry":{"coordinates":[[[-118.0579,34.17185],[-118.05859,34.17282],[-118.05995,34.17281],[-118.06062,34.17183],[-118.05993,34.17086],[-118.05857,34.17087],[-118.0579,34.17185]]],"type":"Polygon"},"properties":{"bbox":{"roads":{"area":2171.19,"pct":5.35}},"city_same":1,"id":"hex:2146:17467"},"type":"Feature"},{"geometry":{"coordinates":[[[-118.05793,34.1738],[-118.05862,34.17477],[-118.05997,34.17476],[-118.06064,34.17378],[-118.05995,34.17281],[-118.05859,34.17282],[-118.05793,34.1738]]],"type":"Polygon"},"properties":{"bbox":{"roads":{"area":2208.81,"pct":5.44}},"city_same":1,"id":"hex:2146:17468"},"type":"Feature"},{"geometry":{"coordinates":[[[-118.05795,34.17576],[-118.05864,34.17673],[-118.06,34.17671],[-118.06066,34.17573],[-118.05997,34.17476],[-118.05862,34.17477],[-118.05795,34.17576]]],"type":"Polygon"},"properties":{"bbox":{"roads":{"area":202.06,"pct":0.5}},"city_same":1,"id":"hex:2146:17469"},"type":"Feature"},{"geometry":{"coordinates":[[[-118.0584,34.1572],[-118.05773,34.15819],[-118.05638,34.1582],[-118.05569,34.15723],[-118.05583,34.15702],[-118.05655,34.157],[-118.05824,34.15698],[-118.0584,34.1572]]],"type":"Polygon"},"properties":{"bbox":{"roads":{"area":1623.01,"pct":6.24}},"city_same":1,"id":"hex:2147:17459"},"type":"Feature"},{"geometry":{"coordinates":[[[-118.05571,34.15918],[-118.0564,34.16015],[-118.05776,34.16014],[-118.05842,34.15916],[-118.05773,34.15819],[-118.05638,34.1582],[-118.05571,34.15918]]],"type":"Polygon"},"properties":{"bbox":{"roads":{"area":3151.62,"pct":7.76}},"city_same":1,"id":"hex:2147:17460"},"type":"Feature"},{"geometry":{"coordinates":[[[-118.05574,34.16113],[-118.05643,34.1621],[-118.05778,34.16209],[-118.05845,34.16111],[-118.05776,34.16014],[-118.0564,34.16015],[-118.05574,34.16113]]],"type":"Polygon"},"properties":{"bbox":{"roads":{"area":4547.6,"pct":11.2}},"city_same":1,"id":"hex:2147:17461"},"type":"Feature"},{"geometry":{"coordinates":[[[-118.05576,34.16308],[-118.05645,34.16405],[-118.05781,34.16404],[-118.05847,34.16306],[-118.05778,34.16209],[-118.05643,34.1621],[-118.05576,34.16308]]],"type":"Polygon"},"properties":{"bbox":{"roads":{"area":3263.12,"pct":8.04}},"city_same":1,"id":"hex:2147:17462"},"type":"Feature"},{"geometry":{"coordinates":[[[-118.05578,34.16504],[-118.05647,34.16601],[-118.05783,34.16599],[-118.0585,34.16501],[-118.05781,34.16404],[-118.05645,34.16405],[-118.05578,34.16504]]],"type":"Polygon"},"properties":{"bbox":{"roads":{"area":3869.43,"pct":9.53}},"city_same":1,"id":"hex:2147:17463"},"type":"Feature"},{"geometry":{"coordinates":[[[-118.05581,34.16699],[-118.0565,34.16796],[-118.05785,34.16795],[-118.05852,34.16697],[-118.05783,34.16599],[-118.05647,34.16601],[-118.05581,34.16699]]],"type":"Polygon"},"properties":{"bbox":{"roads":{"area":4770.03,"pct":11.75}},"city_same":1,"id":"hex:2147:17464"},"type":"Feature"},{"geometry":{"coordinates":[[[-118.05583,34.16894],[-118.05652,34.16991],[-118.05788,34.1699],[-118.05855,34.16892],[-118.05785,34.16795],[-118.0565,34.16796],[-118.05583,34.16894]]],"type":"Polygon"},"properties":{"bbox":{"roads":{"area":2101.89,"pct":5.18}},"city_same":1,"id":"hex:2147:17465"},"type":"Feature"},{"geometry":{"coordinates":[[[-118.05586,34.17089],[-118.05655,34.17186],[-118.0579,34.17185],[-118.05857,34.17087],[-118.05788,34.1699],[-118.05652,34.16991],[-118.05586,34.17089]]],"type":"Polygon"},"properties":{"bbox":{"roads":{"area":2361.77,"pct":5.82}},"city_same":1,"id":"hex:2147:17466"},"type":"Feature"},{"geometry":{"coordinates":[[[-118.05588,34.17285],[-118.05657,34.17382],[-118.05793,34.1738],[-118.05859,34.17282],[-118.0579,34.17185],[-118.05655,34.17186],[-118.05588,34.17285]]],"type":"Polygon"},"properties":{"bbox":{"roads":{"area":3109.94,"pct":7.66}},"city_same":1,"id":"hex:2147:17467"},"type":"Feature"},{"geometry":{"coordinates":[[[-118.05657,34.17382],[-118.05793,34.1738],[-118.05862,34.17477],[-118.05795,34.17576],[-118.0566,34.17577],[-118.05591,34.1748],[-118.05606,34.17458],[-118.05654,34.17455],[-118.05673,34.17448],[-118.05692,34.17439],[-118.05701,34.17429],[-118.05702,34.1742],[-118.05693,34.1741],[-118.05655,34.17407],[-118.0564,34.17407],[-118.05657,34.17382]]],"type":"Polygon"},"properties":{"bbox":{"roads":{"area":2196.17,"pct":5.88}},"city_same":1,"id":"hex:2147:17468"},"type":"Feature"},{"geometry":{"coordinates":[[[-118.05569,34.15723],[-118.05433,34.15724],[-118.0542,34.15705],[-118.05446,34.15704],[-118.05531,34.15703],[-118.05583,34.15702],[-118.05569,34.15723]]],"type":"Polygon"},"properties":{"bbox":{"roads":{"area":550.59,"pct":17.99}},"city_same":1,"id":"hex:2148:17459"},"type":"Feature"},{"geometry":{"coordinates":[[[-118.05367,34.15822],[-118.05436,34.15919],[-118.05571,34.15918],[-118.05638,34.1582],[-118.05569,34.15723],[-118.05433,34.15724],[-118.05367,34.15822]]],"type":"Polygon"},"properties":{"bbox":{"roads":{"area":2423.66,"pct":5.97}},"city_same":1,"id":"hex:2148:17460"},"type":"Feature"},{"geometry":{"coordinates":[[[-118.05369,34.16017],[-118.05438,34.16114],[-118.05574,34.16113],[-118.0564,34.16015],[-118.05571,34.15918],[-118.05436,34.15919],[-118.05369,34.16017]]],"type":"Polygon"},"properties":{"bbox":{"roads":{"area":4740.17,"pct":11.68}},"city_same":1,"id":"hex:2148:17461"},"type":"Feature"},{"geometry":{"coordinates":[[[-118.05371,34.16213],[-118.0544,34.1631],[-118.05576,34.16308],[-118.05643,34.1621],[-118.05574,34.16113],[-118.05438,34.16114],[-118.05371,34.16213]]],"type":"Polygon"},"properties":{"bbox":{"parking":{"area":1739.75,"pct":4.29},"roads":{"area":6028.09,"pct":14.85},"sidewalks":{"area":89.15,"pct":0.22}},"city_same":1,"id":"hex:2148:17462"},"type":"Feature"},{"geometry":{"coordinates":[[[-118.05374,34.16408],[-118.05443,34.16505],[-118.05578,34.16504],[-118.05645,34.16405],[-118.05576,34.16308],[-118.0544,34.1631],[-118.05374,34.16408]]],"type":"Polygon"},"properties":{"bbox":{"roads":{"area":4481.66,"pct":11.04}},"city_same":1,"id":"hex:2148:17463"},"type":"Feature"},{"geometry":{"coordinates":[[[-118.05376,34.16603],[-118.05445,34.167],[-118.05581,34.16699],[-118.05647,34.16601],[-118.05578,34.16504],[-118.05443,34.16505],[-118.05376,34.16603]]],"type":"Polygon"},"properties":{"bbox":{"roads":{"area":3274.8,"pct":8.07}},"city_same":1,"id":"hex:2148:17464"},"type":"Feature"},{"geometry":{"coordinates":[[[-118.05379,34.16798],[-118.05448,34.16895],[-118.05583,34.16894],[-118.0565,34.16796],[-118.05581,34.16699],[-118.05445,34.167],[-118.05379,34.16798]]],"type":"Polygon"},"properties":{"bbox":{"roads":{"area":3198,"pct":7.88}},"city_same":1,"id":"hex:2148:17465"},"type":"Feature"},{"geometry":{"coordinates":[[[-118.05381,34.16993],[-118.0545,34.1709],[-118.05586,34.17089],[-118.05652,34.16991],[-118.05583,34.16894],[-118.05448,34.16895],[-118.05381,34.16993]]],"type":"Polygon"},"properties":{"bbox":{"roads":{"area":3397.98,"pct":8.37}},"city_same":1,"id":"hex:2148:17466"},"type":"Feature"},{"geometry":{"coordinates":[[[-118.05384,34.17189],[-118.05453,34.17286],[-118.05588,34.17285],[-118.05655,34.17186],[-118.05586,34.17089],[-118.0545,34.1709],[-118.05384,34.17189]]],"type":"Polygon"},"properties":{"bbox":{"roads":{"area":3127.1,"pct":7.7}},"city_same":1,"id":"hex:2148:17467"},"type":"Feature"},{"geometry":{"coordinates":[[[-118.05591,34.1748],[-118.05455,34.17481],[-118.05386,34.17384],[-118.05453,34.17286],[-118.05588,34.17285],[-118.05657,34.17382],[-118.0564,34.17407],[-118.05572,34.17407],[-118.0556,34.17431],[-118.05548,34.17462],[-118.05579,34.17459],[-118.05606,34.17458],[-118.05591,34.1748]]],"type":"Polygon"},"properties":{"bbox":{"roads":{"area":2285.14,"pct":6.13}},"city_same":1,"id":"hex:2148:17468"},"type":"Feature"},{"geometry":{"coordinates":[[[-118.05388,34.17579],[-118.05457,34.17676],[-118.05593,34.17675],[-118.0566,34.17577],[-118.05591,34.1748],[-118.05455,34.17481],[-118.05388,34.17579]]],"type":"Polygon"},"properties":{"bbox":{"roads":{"area":126.94,"pct":0.31}},"city_same":1,"id":"hex:2148:17469"},"type":"Feature"},{"geometry":{"coordinates":[[[-118.05433,34.15724],[-118.05367,34.15822],[-118.05231,34.15823],[-118.05162,34.15726],[-118.05174,34.15708],[-118.053,34.15707],[-118.0542,34.15705],[-118.05433,34.15724]]],"type":"Polygon"},"properties":{"bbox":{"roads":{"area":1420.68,"pct":5.65}},"city_same":1,"id":"hex:2149:17459"},"type":"Feature"},{"geometry":{"coordinates":[[[-118.05164,34.15921],[-118.05233,34.16018],[-118.05369,34.16017],[-118.05436,34.15919],[-118.05367,34.15822],[-118.05231,34.15823],[-118.05164,34.15921]]],"type":"Polygon"},"properties":{"bbox":{"roads":{"area":3651.46,"pct":8.99}},"city_same":1,"id":"hex:2149:17460"},"type":"Feature"},{"geometry":{"coordinates":[[[-118.05167,34.16117],[-118.05236,34.16214],[-118.05371,34.16213],[-118.05438,34.16114],[-118.05369,34.16017],[-118.05233,34.16018],[-118.05167,34.16117]]],"type":"Polygon"},"properties":{"bbox":{"roads":{"area":6597.31,"pct":16.25},"sidewalks":{"area":306.93,"pct":0.76}},"city_same":1,"id":"hex:2149:17461"},"type":"Feature"},{"geometry":{"coordinates":[[[-118.05169,34.16312],[-118.05238,34.16409],[-118.05374,34.16408],[-118.0544,34.1631],[-118.05371,34.16213],[-118.05236,34.16214],[-118.05169,34.16312]]],"type":"Polygon"},"properties":{"bbox":{"roads":{"area":5259.39,"pct":12.96},"sidewalks":{"area":58.98,"pct":0.15}},"city_same":1,"id":"hex:2149:17462"},"type":"Feature"},{"geometry":{"coordinates":[[[-118.05172,34.16507],[-118.05241,34.16604],[-118.05376,34.16603],[-118.05443,34.16505],[-118.05374,34.16408],[-118.05238,34.16409],[-118.05172,34.16507]]],"type":"Polygon"},"properties":{"bbox":{"roads":{"area":4785.08,"pct":11.79}},"city_same":1,"id":"hex:2149:17463"},"type":"Feature"},{"geometry":{"coordinates":[[[-118.05174,34.16702],[-118.05243,34.16799],[-118.05379,34.16798],[-118.05445,34.167],[-118.05376,34.16603],[-118.05241,34.16604],[-118.05174,34.16702]]],"type":"Polygon"},"properties":{"bbox":{"roads":{"area":4189.54,"pct":10.32}},"city_same":1,"id":"hex:2149:17464"},"type":"Feature"},{"geometry":{"coordinates":[[[-118.05176,34.16898],[-118.05246,34.16995],[-118.05381,34.16993],[-118.05448,34.16895],[-118.05379,34.16798],[-118.05243,34.16799],[-118.05176,34.16898]]],"type":"Polygon"},"properties":{"bbox":{"roads":{"area":3828.93,"pct":9.43}},"city_same":1,"id":"hex:2149:17465"},"type":"Feature"},{"geometry":{"coordinates":[[[-118.05179,34.17093],[-118.05248,34.1719],[-118.05384,34.17189],[-118.0545,34.1709],[-118.05381,34.16993],[-118.05246,34.16995],[-118.05179,34.17093]]],"type":"Polygon"},"properties":{"bbox":{"roads":{"area":3053.39,"pct":7.52}},"city_same":1,"id":"hex:2149:17466"},"type":"Feature"},{"geometry":{"coordinates":[[[-118.05181,34.17288],[-118.0525,34.17385],[-118.05386,34.17384],[-118.05453,34.17286],[-118.05384,34.17189],[-118.05248,34.1719],[-118.05181,34.17288]]],"type":"Polygon"},"properties":{"bbox":{"parking":{"area":129.94,"pct":0.32},"roads":{"area":1248.56,"pct":3.08}},"city_same":1,"id":"hex:2149:17467"},"type":"Feature"},{"geometry":{"coordinates":[[[-118.05184,34.17483],[-118.05253,34.1758],[-118.05388,34.17579],[-118.05455,34.17481],[-118.05386,34.17384],[-118.0525,34.17385],[-118.05184,34.17483]]],"type":"Polygon"},"properties":{"bbox":{"roads":{"area":195.9,"pct":0.48}},"city_same":1,"id":"hex:2149:17468"},"type":"Feature"},{"geometry":{"coordinates":[[[-118.05162,34.15726],[-118.05026,34.15727],[-118.05014,34.15711],[-118.05043,34.1571],[-118.05174,34.15708],[-118.05162,34.15726]]],"type":"Polygon"},"properties":{"bbox":{"roads":{"area":325.22,"pct":12.48}},"city_same":1,"id":"hex:2150:17459"},"type":"Feature"},{"geometry":{"coordinates":[[[-118.0496,34.15826],[-118.05029,34.15923],[-118.05164,34.15921],[-118.05231,34.15823],[-118.05162,34.15726],[-118.05026,34.15727],[-118.0496,34.15826]]],"type":"Polygon"},"properties":{"bbox":{"roads":{"area":1158.98,"pct":2.85}},"city_same":1,"id":"hex:2150:17460"},"type":"Feature"},{"geometry":{"coordinates":[[[-118.04962,34.16021],[-118.05031,34.16118],[-118.05167,34.16117],[-118.05233,34.16018],[-118.05164,34.15921],[-118.05029,34.15923],[-118.04962,34.16021]]],"type":"Polygon"},"properties":{"bbox":{"roads":{"area":3133.61,"pct":7.72}},"city_same":1,"id":"hex:2150:17461"},"type":"Feature"},{"geometry":{"coordinates":[[[-118.04965,34.16216],[-118.05034,34.16313],[-118.05169,34.16312],[-118.05236,34.16214],[-118.05167,34.16117],[-118.05031,34.16118],[-118.04965,34.16216]]],"type":"Polygon"},"properties":{"bbox":{"roads":{"area":4107.19,"pct":10.12}},"city_same":1,"id":"hex:2150:17462"},"type":"Feature"},{"geometry":{"coordinates":[[[-118.04967,34.16411],[-118.05036,34.16508],[-118.05172,34.16507],[-118.05238,34.16409],[-118.05169,34.16312],[-118.05034,34.16313],[-118.04967,34.16411]]],"type":"Polygon"},"properties":{"bbox":{"roads":{"area":4081.23,"pct":10.05}},"city_same":1,"id":"hex:2150:17463"},"type":"Feature"},{"geometry":{"coordinates":[[[-118.04969,34.16606],[-118.05038,34.16704],[-118.05174,34.16702],[-118.05241,34.16604],[-118.05172,34.16507],[-118.05036,34.16508],[-118.04969,34.16606]]],"type":"Polygon"},"properties":{"bbox":{"roads":{"area":3684.82,"pct":9.08}},"city_same":1,"id":"hex:2150:17464"},"type":"Feature"},{"geometry":{"coordinates":[[[-118.04972,34.16802],[-118.05041,34.16899],[-118.05176,34.16898],[-118.05243,34.16799],[-118.05174,34.16702],[-118.05038,34.16704],[-118.04972,34.16802]]],"type":"Polygon"},"properties":{"bbox":{"roads":{"area":2525.13,"pct":6.22}},"city_same":1,"id":"hex:2150:17465"},"type":"Feature"},{"geometry":{"coordinates":[[[-118.04974,34.16997],[-118.05043,34.17094],[-118.05179,34.17093],[-118.05246,34.16995],[-118.05176,34.16898],[-118.05041,34.16899],[-118.04974,34.16997]]],"type":"Polygon"},"properties":{"bbox":{"roads":{"area":2931.93,"pct":7.22}},"city_same":1,"id":"hex:2150:17466"},"type":"Feature"},{"geometry":{"coordinates":[[[-118.04977,34.17192],[-118.05046,34.17289],[-118.05181,34.17288],[-118.05248,34.1719],[-118.05179,34.17093],[-118.05043,34.17094],[-118.04977,34.17192]]],"type":"Polygon"},"properties":{"bbox":{"roads":{"area":2465.77,"pct":6.07}},"city_same":1,"id":"hex:2150:17467"},"type":"Feature"},{"geometry":{"coordinates":[[[-118.04979,34.17387],[-118.05046,34.17289],[-118.05181,34.17288],[-118.0525,34.17385],[-118.05184,34.17483],[-118.05048,34.17484],[-118.05011,34.17432],[-118.05024,34.17425],[-118.05044,34.17419],[-118.05019,34.17402],[-118.05014,34.17398],[-118.05006,34.17401],[-118.04997,34.17406],[-118.04995,34.1741],[-118.04979,34.17387]]],"type":"Polygon"},"properties":{"bbox":{"roads":{"area":443.66,"pct":1.12}},"city_same":1,"id":"hex:2150:17468"},"type":"Feature"},{"geometry":{"coordinates":[[[-118.05026,34.15727],[-118.0496,34.15826],[-118.04824,34.15827],[-118.04755,34.1573],[-118.04766,34.15714],[-118.04816,34.15713],[-118.04941,34.15712],[-118.05014,34.15711],[-118.05026,34.15727]]],"type":"Polygon"},"properties":{"bbox":{"roads":{"area":1421,"pct":5.77}},"city_same":1,"id":"hex:2151:17459"},"type":"Feature"},{"geometry":{"coordinates":[[[-118.04758,34.15925],[-118.04827,34.16022],[-118.04962,34.16021],[-118.05029,34.15923],[-118.0496,34.15826],[-118.04824,34.15827],[-118.04758,34.15925]]],"type":"Polygon"},"properties":{"bbox":{"roads":{"area":3407.18,"pct":8.39}},"city_same":1,"id":"hex:2151:17460"},"type":"Feature"},{"geometry":{"coordinates":[[[-118.0476,34.1612],[-118.04829,34.16217],[-118.04965,34.16216],[-118.05031,34.16118],[-118.04962,34.16021],[-118.04827,34.16022],[-118.0476,34.1612]]],"type":"Polygon"},"properties":{"bbox":{"roads":{"area":5281.78,"pct":13.01}},"city_same":1,"id":"hex:2151:17461"},"type":"Feature"},{"geometry":{"coordinates":[[[-118.04762,34.16315],[-118.04831,34.16412],[-118.04967,34.16411],[-118.05034,34.16313],[-118.04965,34.16216],[-118.04829,34.16217],[-118.04762,34.16315]]],"type":"Polygon"},"properties":{"bbox":{"roads":{"area":4582.03,"pct":11.29}},"city_same":1,"id":"hex:2151:17462"},"type":"Feature"},{"geometry":{"coordinates":[[[-118.04765,34.16511],[-118.04834,34.16608],[-118.04969,34.16606],[-118.05036,34.16508],[-118.04967,34.16411],[-118.04831,34.16412],[-118.04765,34.16511]]],"type":"Polygon"},"properties":{"bbox":{"roads":{"area":4434.63,"pct":10.92}},"city_same":1,"id":"hex:2151:17463"},"type":"Feature"},{"geometry":{"coordinates":[[[-118.04767,34.16706],[-118.04836,34.16803],[-118.04972,34.16802],[-118.05038,34.16704],[-118.04969,34.16606],[-118.04834,34.16608],[-118.04767,34.16706]]],"type":"Polygon"},"properties":{"bbox":{"roads":{"area":3153.4,"pct":7.77}},"city_same":1,"id":"hex:2151:17464"},"type":"Feature"},{"geometry":{"coordinates":[[[-118.0477,34.16901],[-118.04839,34.16998],[-118.04974,34.16997],[-118.05041,34.16899],[-118.04972,34.16802],[-118.04836,34.16803],[-118.0477,34.16901]]],"type":"Polygon"},"properties":{"bbox":{"roads":{"area":3037.66,"pct":7.48}},"city_same":1,"id":"hex:2151:17465"},"type":"Feature"},{"geometry":{"coordinates":[[[-118.04772,34.17096],[-118.04841,34.17193],[-118.04977,34.17192],[-118.05043,34.17094],[-118.04974,34.16997],[-118.04839,34.16998],[-118.04772,34.17096]]],"type":"Polygon"},"properties":{"bbox":{"roads":{"area":1441.68,"pct":3.55}},"city_same":1,"id":"hex:2151:17466"},"type":"Feature"},{"geometry":{"coordinates":[[[-118.04775,34.17292],[-118.04844,34.17389],[-118.04979,34.17387],[-118.05046,34.17289],[-118.04977,34.17192],[-118.04841,34.17193],[-118.04775,34.17292]]],"type":"Polygon"},"properties":{"bbox":{"roads":{"area":573.61,"pct":1.41}},"city_same":1,"id":"hex:2151:17467"},"type":"Feature"},{"geometry":{"coordinates":[[[-118.05048,34.17484],[-118.04982,34.17583],[-118.04846,34.17584],[-118.04777,34.17487],[-118.04844,34.17389],[-118.04979,34.17387],[-118.04995,34.1741],[-118.04989,34.17422],[-118.04988,34.17436],[-118.04992,34.17449],[-118.05,34.1746],[-118.05002,34.17453],[-118.05005,34.17443],[-118.05009,34.17433],[-118.05011,34.17432],[-118.05048,34.17484]]],"type":"Polygon"},"properties":{"bbox":{"roads":{"area":154.45,"pct":0.39}},"city_same":1,"id":"hex:2151:17468"},"type":"Feature"},{"geometry":{"coordinates":[[[-118.04755,34.1573],[-118.0462,34.15731],[-118.04609,34.15716],[-118.04667,34.15715],[-118.0467,34.15715],[-118.04766,34.15714],[-118.04755,34.1573]]],"type":"Polygon"},"properties":{"bbox":{"roads":{"area":427.98,"pct":18.75}},"city_same":1,"id":"hex:2152:17459"},"type":"Feature"},{"geometry":{"coordinates":[[[-118.04553,34.15829],[-118.04622,34.15926],[-118.04758,34.15925],[-118.04824,34.15827],[-118.04755,34.1573],[-118.0462,34.15731],[-118.04553,34.15829]]],"type":"Polygon"},"properties":{"bbox":{"roads":{"area":1400.09,"pct":3.45}},"city_same":1,"id":"hex:2152:17460"},"type":"Feature"},{"geometry":{"coordinates":[[[-118.04555,34.16024],[-118.04624,34.16121],[-118.0476,34.1612],[-118.04827,34.16022],[-118.04758,34.15925],[-118.04622,34.15926],[-118.04555,34.16024]]],"type":"Polygon"},"properties":{"bbox":{"roads":{"area":2596.53,"pct":6.4}},"city_same":1,"id":"hex:2152:17461"},"type":"Feature"},{"geometry":{"coordinates":[[[-118.04558,34.16219],[-118.04627,34.16317],[-118.04762,34.16315],[-118.04829,34.16217],[-118.0476,34.1612],[-118.04624,34.16121],[-118.04558,34.16219]]],"type":"Polygon"},"properties":{"bbox":{"roads":{"area":3187.67,"pct":7.85}},"city_same":1,"id":"hex:2152:17462"},"type":"Feature"},{"geometry":{"coordinates":[[[-118.0456,34.16415],[-118.04629,34.16512],[-118.04765,34.16511],[-118.04831,34.16412],[-118.04762,34.16315],[-118.04627,34.16317],[-118.0456,34.16415]]],"type":"Polygon"},"properties":{"bbox":{"roads":{"area":2544.89,"pct":6.27}},"city_same":1,"id":"hex:2152:17463"},"type":"Feature"},{"geometry":{"coordinates":[[[-118.04563,34.1661],[-118.04632,34.16707],[-118.04767,34.16706],[-118.04834,34.16608],[-118.04765,34.16511],[-118.04629,34.16512],[-118.04563,34.1661]]],"type":"Polygon"},"properties":{"bbox":{"roads":{"area":2626.17,"pct":6.47}},"city_same":1,"id":"hex:2152:17464"},"type":"Feature"},{"geometry":{"coordinates":[[[-118.04565,34.16805],[-118.04634,34.16902],[-118.0477,34.16901],[-118.04836,34.16803],[-118.04767,34.16706],[-118.04632,34.16707],[-118.04565,34.16805]]],"type":"Polygon"},"properties":{"bbox":{"roads":{"area":2837.84,"pct":6.99}},"city_same":1,"id":"hex:2152:17465"},"type":"Feature"},{"geometry":{"coordinates":[[[-118.04567,34.17],[-118.04636,34.17097],[-118.04772,34.17096],[-118.04839,34.16998],[-118.0477,34.16901],[-118.04634,34.16902],[-118.04567,34.17]]],"type":"Polygon"},"properties":{"bbox":{"roads":{"area":3999.99,"pct":9.85}},"city_same":1,"id":"hex:2152:17466"},"type":"Feature"},{"geometry":{"coordinates":[[[-118.0457,34.17196],[-118.04639,34.17293],[-118.04775,34.17292],[-118.04841,34.17193],[-118.04772,34.17096],[-118.04636,34.17097],[-118.0457,34.17196]]],"type":"Polygon"},"properties":{"bbox":{"roads":{"area":1819.81,"pct":4.48}},"city_same":1,"id":"hex:2152:17467"},"type":"Feature"},{"geometry":{"coordinates":[[[-118.04572,34.17391],[-118.04641,34.17488],[-118.04777,34.17487],[-118.04844,34.17389],[-118.04775,34.17292],[-118.04639,34.17293],[-118.04572,34.17391]]],"type":"Polygon"},"properties":{"bbox":{"roads":{"area":239.81,"pct":0.59}},"city_same":1,"id":"hex:2152:17468"},"type":"Feature"},{"geometry":{"coordinates":[[[-118.0462,34.15731],[-118.04553,34.15829],[-118.04417,34.1583],[-118.04348,34.15733],[-118.04358,34.15719],[-118.04525,34.15717],[-118.04609,34.15716],[-118.0462,34.15731]]],"type":"Polygon"},"properties":{"bbox":{"roads":{"area":1313.02,"pct":5.44}},"city_same":1,"id":"hex:2153:17459"},"type":"Feature"},{"geometry":{"coordinates":[[[-118.04351,34.15928],[-118.0442,34.16025],[-118.04555,34.16024],[-118.04622,34.15926],[-118.04553,34.15829],[-118.04417,34.1583],[-118.04351,34.15928]]],"type":"Polygon"},"properties":{"bbox":{"roads":{"area":2680.98,"pct":6.6}},"city_same":1,"id":"hex:2153:17460"},"type":"Feature"},{"geometry":{"coordinates":[[[-118.04353,34.16124],[-118.04422,34.16221],[-118.04558,34.16219],[-118.04624,34.16121],[-118.04555,34.16024],[-118.0442,34.16025],[-118.04353,34.16124]]],"type":"Polygon"},"properties":{"bbox":{"roads":{"area":3850.9,"pct":9.49}},"city_same":1,"id":"hex:2153:17461"},"type":"Feature"},{"geometry":{"coordinates":[[[-118.04356,34.16319],[-118.04425,34.16416],[-118.0456,34.16415],[-118.04627,34.16317],[-118.04558,34.16219],[-118.04422,34.16221],[-118.04356,34.16319]]],"type":"Polygon"},"properties":{"bbox":{"parking":{"area":955.63,"pct":2.35},"roads":{"area":3525.48,"pct":8.68}},"city_same":1,"id":"hex:2153:17462"},"type":"Feature"},{"geometry":{"coordinates":[[[-118.04358,34.16514],[-118.04427,34.16611],[-118.04563,34.1661],[-118.04629,34.16512],[-118.0456,34.16415],[-118.04425,34.16416],[-118.04358,34.16514]]],"type":"Polygon"},"properties":{"bbox":{"parking":{"area":647.55,"pct":1.6},"roads":{"area":3096.52,"pct":7.63}},"city_same":1,"id":"hex:2153:17463"},"type":"Feature"},{"geometry":{"coordinates":[[[-118.0436,34.16709],[-118.04429,34.16806],[-118.04565,34.16805],[-118.04632,34.16707],[-118.04563,34.1661],[-118.04427,34.16611],[-118.0436,34.16709]]],"type":"Polygon"},"properties":{"bbox":{"roads":{"area":3853.16,"pct":9.49}},"city_same":1,"id":"hex:2153:17464"},"type":"Feature"},{"geometry":{"coordinates":[[[-118.04363,34.16905],[-118.04432,34.17002],[-118.04567,34.17],[-118.04634,34.16902],[-118.04565,34.16805],[-118.04429,34.16806],[-118.04363,34.16905]]],"type":"Polygon"},"properties":{"bbox":{"roads":{"area":3186.99,"pct":7.85}},"city_same":1,"id":"hex:2153:17465"},"type":"Feature"},{"geometry":{"coordinates":[[[-118.04365,34.171],[-118.04434,34.17197],[-118.0457,34.17196],[-118.04636,34.17097],[-118.04567,34.17],[-118.04432,34.17002],[-118.04365,34.171]]],"type":"Polygon"},"properties":{"bbox":{"roads":{"area":3992.21,"pct":9.83}},"city_same":1,"id":"hex:2153:17466"},"type":"Feature"},{"geometry":{"coordinates":[[[-118.04368,34.17295],[-118.04437,34.17392],[-118.04572,34.17391],[-118.04639,34.17293],[-118.0457,34.17196],[-118.04434,34.17197],[-118.04368,34.17295]]],"type":"Polygon"},"properties":{"bbox":{"roads":{"area":3666.55,"pct":9.03}},"city_same":1,"id":"hex:2153:17467"},"type":"Feature"},{"geometry":{"coordinates":[[[-118.0437,34.1749],[-118.04439,34.17587],[-118.04575,34.17586],[-118.04641,34.17488],[-118.04572,34.17391],[-118.04437,34.17392],[-118.0437,34.1749]]],"type":"Polygon"},"properties":{"bbox":{"roads":{"area":1637.59,"pct":4.03}},"city_same":1,"id":"hex:2153:17468"},"type":"Feature"},{"geometry":{"coordinates":[[[-118.04348,34.15733],[-118.04213,34.15734],[-118.04204,34.15721],[-118.0422,34.15721],[-118.04275,34.1572],[-118.04319,34.1572],[-118.04358,34.15719],[-118.04348,34.15733]]],"type":"Polygon"},"properties":{"bbox":{"roads":{"area":511.91,"pct":25.75}},"city_same":1,"id":"hex:2154:17459"},"type":"Feature"},{"geometry":{"coordinates":[[[-118.04146,34.15832],[-118.04215,34.1593],[-118.04351,34.15928],[-118.04417,34.1583],[-118.04348,34.15733],[-118.04213,34.15734],[-118.04146,34.15832]]],"type":"Polygon"},"properties":{"bbox":{"roads":{"area":2340.38,"pct":5.77}},"city_same":1,"id":"hex:2154:17460"},"type":"Feature"},{"geometry":{"coordinates":[[[-118.04149,34.16028],[-118.04218,34.16125],[-118.04353,34.16124],[-118.0442,34.16025],[-118.04351,34.15928],[-118.04215,34.1593],[-118.04149,34.16028]]],"type":"Polygon"},"properties":{"bbox":{"roads":{"area":2750.38,"pct":6.78}},"city_same":1,"id":"hex:2154:17461"},"type":"Feature"},{"geometry":{"coordinates":[[[-118.04151,34.16223],[-118.0422,34.1632],[-118.04356,34.16319],[-118.04422,34.16221],[-118.04353,34.16124],[-118.04218,34.16125],[-118.04151,34.16223]]],"type":"Polygon"},"properties":{"bbox":{"roads":{"area":3321.73,"pct":8.18}},"city_same":1,"id":"hex:2154:17462"},"type":"Feature"},{"geometry":{"coordinates":[[[-118.04153,34.16418],[-118.04222,34.16515],[-118.04358,34.16514],[-118.04425,34.16416],[-118.04356,34.16319],[-118.0422,34.1632],[-118.04153,34.16418]]],"type":"Polygon"},"properties":{"bbox":{"parking":{"area":2911.35,"pct":7.17},"roads":{"area":2462.34,"pct":6.07}},"city_same":1,"id":"hex:2154:17463"},"type":"Feature"},{"geometry":{"coordinates":[[[-118.04156,34.16613],[-118.04225,34.1671],[-118.0436,34.16709],[-118.04427,34.16611],[-118.04358,34.16514],[-118.04222,34.16515],[-118.04156,34.16613]]],"type":"Polygon"},"properties":{"bbox":{"roads":{"area":2848.26,"pct":7.02}},"city_same":1,"id":"hex:2154:17464"},"type":"Feature"},{"geometry":{"coordinates":[[[-118.04158,34.16809],[-118.04227,34.16906],[-118.04363,34.16905],[-118.04429,34.16806],[-118.0436,34.16709],[-118.04225,34.1671],[-118.04158,34.16809]]],"type":"Polygon"},"properties":{"bbox":{"roads":{"area":2939.93,"pct":7.24}},"city_same":1,"id":"hex:2154:17465"},"type":"Feature"},{"geometry":{"coordinates":[[[-118.04161,34.17004],[-118.0423,34.17101],[-118.04365,34.171],[-118.04432,34.17002],[-118.04363,34.16905],[-118.04227,34.16906],[-118.04161,34.17004]]],"type":"Polygon"},"properties":{"bbox":{"roads":{"area":4389.24,"pct":10.81}},"city_same":1,"id":"hex:2154:17466"},"type":"Feature"},{"geometry":{"coordinates":[[[-118.04163,34.17199],[-118.04232,34.17296],[-118.04368,34.17295],[-118.04434,34.17197],[-118.04365,34.171],[-118.0423,34.17101],[-118.04163,34.17199]]],"type":"Polygon"},"properties":{"bbox":{"roads":{"area":3489.9,"pct":8.6}},"city_same":1,"id":"hex:2154:17467"},"type":"Feature"},{"geometry":{"coordinates":[[[-118.04165,34.17394],[-118.04234,34.17491],[-118.0437,34.1749],[-118.04437,34.17392],[-118.04368,34.17295],[-118.04232,34.17296],[-118.04165,34.17394]]],"type":"Polygon"},"properties":{"bbox":{"roads":{"area":3394.1,"pct":8.36}},"city_same":1,"id":"hex:2154:17468"},"type":"Feature"},{"geometry":{"coordinates":[[[-118.04168,34.1759],[-118.04234,34.17491],[-118.0437,34.1749],[-118.04439,34.17587],[-118.04372,34.17685],[-118.04237,34.17687],[-118.04235,34.17684],[-118.04251,34.17676],[-118.04268,34.17668],[-118.04286,34.17659],[-118.04296,34.17653],[-118.04306,34.17641],[-118.04311,34.17632],[-118.0431,34.17624],[-118.04302,34.17617],[-118.04288,34.17619],[-118.04279,34.17617],[-118.04272,34.17613],[-118.04266,34.17608],[-118.04262,34.17602],[-118.04256,34.176],[-118.04241,34.17622],[-118.04238,34.17642],[-118.04226,34.17656],[-118.0422,34.17663],[-118.04168,34.1759]]],"type":"Polygon"},"properties":{"bbox":{"roads":{"area":1215.76,"pct":3.33}},"city_same":1,"id":"hex:2154:17469"},"type":"Feature"},{"geometry":{"coordinates":[[[-118.04213,34.15734],[-118.04146,34.15832],[-118.04011,34.15834],[-118.03942,34.15737],[-118.0395,34.15725],[-118.03998,34.15724],[-118.04104,34.15722],[-118.04106,34.15722],[-118.04204,34.15721],[-118.04213,34.15734]]],"type":"Polygon"},"properties":{"bbox":{"roads":{"area":1442.44,"pct":6.09}},"city_same":1,"id":"hex:2155:17459"},"type":"Feature"},{"geometry":{"coordinates":[[[-118.03944,34.15932],[-118.04013,34.16029],[-118.04149,34.16028],[-118.04215,34.1593],[-118.04146,34.15832],[-118.04011,34.15834],[-118.03944,34.15932]]],"type":"Polygon"},"properties":{"bbox":{"roads":{"area":1712.84,"pct":4.22}},"city_same":1,"id":"hex:2155:17460"},"type":"Feature"},{"geometry":{"coordinates":[[[-118.03946,34.16127],[-118.04015,34.16224],[-118.04151,34.16223],[-118.04218,34.16125],[-118.04149,34.16028],[-118.04013,34.16029],[-118.03946,34.16127]]],"type":"Polygon"},"properties":{"bbox":{"parking":{"area":1002.44,"pct":2.47},"roads":{"area":3279.23,"pct":8.08}},"city_same":1,"id":"hex:2155:17461"},"type":"Feature"},{"geometry":{"coordinates":[[[-118.03949,34.16322],[-118.04015,34.16224],[-118.04151,34.16223],[-118.0422,34.1632],[-118.04153,34.16418],[-118.04036,34.16419],[-118.04026,34.16411],[-118.04014,34.16413],[-118.03949,34.16322]]],"type":"Polygon"},"properties":{"bbox":{"roads":{"area":2679.37,"pct":6.62}},"city_same":1,"id":"hex:2155:17462"},"type":"Feature"},{"geometry":{"coordinates":[[[-118.03966,34.16538],[-118.03989,34.1652],[-118.04,34.16503],[-118.03993,34.16485],[-118.03976,34.16494],[-118.03956,34.16511],[-118.0397,34.16489],[-118.03992,34.16474],[-118.03989,34.16465],[-118.03988,34.16463],[-118.04002,34.16442],[-118.0402,34.1644],[-118.04036,34.16435],[-118.04041,34.16424],[-118.04036,34.16419],[-118.04153,34.16418],[-118.04222,34.16515],[-118.04156,34.16613],[-118.04098,34.16614],[-118.04101,34.16612],[-118.04099,34.16605],[-118.04092,34.16601],[-118.04079,34.16605],[-118.04066,34.16614],[-118.04049,34.16614],[-118.04067,34.16604],[-118.04085,34.16594],[-118.04093,34.16577],[-118.04087,34.16561],[-118.04081,34.16556],[-118.0407,34.16556],[-118.04015,34.16597],[-118.04016,34.16603],[-118.04024,34.16611],[-118.04032,34.16614],[-118.0402,34.16615],[-118.04002,34.16589],[-118.04007,34.16589],[-118.04035,34.16568],[-118.04061,34.16553],[-118.04077,34.16543],[-118.04078,34.16532],[-118.04069,34.16528],[-118.04048,34.16535],[-118.04009,34.16558],[-118.03991,34.16574],[-118.03985,34.16565],[-118.03993,34.1656],[-118.03994,34.16552],[-118.03983,34.16542],[-118.03974,34.16541],[-118.0397,34.16544],[-118.03966,34.16538]],[[-118.03995,34.16538],[-118.04009,34.16545],[-118.04025,34.16536],[-118.04035,34.1653],[-118.04052,34.16525],[-118.04062,34.16521],[-118.04065,34.16508],[-118.04058,34.16503],[-118.04045,34.16503],[-118.04021,34.16511],[-118.04001,34.16523],[-118.03995,34.1653],[-118.03995,34.16538]],[[-118.04005,34.16449],[-118.03999,34.16457],[-118.04003,34.16466],[-118.04007,34.16468],[-118.04046,34.1646],[-118.0406,34.16454],[-118.04058,34.16443],[-118.04051,34.1644],[-118.04005,34.16449]],[[-118.0401,34.16483],[-118.04015,34.16496],[-118.04026,34.165],[-118.04046,34.16496],[-118.04061,34.1649],[-118.0407,34.16481],[-118.04068,34.1647],[-118.04064,34.16459],[-118.04049,34.16464],[-118.04035,34.1647],[-118.04013,34.16472],[-118.0401,34.16483]]],"type":"Polygon"},"properties":{"bbox":{"roads":{"area":456.63,"pct":1.58}},"city_same":1,"id":"hex:2155:17463"},"type":"Feature"},{"geometry":{"coordinates":[[[-118.04156,34.16613],[-118.04225,34.1671],[-118.04158,34.16809],[-118.04023,34.1681],[-118.03954,34.16713],[-118.04003,34.1664],[-118.04015,34.16634],[-118.04022,34.16627],[-118.04021,34.16615],[-118.0402,34.16615],[-118.0402,34.16615],[-118.04032,34.16614],[-118.04039,34.16618],[-118.04046,34.16616],[-118.04049,34.16614],[-118.04066,34.16614],[-118.04051,34.16624],[-118.04022,34.16647],[-118.04014,34.16655],[-118.04014,34.16661],[-118.04025,34.16663],[-118.04033,34.16657],[-118.04042,34.16647],[-118.04055,34.16639],[-118.04062,34.16632],[-118.04072,34.16627],[-118.04084,34.16623],[-118.04096,34.16615],[-118.04098,34.16614],[-118.04156,34.16613]],[[-118.04068,34.16662],[-118.04078,34.16668],[-118.04105,34.16667],[-118.04117,34.16664],[-118.04131,34.16658],[-118.04148,34.16651],[-118.04153,34.16639],[-118.04145,34.16632],[-118.04121,34.16631],[-118.04086,34.16645],[-118.04072,34.16651],[-118.04068,34.16662]]],"type":"Polygon"},"properties":{"bbox":{"roads":{"area":3405.63,"pct":9.15}},"city_same":1,"id":"hex:2155:17464"},"type":"Feature"},{"geometry":{"coordinates":[[[-118.03956,34.16908],[-118.04025,34.17005],[-118.04161,34.17004],[-118.04227,34.16906],[-118.04158,34.16809],[-118.04023,34.1681],[-118.03956,34.16908]]],"type":"Polygon"},"properties":{"bbox":{"roads":{"area":2350.89,"pct":5.79}},"city_same":1,"id":"hex:2155:17465"},"type":"Feature"},{"geometry":{"coordinates":[[[-118.03958,34.17103],[-118.04027,34.172],[-118.04163,34.17199],[-118.0423,34.17101],[-118.04161,34.17004],[-118.04025,34.17005],[-118.03958,34.17103]]],"type":"Polygon"},"properties":{"bbox":{"roads":{"area":4586.67,"pct":11.3}},"city_same":1,"id":"hex:2155:17466"},"type":"Feature"},{"geometry":{"coordinates":[[[-118.03961,34.17298],[-118.0403,34.17395],[-118.04165,34.17394],[-118.04232,34.17296],[-118.04163,34.17199],[-118.04027,34.172],[-118.03961,34.17298]]],"type":"Polygon"},"properties":{"bbox":{"roads":{"area":2294.74,"pct":5.65}},"city_same":1,"id":"hex:2155:17467"},"type":"Feature"},{"geometry":{"coordinates":[[[-118.03942,34.15737],[-118.03841,34.15737],[-118.03841,34.15726],[-118.0392,34.15725],[-118.0395,34.15725],[-118.03942,34.15737]]],"type":"Polygon"},"properties":{"bbox":{"roads":{"area":259.12,"pct":20.57}},"city_same":1,"id":"hex:2156:17459"},"type":"Feature"},{"geometry":{"coordinates":[[[-118.03942,34.15737],[-118.04011,34.15834],[-118.03944,34.15932],[-118.03842,34.15933],[-118.03842,34.15881],[-118.03841,34.15737],[-118.03942,34.15737]]],"type":"Polygon"},"properties":{"bbox":{"roads":{"area":1336.08,"pct":4.96}},"city_same":1,"id":"hex:2156:17460"},"type":"Feature"},{"geometry":{"coordinates":[[[-118.03944,34.15932],[-118.04013,34.16029],[-118.03946,34.16127],[-118.03844,34.16128],[-118.03843,34.16011],[-118.03842,34.15933],[-118.03944,34.15932]]],"type":"Polygon"},"properties":{"bbox":{"roads":{"area":1094.61,"pct":4.03}},"city_same":1,"id":"hex:2156:17461"},"type":"Feature"},{"geometry":{"coordinates":[[[-118.03946,34.16127],[-118.04015,34.16224],[-118.03949,34.16322],[-118.03845,34.16323],[-118.03844,34.16196],[-118.03844,34.16128],[-118.03946,34.16127]]],"type":"Polygon"},"properties":{"bbox":{"parking":{"area":1697.82,"pct":6.19},"roads":{"area":1939,"pct":7.07}},"city_same":1,"id":"hex:2156:17462"},"type":"Feature"},{"geometry":{"coordinates":[[[[-118.03846,34.16518],[-118.03846,34.16481],[-118.03845,34.16323],[-118.03949,34.16322],[-118.04014,34.16413],[-118.04003,34.16415],[-118.03984,34.16421],[-118.03982,34.16428],[-118.03987,34.16437],[-118.03997,34.16443],[-118.04002,34.16442],[-118.03988,34.16463],[-118.03982,34.16454],[-118.03969,34.16459],[-118.0392,34.16502],[-118.03901,34.16518],[-118.03883,34.16518],[-118.03896,34.16506],[-118.03912,34.16489],[-118.03938,34.16472],[-118.03968,34.1645],[-118.03975,34.16441],[-118.0397,34.16432],[-118.03957,34.16433],[-118.03937,34.16441],[-118.03895,34.16474],[-118.03877,34.16491],[-118.0387,34.16502],[-118.03875,34.16518],[-118.03846,34.16518]],[[-118.03874,34.16431],[-118.03872,34.16449],[-118.03871,34.16468],[-118.03884,34.16471],[-118.03905,34.16453],[-118.0392,34.16438],[-118.03907,34.16424],[-118.03894,34.1642],[-118.0388,34.16428],[-118.03874,34.16431]],[[-118.03922,34.16412],[-118.03933,34.16419],[-118.03945,34.16423],[-118.03958,34.16421],[-118.03964,34.16419],[-118.03963,34.16416],[-118.03957,34.16402],[-118.03944,34.16397],[-118.03927,34.16403],[-118.03922,34.16412]]],[[[-118.03932,34.16518],[-118.03934,34.16515],[-118.0397,34.16489],[-118.03956,34.16511],[-118.03948,34.16518],[-118.03932,34.16518]]]],"type":"MultiPolygon"},"properties":{"bbox":{"roads":{"area":134.34,"pct":0.68}},"city_same":1,"id":"hex:2156:17463"},"type":"Feature"},{"geometry":{"coordinates":[[[-118.03954,34.16713],[-118.03818,34.16714],[-118.038,34.16688],[-118.03811,34.16688],[-118.03835,34.16688],[-118.03847,34.16688],[-118.03847,34.16687],[-118.03847,34.16681],[-118.03847,34.16674],[-118.03846,34.16518],[-118.03875,34.16518],[-118.03875,34.1652],[-118.0388,34.16521],[-118.03883,34.16518],[-118.03901,34.16518],[-118.03894,34.16524],[-118.03881,34.16531],[-118.03878,34.16542],[-118.03884,34.1655],[-118.03909,34.16537],[-118.03932,34.16518],[-118.03948,34.16518],[-118.03921,34.1654],[-118.03886,34.16566],[-118.03878,34.16572],[-118.03878,34.16585],[-118.03888,34.16593],[-118.03906,34.16583],[-118.03966,34.16538],[-118.0397,34.16544],[-118.03906,34.16593],[-118.03883,34.16609],[-118.03877,34.16616],[-118.0388,34.16628],[-118.03892,34.16631],[-118.03909,34.16623],[-118.03931,34.16606],[-118.03985,34.16565],[-118.03991,34.16574],[-118.03991,34.16574],[-118.03988,34.16578],[-118.03988,34.16582],[-118.03996,34.16589],[-118.04002,34.16589],[-118.0402,34.16615],[-118.0402,34.16615],[-118.04011,34.16611],[-118.04001,34.16609],[-118.03988,34.16618],[-118.03969,34.16634],[-118.03945,34.16647],[-118.03933,34.16655],[-118.03934,34.16664],[-118.0395,34.16663],[-118.03981,34.16652],[-118.04003,34.1664],[-118.03954,34.16713]],[[-118.03897,34.16648],[-118.03908,34.16655],[-118.0392,34.16653],[-118.03956,34.16623],[-118.03967,34.16614],[-118.03984,34.16604],[-118.03981,34.16593],[-118.03974,34.1659],[-118.03968,34.1659],[-118.03932,34.16619],[-118.03899,34.1664],[-118.03897,34.16648]]],"type":"Polygon"},"properties":{"bbox":{"roads":{"area":1185.14,"pct":6.41}},"city_same":1,"id":"hex:2156:17464"},"type":"Feature"},{"geometry":{"coordinates":[[[-118.03751,34.16812],[-118.0382,34.16909],[-118.03956,34.16908],[-118.04023,34.1681],[-118.03954,34.16713],[-118.03818,34.16714],[-118.03751,34.16812]]],"type":"Polygon"},"properties":{"bbox":{"roads":{"area":2954.43,"pct":7.28}},"city_same":1,"id":"hex:2156:17465"},"type":"Feature"},{"geometry":{"coordinates":[[[-118.03754,34.17007],[-118.03823,34.17104],[-118.03958,34.17103],[-118.04025,34.17005],[-118.03956,34.16908],[-118.0382,34.16909],[-118.03754,34.17007]]],"type":"Polygon"},"properties":{"bbox":{"roads":{"area":2082.4,"pct":5.13}},"city_same":1,"id":"hex:2156:17466"},"type":"Feature"},{"geometry":{"coordinates":[[[-118.03756,34.17203],[-118.03825,34.173],[-118.03961,34.17298],[-118.04027,34.172],[-118.03958,34.17103],[-118.03823,34.17104],[-118.03756,34.17203]]],"type":"Polygon"},"properties":{"bbox":{"roads":{"area":1071.57,"pct":2.64}},"city_same":1,"id":"hex:2156:17467"},"type":"Feature"},{"geometry":{"coordinates":[[[-118.03818,34.16714],[-118.03751,34.16812],[-118.03616,34.16813],[-118.03547,34.16716],[-118.03564,34.1669],[-118.0357,34.1669],[-118.03604,34.1669],[-118.03635,34.1669],[-118.03637,34.1669],[-118.03755,34.16689],[-118.038,34.16688],[-118.03818,34.16714]]],"type":"Polygon"},"properties":{"bbox":{"roads":{"area":2104.64,"pct":7.81}},"city_same":1,"id":"hex:2157:17464"},"type":"Feature"},{"geometry":{"coordinates":[[[-118.03549,34.16911],[-118.03618,34.17008],[-118.03754,34.17007],[-118.0382,34.16909],[-118.03751,34.16812],[-118.03616,34.16813],[-118.03549,34.16911]]],"type":"Polygon"},"properties":{"bbox":{"roads":{"area":801.6,"pct":1.97}},"city_same":1,"id":"hex:2157:17465"},"type":"Feature"},{"geometry":{"coordinates":[[[-118.03552,34.17107],[-118.03621,34.17204],[-118.03756,34.17203],[-118.03823,34.17104],[-118.03754,34.17007],[-118.03618,34.17008],[-118.03552,34.17107]]],"type":"Polygon"},"properties":{"bbox":{"roads":{"area":1665.26,"pct":4.1}},"city_same":1,"id":"hex:2157:17466"},"type":"Feature"},{"geometry":{"coordinates":[[[-118.03554,34.17302],[-118.03623,34.17399],[-118.03759,34.17398],[-118.03825,34.173],[-118.03756,34.17203],[-118.03621,34.17204],[-118.03554,34.17302]]],"type":"Polygon"},"properties":{"bbox":{"roads":{"area":1133.83,"pct":2.79}},"city_same":1,"id":"hex:2157:17467"},"type":"Feature"},{"geometry":{"coordinates":[[[-118.03547,34.16716],[-118.03411,34.16717],[-118.03393,34.16692],[-118.0345,34.16691],[-118.03489,34.16691],[-118.03494,34.16691],[-118.03564,34.1669],[-118.03547,34.16716]]],"type":"Polygon"},"properties":{"bbox":{"roads":{"area":920.44,"pct":22.73}},"city_same":1,"id":"hex:2158:17464"},"type":"Feature"},{"geometry":{"coordinates":[[[-118.03345,34.16816],[-118.03414,34.16913],[-118.03549,34.16911],[-118.03616,34.16813],[-118.03547,34.16716],[-118.03411,34.16717],[-118.03345,34.16816]]],"type":"Polygon"},"properties":{"bbox":{"roads":{"area":1961.05,"pct":4.83}},"city_same":1,"id":"hex:2158:17465"},"type":"Feature"},{"geometry":{"coordinates":[[[-118.03347,34.17011],[-118.03416,34.17108],[-118.03552,34.17107],[-118.03618,34.17008],[-118.03549,34.16911],[-118.03414,34.16913],[-118.03347,34.17011]]],"type":"Polygon"},"properties":{"bbox":{"roads":{"area":668.65,"pct":1.65}},"city_same":1,"id":"hex:2158:17466"},"type":"Feature"},{"geometry":{"coordinates":[[[-118.03349,34.17206],[-118.03418,34.17303],[-118.03554,34.17302],[-118.03621,34.17204],[-118.03552,34.17107],[-118.03416,34.17108],[-118.03349,34.17206]]],"type":"Polygon"},"properties":{"bbox":{"roads":{"area":677.53,"pct":1.67}},"city_same":1,"id":"hex:2158:17467"},"type":"Feature"},{"geometry":{"coordinates":[[[-118.03411,34.16717],[-118.03345,34.16816],[-118.03209,34.16817],[-118.0314,34.1672],[-118.03158,34.16693],[-118.03188,34.16693],[-118.03194,34.16693],[-118.03199,34.16693],[-118.03295,34.16692],[-118.03371,34.16692],[-118.03393,34.16692],[-118.03411,34.16717]]],"type":"Polygon"},"properties":{"bbox":{"roads":{"area":3166.25,"pct":11.71}},"city_same":1,"id":"hex:2159:17464"},"type":"Feature"},{"geometry":{"coordinates":[[[-118.03142,34.16915],[-118.03211,34.17012],[-118.03347,34.17011],[-118.03414,34.16913],[-118.03345,34.16816],[-118.03209,34.16817],[-118.03142,34.16915]]],"type":"Polygon"},"properties":{"bbox":{"roads":{"area":4337.33,"pct":10.68}},"city_same":1,"id":"hex:2159:17465"},"type":"Feature"},{"geometry":{"coordinates":[[[-118.03145,34.1711],[-118.03214,34.17207],[-118.03349,34.17206],[-118.03416,34.17108],[-118.03347,34.17011],[-118.03211,34.17012],[-118.03145,34.1711]]],"type":"Polygon"},"properties":{"bbox":{"roads":{"area":4456.19,"pct":10.98}},"city_same":1,"id":"hex:2159:17466"},"type":"Feature"},{"geometry":{"coordinates":[[[-118.03214,34.17207],[-118.03349,34.17206],[-118.03418,34.17303],[-118.03352,34.17401],[-118.03216,34.17402],[-118.03147,34.17305],[-118.03214,34.17207]],[[-118.03294,34.17324],[-118.03312,34.17302],[-118.0333,34.17284],[-118.0335,34.17272],[-118.03346,34.17266],[-118.03329,34.17254],[-118.03308,34.1724],[-118.03293,34.17232],[-118.03289,34.17234],[-118.03281,34.17239],[-118.03275,34.17246],[-118.03264,34.1726],[-118.03255,34.17276],[-118.03247,34.1729],[-118.03236,34.17303],[-118.03236,34.17313],[-118.03246,34.17322],[-118.03259,34.17329],[-118.0327,34.1733],[-118.03289,34.17331],[-118.03294,34.17324]]],"type":"Polygon"},"properties":{"bbox":{"roads":{"area":1295.58,"pct":3.78}},"city_same":1,"id":"hex:2159:17467"},"type":"Feature"},{"geometry":{"coordinates":[[[-118.0315,34.17501],[-118.03219,34.17598],[-118.03354,34.17596],[-118.03421,34.17498],[-118.03352,34.17401],[-118.03216,34.17402],[-118.0315,34.17501]]],"type":"Polygon"},"properties":{"bbox":{"roads":{"area":1816.8,"pct":4.48}},"city_same":1,"id":"hex:2159:17468"},"type":"Feature"},{"geometry":{"coordinates":[[[-118.03152,34.17696],[-118.03221,34.17793],[-118.03357,34.17792],[-118.03423,34.17693],[-118.03354,34.17596],[-118.03219,34.17598],[-118.03152,34.17696]]],"type":"Polygon"},"properties":{"bbox":{"roads":{"area":1664.21,"pct":4.1}},"city_same":1,"id":"hex:2159:17469"},"type":"Feature"},{"geometry":{"coordinates":[[[-118.0314,34.1672],[-118.03004,34.16721],[-118.02981,34.16688],[-118.02994,34.1669],[-118.03005,34.16691],[-118.03036,34.16694],[-118.03057,34.16694],[-118.03075,34.16694],[-118.03077,34.16694],[-118.03158,34.16693],[-118.0314,34.1672]]],"type":"Polygon"},"properties":{"bbox":{"roads":{"area":1184.39,"pct":27.51}},"city_same":1,"id":"hex:2160:17464"},"type":"Feature"},{"geometry":{"coordinates":[[[-118.03004,34.16721],[-118.0314,34.1672],[-118.03209,34.16817],[-118.03142,34.16915],[-118.03014,34.16916],[-118.03014,34.16908],[-118.03014,34.16896],[-118.03014,34.16893],[-118.02973,34.16837],[-118.02953,34.16796],[-118.03004,34.16721]]],"type":"Polygon"},"properties":{"bbox":{"roads":{"area":4576.62,"pct":11.99}},"city_same":1,"id":"hex:2160:17465"},"type":"Feature"},{"geometry":{"coordinates":[[[-118.03142,34.16915],[-118.03211,34.17012],[-118.03145,34.1711],[-118.03014,34.17111],[-118.03014,34.17095],[-118.03023,34.17095],[-118.03013,34.17087],[-118.03001,34.17077],[-118.03003,34.17075],[-118.03014,34.17068],[-118.03014,34.17058],[-118.03014,34.17048],[-118.03035,34.17037],[-118.02962,34.16999],[-118.02971,34.16996],[-118.03014,34.16982],[-118.03014,34.16916],[-118.03142,34.16915]]],"type":"Polygon"},"properties":{"bbox":{"roads":{"area":1846.6,"pct":5.49}},"city_same":1,"id":"hex:2160:17466"},"type":"Feature"},{"geometry":{"coordinates":[[[-118.03145,34.1711],[-118.03214,34.17207],[-118.03147,34.17305],[-118.03014,34.17306],[-118.03014,34.17249],[-118.03014,34.17181],[-118.03014,34.17111],[-118.03145,34.1711]]],"type":"Polygon"},"properties":{"bbox":{"roads":{"area":3023.43,"pct":9.14}},"city_same":1,"id":"hex:2160:17467"},"type":"Feature"},{"geometry":{"coordinates":[[[-118.03147,34.17305],[-118.03216,34.17402],[-118.0315,34.17501],[-118.03014,34.17502],[-118.03014,34.17431],[-118.03014,34.17306],[-118.03147,34.17305]]],"type":"Polygon"},"properties":{"bbox":{"roads":{"area":1049.52,"pct":3.13}},"city_same":1,"id":"hex:2160:17468"},"type":"Feature"},{"geometry":{"coordinates":[[[-118.0315,34.17501],[-118.03219,34.17598],[-118.03152,34.17696],[-118.0302,34.17697],[-118.03021,34.17612],[-118.03014,34.17555],[-118.03014,34.17502],[-118.0315,34.17501]]],"type":"Polygon"},"properties":{"bbox":{"roads":{"area":1509.75,"pct":4.53}},"city_same":1,"id":"hex:2160:17469"},"type":"Feature"},{"geometry":{"coordinates":[[[-118.03004,34.16721],[-118.02953,34.16796],[-118.02947,34.16783],[-118.02949,34.16745],[-118.02967,34.16685],[-118.02981,34.16688],[-118.03004,34.16721]]],"type":"Polygon"},"properties":{"bbox":{"roads":{"area":164.85,"pct":4.95}},"city_same":1,"id":"hex:2161:17464"},"type":"Feature"}],"type":"FeatureCollection","v":2}