{"features":[{"geometry":{"coordinates":[[[[-122.156,37.47014],[-122.15371,37.47449],[-122.14667,37.47351],[-122.14621,37.4755],[-122.13973,37.47587],[-122.13987,37.48048],[-122.13877,37.48171],[-122.13479,37.48275],[-122.13411,37.48277],[-122.13121,37.48388],[-122.13088,37.48337],[-122.1324,37.47968],[-122.12671,37.47516],[-122.11842,37.47804],[-122.12141,37.47701],[-122.12108,37.47661],[-122.12357,37.47573],[-122.12353,37.47224],[-122.12229,37.4722],[-122.12164,37.47122],[-122.12162,37.47081],[-122.12055,37.46975],[-122.12048,37.47011],[-122.11982,37.4696],[-122.11995,37.46931],[-122.11962,37.46874],[-122.11811,37.46845],[-122.11741,37.46709],[-122.11649,37.46639],[-122.11621,37.46633],[-122.11583,37.46596],[-122.11609,37.46574],[-122.11741,37.46545],[-122.11808,37.46513],[-122.12048,37.46338],[-122.12357,37.46159],[-122.12402,37.46099],[-122.12286,37.45766],[-122.12288,37.45611],[-122.12186,37.45467],[-122.1219,37.45395],[-122.12252,37.45336],[-122.12435,37.45282],[-122.12495,37.45297],[-122.12592,37.45358],[-122.12688,37.4537],[-122.12741,37.45352],[-122.12811,37.45257],[-122.12797,37.4521],[-122.12826,37.45187],[-122.12859,37.45187],[-122.12997,37.45318],[-122.13154,37.45339],[-122.13211,37.45406],[-122.13297,37.45411],[-122.13358,37.45443],[-122.1359,37.454],[-122.13618,37.45406],[-122.13657,37.45442],[-122.13856,37.45471],[-122.13985,37.45544],[-122.14012,37.45619],[-122.14071,37.45671],[-122.14117,37.45746],[-122.14264,37.45804],[-122.1436,37.45801],[-122.14437,37.45832],[-122.14519,37.45818],[-122.14463,37.4608],[-122.14542,37.46081],[-122.14536,37.46106],[-122.14645,37.46112],[-122.14643,37.46123],[-122.14681,37.46117],[-122.14678,37.46129],[-122.15,37.46174],[-122.14986,37.46235],[-122.15127,37.46264],[-122.15055,37.46603],[-122.15634,37.46945],[-122.156,37.47014]],[[-122.12351,37.46316],[-122.12366,37.46348],[-122.12403,37.46304],[-122.12402,37.46258],[-122.12385,37.46249],[-122.12326,37.46298],[-122.12351,37.46316]],[[-122.12499,37.46183],[-122.12525,37.46256],[-122.12551,37.46239],[-122.12539,37.46176],[-122.12499,37.46122],[-122.12499,37.46183]],[[-122.1288,37.47653],[-122.12907,37.47658],[-122.1296,37.47626],[-122.12937,37.47616],[-122.12904,37.4764],[-122.12885,37.47599],[-122.12861,37.47604],[-122.12873,37.4762],[-122.12859,37.47632],[-122.12834,37.47601],[-122.1287,37.47583],[-122.12813,37.47595],[-122.1288,37.47653]],[[-122.12937,37.47611],[-122.12942,37.47609],[-122.12936,37.476],[-122.1293,37.47602],[-122.12937,37.47611]]],[[[-122.1148613,37.4659723],[-122.1148613,37.4659723],[-122.1148613,37.4659723],[-122.1175828,37.4687774],[-122.1148613,37.4659723]]],[[[-122.128377,37.4518152],[-122.1284398,37.4518161],[-122.1283777,37.4518152],[-122.1283769,37.4518152],[-122.128377,37.4518152]]]],"type":"MultiPolygon"},"properties":{"type":"boundary"},"type":"Feature"}],"type":"FeatureCollection"}