{"features":[{"geometry":{"coordinates":[[[-122.15522,37.47043],[-122.15467,37.46964],[-122.15524,37.46887],[-122.15533,37.46887],[-122.15634,37.46945],[-122.156,37.47014],[-122.15598,37.47015],[-122.15585,37.47043],[-122.15522,37.47043]]],"type":"Polygon"},"properties":{"bbox":{"roads":{"area":6644.63,"pct":41.24},"sidewalks":{"area":274.16,"pct":1.7}},"city":{"sidewalks":{"area":274.16,"pct":1.7}},"id":"hex:3831:23944"},"type":"Feature"},{"geometry":{"coordinates":[[[-122.15465,37.47121],[-122.15522,37.47043],[-122.15585,37.47043],[-122.1554,37.47142],[-122.15519,37.47184],[-122.15515,37.47191],[-122.15465,37.47121]]],"type":"Polygon"},"properties":{"bbox":{"roads":{"area":2966.71,"pct":34.45},"sidewalks":{"area":358.22,"pct":4.16}},"city":{"roads":{"area":70.73,"pct":0.82},"sidewalks":{"area":358.22,"pct":4.16}},"id":"hex:3831:23945"},"type":"Feature"},{"geometry":{"coordinates":[[[-122.15355,37.46807],[-122.15326,37.46766],[-122.15367,37.4679],[-122.15398,37.46808],[-122.15355,37.46807]]],"type":"Polygon"},"properties":{"bbox":{"roads":{"area":539.5,"pct":63.04}},"id":"hex:3832:23943"},"type":"Feature"},{"geometry":{"coordinates":[[[-122.15524,37.46887],[-122.15467,37.46964],[-122.15354,37.46964],[-122.15298,37.46885],[-122.15355,37.46807],[-122.15398,37.46808],[-122.15518,37.46878],[-122.15524,37.46887]]],"type":"Polygon"},"properties":{"bbox":{"parking":{"area":607.46,"pct":2.58},"roads":{"area":7701.25,"pct":32.66},"sidewalks":{"area":115.47,"pct":0.49}},"city":{"parking":{"area":607.46,"pct":2.58},"roads":{"area":2014.44,"pct":8.54},"sidewalks":{"area":115.47,"pct":0.49}},"id":"hex:3832:23944"},"type":"Feature"},{"geometry":{"coordinates":[[[-122.15296,37.47041],[-122.15352,37.4712],[-122.15465,37.47121],[-122.15522,37.47043],[-122.15467,37.46964],[-122.15354,37.46964],[-122.15296,37.47041]]],"type":"Polygon"},"properties":{"bbox":{"parking":{"area":497.95,"pct":1.92},"roads":{"area":4295.61,"pct":16.53},"sidewalks":{"area":814.84,"pct":3.14}},"city":{"parking":{"area":497.95,"pct":1.92},"roads":{"area":2937.29,"pct":11.31},"sidewalks":{"area":814.84,"pct":3.14}},"id":"hex:3832:23945"},"type":"Feature"},{"geometry":{"coordinates":[[[-122.1535,37.47276],[-122.15294,37.47197],[-122.15352,37.4712],[-122.15465,37.47121],[-122.15515,37.47191],[-122.15512,37.47196],[-122.1546,37.47277],[-122.1535,37.47276]]],"type":"Polygon"},"properties":{"bbox":{"parking":{"area":773.41,"pct":3.05},"roads":{"area":5763.15,"pct":22.71},"sidewalks":{"area":1052.9,"pct":4.15}},"city":{"parking":{"area":773.41,"pct":3.05},"roads":{"area":1612.86,"pct":6.36},"sidewalks":{"area":1052.9,"pct":4.15}},"id":"hex:3832:23946"},"type":"Feature"},{"geometry":{"coordinates":[[[-122.15348,37.47432],[-122.15293,37.47353],[-122.1535,37.47276],[-122.1546,37.47277],[-122.15455,37.47283],[-122.1542,37.47354],[-122.15379,37.47432],[-122.15348,37.47432]]],"type":"Polygon"},"properties":{"bbox":{"parking":{"area":462.32,"pct":3.07},"roads":{"area":5063.86,"pct":33.67},"sidewalks":{"area":763.18,"pct":5.07}},"city":{"parking":{"area":462.32,"pct":3.07},"roads":{"area":1401.88,"pct":9.32},"sidewalks":{"area":763.18,"pct":5.07}},"id":"hex:3832:23947"},"type":"Feature"},{"geometry":{"coordinates":[[[-122.15348,37.47432],[-122.15379,37.47432],[-122.15371,37.47449],[-122.15346,37.47445],[-122.15339,37.47444],[-122.15348,37.47432]]],"type":"Polygon"},"properties":{"bbox":{"roads":{"area":308.55,"pct":65.81},"sidewalks":{"area":23.37,"pct":4.98}},"city":{"sidewalks":{"area":23.37,"pct":4.98}},"id":"hex:3832:23948"},"type":"Feature"},{"geometry":{"coordinates":[[[-122.15187,37.46728],[-122.15131,37.4665],[-122.15131,37.46649],[-122.15263,37.46729],[-122.15187,37.46728]]],"type":"Polygon"},"properties":{"bbox":{"roads":{"area":2194.31,"pct":73.71}},"city":{"roads":{"area":101.14,"pct":3.4}},"id":"hex:3833:23942"},"type":"Feature"},{"geometry":{"coordinates":[[[-122.15355,37.46807],[-122.15298,37.46885],[-122.15185,37.46884],[-122.15129,37.46806],[-122.15187,37.46728],[-122.15263,37.46729],[-122.1527,37.46733],[-122.15326,37.46766],[-122.15355,37.46807]]],"type":"Polygon"},"properties":{"bbox":{"parking":{"area":1260.91,"pct":4.98},"roads":{"area":6292.8,"pct":24.86}},"city":{"parking":{"area":1260.91,"pct":4.98},"roads":{"area":3443.82,"pct":13.6}},"id":"hex:3833:23943"},"type":"Feature"},{"geometry":{"coordinates":[[[-122.15127,37.46962],[-122.15183,37.4704],[-122.15296,37.47041],[-122.15354,37.46964],[-122.15298,37.46885],[-122.15185,37.46884],[-122.15127,37.46962]]],"type":"Polygon"},"properties":{"bbox":{"roads":{"area":2523.26,"pct":9.71},"sidewalks":{"area":185.65,"pct":0.71}},"city_same":1,"id":"hex:3833:23944"},"type":"Feature"},{"geometry":{"coordinates":[[[-122.15126,37.47118],[-122.15181,37.47197],[-122.15294,37.47197],[-122.15352,37.4712],[-122.15296,37.47041],[-122.15183,37.4704],[-122.15126,37.47118]]],"type":"Polygon"},"properties":{"bbox":{"roads":{"area":1836.11,"pct":7.07},"sidewalks":{"area":896.09,"pct":3.45}},"city":{"roads":{"area":1778.9,"pct":6.85},"sidewalks":{"area":896.09,"pct":3.45}},"id":"hex:3833:23945"},"type":"Feature"},{"geometry":{"coordinates":[[[-122.15124,37.47274],[-122.1518,37.47353],[-122.15293,37.47353],[-122.1535,37.47276],[-122.15294,37.47197],[-122.15181,37.47197],[-122.15124,37.47274]]],"type":"Polygon"},"properties":{"bbox":{"parking":{"area":526.41,"pct":2.03},"roads":{"area":3027.42,"pct":11.65},"sidewalks":{"area":1137.71,"pct":4.38}},"city":{"parking":{"area":526.41,"pct":2.03},"roads":{"area":2158.49,"pct":8.31},"sidewalks":{"area":1137.71,"pct":4.38}},"id":"hex:3833:23946"},"type":"Feature"},{"geometry":{"coordinates":[[[-122.1518,37.47353],[-122.15293,37.47353],[-122.15348,37.47432],[-122.15339,37.47444],[-122.15133,37.47416],[-122.1518,37.47353]]],"type":"Polygon"},"properties":{"bbox":{"roads":{"area":1542.87,"pct":12.13},"sidewalks":{"area":740.51,"pct":5.82}},"city_same":1,"id":"hex:3833:23947"},"type":"Feature"},{"geometry":{"coordinates":[[[-122.15021,37.46337],[-122.14966,37.46258],[-122.14988,37.46229],[-122.14986,37.46235],[-122.15081,37.46249],[-122.15119,37.46256],[-122.15124,37.46261],[-122.15127,37.46264],[-122.15123,37.46282],[-122.15111,37.46337],[-122.15021,37.46337]]],"type":"Polygon"},"properties":{"bbox":{"roads":{"area":1077.49,"pct":9.16},"sidewalks":{"area":236.4,"pct":2.01}},"city_same":1,"id":"hex:3834:23940"},"type":"Feature"},{"geometry":{"coordinates":[[[-122.1502,37.46493],[-122.14964,37.46414],[-122.15021,37.46337],[-122.15111,37.46337],[-122.15105,37.46366],[-122.15103,37.46377],[-122.15095,37.46412],[-122.15089,37.46411],[-122.15079,37.46455],[-122.15089,37.46456],[-122.1508,37.46493],[-122.1502,37.46493]]],"type":"Polygon"},"properties":{"bbox":{"roads":{"area":1716.79,"pct":11.11}},"city_same":1,"id":"hex:3834:23941"},"type":"Feature"},{"geometry":{"coordinates":[[[-122.15131,37.4665],[-122.15018,37.46649],[-122.14962,37.4657],[-122.1502,37.46493],[-122.1508,37.46493],[-122.15062,37.46574],[-122.15055,37.46603],[-122.15131,37.46649],[-122.15131,37.4665]]],"type":"Polygon"},"properties":{"bbox":{"roads":{"area":5813.82,"pct":44.73}},"city":{"roads":{"area":993.53,"pct":7.64}},"id":"hex:3834:23942"},"type":"Feature"},{"geometry":{"coordinates":[[[-122.14961,37.46727],[-122.15016,37.46805],[-122.15129,37.46806],[-122.15187,37.46728],[-122.15131,37.4665],[-122.15018,37.46649],[-122.14961,37.46727]]],"type":"Polygon"},"properties":{"bbox":{"parking":{"area":557.17,"pct":2.14},"roads":{"area":4335.36,"pct":16.69}},"city":{"parking":{"area":557.17,"pct":2.14},"roads":{"area":3220.38,"pct":12.4}},"id":"hex:3834:23943"},"type":"Feature"},{"geometry":{"coordinates":[[[-122.14959,37.46883],[-122.15014,37.46961],[-122.15127,37.46962],[-122.15185,37.46884],[-122.15129,37.46806],[-122.15016,37.46805],[-122.14959,37.46883]]],"type":"Polygon"},"properties":{"bbox":{"parking":{"area":30.77,"pct":0.12},"roads":{"area":1715.89,"pct":6.6}},"city_same":1,"id":"hex:3834:23944"},"type":"Feature"},{"geometry":{"coordinates":[[[-122.14957,37.47039],[-122.15013,37.47117],[-122.15126,37.47118],[-122.15183,37.4704],[-122.15127,37.46962],[-122.15014,37.46961],[-122.14957,37.47039]]],"type":"Polygon"},"properties":{"bbox":{"parking":{"area":2625.68,"pct":10.11},"roads":{"area":3739.55,"pct":14.39},"sidewalks":{"area":860.85,"pct":3.31}},"city_same":1,"id":"hex:3834:23945"},"type":"Feature"},{"geometry":{"coordinates":[[[-122.14955,37.47195],[-122.15011,37.47273],[-122.15124,37.47274],[-122.15181,37.47197],[-122.15126,37.47118],[-122.15013,37.47117],[-122.14955,37.47195]]],"type":"Polygon"},"properties":{"bbox":{"parking":{"area":1099.86,"pct":4.23},"roads":{"area":3846.48,"pct":14.81},"sidewalks":{"area":1174.58,"pct":4.52}},"city":{"parking":{"area":1099.86,"pct":4.23},"roads":{"area":2727.04,"pct":10.5},"sidewalks":{"area":1174.58,"pct":4.52}},"id":"hex:3834:23946"},"type":"Feature"},{"geometry":{"coordinates":[[[-122.14953,37.47351],[-122.15011,37.47273],[-122.15124,37.47274],[-122.1518,37.47353],[-122.15133,37.47416],[-122.14984,37.47395],[-122.14953,37.47351]]],"type":"Polygon"},"properties":{"bbox":{"roads":{"area":2006.8,"pct":8.77},"sidewalks":{"area":1030.13,"pct":4.5}},"city_same":1,"id":"hex:3834:23947"},"type":"Feature"},{"geometry":{"coordinates":[[[-122.14966,37.46258],[-122.14853,37.46257],[-122.14797,37.46179],[-122.14819,37.46149],[-122.14857,37.46154],[-122.14856,37.46159],[-122.14927,37.46169],[-122.14928,37.46164],[-122.15,37.46174],[-122.14988,37.46229],[-122.14966,37.46258]]],"type":"Polygon"},"properties":{"bbox":{"roads":{"area":1734.96,"pct":11.13},"sidewalks":{"area":207.05,"pct":1.33}},"city_same":1,"id":"hex:3835:23939"},"type":"Feature"},{"geometry":{"coordinates":[[[-122.14795,37.46335],[-122.14851,37.46414],[-122.14964,37.46414],[-122.15021,37.46337],[-122.14966,37.46258],[-122.14853,37.46257],[-122.14795,37.46335]]],"type":"Polygon"},"properties":{"bbox":{"roads":{"area":2300.86,"pct":8.86}},"city_same":1,"id":"hex:3835:23940"},"type":"Feature"},{"geometry":{"coordinates":[[[-122.14794,37.46491],[-122.14849,37.4657],[-122.14962,37.4657],[-122.1502,37.46493],[-122.14964,37.46414],[-122.14851,37.46414],[-122.14794,37.46491]]],"type":"Polygon"},"properties":{"bbox":{"roads":{"area":9144.12,"pct":35.2}},"city":{"roads":{"area":2745.15,"pct":10.57}},"id":"hex:3835:23941"},"type":"Feature"},{"geometry":{"coordinates":[[[-122.14792,37.46647],[-122.14847,37.46726],[-122.14961,37.46727],[-122.15018,37.46649],[-122.14962,37.4657],[-122.14849,37.4657],[-122.14792,37.46647]]],"type":"Polygon"},"properties":{"bbox":{"parking":{"area":273.9,"pct":1.05},"roads":{"area":2547.97,"pct":9.81}},"city":{"parking":{"area":273.9,"pct":1.05},"roads":{"area":2445.72,"pct":9.41}},"id":"hex:3835:23942"},"type":"Feature"},{"geometry":{"coordinates":[[[-122.1479,37.46803],[-122.14846,37.46882],[-122.14959,37.46883],[-122.15016,37.46805],[-122.14961,37.46727],[-122.14847,37.46726],[-122.1479,37.46803]]],"type":"Polygon"},"properties":{"bbox":{"roads":{"area":2458.9,"pct":9.46}},"city_same":1,"id":"hex:3835:23943"},"type":"Feature"},{"geometry":{"coordinates":[[[-122.14788,37.4696],[-122.14844,37.47038],[-122.14957,37.47039],[-122.15014,37.46961],[-122.14959,37.46883],[-122.14846,37.46882],[-122.14788,37.4696]]],"type":"Polygon"},"properties":{"bbox":{"parking":{"area":567.68,"pct":2.19},"roads":{"area":1912.61,"pct":7.36}},"city_same":1,"id":"hex:3835:23944"},"type":"Feature"},{"geometry":{"coordinates":[[[-122.14786,37.47116],[-122.14842,37.47194],[-122.14955,37.47195],[-122.15013,37.47117],[-122.14957,37.47039],[-122.14844,37.47038],[-122.14786,37.47116]]],"type":"Polygon"},"properties":{"bbox":{"roads":{"area":3735.98,"pct":14.38},"sidewalks":{"area":1171.21,"pct":4.51}},"city":{"roads":{"area":2578.57,"pct":9.92},"sidewalks":{"area":1171.21,"pct":4.51}},"id":"hex:3835:23945"},"type":"Feature"},{"geometry":{"coordinates":[[[-122.14785,37.47272],[-122.1484,37.4735],[-122.14953,37.47351],[-122.15011,37.47273],[-122.14955,37.47195],[-122.14842,37.47194],[-122.14785,37.47272]]],"type":"Polygon"},"properties":{"bbox":{"roads":{"area":2310.26,"pct":8.89},"sidewalks":{"area":1169.87,"pct":4.5}},"city_same":1,"id":"hex:3835:23946"},"type":"Feature"},{"geometry":{"coordinates":[[[-122.1484,37.4735],[-122.14953,37.47351],[-122.14984,37.47395],[-122.14824,37.47372],[-122.1484,37.4735]]],"type":"Polygon"},"properties":{"bbox":{"roads":{"area":212.97,"pct":4.9},"sidewalks":{"area":139.61,"pct":3.21}},"city_same":1,"id":"hex:3835:23947"},"type":"Feature"},{"geometry":{"coordinates":[[[-122.14627,37.46256],[-122.14682,37.46334],[-122.14795,37.46335],[-122.14853,37.46257],[-122.14797,37.46179],[-122.14684,37.46178],[-122.14627,37.46256]]],"type":"Polygon"},"properties":{"bbox":{"parking":{"area":2981.26,"pct":11.47},"roads":{"area":3515.14,"pct":13.53},"sidewalks":{"area":209.02,"pct":0.8}},"city_same":1,"id":"hex:3836:23940"},"type":"Feature"},{"geometry":{"coordinates":[[[-122.14625,37.46412],[-122.1468,37.4649],[-122.14794,37.46491],[-122.14851,37.46414],[-122.14795,37.46335],[-122.14682,37.46334],[-122.14625,37.46412]]],"type":"Polygon"},"properties":{"bbox":{"roads":{"area":9991.05,"pct":38.46}},"city":{"roads":{"area":3548.67,"pct":13.66}},"id":"hex:3836:23941"},"type":"Feature"},{"geometry":{"coordinates":[[[-122.14623,37.46568],[-122.14679,37.46647],[-122.14792,37.46647],[-122.14849,37.4657],[-122.14794,37.46491],[-122.1468,37.4649],[-122.14623,37.46568]]],"type":"Polygon"},"properties":{"bbox":{"roads":{"area":2442.06,"pct":9.4}},"city_same":1,"id":"hex:3836:23942"},"type":"Feature"},{"geometry":{"coordinates":[[[-122.14621,37.46724],[-122.14677,37.46803],[-122.1479,37.46803],[-122.14847,37.46726],[-122.14792,37.46647],[-122.14679,37.46647],[-122.14621,37.46724]]],"type":"Polygon"},"properties":{"bbox":{"roads":{"area":2522.25,"pct":9.71}},"city_same":1,"id":"hex:3836:23943"},"type":"Feature"},{"geometry":{"coordinates":[[[-122.1462,37.4688],[-122.14675,37.46959],[-122.14788,37.4696],[-122.14846,37.46882],[-122.1479,37.46803],[-122.14677,37.46803],[-122.1462,37.4688]]],"type":"Polygon"},"properties":{"bbox":{"roads":{"area":2260.88,"pct":8.7},"sidewalks":{"area":199.44,"pct":0.77}},"city_same":1,"id":"hex:3836:23944"},"type":"Feature"},{"geometry":{"coordinates":[[[-122.14618,37.47036],[-122.14673,37.47115],[-122.14786,37.47116],[-122.14844,37.47038],[-122.14788,37.4696],[-122.14675,37.46959],[-122.14618,37.47036]]],"type":"Polygon"},"properties":{"bbox":{"parking":{"area":282.62,"pct":1.09},"roads":{"area":4045.96,"pct":15.57},"sidewalks":{"area":730.43,"pct":2.81}},"city":{"parking":{"area":282.62,"pct":1.09},"roads":{"area":2840.77,"pct":10.93},"sidewalks":{"area":730.43,"pct":2.81}},"id":"hex:3836:23945"},"type":"Feature"},{"geometry":{"coordinates":[[[-122.14616,37.47192],[-122.14672,37.47271],[-122.14785,37.47272],[-122.14842,37.47194],[-122.14786,37.47116],[-122.14673,37.47115],[-122.14616,37.47192]]],"type":"Polygon"},"properties":{"bbox":{"roads":{"area":966.94,"pct":3.72},"sidewalks":{"area":526.75,"pct":2.03}},"city_same":1,"id":"hex:3836:23946"},"type":"Feature"},{"geometry":{"coordinates":[[[-122.14614,37.47349],[-122.14672,37.47271],[-122.14785,37.47272],[-122.1484,37.4735],[-122.14824,37.47372],[-122.14667,37.47351],[-122.14655,37.47406],[-122.14614,37.47349]]],"type":"Polygon"},"properties":{"bbox":{"parking":{"area":2190.17,"pct":13.27},"roads":{"area":1967.3,"pct":11.92},"sidewalks":{"area":782.17,"pct":4.74}},"city_same":1,"id":"hex:3836:23947"},"type":"Feature"},{"geometry":{"coordinates":[[[-122.14612,37.47505],[-122.14642,37.47465],[-122.14633,37.47501],[-122.14628,37.4752],[-122.14627,37.47525],[-122.14612,37.47505]]],"type":"Polygon"},"properties":{"bbox":{"roads":{"area":81.96,"pct":13.84},"sidewalks":{"area":12.4,"pct":2.09}},"city_same":1,"id":"hex:3836:23948"},"type":"Feature"},{"geometry":{"coordinates":[[[-122.14461,37.45864],[-122.14487,37.4583],[-122.14502,37.45825],[-122.14519,37.45818],[-122.14518,37.45825],[-122.14514,37.45851],[-122.14499,37.45917],[-122.14461,37.45864]]],"type":"Polygon"},"properties":{"bbox":{"parking":{"area":37.3,"pct":1.33},"roads":{"area":712.78,"pct":25.46}},"city_same":1,"id":"hex:3837:23937"},"type":"Feature"},{"geometry":{"coordinates":[[[[-122.1446,37.4602],[-122.14483,37.45989],[-122.14472,37.46038],[-122.1446,37.4602]]],[[[-122.14515,37.46099],[-122.14504,37.46083],[-122.14505,37.46079],[-122.14521,37.46081],[-122.14521,37.46078],[-122.14542,37.46081],[-122.14538,37.46099],[-122.14515,37.46099]]]],"type":"MultiPolygon"},"properties":{"bbox":{"roads":{"area":163.58,"pct":16.5},"sidewalks":{"area":76.32,"pct":7.7}},"city_same":1,"id":"hex:3837:23938"},"type":"Feature"},{"geometry":{"coordinates":[[[-122.14684,37.46178],[-122.14627,37.46256],[-122.14514,37.46255],[-122.14458,37.46177],[-122.14515,37.46099],[-122.14538,37.46099],[-122.14536,37.46106],[-122.14554,37.46108],[-122.14556,37.461],[-122.14574,37.46102],[-122.14572,37.46112],[-122.14589,37.46114],[-122.14592,37.46105],[-122.14636,37.46111],[-122.14643,37.46121],[-122.14643,37.46123],[-122.14645,37.46123],[-122.14684,37.46178]]],"type":"Polygon"},"properties":{"bbox":{"parking":{"area":2200.34,"pct":8.71},"roads":{"area":2769.73,"pct":10.97},"sidewalks":{"area":276.77,"pct":1.1}},"city_same":1,"id":"hex:3837:23939"},"type":"Feature"},{"geometry":{"coordinates":[[[-122.14456,37.46333],[-122.14512,37.46411],[-122.14625,37.46412],[-122.14682,37.46334],[-122.14627,37.46256],[-122.14514,37.46255],[-122.14456,37.46333]]],"type":"Polygon"},"properties":{"bbox":{"parking":{"area":822.23,"pct":3.16},"roads":{"area":10254.18,"pct":39.47}},"city":{"parking":{"area":822.23,"pct":3.16},"roads":{"area":3931.31,"pct":15.13}},"id":"hex:3837:23940"},"type":"Feature"},{"geometry":{"coordinates":[[[-122.14454,37.46489],[-122.1451,37.46567],[-122.14623,37.46568],[-122.1468,37.4649],[-122.14625,37.46412],[-122.14512,37.46411],[-122.14454,37.46489]]],"type":"Polygon"},"properties":{"bbox":{"parking":{"area":790.11,"pct":3.04},"roads":{"area":1682.27,"pct":6.48}},"city_same":1,"id":"hex:3837:23941"},"type":"Feature"},{"geometry":{"coordinates":[[[-122.14453,37.46645],[-122.14508,37.46723],[-122.14621,37.46724],[-122.14679,37.46647],[-122.14623,37.46568],[-122.1451,37.46567],[-122.14453,37.46645]]],"type":"Polygon"},"properties":{"bbox":{"parking":{"area":258.02,"pct":0.99},"roads":{"area":2913.79,"pct":11.22}},"city_same":1,"id":"hex:3837:23942"},"type":"Feature"},{"geometry":{"coordinates":[[[-122.14451,37.46801],[-122.14506,37.46879],[-122.1462,37.4688],[-122.14677,37.46803],[-122.14621,37.46724],[-122.14508,37.46723],[-122.14451,37.46801]]],"type":"Polygon"},"properties":{"bbox":{"roads":{"area":2411.76,"pct":9.28}},"city_same":1,"id":"hex:3837:23943"},"type":"Feature"},{"geometry":{"coordinates":[[[-122.14449,37.46957],[-122.14505,37.47036],[-122.14618,37.47036],[-122.14675,37.46959],[-122.1462,37.4688],[-122.14506,37.46879],[-122.14449,37.46957]]],"type":"Polygon"},"properties":{"bbox":{"roads":{"area":2577.62,"pct":9.92}},"city_same":1,"id":"hex:3837:23944"},"type":"Feature"},{"geometry":{"coordinates":[[[-122.14447,37.47113],[-122.14503,37.47192],[-122.14616,37.47192],[-122.14673,37.47115],[-122.14618,37.47036],[-122.14505,37.47036],[-122.14447,37.47113]]],"type":"Polygon"},"properties":{"bbox":{"parking":{"area":287.75,"pct":1.11},"roads":{"area":2964.2,"pct":11.41},"sidewalks":{"area":572.56,"pct":2.2}},"city":{"parking":{"area":287.75,"pct":1.11},"roads":{"area":1177.38,"pct":4.53},"sidewalks":{"area":572.56,"pct":2.2}},"id":"hex:3837:23945"},"type":"Feature"},{"geometry":{"coordinates":[[[-122.14445,37.47269],[-122.14501,37.47348],[-122.14614,37.47349],[-122.14672,37.47271],[-122.14616,37.47192],[-122.14503,37.47192],[-122.14445,37.47269]]],"type":"Polygon"},"properties":{"bbox":{"parking":{"area":2354.73,"pct":9.06},"roads":{"area":815.72,"pct":3.14},"sidewalks":{"area":248.9,"pct":0.96}},"city_same":1,"id":"hex:3837:23946"},"type":"Feature"},{"geometry":{"coordinates":[[[-122.14612,37.47505],[-122.14499,37.47504],[-122.14444,37.47425],[-122.14501,37.47348],[-122.14614,37.47349],[-122.14655,37.47406],[-122.14642,37.47465],[-122.14612,37.47505]]],"type":"Polygon"},"properties":{"bbox":{"parking":{"area":2592.16,"pct":10.2},"roads":{"area":810.71,"pct":3.19},"sidewalks":{"area":244.46,"pct":0.96}},"city_same":1,"id":"hex:3837:23947"},"type":"Feature"},{"geometry":{"coordinates":[[[-122.14499,37.47504],[-122.14612,37.47505],[-122.14627,37.47525],[-122.14621,37.4755],[-122.14587,37.47559],[-122.14454,37.47565],[-122.14499,37.47504]]],"type":"Polygon"},"properties":{"bbox":{"roads":{"area":1033.05,"pct":13.04},"sidewalks":{"area":375.05,"pct":4.74}},"city_same":1,"id":"hex:3837:23948"},"type":"Feature"},{"geometry":{"coordinates":[[[-122.14461,37.45864],[-122.14348,37.45864],[-122.14307,37.45806],[-122.14309,37.45806],[-122.14336,37.45801],[-122.14348,37.458],[-122.1436,37.45801],[-122.14372,37.45804],[-122.14383,37.45809],[-122.14406,37.45822],[-122.14421,37.45828],[-122.14437,37.45832],[-122.14454,37.45833],[-122.14471,37.45833],[-122.14487,37.4583],[-122.14487,37.4583],[-122.14461,37.45864]]],"type":"Polygon"},"properties":{"bbox":{"parking":{"area":62.82,"pct":0.94},"roads":{"area":1411.52,"pct":21.08}},"city_same":1,"id":"hex:3838:23937"},"type":"Feature"},{"geometry":{"coordinates":[[[-122.1446,37.4602],[-122.14347,37.4602],[-122.14291,37.45941],[-122.14348,37.45864],[-122.14461,37.45864],[-122.14499,37.45917],[-122.14483,37.45989],[-122.1446,37.4602]]],"type":"Polygon"},"properties":{"bbox":{"parking":{"area":6192.69,"pct":24.62},"roads":{"area":3091.12,"pct":12.29},"sidewalks":{"area":21.77,"pct":0.09}},"city_same":1,"id":"hex:3838:23938"},"type":"Feature"},{"geometry":{"coordinates":[[[-122.14515,37.46099],[-122.14458,37.46177],[-122.14345,37.46176],[-122.14289,37.46097],[-122.14347,37.4602],[-122.1446,37.4602],[-122.14472,37.46038],[-122.14463,37.4608],[-122.14504,37.46086],[-122.14504,37.46083],[-122.14515,37.46099]]],"type":"Polygon"},"properties":{"bbox":{"parking":{"area":497.49,"pct":1.98},"roads":{"area":4541.67,"pct":18.11},"sidewalks":{"area":108.48,"pct":0.43}},"city":{"parking":{"area":497.49,"pct":1.98},"roads":{"area":4282.59,"pct":17.08},"sidewalks":{"area":108.48,"pct":0.43}},"id":"hex:3838:23939"},"type":"Feature"},{"geometry":{"coordinates":[[[-122.14287,37.46253],[-122.14343,37.46332],[-122.14456,37.46333],[-122.14514,37.46255],[-122.14458,37.46177],[-122.14345,37.46176],[-122.14287,37.46253]]],"type":"Polygon"},"properties":{"bbox":{"parking":{"area":1033.68,"pct":3.98},"roads":{"area":10837.96,"pct":41.72},"sidewalks":{"area":52.48,"pct":0.2}},"city":{"parking":{"area":1033.68,"pct":3.98},"roads":{"area":3943.79,"pct":15.18},"sidewalks":{"area":52.48,"pct":0.2}},"id":"hex:3838:23940"},"type":"Feature"},{"geometry":{"coordinates":[[[-122.14286,37.46409],[-122.14341,37.46488],[-122.14454,37.46489],[-122.14512,37.46411],[-122.14456,37.46333],[-122.14343,37.46332],[-122.14286,37.46409]]],"type":"Polygon"},"properties":{"bbox":{"parking":{"area":802.51,"pct":3.09},"roads":{"area":2480.78,"pct":9.55}},"city_same":1,"id":"hex:3838:23941"},"type":"Feature"},{"geometry":{"coordinates":[[[-122.14284,37.46566],[-122.14339,37.46644],[-122.14453,37.46645],[-122.1451,37.46567],[-122.14454,37.46489],[-122.14341,37.46488],[-122.14284,37.46566]]],"type":"Polygon"},"properties":{"bbox":{"parking":{"area":783.65,"pct":3.02},"roads":{"area":2561.28,"pct":9.86}},"city_same":1,"id":"hex:3838:23942"},"type":"Feature"},{"geometry":{"coordinates":[[[-122.14282,37.46722],[-122.14338,37.468],[-122.14451,37.46801],[-122.14508,37.46723],[-122.14453,37.46645],[-122.14339,37.46644],[-122.14282,37.46722]]],"type":"Polygon"},"properties":{"bbox":{"roads":{"area":2289.45,"pct":8.81}},"city_same":1,"id":"hex:3838:23943"},"type":"Feature"},{"geometry":{"coordinates":[[[-122.1428,37.46878],[-122.14336,37.46956],[-122.14449,37.46957],[-122.14506,37.46879],[-122.14451,37.46801],[-122.14338,37.468],[-122.1428,37.46878]]],"type":"Polygon"},"properties":{"bbox":{"parking":{"area":270.91,"pct":1.04},"roads":{"area":2372.11,"pct":9.13}},"city_same":1,"id":"hex:3838:23944"},"type":"Feature"},{"geometry":{"coordinates":[[[-122.14278,37.47034],[-122.14334,37.47112],[-122.14447,37.47113],[-122.14505,37.47036],[-122.14449,37.46957],[-122.14336,37.46956],[-122.14278,37.47034]]],"type":"Polygon"},"properties":{"bbox":{"roads":{"area":2440.08,"pct":9.39},"sidewalks":{"area":115.35,"pct":0.44}},"city":{"roads":{"area":2063.85,"pct":7.94},"sidewalks":{"area":115.35,"pct":0.44}},"id":"hex:3838:23945"},"type":"Feature"},{"geometry":{"coordinates":[[[-122.14277,37.4719],[-122.14332,37.47268],[-122.14445,37.47269],[-122.14503,37.47192],[-122.14447,37.47113],[-122.14334,37.47112],[-122.14277,37.4719]]],"type":"Polygon"},"properties":{"bbox":{"parking":{"area":6141.4,"pct":23.64},"roads":{"area":2686.87,"pct":10.34},"sidewalks":{"area":540.93,"pct":2.08}},"city":{"parking":{"area":6141.4,"pct":23.64},"roads":{"area":1863.66,"pct":7.17},"sidewalks":{"area":540.93,"pct":2.08}},"id":"hex:3838:23946"},"type":"Feature"},{"geometry":{"coordinates":[[[-122.14275,37.47346],[-122.14331,37.47425],[-122.14444,37.47425],[-122.14501,37.47348],[-122.14445,37.47269],[-122.14332,37.47268],[-122.14275,37.47346]]],"type":"Polygon"},"properties":{"bbox":{"roads":{"area":336.98,"pct":1.3},"sidewalks":{"area":209.49,"pct":0.81}},"city_same":1,"id":"hex:3838:23947"},"type":"Feature"},{"geometry":{"coordinates":[[[-122.14273,37.47502],[-122.14331,37.47425],[-122.14444,37.47425],[-122.14499,37.47504],[-122.14454,37.47565],[-122.14322,37.47571],[-122.14273,37.47502]]],"type":"Polygon"},"properties":{"bbox":{"roads":{"area":1662.65,"pct":6.81},"sidewalks":{"area":750.12,"pct":3.07}},"city_same":1,"id":"hex:3838:23948"},"type":"Feature"},{"geometry":{"coordinates":[[[-122.1418,37.45784],[-122.14171,37.45773],[-122.14205,37.45784],[-122.1418,37.45784]]],"type":"Polygon"},"properties":{"bbox":{"roads":{"area":115.48,"pct":80.57}},"id":"hex:3839:23936"},"type":"Feature"},{"geometry":{"coordinates":[[[-122.14348,37.45864],[-122.14291,37.45941],[-122.14178,37.4594],[-122.14122,37.45862],[-122.1418,37.45784],[-122.14205,37.45784],[-122.14213,37.45787],[-122.14238,37.45797],[-122.14264,37.45804],[-122.14279,37.45806],[-122.14294,37.45807],[-122.14307,37.45806],[-122.14348,37.45864]]],"type":"Polygon"},"properties":{"bbox":{"parking":{"area":5664.1,"pct":22.97},"roads":{"area":7075.93,"pct":28.7}},"city":{"parking":{"area":5664.1,"pct":22.97},"roads":{"area":5923.6,"pct":24.03}},"id":"hex:3839:23937"},"type":"Feature"},{"geometry":{"coordinates":[[[-122.1412,37.46018],[-122.14176,37.46096],[-122.14289,37.46097],[-122.14347,37.4602],[-122.14291,37.45941],[-122.14178,37.4594],[-122.1412,37.46018]]],"type":"Polygon"},"properties":{"bbox":{"parking":{"area":6836.94,"pct":26.32},"roads":{"area":3695.31,"pct":14.22}},"city":{"parking":{"area":6836.94,"pct":26.32},"roads":{"area":2375.33,"pct":9.14}},"id":"hex:3839:23938"},"type":"Feature"},{"geometry":{"coordinates":[[[-122.14119,37.46174],[-122.14174,37.46253],[-122.14287,37.46253],[-122.14345,37.46176],[-122.14289,37.46097],[-122.14176,37.46096],[-122.14119,37.46174]]],"type":"Polygon"},"properties":{"bbox":{"parking":{"area":250.6,"pct":0.96},"roads":{"area":8933.79,"pct":34.39}},"city":{"parking":{"area":250.6,"pct":0.96},"roads":{"area":1966.99,"pct":7.57}},"id":"hex:3839:23939"},"type":"Feature"},{"geometry":{"coordinates":[[[-122.14117,37.4633],[-122.14173,37.46409],[-122.14286,37.46409],[-122.14343,37.46332],[-122.14287,37.46253],[-122.14174,37.46253],[-122.14117,37.4633]]],"type":"Polygon"},"properties":{"bbox":{"parking":{"area":1256.89,"pct":4.84},"roads":{"area":5030.84,"pct":19.36},"sidewalks":{"area":189.28,"pct":0.73}},"city":{"parking":{"area":1256.89,"pct":4.84},"roads":{"area":4901.87,"pct":18.87},"sidewalks":{"area":189.28,"pct":0.73}},"id":"hex:3839:23940"},"type":"Feature"},{"geometry":{"coordinates":[[[-122.14115,37.46486],[-122.14171,37.46565],[-122.14284,37.46566],[-122.14341,37.46488],[-122.14286,37.46409],[-122.14173,37.46409],[-122.14115,37.46486]]],"type":"Polygon"},"properties":{"bbox":{"parking":{"area":2542.91,"pct":9.79},"roads":{"area":4016.58,"pct":15.46},"sidewalks":{"area":164.75,"pct":0.63}},"city_same":1,"id":"hex:3839:23941"},"type":"Feature"},{"geometry":{"coordinates":[[[-122.14113,37.46642],[-122.14169,37.46721],[-122.14282,37.46722],[-122.14339,37.46644],[-122.14284,37.46566],[-122.14171,37.46565],[-122.14113,37.46642]]],"type":"Polygon"},"properties":{"bbox":{"parking":{"area":2849.37,"pct":10.97},"roads":{"area":3972.77,"pct":15.29}},"city_same":1,"id":"hex:3839:23942"},"type":"Feature"},{"geometry":{"coordinates":[[[-122.14112,37.46799],[-122.14167,37.46877],[-122.1428,37.46878],[-122.14338,37.468],[-122.14282,37.46722],[-122.14169,37.46721],[-122.14112,37.46799]]],"type":"Polygon"},"properties":{"bbox":{"parking":{"area":526.23,"pct":2.03},"roads":{"area":3291.56,"pct":12.67}},"city_same":1,"id":"hex:3839:23943"},"type":"Feature"},{"geometry":{"coordinates":[[[-122.1411,37.46955],[-122.14165,37.47033],[-122.14278,37.47034],[-122.14336,37.46956],[-122.1428,37.46878],[-122.14167,37.46877],[-122.1411,37.46955]]],"type":"Polygon"},"properties":{"bbox":{"parking":{"area":691.68,"pct":2.66},"roads":{"area":1032.76,"pct":3.98}},"city_same":1,"id":"hex:3839:23944"},"type":"Feature"},{"geometry":{"coordinates":[[[-122.14108,37.47111],[-122.14164,37.47189],[-122.14277,37.4719],[-122.14334,37.47112],[-122.14278,37.47034],[-122.14165,37.47033],[-122.14108,37.47111]]],"type":"Polygon"},"properties":{"bbox":{"roads":{"area":3015.2,"pct":11.61},"sidewalks":{"area":964.37,"pct":3.71}},"city":{"roads":{"area":1171.17,"pct":4.51},"sidewalks":{"area":964.37,"pct":3.71}},"id":"hex:3839:23945"},"type":"Feature"},{"geometry":{"coordinates":[[[-122.14106,37.47267],[-122.14162,37.47345],[-122.14275,37.47346],[-122.14332,37.47268],[-122.14277,37.4719],[-122.14164,37.47189],[-122.14106,37.47267]]],"type":"Polygon"},"properties":{"bbox":{"roads":{"area":2780.78,"pct":10.7},"sidewalks":{"area":1157.23,"pct":4.45}},"city_same":1,"id":"hex:3839:23946"},"type":"Feature"},{"geometry":{"coordinates":[[[-122.14104,37.47423],[-122.1416,37.47501],[-122.14273,37.47502],[-122.14331,37.47425],[-122.14275,37.47346],[-122.14162,37.47345],[-122.14104,37.47423]]],"type":"Polygon"},"properties":{"bbox":{"roads":{"area":1779.34,"pct":6.85},"sidewalks":{"area":958.8,"pct":3.69}},"city_same":1,"id":"hex:3839:23947"},"type":"Feature"},{"geometry":{"coordinates":[[[-122.14103,37.47579],[-122.1416,37.47501],[-122.14273,37.47502],[-122.14322,37.47571],[-122.14104,37.47581],[-122.14103,37.47579]]],"type":"Polygon"},"properties":{"bbox":{"roads":{"area":1494.07,"pct":12.36},"sidewalks":{"area":573.43,"pct":4.74}},"city_same":1,"id":"hex:3839:23948"},"type":"Feature"},{"geometry":{"coordinates":[[[-122.14011,37.45705],[-122.13955,37.45627],[-122.13996,37.45572],[-122.13996,37.45573],[-122.14001,37.45592],[-122.14007,37.45611],[-122.14012,37.45619],[-122.14018,37.45628],[-122.14025,37.45635],[-122.14034,37.45641],[-122.14052,37.45654],[-122.14068,37.45668],[-122.14071,37.45671],[-122.14073,37.45674],[-122.14075,37.45677],[-122.1408,37.45696],[-122.14084,37.45705],[-122.14011,37.45705]]],"type":"Polygon"},"properties":{"bbox":{"roads":{"area":1114.26,"pct":15.13}},"city_same":1,"id":"hex:3840:23936"},"type":"Feature"},{"geometry":{"coordinates":[[[-122.1418,37.45784],[-122.14122,37.45862],[-122.14009,37.45861],[-122.13954,37.45783],[-122.14011,37.45705],[-122.14084,37.45705],[-122.14087,37.45711],[-122.1409,37.45716],[-122.14107,37.45736],[-122.14112,37.45741],[-122.14117,37.45746],[-122.14123,37.4575],[-122.14146,37.45762],[-122.1417,37.45772],[-122.14171,37.45773],[-122.1418,37.45784]]],"type":"Polygon"},"properties":{"bbox":{"parking":{"area":1032.79,"pct":4.32},"roads":{"area":4251.62,"pct":17.78}},"city":{"parking":{"area":1032.79,"pct":4.32},"roads":{"area":3012.35,"pct":12.59}},"id":"hex:3840:23937"},"type":"Feature"},{"geometry":{"coordinates":[[[-122.13952,37.45939],[-122.14007,37.46017],[-122.1412,37.46018],[-122.14178,37.4594],[-122.14122,37.45862],[-122.14009,37.45861],[-122.13952,37.45939]]],"type":"Polygon"},"properties":{"bbox":{"parking":{"area":2337.35,"pct":9},"roads":{"area":9354.7,"pct":36.01}},"city":{"parking":{"area":2337.35,"pct":9},"roads":{"area":3851.95,"pct":14.83}},"id":"hex:3840:23938"},"type":"Feature"},{"geometry":{"coordinates":[[[-122.1395,37.46095],[-122.14006,37.46173],[-122.14119,37.46174],[-122.14176,37.46096],[-122.1412,37.46018],[-122.14007,37.46017],[-122.1395,37.46095]]],"type":"Polygon"},"properties":{"bbox":{"parking":{"area":5003.22,"pct":19.26},"roads":{"area":8427.12,"pct":32.44}},"city":{"parking":{"area":5003.22,"pct":19.26},"roads":{"area":2318.88,"pct":8.93}},"id":"hex:3840:23939"},"type":"Feature"},{"geometry":{"coordinates":[[[-122.13948,37.46251],[-122.14004,37.46329],[-122.14117,37.4633],[-122.14174,37.46253],[-122.14119,37.46174],[-122.14006,37.46173],[-122.13948,37.46251]]],"type":"Polygon"},"properties":{"bbox":{"parking":{"area":3516.86,"pct":13.54},"roads":{"area":6981.85,"pct":26.87},"sidewalks":{"area":374.23,"pct":1.44}},"city":{"parking":{"area":3516.86,"pct":13.54},"roads":{"area":3555.37,"pct":13.68},"sidewalks":{"area":374.23,"pct":1.44}},"id":"hex:3840:23940"},"type":"Feature"},{"geometry":{"coordinates":[[[-122.13946,37.46407],[-122.14002,37.46485],[-122.14115,37.46486],[-122.14173,37.46409],[-122.14117,37.4633],[-122.14004,37.46329],[-122.13946,37.46407]]],"type":"Polygon"},"properties":{"bbox":{"parking":{"area":1234.53,"pct":4.75},"roads":{"area":1777.11,"pct":6.84},"sidewalks":{"area":602.47,"pct":2.32}},"city_same":1,"id":"hex:3840:23941"},"type":"Feature"},{"geometry":{"coordinates":[[[-122.13945,37.46563],[-122.14,37.46642],[-122.14113,37.46642],[-122.14171,37.46565],[-122.14115,37.46486],[-122.14002,37.46485],[-122.13945,37.46563]]],"type":"Polygon"},"properties":{"bbox":{"parking":{"area":1222.81,"pct":4.71},"roads":{"area":3413.62,"pct":13.14},"sidewalks":{"area":484.33,"pct":1.86}},"city_same":1,"id":"hex:3840:23942"},"type":"Feature"},{"geometry":{"coordinates":[[[-122.13943,37.46719],[-122.13998,37.46798],[-122.14112,37.46799],[-122.14169,37.46721],[-122.14113,37.46642],[-122.14,37.46642],[-122.13943,37.46719]]],"type":"Polygon"},"properties":{"bbox":{"parking":{"area":404.78,"pct":1.56},"roads":{"area":1976.54,"pct":7.61}},"city_same":1,"id":"hex:3840:23943"},"type":"Feature"},{"geometry":{"coordinates":[[[-122.13941,37.46875],[-122.13997,37.46954],[-122.1411,37.46955],[-122.14167,37.46877],[-122.14112,37.46799],[-122.13998,37.46798],[-122.13941,37.46875]]],"type":"Polygon"},"properties":{"bbox":{"parking":{"area":1804.68,"pct":6.95},"roads":{"area":3975.64,"pct":15.3}},"city_same":1,"id":"hex:3840:23944"},"type":"Feature"},{"geometry":{"coordinates":[[[-122.13939,37.47031],[-122.13995,37.4711],[-122.14108,37.47111],[-122.14165,37.47033],[-122.1411,37.46955],[-122.13997,37.46954],[-122.13939,37.47031]]],"type":"Polygon"},"properties":{"bbox":{"parking":{"area":1767.72,"pct":6.8},"roads":{"area":4458.46,"pct":17.16},"sidewalks":{"area":466.97,"pct":1.8}},"city_same":1,"id":"hex:3840:23945"},"type":"Feature"},{"geometry":{"coordinates":[[[-122.13937,37.47188],[-122.13993,37.47266],[-122.14106,37.47267],[-122.14164,37.47189],[-122.14108,37.47111],[-122.13995,37.4711],[-122.13937,37.47188]]],"type":"Polygon"},"properties":{"bbox":{"parking":{"area":5834.99,"pct":22.46},"roads":{"area":5650.21,"pct":21.75},"sidewalks":{"area":845.71,"pct":3.26}},"city":{"parking":{"area":5834.99,"pct":22.46},"roads":{"area":3633,"pct":13.98},"sidewalks":{"area":845.71,"pct":3.26}},"id":"hex:3840:23946"},"type":"Feature"},{"geometry":{"coordinates":[[[-122.13936,37.47344],[-122.13991,37.47422],[-122.14104,37.47423],[-122.14162,37.47345],[-122.14106,37.47267],[-122.13993,37.47266],[-122.13936,37.47344]]],"type":"Polygon"},"properties":{"bbox":{"parking":{"area":2513.39,"pct":9.67},"roads":{"area":3209.47,"pct":12.35},"sidewalks":{"area":1090.53,"pct":4.2}},"city_same":1,"id":"hex:3840:23947"},"type":"Feature"},{"geometry":{"coordinates":[[[-122.13934,37.475],[-122.1399,37.47578],[-122.14103,37.47579],[-122.1416,37.47501],[-122.14104,37.47423],[-122.13991,37.47422],[-122.13934,37.475]]],"type":"Polygon"},"properties":{"bbox":{"roads":{"area":3542.63,"pct":13.64},"sidewalks":{"area":1327.12,"pct":5.11}},"city_same":1,"id":"hex:3840:23948"},"type":"Feature"},{"geometry":{"coordinates":[[[[-122.13932,37.47656],[-122.13973,37.47601],[-122.13973,37.47601],[-122.13977,37.47719],[-122.13932,37.47656]]],[[[-122.1399,37.47578],[-122.14103,37.47579],[-122.14104,37.47581],[-122.13984,37.47586],[-122.1399,37.47578]]]],"type":"MultiPolygon"},"properties":{"bbox":{"roads":{"area":1583.17,"pct":52.54},"sidewalks":{"area":78.17,"pct":2.59}},"city":{"roads":{"area":199.34,"pct":6.62},"sidewalks":{"area":78.17,"pct":2.59}},"id":"hex:3840:23949"},"type":"Feature"},{"geometry":{"coordinates":[[[-122.1393,37.47812],[-122.13978,37.47748],[-122.13982,37.47885],[-122.1393,37.47812]]],"type":"Polygon"},"properties":{"bbox":{"roads":{"area":2013.38,"pct":60.42},"sidewalks":{"area":110.22,"pct":3.31}},"city":{"roads":{"area":129,"pct":3.87},"sidewalks":{"area":110.22,"pct":3.31}},"id":"hex:3840:23950"},"type":"Feature"},{"geometry":{"coordinates":[[[-122.13984,37.48047],[-122.13929,37.47968],[-122.13982,37.47895],[-122.13987,37.48047],[-122.13984,37.48047]]],"type":"Polygon"},"properties":{"bbox":{"roads":{"area":2183.06,"pct":50.74},"sidewalks":{"area":185.89,"pct":4.32}},"city":{"roads":{"area":228.58,"pct":5.31},"sidewalks":{"area":185.89,"pct":4.32}},"id":"hex:3840:23951"},"type":"Feature"},{"geometry":{"coordinates":[[[-122.13955,37.45627],[-122.13842,37.45626],[-122.13787,37.45547],[-122.13844,37.4547],[-122.13849,37.4547],[-122.13852,37.4547],[-122.13856,37.45471],[-122.13874,37.45479],[-122.13891,37.45488],[-122.13978,37.45539],[-122.13982,37.45541],[-122.13985,37.45544],[-122.13988,37.45547],[-122.1399,37.45551],[-122.13992,37.45554],[-122.13996,37.45572],[-122.13955,37.45627]]],"type":"Polygon"},"properties":{"bbox":{"roads":{"area":3158.44,"pct":14.86}},"city_same":1,"id":"hex:3841:23935"},"type":"Feature"},{"geometry":{"coordinates":[[[-122.13785,37.45703],[-122.13841,37.45782],[-122.13954,37.45783],[-122.14011,37.45705],[-122.13955,37.45627],[-122.13842,37.45626],[-122.13785,37.45703]]],"type":"Polygon"},"properties":{"bbox":{"parking":{"area":113.48,"pct":0.44},"roads":{"area":2660.15,"pct":10.24},"sidewalks":{"area":129.79,"pct":0.5}},"city_same":1,"id":"hex:3841:23936"},"type":"Feature"},{"geometry":{"coordinates":[[[-122.13783,37.45859],[-122.13839,37.45938],[-122.13952,37.45939],[-122.14009,37.45861],[-122.13954,37.45783],[-122.13841,37.45782],[-122.13783,37.45859]]],"type":"Polygon"},"properties":{"bbox":{"parking":{"area":1028.65,"pct":3.96},"roads":{"area":8043.94,"pct":30.96},"sidewalks":{"area":318.47,"pct":1.23}},"city":{"parking":{"area":1028.65,"pct":3.96},"roads":{"area":2836.85,"pct":10.92},"sidewalks":{"area":318.47,"pct":1.23}},"id":"hex:3841:23937"},"type":"Feature"},{"geometry":{"coordinates":[[[-122.13781,37.46016],[-122.13837,37.46094],[-122.1395,37.46095],[-122.14007,37.46017],[-122.13952,37.45939],[-122.13839,37.45938],[-122.13781,37.46016]]],"type":"Polygon"},"properties":{"bbox":{"parking":{"area":6903.73,"pct":26.57},"roads":{"area":6249.52,"pct":24.05},"sidewalks":{"area":267.23,"pct":1.03}},"city":{"parking":{"area":6903.73,"pct":26.57},"roads":{"area":926.65,"pct":3.57},"sidewalks":{"area":267.23,"pct":1.03}},"id":"hex:3841:23938"},"type":"Feature"},{"geometry":{"coordinates":[[[-122.1378,37.46172],[-122.13835,37.4625],[-122.13948,37.46251],[-122.14006,37.46173],[-122.1395,37.46095],[-122.13837,37.46094],[-122.1378,37.46172]]],"type":"Polygon"},"properties":{"bbox":{"parking":{"area":6542.14,"pct":25.18},"roads":{"area":4495.43,"pct":17.3},"sidewalks":{"area":524.41,"pct":2.02}},"city":{"parking":{"area":6542.14,"pct":25.18},"roads":{"area":1009.01,"pct":3.88},"sidewalks":{"area":524.41,"pct":2.02}},"id":"hex:3841:23939"},"type":"Feature"},{"geometry":{"coordinates":[[[-122.13778,37.46328],[-122.13833,37.46406],[-122.13946,37.46407],[-122.14004,37.46329],[-122.13948,37.46251],[-122.13835,37.4625],[-122.13778,37.46328]]],"type":"Polygon"},"properties":{"bbox":{"parking":{"area":2860.1,"pct":11.01},"roads":{"area":2861.09,"pct":11.01},"sidewalks":{"area":552.76,"pct":2.13}},"city":{"parking":{"area":2860.1,"pct":11.01},"roads":{"area":2215.04,"pct":8.53},"sidewalks":{"area":552.76,"pct":2.13}},"id":"hex:3841:23940"},"type":"Feature"},{"geometry":{"coordinates":[[[-122.13776,37.46484],[-122.13832,37.46562],[-122.13945,37.46563],[-122.14002,37.46485],[-122.13946,37.46407],[-122.13833,37.46406],[-122.13776,37.46484]]],"type":"Polygon"},"properties":{"bbox":{"parking":{"area":1044.84,"pct":4.02},"roads":{"area":2959.04,"pct":11.39},"sidewalks":{"area":297.24,"pct":1.14}},"city_same":1,"id":"hex:3841:23941"},"type":"Feature"},{"geometry":{"coordinates":[[[-122.13774,37.4664],[-122.1383,37.46718],[-122.13943,37.46719],[-122.14,37.46642],[-122.13945,37.46563],[-122.13832,37.46562],[-122.13774,37.4664]]],"type":"Polygon"},"properties":{"bbox":{"roads":{"area":2927.37,"pct":11.27}},"city_same":1,"id":"hex:3841:23942"},"type":"Feature"},{"geometry":{"coordinates":[[[-122.13772,37.46796],[-122.13828,37.46875],[-122.13941,37.46875],[-122.13998,37.46798],[-122.13943,37.46719],[-122.1383,37.46718],[-122.13772,37.46796]]],"type":"Polygon"},"properties":{"bbox":{"roads":{"area":2735.88,"pct":10.53}},"city_same":1,"id":"hex:3841:23943"},"type":"Feature"},{"geometry":{"coordinates":[[[-122.13771,37.46952],[-122.13826,37.47031],[-122.13939,37.47031],[-122.13997,37.46954],[-122.13941,37.46875],[-122.13828,37.46875],[-122.13771,37.46952]]],"type":"Polygon"},"properties":{"bbox":{"parking":{"area":189.9,"pct":0.73},"roads":{"area":2330.94,"pct":8.97}},"city_same":1,"id":"hex:3841:23944"},"type":"Feature"},{"geometry":{"coordinates":[[[-122.13769,37.47108],[-122.13824,37.47187],[-122.13937,37.47188],[-122.13995,37.4711],[-122.13939,37.47031],[-122.13826,37.47031],[-122.13769,37.47108]]],"type":"Polygon"},"properties":{"bbox":{"parking":{"area":1351.57,"pct":5.2},"roads":{"area":4932.05,"pct":18.98},"sidewalks":{"area":572.91,"pct":2.21}},"city":{"parking":{"area":1351.57,"pct":5.2},"roads":{"area":2922.95,"pct":11.25},"sidewalks":{"area":572.91,"pct":2.21}},"id":"hex:3841:23945"},"type":"Feature"},{"geometry":{"coordinates":[[[-122.13767,37.47264],[-122.13823,37.47343],[-122.13936,37.47344],[-122.13993,37.47266],[-122.13937,37.47188],[-122.13824,37.47187],[-122.13767,37.47264]]],"type":"Polygon"},"properties":{"bbox":{"parking":{"area":378.79,"pct":1.46},"roads":{"area":2401.75,"pct":9.24},"sidewalks":{"area":396.2,"pct":1.52}},"city_same":1,"id":"hex:3841:23946"},"type":"Feature"},{"geometry":{"coordinates":[[[-122.13765,37.4742],[-122.13821,37.47499],[-122.13934,37.475],[-122.13991,37.47422],[-122.13936,37.47344],[-122.13823,37.47343],[-122.13765,37.4742]]],"type":"Polygon"},"properties":{"bbox":{"roads":{"area":3866.26,"pct":14.88},"sidewalks":{"area":1437.83,"pct":5.53}},"city_same":1,"id":"hex:3841:23947"},"type":"Feature"},{"geometry":{"coordinates":[[[-122.13932,37.47656],[-122.13819,37.47655],[-122.13763,37.47577],[-122.13821,37.47499],[-122.13934,37.475],[-122.1399,37.47578],[-122.13984,37.47586],[-122.13974,37.47586],[-122.13973,37.47587],[-122.13973,37.47601],[-122.13932,37.47656]]],"type":"Polygon"},"properties":{"bbox":{"roads":{"area":3782.78,"pct":14.6},"sidewalks":{"area":1144.98,"pct":4.42}},"city":{"roads":{"area":3279.79,"pct":12.66},"sidewalks":{"area":1144.98,"pct":4.42}},"id":"hex:3841:23948"},"type":"Feature"},{"geometry":{"coordinates":[[[-122.1393,37.47812],[-122.13817,37.47811],[-122.13762,37.47733],[-122.13819,37.47655],[-122.13932,37.47656],[-122.13977,37.47719],[-122.13978,37.47748],[-122.1393,37.47812]]],"type":"Polygon"},"properties":{"bbox":{"roads":{"area":1097.63,"pct":4.25},"sidewalks":{"area":166.76,"pct":0.65}},"city":{"sidewalks":{"area":166.76,"pct":0.65}},"id":"hex:3841:23949"},"type":"Feature"},{"geometry":{"coordinates":[[[-122.13929,37.47968],[-122.13815,37.47967],[-122.1376,37.47889],[-122.13817,37.47811],[-122.1393,37.47812],[-122.13982,37.47885],[-122.13982,37.47895],[-122.13929,37.47968]]],"type":"Polygon"},"properties":{"bbox":{"parking":{"area":3214.77,"pct":12.38},"roads":{"area":3292.41,"pct":12.68},"sidewalks":{"area":772.99,"pct":2.98}},"city":{"parking":{"area":3214.77,"pct":12.38},"roads":{"area":2539.31,"pct":9.78},"sidewalks":{"area":772.99,"pct":2.98}},"id":"hex:3841:23950"},"type":"Feature"},{"geometry":{"coordinates":[[[-122.13814,37.48123],[-122.13758,37.48045],[-122.13815,37.47967],[-122.13929,37.47968],[-122.13984,37.48047],[-122.13962,37.48076],[-122.1392,37.48124],[-122.13814,37.48123]]],"type":"Polygon"},"properties":{"bbox":{"parking":{"area":1090.72,"pct":4.23},"roads":{"area":2971.84,"pct":11.51},"sidewalks":{"area":1102,"pct":4.27}},"city":{"parking":{"area":1090.72,"pct":4.23},"roads":{"area":2523.4,"pct":9.78},"sidewalks":{"area":1102,"pct":4.27}},"id":"hex:3841:23951"},"type":"Feature"},{"geometry":{"coordinates":[[[-122.13814,37.48123],[-122.1392,37.48124],[-122.13881,37.48167],[-122.13877,37.48171],[-122.13856,37.48176],[-122.13759,37.48198],[-122.13814,37.48123]]],"type":"Polygon"},"properties":{"bbox":{"roads":{"area":651.04,"pct":10.74},"sidewalks":{"area":72.13,"pct":1.19}},"city_same":1,"id":"hex:3841:23952"},"type":"Feature"},{"geometry":{"coordinates":[[[-122.13844,37.4547],[-122.13787,37.45547],[-122.13674,37.45546],[-122.13618,37.45468],[-122.13643,37.45434],[-122.13657,37.45442],[-122.13658,37.4544],[-122.13666,37.45442],[-122.13686,37.45447],[-122.13712,37.45449],[-122.13716,37.4545],[-122.13747,37.45459],[-122.13776,37.45464],[-122.13806,37.45467],[-122.13844,37.45469],[-122.13844,37.45469],[-122.13844,37.4547]]],"type":"Polygon"},"properties":{"bbox":{"roads":{"area":2770.56,"pct":17.37},"sidewalks":{"area":277.81,"pct":1.74}},"city_same":1,"id":"hex:3842:23935"},"type":"Feature"},{"geometry":{"coordinates":[[[-122.13616,37.45624],[-122.13672,37.45702],[-122.13785,37.45703],[-122.13842,37.45626],[-122.13787,37.45547],[-122.13674,37.45546],[-122.13616,37.45624]]],"type":"Polygon"},"properties":{"bbox":{"roads":{"area":3230.87,"pct":12.44},"sidewalks":{"area":508.61,"pct":1.96}},"city_same":1,"id":"hex:3842:23936"},"type":"Feature"},{"geometry":{"coordinates":[[[-122.13614,37.4578],[-122.1367,37.45859],[-122.13783,37.45859],[-122.13841,37.45782],[-122.13785,37.45703],[-122.13672,37.45702],[-122.13614,37.4578]]],"type":"Polygon"},"properties":{"bbox":{"parking":{"area":710.56,"pct":2.73},"roads":{"area":9731.04,"pct":37.45},"sidewalks":{"area":260.59,"pct":1}},"city":{"parking":{"area":710.56,"pct":2.73},"roads":{"area":3011.16,"pct":11.59},"sidewalks":{"area":260.59,"pct":1}},"id":"hex:3842:23937"},"type":"Feature"},{"geometry":{"coordinates":[[[-122.13613,37.45936],[-122.13668,37.46015],[-122.13781,37.46016],[-122.13839,37.45938],[-122.13783,37.45859],[-122.1367,37.45859],[-122.13613,37.45936]]],"type":"Polygon"},"properties":{"bbox":{"parking":{"area":14292.22,"pct":55.01},"roads":{"area":8020.22,"pct":30.87},"sidewalks":{"area":269.38,"pct":1.04}},"city":{"parking":{"area":14292.22,"pct":55.01},"roads":{"area":4375.57,"pct":16.84},"sidewalks":{"area":269.38,"pct":1.04}},"id":"hex:3842:23938"},"type":"Feature"},{"geometry":{"coordinates":[[[-122.13611,37.46092],[-122.13666,37.46171],[-122.1378,37.46172],[-122.13837,37.46094],[-122.13781,37.46016],[-122.13668,37.46015],[-122.13611,37.46092]]],"type":"Polygon"},"properties":{"bbox":{"parking":{"area":13920.6,"pct":53.58},"roads":{"area":7195.28,"pct":27.69},"sidewalks":{"area":190.67,"pct":0.73}},"city":{"parking":{"area":13920.6,"pct":53.58},"roads":{"area":5682.68,"pct":21.87},"sidewalks":{"area":190.67,"pct":0.73}},"id":"hex:3842:23939"},"type":"Feature"},{"geometry":{"coordinates":[[[-122.13609,37.46248],[-122.13665,37.46327],[-122.13778,37.46328],[-122.13835,37.4625],[-122.1378,37.46172],[-122.13666,37.46171],[-122.13609,37.46248]]],"type":"Polygon"},"properties":{"bbox":{"parking":{"area":1458.11,"pct":5.61},"roads":{"area":4011.26,"pct":15.44},"sidewalks":{"area":495.32,"pct":1.91}},"city_same":1,"id":"hex:3842:23940"},"type":"Feature"},{"geometry":{"coordinates":[[[-122.13607,37.46405],[-122.13663,37.46483],[-122.13776,37.46484],[-122.13833,37.46406],[-122.13778,37.46328],[-122.13665,37.46327],[-122.13607,37.46405]]],"type":"Polygon"},"properties":{"bbox":{"parking":{"area":257.71,"pct":0.99},"roads":{"area":1882.41,"pct":7.25}},"city_same":1,"id":"hex:3842:23941"},"type":"Feature"},{"geometry":{"coordinates":[[[-122.13605,37.46561],[-122.13661,37.46639],[-122.13774,37.4664],[-122.13832,37.46562],[-122.13776,37.46484],[-122.13663,37.46483],[-122.13605,37.46561]]],"type":"Polygon"},"properties":{"bbox":{"roads":{"area":1984.74,"pct":7.64}},"city_same":1,"id":"hex:3842:23942"},"type":"Feature"},{"geometry":{"coordinates":[[[-122.13604,37.46717],[-122.13659,37.46795],[-122.13772,37.46796],[-122.1383,37.46718],[-122.13774,37.4664],[-122.13661,37.46639],[-122.13604,37.46717]]],"type":"Polygon"},"properties":{"bbox":{"roads":{"area":1543.27,"pct":5.94}},"city_same":1,"id":"hex:3842:23943"},"type":"Feature"},{"geometry":{"coordinates":[[[-122.13602,37.46873],[-122.13657,37.46951],[-122.13771,37.46952],[-122.13828,37.46875],[-122.13772,37.46796],[-122.13659,37.46795],[-122.13602,37.46873]]],"type":"Polygon"},"properties":{"bbox":{"parking":{"area":1905.76,"pct":7.34},"roads":{"area":2882.83,"pct":11.1}},"city_same":1,"id":"hex:3842:23944"},"type":"Feature"},{"geometry":{"coordinates":[[[-122.136,37.47029],[-122.13656,37.47107],[-122.13769,37.47108],[-122.13826,37.47031],[-122.13771,37.46952],[-122.13657,37.46951],[-122.136,37.47029]]],"type":"Polygon"},"properties":{"bbox":{"parking":{"area":114.55,"pct":0.44},"roads":{"area":2438.62,"pct":9.39},"sidewalks":{"area":205,"pct":0.79}},"city_same":1,"id":"hex:3842:23945"},"type":"Feature"},{"geometry":{"coordinates":[[[-122.13598,37.47185],[-122.13654,37.47264],[-122.13767,37.47264],[-122.13824,37.47187],[-122.13769,37.47108],[-122.13656,37.47107],[-122.13598,37.47185]]],"type":"Polygon"},"properties":{"bbox":{"roads":{"area":4511.29,"pct":17.36},"sidewalks":{"area":900.16,"pct":3.46}},"city":{"roads":{"area":1607.38,"pct":6.19},"sidewalks":{"area":900.16,"pct":3.46}},"id":"hex:3842:23946"},"type":"Feature"},{"geometry":{"coordinates":[[[-122.13596,37.47341],[-122.13652,37.4742],[-122.13765,37.4742],[-122.13823,37.47343],[-122.13767,37.47264],[-122.13654,37.47264],[-122.13596,37.47341]]],"type":"Polygon"},"properties":{"bbox":{"parking":{"area":100.43,"pct":0.39},"roads":{"area":2674.64,"pct":10.29},"sidewalks":{"area":1097.89,"pct":4.23}},"city_same":1,"id":"hex:3842:23947"},"type":"Feature"},{"geometry":{"coordinates":[[[-122.13595,37.47497],[-122.1365,37.47576],[-122.13763,37.47577],[-122.13821,37.47499],[-122.13765,37.4742],[-122.13652,37.4742],[-122.13595,37.47497]]],"type":"Polygon"},"properties":{"bbox":{"parking":{"area":527.82,"pct":2.03},"roads":{"area":1577.02,"pct":6.07},"sidewalks":{"area":725.37,"pct":2.79}},"city_same":1,"id":"hex:3842:23948"},"type":"Feature"},{"geometry":{"coordinates":[[[-122.13593,37.47653],[-122.13648,37.47732],[-122.13762,37.47733],[-122.13819,37.47655],[-122.13763,37.47577],[-122.1365,37.47576],[-122.13593,37.47653]]],"type":"Polygon"},"properties":{"bbox":{"roads":{"area":2805.75,"pct":10.8},"sidewalks":{"area":1129.3,"pct":4.35}},"city_same":1,"id":"hex:3842:23949"},"type":"Feature"},{"geometry":{"coordinates":[[[-122.13591,37.47809],[-122.13647,37.47888],[-122.1376,37.47889],[-122.13817,37.47811],[-122.13762,37.47733],[-122.13648,37.47732],[-122.13591,37.47809]]],"type":"Polygon"},"properties":{"bbox":{"parking":{"area":1924.11,"pct":7.41},"roads":{"area":3246.16,"pct":12.49},"sidewalks":{"area":1191.79,"pct":4.59}},"city_same":1,"id":"hex:3842:23950"},"type":"Feature"},{"geometry":{"coordinates":[[[-122.13589,37.47966],[-122.13645,37.48044],[-122.13758,37.48045],[-122.13815,37.47967],[-122.1376,37.47889],[-122.13647,37.47888],[-122.13589,37.47966]]],"type":"Polygon"},"properties":{"bbox":{"roads":{"area":1667.64,"pct":6.42},"sidewalks":{"area":879.29,"pct":3.38}},"city_same":1,"id":"hex:3842:23951"},"type":"Feature"},{"geometry":{"coordinates":[[[-122.13643,37.482],[-122.13587,37.48122],[-122.13645,37.48044],[-122.13758,37.48045],[-122.13814,37.48123],[-122.13759,37.48198],[-122.13755,37.48198],[-122.13746,37.48201],[-122.13643,37.482]]],"type":"Polygon"},"properties":{"bbox":{"roads":{"area":2369.46,"pct":9.13},"sidewalks":{"area":1141.94,"pct":4.4}},"city_same":1,"id":"hex:3842:23952"},"type":"Feature"},{"geometry":{"coordinates":[[[-122.13643,37.482],[-122.13746,37.48201],[-122.13616,37.48237],[-122.13643,37.482]]],"type":"Polygon"},"properties":{"bbox":{"roads":{"area":318.75,"pct":17.2}},"city_same":1,"id":"hex:3842:23953"},"type":"Feature"},{"geometry":{"coordinates":[[[-122.13618,37.45468],[-122.13505,37.45467],[-122.13472,37.45421],[-122.13527,37.45409],[-122.13561,37.454],[-122.1359,37.454],[-122.13618,37.45406],[-122.13622,37.45409],[-122.13633,37.45423],[-122.13642,37.45433],[-122.13643,37.45434],[-122.13618,37.45468]]],"type":"Polygon"},"properties":{"bbox":{"roads":{"area":1121.66,"pct":13.01},"sidewalks":{"area":7.88,"pct":0.09}},"city_same":1,"id":"hex:3843:23934"},"type":"Feature"},{"geometry":{"coordinates":[[[-122.13448,37.45545],[-122.13503,37.45623],[-122.13616,37.45624],[-122.13674,37.45546],[-122.13618,37.45468],[-122.13505,37.45467],[-122.13448,37.45545]]],"type":"Polygon"},"properties":{"bbox":{"parking":{"area":275.62,"pct":1.06},"roads":{"area":1934.48,"pct":7.45},"sidewalks":{"area":27.86,"pct":0.11}},"city_same":1,"id":"hex:3843:23935"},"type":"Feature"},{"geometry":{"coordinates":[[[-122.13446,37.45701],[-122.13501,37.45779],[-122.13614,37.4578],[-122.13672,37.45702],[-122.13616,37.45624],[-122.13503,37.45623],[-122.13446,37.45701]]],"type":"Polygon"},"properties":{"bbox":{"parking":{"area":533.17,"pct":2.05},"roads":{"area":10812.45,"pct":41.62},"sidewalks":{"area":442.17,"pct":1.7}},"city":{"parking":{"area":533.17,"pct":2.05},"roads":{"area":2586.84,"pct":9.96},"sidewalks":{"area":442.17,"pct":1.7}},"id":"hex:3843:23936"},"type":"Feature"},{"geometry":{"coordinates":[[[-122.13444,37.45857],[-122.135,37.45935],[-122.13613,37.45936],[-122.1367,37.45859],[-122.13614,37.4578],[-122.13501,37.45779],[-122.13444,37.45857]]],"type":"Polygon"},"properties":{"bbox":{"parking":{"area":5705.72,"pct":21.96},"roads":{"area":4541.03,"pct":17.48}},"city":{"parking":{"area":5705.72,"pct":21.96},"roads":{"area":3300.52,"pct":12.7}},"id":"hex:3843:23937"},"type":"Feature"},{"geometry":{"coordinates":[[[-122.13442,37.46013],[-122.13498,37.46092],[-122.13611,37.46092],[-122.13668,37.46015],[-122.13613,37.45936],[-122.135,37.45935],[-122.13442,37.46013]]],"type":"Polygon"},"properties":{"bbox":{"parking":{"area":4273.75,"pct":16.45},"roads":{"area":3275.15,"pct":12.61}},"city_same":1,"id":"hex:3843:23938"},"type":"Feature"},{"geometry":{"coordinates":[[[-122.1344,37.46169],[-122.13496,37.46248],[-122.13609,37.46248],[-122.13666,37.46171],[-122.13611,37.46092],[-122.13498,37.46092],[-122.1344,37.46169]]],"type":"Polygon"},"properties":{"bbox":{"parking":{"area":4179.47,"pct":16.09},"roads":{"area":3250.15,"pct":12.51},"sidewalks":{"area":47,"pct":0.18}},"city_same":1,"id":"hex:3843:23939"},"type":"Feature"},{"geometry":{"coordinates":[[[-122.13439,37.46325],[-122.13494,37.46404],[-122.13607,37.46405],[-122.13665,37.46327],[-122.13609,37.46248],[-122.13496,37.46248],[-122.13439,37.46325]]],"type":"Polygon"},"properties":{"bbox":{"roads":{"area":2341.34,"pct":9.01},"sidewalks":{"area":29.55,"pct":0.11}},"city_same":1,"id":"hex:3843:23940"},"type":"Feature"},{"geometry":{"coordinates":[[[-122.13437,37.46481],[-122.13492,37.4656],[-122.13605,37.46561],[-122.13663,37.46483],[-122.13607,37.46405],[-122.13494,37.46404],[-122.13437,37.46481]]],"type":"Polygon"},"properties":{"bbox":{"roads":{"area":2541.85,"pct":9.78}},"city_same":1,"id":"hex:3843:23941"},"type":"Feature"},{"geometry":{"coordinates":[[[-122.13435,37.46637],[-122.13491,37.46716],[-122.13604,37.46717],[-122.13661,37.46639],[-122.13605,37.46561],[-122.13492,37.4656],[-122.13435,37.46637]]],"type":"Polygon"},"properties":{"bbox":{"roads":{"area":3022.98,"pct":11.64}},"city_same":1,"id":"hex:3843:23942"},"type":"Feature"},{"geometry":{"coordinates":[[[-122.13433,37.46794],[-122.13489,37.46872],[-122.13602,37.46873],[-122.13659,37.46795],[-122.13604,37.46717],[-122.13491,37.46716],[-122.13433,37.46794]]],"type":"Polygon"},"properties":{"bbox":{"roads":{"area":2388.95,"pct":9.2}},"city_same":1,"id":"hex:3843:23943"},"type":"Feature"},{"geometry":{"coordinates":[[[-122.13431,37.4695],[-122.13487,37.47028],[-122.136,37.47029],[-122.13657,37.46951],[-122.13602,37.46873],[-122.13489,37.46872],[-122.13431,37.4695]]],"type":"Polygon"},"properties":{"bbox":{"parking":{"area":2448.83,"pct":9.43},"roads":{"area":3469.99,"pct":13.36},"sidewalks":{"area":6.52,"pct":0.03}},"city_same":1,"id":"hex:3843:23944"},"type":"Feature"},{"geometry":{"coordinates":[[[-122.1343,37.47106],[-122.13485,37.47184],[-122.13598,37.47185],[-122.13656,37.47107],[-122.136,37.47029],[-122.13487,37.47028],[-122.1343,37.47106]]],"type":"Polygon"},"properties":{"bbox":{"parking":{"area":5185.87,"pct":19.96},"roads":{"area":4207.69,"pct":16.2},"sidewalks":{"area":646.37,"pct":2.49}},"city":{"parking":{"area":5185.87,"pct":19.96},"roads":{"area":2392.31,"pct":9.21},"sidewalks":{"area":646.37,"pct":2.49}},"id":"hex:3843:23945"},"type":"Feature"},{"geometry":{"coordinates":[[[-122.13428,37.47262],[-122.13483,37.4734],[-122.13596,37.47341],[-122.13654,37.47264],[-122.13598,37.47185],[-122.13485,37.47184],[-122.13428,37.47262]]],"type":"Polygon"},"properties":{"bbox":{"parking":{"area":2376.99,"pct":9.15},"roads":{"area":2921.51,"pct":11.24},"sidewalks":{"area":919.23,"pct":3.54}},"city":{"parking":{"area":2376.99,"pct":9.15},"roads":{"area":2848.61,"pct":10.96},"sidewalks":{"area":919.23,"pct":3.54}},"id":"hex:3843:23946"},"type":"Feature"},{"geometry":{"coordinates":[[[-122.13426,37.47418],[-122.13482,37.47496],[-122.13595,37.47497],[-122.13652,37.4742],[-122.13596,37.47341],[-122.13483,37.4734],[-122.13426,37.47418]]],"type":"Polygon"},"properties":{"bbox":{"parking":{"area":37.01,"pct":0.14},"roads":{"area":1626.45,"pct":6.26},"sidewalks":{"area":684.82,"pct":2.64}},"city_same":1,"id":"hex:3843:23947"},"type":"Feature"},{"geometry":{"coordinates":[[[-122.13424,37.47574],[-122.1348,37.47653],[-122.13593,37.47653],[-122.1365,37.47576],[-122.13595,37.47497],[-122.13482,37.47496],[-122.13424,37.47574]]],"type":"Polygon"},"properties":{"bbox":{"parking":{"area":114.1,"pct":0.44},"roads":{"area":2527.23,"pct":9.73},"sidewalks":{"area":861.66,"pct":3.32}},"city_same":1,"id":"hex:3843:23948"},"type":"Feature"},{"geometry":{"coordinates":[[[-122.13422,37.4773],[-122.13478,37.47809],[-122.13591,37.47809],[-122.13648,37.47732],[-122.13593,37.47653],[-122.1348,37.47653],[-122.13422,37.4773]]],"type":"Polygon"},"properties":{"bbox":{"parking":{"area":445.04,"pct":1.71},"roads":{"area":2416.12,"pct":9.3},"sidewalks":{"area":929.91,"pct":3.58}},"city_same":1,"id":"hex:3843:23949"},"type":"Feature"},{"geometry":{"coordinates":[[[-122.13421,37.47886],[-122.13476,37.47965],[-122.13589,37.47966],[-122.13647,37.47888],[-122.13591,37.47809],[-122.13478,37.47809],[-122.13421,37.47886]]],"type":"Polygon"},"properties":{"bbox":{"roads":{"area":1973.76,"pct":7.6},"sidewalks":{"area":963.52,"pct":3.71}},"city_same":1,"id":"hex:3843:23950"},"type":"Feature"},{"geometry":{"coordinates":[[[-122.13419,37.48042],[-122.13474,37.48121],[-122.13587,37.48122],[-122.13645,37.48044],[-122.13589,37.47966],[-122.13476,37.47965],[-122.13419,37.48042]]],"type":"Polygon"},"properties":{"bbox":{"roads":{"area":2005.81,"pct":7.72},"sidewalks":{"area":981.41,"pct":3.78}},"city_same":1,"id":"hex:3843:23951"},"type":"Feature"},{"geometry":{"coordinates":[[[-122.13417,37.48199],[-122.13474,37.48121],[-122.13587,37.48122],[-122.13643,37.482],[-122.13616,37.48237],[-122.13479,37.48275],[-122.13471,37.48275],[-122.13417,37.48199]]],"type":"Polygon"},"properties":{"bbox":{"roads":{"area":2242,"pct":9.48},"sidewalks":{"area":925.4,"pct":3.91}},"city_same":1,"id":"hex:3843:23952"},"type":"Feature"},{"geometry":{"coordinates":[[[-122.13505,37.45467],[-122.13448,37.45545],[-122.13334,37.45544],[-122.13279,37.45465],[-122.13312,37.4542],[-122.1332,37.45427],[-122.13341,37.45439],[-122.13346,37.45441],[-122.13358,37.45443],[-122.13375,37.45442],[-122.13404,37.45436],[-122.13427,37.45433],[-122.13455,37.45425],[-122.13472,37.45421],[-122.13505,37.45467]]],"type":"Polygon"},"properties":{"bbox":{"parking":{"area":737.53,"pct":3.77},"roads":{"area":2587.94,"pct":13.23},"sidewalks":{"area":197.62,"pct":1.01}},"city_same":1,"id":"hex:3844:23935"},"type":"Feature"},{"geometry":{"coordinates":[[[-122.13277,37.45622],[-122.13333,37.457],[-122.13446,37.45701],[-122.13503,37.45623],[-122.13448,37.45545],[-122.13334,37.45544],[-122.13277,37.45622]]],"type":"Polygon"},"properties":{"bbox":{"parking":{"area":473.71,"pct":1.82},"roads":{"area":10877.89,"pct":41.87},"sidewalks":{"area":543.41,"pct":2.09}},"city":{"parking":{"area":473.71,"pct":1.82},"roads":{"area":3178.68,"pct":12.23},"sidewalks":{"area":543.41,"pct":2.09}},"id":"hex:3844:23936"},"type":"Feature"},{"geometry":{"coordinates":[[[-122.13275,37.45778],[-122.13331,37.45856],[-122.13444,37.45857],[-122.13501,37.45779],[-122.13446,37.45701],[-122.13333,37.457],[-122.13275,37.45778]]],"type":"Polygon"},"properties":{"bbox":{"parking":{"area":296.21,"pct":1.14},"roads":{"area":3385.39,"pct":13.03},"sidewalks":{"area":802.7,"pct":3.09}},"city":{"parking":{"area":296.21,"pct":1.14},"roads":{"area":3333.95,"pct":12.83},"sidewalks":{"area":802.7,"pct":3.09}},"id":"hex:3844:23937"},"type":"Feature"},{"geometry":{"coordinates":[[[-122.13273,37.45934],[-122.13329,37.46012],[-122.13442,37.46013],[-122.135,37.45935],[-122.13444,37.45857],[-122.13331,37.45856],[-122.13273,37.45934]]],"type":"Polygon"},"properties":{"bbox":{"parking":{"area":3134.96,"pct":12.07},"roads":{"area":4172.8,"pct":16.06},"sidewalks":{"area":19.11,"pct":0.07}},"city_same":1,"id":"hex:3844:23938"},"type":"Feature"},{"geometry":{"coordinates":[[[-122.13272,37.4609],[-122.13327,37.46168],[-122.1344,37.46169],[-122.13498,37.46092],[-122.13442,37.46013],[-122.13329,37.46012],[-122.13272,37.4609]]],"type":"Polygon"},"properties":{"bbox":{"parking":{"area":4623.92,"pct":17.8},"roads":{"area":3256.81,"pct":12.54}},"city_same":1,"id":"hex:3844:23939"},"type":"Feature"},{"geometry":{"coordinates":[[[-122.1327,37.46246],[-122.13325,37.46324],[-122.13439,37.46325],[-122.13496,37.46248],[-122.1344,37.46169],[-122.13327,37.46168],[-122.1327,37.46246]]],"type":"Polygon"},"properties":{"bbox":{"parking":{"area":956.83,"pct":3.68},"roads":{"area":1971.37,"pct":7.59}},"city_same":1,"id":"hex:3844:23940"},"type":"Feature"},{"geometry":{"coordinates":[[[-122.13268,37.46402],[-122.13324,37.46481],[-122.13437,37.46481],[-122.13494,37.46404],[-122.13439,37.46325],[-122.13325,37.46324],[-122.13268,37.46402]]],"type":"Polygon"},"properties":{"bbox":{"parking":{"area":709.98,"pct":2.73},"roads":{"area":2469.81,"pct":9.51}},"city_same":1,"id":"hex:3844:23941"},"type":"Feature"},{"geometry":{"coordinates":[[[-122.13266,37.46558],[-122.13322,37.46637],[-122.13435,37.46637],[-122.13492,37.4656],[-122.13437,37.46481],[-122.13324,37.46481],[-122.13266,37.46558]]],"type":"Polygon"},"properties":{"bbox":{"parking":{"area":157.75,"pct":0.61},"roads":{"area":2084,"pct":8.02}},"city_same":1,"id":"hex:3844:23942"},"type":"Feature"},{"geometry":{"coordinates":[[[-122.13264,37.46714],[-122.1332,37.46793],[-122.13433,37.46794],[-122.13491,37.46716],[-122.13435,37.46637],[-122.13322,37.46637],[-122.13264,37.46714]]],"type":"Polygon"},"properties":{"bbox":{"parking":{"area":596.34,"pct":2.3},"roads":{"area":1726.8,"pct":6.65}},"city_same":1,"id":"hex:3844:23943"},"type":"Feature"},{"geometry":{"coordinates":[[[-122.13263,37.4687],[-122.13318,37.46949],[-122.13431,37.4695],[-122.13489,37.46872],[-122.13433,37.46794],[-122.1332,37.46793],[-122.13263,37.4687]]],"type":"Polygon"},"properties":{"bbox":{"parking":{"area":1080.66,"pct":4.16},"roads":{"area":2682.4,"pct":10.32}},"city_same":1,"id":"hex:3844:23944"},"type":"Feature"},{"geometry":{"coordinates":[[[-122.13261,37.47026],[-122.13316,37.47105],[-122.1343,37.47106],[-122.13487,37.47028],[-122.13431,37.4695],[-122.13318,37.46949],[-122.13261,37.47026]]],"type":"Polygon"},"properties":{"bbox":{"parking":{"area":698.63,"pct":2.69},"roads":{"area":1218.05,"pct":4.69},"sidewalks":{"area":209.28,"pct":0.81}},"city_same":1,"id":"hex:3844:23945"},"type":"Feature"},{"geometry":{"coordinates":[[[-122.13259,37.47183],[-122.13315,37.47261],[-122.13428,37.47262],[-122.13485,37.47184],[-122.1343,37.47106],[-122.13316,37.47105],[-122.13259,37.47183]]],"type":"Polygon"},"properties":{"bbox":{"parking":{"area":11431.34,"pct":44},"roads":{"area":5546.01,"pct":21.35},"sidewalks":{"area":775.39,"pct":2.98}},"city":{"parking":{"area":11431.34,"pct":44},"roads":{"area":2997.78,"pct":11.54},"sidewalks":{"area":775.39,"pct":2.98}},"id":"hex:3844:23946"},"type":"Feature"},{"geometry":{"coordinates":[[[-122.13257,37.47339],[-122.13313,37.47417],[-122.13426,37.47418],[-122.13483,37.4734],[-122.13428,37.47262],[-122.13315,37.47261],[-122.13257,37.47339]]],"type":"Polygon"},"properties":{"bbox":{"parking":{"area":10926.08,"pct":42.05},"roads":{"area":3073.31,"pct":11.83},"sidewalks":{"area":749.62,"pct":2.89}},"city_same":1,"id":"hex:3844:23947"},"type":"Feature"},{"geometry":{"coordinates":[[[-122.13255,37.47495],[-122.13311,37.47573],[-122.13424,37.47574],[-122.13482,37.47496],[-122.13426,37.47418],[-122.13313,37.47417],[-122.13255,37.47495]]],"type":"Polygon"},"properties":{"bbox":{"parking":{"area":3841.62,"pct":14.79},"roads":{"area":3448.58,"pct":13.27},"sidewalks":{"area":500.44,"pct":1.93}},"city_same":1,"id":"hex:3844:23948"},"type":"Feature"},{"geometry":{"coordinates":[[[-122.13254,37.47651],[-122.13309,37.47729],[-122.13422,37.4773],[-122.1348,37.47653],[-122.13424,37.47574],[-122.13311,37.47573],[-122.13254,37.47651]]],"type":"Polygon"},"properties":{"bbox":{"parking":{"area":1578.93,"pct":6.08},"roads":{"area":1683.87,"pct":6.48},"sidewalks":{"area":469.4,"pct":1.81}},"city_same":1,"id":"hex:3844:23949"},"type":"Feature"},{"geometry":{"coordinates":[[[-122.1325,37.47963],[-122.13306,37.48042],[-122.13419,37.48042],[-122.13476,37.47965],[-122.13421,37.47886],[-122.13307,37.47885],[-122.1325,37.47963]]],"type":"Polygon"},"properties":{"bbox":{"roads":{"area":1631.7,"pct":6.28},"sidewalks":{"area":588.93,"pct":2.27}},"city_same":1,"id":"hex:3844:23951"},"type":"Feature"},{"geometry":{"coordinates":[[[-122.13248,37.48119],[-122.13304,37.48198],[-122.13417,37.48199],[-122.13474,37.48121],[-122.13419,37.48042],[-122.13306,37.48042],[-122.13248,37.48119]]],"type":"Polygon"},"properties":{"bbox":{"roads":{"area":1772.66,"pct":6.82},"sidewalks":{"area":802.26,"pct":3.09}},"city_same":1,"id":"hex:3844:23952"},"type":"Feature"},{"geometry":{"coordinates":[[[-122.13246,37.48275],[-122.13304,37.48198],[-122.13417,37.48199],[-122.13471,37.48275],[-122.13411,37.48277],[-122.13283,37.48326],[-122.13246,37.48275]]],"type":"Polygon"},"properties":{"bbox":{"roads":{"area":933.6,"pct":5.46},"sidewalks":{"area":425.59,"pct":2.49}},"city_same":1,"id":"hex:3844:23953"},"type":"Feature"},{"geometry":{"coordinates":[[[-122.13279,37.45465],[-122.13166,37.45465],[-122.1311,37.45386],[-122.13146,37.45338],[-122.13149,37.45338],[-122.13154,37.45339],[-122.13158,37.45342],[-122.13168,37.45365],[-122.13176,37.45378],[-122.13189,37.45391],[-122.13211,37.45406],[-122.1323,37.4541],[-122.13269,37.45409],[-122.13297,37.45411],[-122.13305,37.45415],[-122.13312,37.4542],[-122.13279,37.45465]]],"type":"Polygon"},"properties":{"bbox":{"parking":{"area":318.29,"pct":2.65},"roads":{"area":1734.47,"pct":14.44},"sidewalks":{"area":7.15,"pct":0.06}},"city_same":1,"id":"hex:3845:23934"},"type":"Feature"},{"geometry":{"coordinates":[[[-122.13108,37.45542],[-122.13164,37.45621],[-122.13277,37.45622],[-122.13334,37.45544],[-122.13279,37.45465],[-122.13166,37.45465],[-122.13108,37.45542]]],"type":"Polygon"},"properties":{"bbox":{"parking":{"area":353.21,"pct":1.36},"roads":{"area":10238.69,"pct":39.41},"sidewalks":{"area":258.11,"pct":0.99}},"city":{"parking":{"area":353.21,"pct":1.36},"roads":{"area":2522.8,"pct":9.71},"sidewalks":{"area":258.11,"pct":0.99}},"id":"hex:3845:23935"},"type":"Feature"},{"geometry":{"coordinates":[[[-122.13107,37.45698],[-122.13162,37.45777],[-122.13275,37.45778],[-122.13333,37.457],[-122.13277,37.45622],[-122.13164,37.45621],[-122.13107,37.45698]]],"type":"Polygon"},"properties":{"bbox":{"roads":{"area":2562.3,"pct":9.86},"sidewalks":{"area":351.08,"pct":1.35}},"city_same":1,"id":"hex:3845:23936"},"type":"Feature"},{"geometry":{"coordinates":[[[-122.13105,37.45854],[-122.1316,37.45933],[-122.13273,37.45934],[-122.13331,37.45856],[-122.13275,37.45778],[-122.13162,37.45777],[-122.13105,37.45854]]],"type":"Polygon"},"properties":{"bbox":{"roads":{"area":3627.86,"pct":13.96},"sidewalks":{"area":1137.98,"pct":4.38}},"city_same":1,"id":"hex:3845:23937"},"type":"Feature"},{"geometry":{"coordinates":[[[-122.13103,37.46011],[-122.13159,37.46089],[-122.13272,37.4609],[-122.13329,37.46012],[-122.13273,37.45934],[-122.1316,37.45933],[-122.13103,37.46011]]],"type":"Polygon"},"properties":{"bbox":{"parking":{"area":477.92,"pct":1.84},"roads":{"area":4081.07,"pct":15.71},"sidewalks":{"area":651.8,"pct":2.51}},"city_same":1,"id":"hex:3845:23938"},"type":"Feature"},{"geometry":{"coordinates":[[[-122.13101,37.46167],[-122.13157,37.46245],[-122.1327,37.46246],[-122.13327,37.46168],[-122.13272,37.4609],[-122.13159,37.46089],[-122.13101,37.46167]]],"type":"Polygon"},"properties":{"bbox":{"parking":{"area":2443.91,"pct":9.41},"roads":{"area":280.39,"pct":1.08}},"city_same":1,"id":"hex:3845:23939"},"type":"Feature"},{"geometry":{"coordinates":[[[-122.13099,37.46323],[-122.13155,37.46401],[-122.13268,37.46402],[-122.13325,37.46324],[-122.1327,37.46246],[-122.13157,37.46245],[-122.13099,37.46323]]],"type":"Polygon"},"properties":{"bbox":{"parking":{"area":1884.9,"pct":7.25},"roads":{"area":2696.67,"pct":10.38}},"city_same":1,"id":"hex:3845:23940"},"type":"Feature"},{"geometry":{"coordinates":[[[-122.13098,37.46479],[-122.13153,37.46557],[-122.13266,37.46558],[-122.13324,37.46481],[-122.13268,37.46402],[-122.13155,37.46401],[-122.13098,37.46479]]],"type":"Polygon"},"properties":{"bbox":{"parking":{"area":2891.65,"pct":11.13},"roads":{"area":2412.28,"pct":9.28}},"city_same":1,"id":"hex:3845:23941"},"type":"Feature"},{"geometry":{"coordinates":[[[-122.13096,37.46635],[-122.13151,37.46713],[-122.13264,37.46714],[-122.13322,37.46637],[-122.13266,37.46558],[-122.13153,37.46557],[-122.13096,37.46635]]],"type":"Polygon"},"properties":{"bbox":{"parking":{"area":306.8,"pct":1.18},"roads":{"area":1784.31,"pct":6.87}},"city_same":1,"id":"hex:3845:23942"},"type":"Feature"},{"geometry":{"coordinates":[[[-122.13094,37.46791],[-122.1315,37.4687],[-122.13263,37.4687],[-122.1332,37.46793],[-122.13264,37.46714],[-122.13151,37.46713],[-122.13094,37.46791]]],"type":"Polygon"},"properties":{"bbox":{"parking":{"area":1303.84,"pct":5.02},"roads":{"area":1700.48,"pct":6.55}},"city_same":1,"id":"hex:3845:23943"},"type":"Feature"},{"geometry":{"coordinates":[[[-122.13092,37.46947],[-122.13148,37.47026],[-122.13261,37.47026],[-122.13318,37.46949],[-122.13263,37.4687],[-122.1315,37.4687],[-122.13092,37.46947]]],"type":"Polygon"},"properties":{"bbox":{"roads":{"area":2579.23,"pct":9.93}},"city_same":1,"id":"hex:3845:23944"},"type":"Feature"},{"geometry":{"coordinates":[[[-122.1309,37.47103],[-122.13146,37.47182],[-122.13259,37.47183],[-122.13316,37.47105],[-122.13261,37.47026],[-122.13148,37.47026],[-122.1309,37.47103]]],"type":"Polygon"},"properties":{"bbox":{"parking":{"area":7479.75,"pct":28.79},"roads":{"area":3044.26,"pct":11.72},"sidewalks":{"area":705.72,"pct":2.72}},"city_same":1,"id":"hex:3845:23945"},"type":"Feature"},{"geometry":{"coordinates":[[[-122.13088,37.47259],[-122.13144,37.47338],[-122.13257,37.47339],[-122.13315,37.47261],[-122.13259,37.47183],[-122.13146,37.47182],[-122.13088,37.47259]]],"type":"Polygon"},"properties":{"bbox":{"parking":{"area":1406.36,"pct":5.41},"roads":{"area":4986.9,"pct":19.19},"sidewalks":{"area":1304.86,"pct":5.02}},"city":{"parking":{"area":1406.36,"pct":5.41},"roads":{"area":3201.77,"pct":12.32},"sidewalks":{"area":1304.86,"pct":5.02}},"id":"hex:3845:23946"},"type":"Feature"},{"geometry":{"coordinates":[[[-122.13087,37.47415],[-122.13142,37.47494],[-122.13255,37.47495],[-122.13313,37.47417],[-122.13257,37.47339],[-122.13144,37.47338],[-122.13087,37.47415]]],"type":"Polygon"},"properties":{"bbox":{"parking":{"area":2835.64,"pct":10.91},"roads":{"area":3217.8,"pct":12.39},"sidewalks":{"area":247.17,"pct":0.95}},"city_same":1,"id":"hex:3845:23947"},"type":"Feature"},{"geometry":{"coordinates":[[[-122.13085,37.47572],[-122.13141,37.4765],[-122.13254,37.47651],[-122.13311,37.47573],[-122.13255,37.47495],[-122.13142,37.47494],[-122.13085,37.47572]]],"type":"Polygon"},"properties":{"bbox":{"parking":{"area":3667.81,"pct":14.12},"roads":{"area":2184.94,"pct":8.41},"sidewalks":{"area":95.66,"pct":0.37}},"city_same":1,"id":"hex:3845:23948"},"type":"Feature"},{"geometry":{"coordinates":[[[-122.13083,37.47728],[-122.13139,37.47806],[-122.13252,37.47807],[-122.13309,37.47729],[-122.13254,37.47651],[-122.13141,37.4765],[-122.13083,37.47728]]],"type":"Polygon"},"properties":{"bbox":{"parking":{"area":53.63,"pct":0.21}},"city_same":1,"id":"hex:3845:23949"},"type":"Feature"},{"geometry":{"coordinates":[[[-122.1311,37.45386],[-122.12997,37.45385],[-122.12941,37.45307],[-122.12956,37.45287],[-122.1298,37.45303],[-122.12997,37.45318],[-122.13013,37.45325],[-122.13035,37.4533],[-122.13053,37.4533],[-122.13068,37.45328],[-122.13101,37.45335],[-122.13123,37.45338],[-122.13146,37.45338],[-122.1311,37.45386]]],"type":"Polygon"},"properties":{"bbox":{"roads":{"area":1991.34,"pct":20.6},"sidewalks":{"area":6.77,"pct":0.07}},"city":{"roads":{"area":1979.91,"pct":20.49},"sidewalks":{"area":6.77,"pct":0.07}},"id":"hex:3846:23934"},"type":"Feature"},{"geometry":{"coordinates":[[[-122.1294,37.45463],[-122.12995,37.45541],[-122.13108,37.45542],[-122.13166,37.45465],[-122.1311,37.45386],[-122.12997,37.45385],[-122.1294,37.45463]]],"type":"Polygon"},"properties":{"bbox":{"parking":{"area":1786.64,"pct":6.88},"roads":{"area":10908.92,"pct":41.99},"sidewalks":{"area":133.21,"pct":0.51}},"city":{"parking":{"area":1786.64,"pct":6.88},"roads":{"area":3238.23,"pct":12.46},"sidewalks":{"area":133.21,"pct":0.51}},"id":"hex:3846:23935"},"type":"Feature"},{"geometry":{"coordinates":[[[-122.12938,37.45619],[-122.12993,37.45698],[-122.13107,37.45698],[-122.13164,37.45621],[-122.13108,37.45542],[-122.12995,37.45541],[-122.12938,37.45619]]],"type":"Polygon"},"properties":{"bbox":{"parking":{"area":283.96,"pct":1.09},"roads":{"area":2399.45,"pct":9.24}},"city_same":1,"id":"hex:3846:23936"},"type":"Feature"},{"geometry":{"coordinates":[[[-122.12936,37.45775],[-122.12992,37.45854],[-122.13105,37.45854],[-122.13162,37.45777],[-122.13107,37.45698],[-122.12993,37.45698],[-122.12936,37.45775]]],"type":"Polygon"},"properties":{"bbox":{"parking":{"area":1468.09,"pct":5.65},"roads":{"area":3470.04,"pct":13.36},"sidewalks":{"area":865.48,"pct":3.33}},"city_same":1,"id":"hex:3846:23937"},"type":"Feature"},{"geometry":{"coordinates":[[[-122.12934,37.45931],[-122.1299,37.4601],[-122.13103,37.46011],[-122.1316,37.45933],[-122.13105,37.45854],[-122.12992,37.45854],[-122.12934,37.45931]]],"type":"Polygon"},"properties":{"bbox":{"parking":{"area":497.83,"pct":1.92},"roads":{"area":3436,"pct":13.23},"sidewalks":{"area":688.71,"pct":2.65}},"city_same":1,"id":"hex:3846:23938"},"type":"Feature"},{"geometry":{"coordinates":[[[-122.12932,37.46087],[-122.12988,37.46166],[-122.13101,37.46167],[-122.13159,37.46089],[-122.13103,37.46011],[-122.1299,37.4601],[-122.12932,37.46087]]],"type":"Polygon"},"properties":{"bbox":{"parking":{"area":3999.39,"pct":15.39},"roads":{"area":4524.47,"pct":17.41},"sidewalks":{"area":415.21,"pct":1.6}},"city_same":1,"id":"hex:3846:23939"},"type":"Feature"},{"geometry":{"coordinates":[[[-122.12931,37.46243],[-122.12986,37.46322],[-122.13099,37.46323],[-122.13157,37.46245],[-122.13101,37.46167],[-122.12988,37.46166],[-122.12931,37.46243]]],"type":"Polygon"},"properties":{"bbox":{"parking":{"area":1110.07,"pct":4.27},"roads":{"area":2323.9,"pct":8.94}},"city_same":1,"id":"hex:3846:23940"},"type":"Feature"},{"geometry":{"coordinates":[[[-122.12929,37.464],[-122.12984,37.46478],[-122.13098,37.46479],[-122.13155,37.46401],[-122.13099,37.46323],[-122.12986,37.46322],[-122.12929,37.464]]],"type":"Polygon"},"properties":{"bbox":{"parking":{"area":1643.42,"pct":6.33},"roads":{"area":2882.43,"pct":11.09}},"city_same":1,"id":"hex:3846:23941"},"type":"Feature"},{"geometry":{"coordinates":[[[-122.12927,37.46556],[-122.12983,37.46634],[-122.13096,37.46635],[-122.13153,37.46557],[-122.13098,37.46479],[-122.12984,37.46478],[-122.12927,37.46556]]],"type":"Polygon"},"properties":{"bbox":{"roads":{"area":2961.35,"pct":11.4}},"city_same":1,"id":"hex:3846:23942"},"type":"Feature"},{"geometry":{"coordinates":[[[-122.12925,37.46712],[-122.12981,37.4679],[-122.13094,37.46791],[-122.13151,37.46713],[-122.13096,37.46635],[-122.12983,37.46634],[-122.12925,37.46712]]],"type":"Polygon"},"properties":{"bbox":{"parking":{"area":930.25,"pct":3.58},"roads":{"area":3139.29,"pct":12.08}},"city_same":1,"id":"hex:3846:23943"},"type":"Feature"},{"geometry":{"coordinates":[[[-122.12923,37.46868],[-122.12979,37.46946],[-122.13092,37.46947],[-122.1315,37.4687],[-122.13094,37.46791],[-122.12981,37.4679],[-122.12923,37.46868]]],"type":"Polygon"},"properties":{"bbox":{"parking":{"area":626.9,"pct":2.41},"roads":{"area":3260.87,"pct":12.55},"sidewalks":{"area":262.6,"pct":1.01}},"city_same":1,"id":"hex:3846:23944"},"type":"Feature"},{"geometry":{"coordinates":[[[-122.12922,37.47024],[-122.12977,37.47102],[-122.1309,37.47103],[-122.13148,37.47026],[-122.13092,37.46947],[-122.12979,37.46946],[-122.12922,37.47024]]],"type":"Polygon"},"properties":{"bbox":{"parking":{"area":1763.39,"pct":6.79},"roads":{"area":2724.12,"pct":10.49},"sidewalks":{"area":622.09,"pct":2.39}},"city_same":1,"id":"hex:3846:23945"},"type":"Feature"},{"geometry":{"coordinates":[[[-122.1292,37.4718],[-122.12975,37.47259],[-122.13088,37.47259],[-122.13146,37.47182],[-122.1309,37.47103],[-122.12977,37.47102],[-122.1292,37.4718]]],"type":"Polygon"},"properties":{"bbox":{"parking":{"area":2888.99,"pct":11.12},"roads":{"area":2027.21,"pct":7.8},"sidewalks":{"area":339.44,"pct":1.31}},"city_same":1,"id":"hex:3846:23946"},"type":"Feature"},{"geometry":{"coordinates":[[[-122.12918,37.47336],[-122.12974,37.47415],[-122.13087,37.47415],[-122.13144,37.47338],[-122.13088,37.47259],[-122.12975,37.47259],[-122.12918,37.47336]]],"type":"Polygon"},"properties":{"bbox":{"parking":{"area":5618.8,"pct":21.63},"roads":{"area":2956.16,"pct":11.38},"sidewalks":{"area":359.71,"pct":1.38}},"city_same":1,"id":"hex:3846:23947"},"type":"Feature"},{"geometry":{"coordinates":[[[-122.12916,37.47492],[-122.12972,37.47571],[-122.13085,37.47572],[-122.13142,37.47494],[-122.13087,37.47415],[-122.12974,37.47415],[-122.12916,37.47492]]],"type":"Polygon"},"properties":{"bbox":{"parking":{"area":3135.77,"pct":12.07},"roads":{"area":1352.7,"pct":5.21}},"city_same":1,"id":"hex:3846:23948"},"type":"Feature"},{"geometry":{"coordinates":[[[[-122.12972,37.47571],[-122.13085,37.47572],[-122.13141,37.4765],[-122.13083,37.47728],[-122.1297,37.47727],[-122.12917,37.47652],[-122.12919,37.47651],[-122.12942,37.47641],[-122.12948,37.47632],[-122.1296,37.47626],[-122.12957,37.47623],[-122.12943,37.47624],[-122.12938,37.47617],[-122.12972,37.47571]]],[[[-122.12931,37.47626],[-122.12931,37.47627],[-122.1293,37.47627],[-122.12931,37.47626]]]],"type":"MultiPolygon"},"properties":{"bbox":{"parking":{"area":6926.76,"pct":27.28},"roads":{"area":916.74,"pct":3.61}},"city_same":1,"id":"hex:3846:23949"},"type":"Feature"},{"geometry":{"coordinates":[[[[-122.12941,37.45307],[-122.12828,37.45306],[-122.12803,37.45271],[-122.12811,37.45257],[-122.12812,37.45253],[-122.12811,37.45248],[-122.12802,37.45245],[-122.12801,37.45244],[-122.128,37.45233],[-122.12802,37.45229],[-122.12796,37.45215],[-122.12797,37.4521],[-122.12806,37.45198],[-122.12813,37.45193],[-122.12826,37.45187],[-122.12841,37.45185],[-122.12859,37.45187],[-122.12864,37.45189],[-122.12893,37.45208],[-122.12911,37.45225],[-122.12932,37.45263],[-122.12944,37.45278],[-122.12949,37.45283],[-122.12956,37.45287],[-122.12941,37.45307]]],[[[-122.12844,37.45182],[-122.12838,37.45182],[-122.12838,37.45182],[-122.12844,37.45182]]]],"type":"MultiPolygon"},"properties":{"bbox":{"parking":{"area":914.12,"pct":6.98},"roads":{"area":1787.41,"pct":13.65},"sidewalks":{"area":144.59,"pct":1.1}},"city":{"parking":{"area":914.12,"pct":6.98},"roads":{"area":1064.28,"pct":8.13},"sidewalks":{"area":144.59,"pct":1.1}},"id":"hex:3847:23933"},"type":"Feature"},{"geometry":{"coordinates":[[[-122.12771,37.45384],[-122.12827,37.45462],[-122.1294,37.45463],[-122.12997,37.45385],[-122.12941,37.45307],[-122.12828,37.45306],[-122.12771,37.45384]]],"type":"Polygon"},"properties":{"bbox":{"roads":{"area":10433.81,"pct":40.16},"sidewalks":{"area":110.91,"pct":0.43}},"city":{"roads":{"area":3021.14,"pct":11.63},"sidewalks":{"area":110.91,"pct":0.43}},"id":"hex:3847:23934"},"type":"Feature"},{"geometry":{"coordinates":[[[-122.12769,37.4554],[-122.12825,37.45618],[-122.12938,37.45619],[-122.12995,37.45541],[-122.1294,37.45463],[-122.12827,37.45462],[-122.12769,37.4554]]],"type":"Polygon"},"properties":{"bbox":{"roads":{"area":3233.98,"pct":12.45}},"city_same":1,"id":"hex:3847:23935"},"type":"Feature"},{"geometry":{"coordinates":[[[-122.12767,37.45696],[-122.12823,37.45774],[-122.12936,37.45775],[-122.12993,37.45698],[-122.12938,37.45619],[-122.12825,37.45618],[-122.12767,37.45696]]],"type":"Polygon"},"properties":{"bbox":{"roads":{"area":2419.84,"pct":9.31}},"city_same":1,"id":"hex:3847:23936"},"type":"Feature"},{"geometry":{"coordinates":[[[-122.12766,37.45852],[-122.12821,37.4593],[-122.12934,37.45931],[-122.12992,37.45854],[-122.12936,37.45775],[-122.12823,37.45774],[-122.12766,37.45852]]],"type":"Polygon"},"properties":{"bbox":{"roads":{"area":2647.81,"pct":10.19}},"city_same":1,"id":"hex:3847:23937"},"type":"Feature"},{"geometry":{"coordinates":[[[-122.12764,37.46008],[-122.12819,37.46087],[-122.12932,37.46087],[-122.1299,37.4601],[-122.12934,37.45931],[-122.12821,37.4593],[-122.12764,37.46008]]],"type":"Polygon"},"properties":{"bbox":{"parking":{"area":621.67,"pct":2.39},"roads":{"area":2312.35,"pct":8.9}},"city_same":1,"id":"hex:3847:23938"},"type":"Feature"},{"geometry":{"coordinates":[[[-122.12762,37.46164],[-122.12818,37.46243],[-122.12931,37.46243],[-122.12988,37.46166],[-122.12932,37.46087],[-122.12819,37.46087],[-122.12762,37.46164]]],"type":"Polygon"},"properties":{"bbox":{"parking":{"area":669.05,"pct":2.58},"roads":{"area":3280.35,"pct":12.63}},"city_same":1,"id":"hex:3847:23939"},"type":"Feature"},{"geometry":{"coordinates":[[[-122.1276,37.4632],[-122.12816,37.46399],[-122.12929,37.464],[-122.12986,37.46322],[-122.12931,37.46243],[-122.12818,37.46243],[-122.1276,37.4632]]],"type":"Polygon"},"properties":{"bbox":{"roads":{"area":2702.13,"pct":10.4}},"city_same":1,"id":"hex:3847:23940"},"type":"Feature"},{"geometry":{"coordinates":[[[-122.12758,37.46476],[-122.12814,37.46555],[-122.12927,37.46556],[-122.12984,37.46478],[-122.12929,37.464],[-122.12816,37.46399],[-122.12758,37.46476]]],"type":"Polygon"},"properties":{"bbox":{"roads":{"area":2027.87,"pct":7.81}},"city_same":1,"id":"hex:3847:23941"},"type":"Feature"},{"geometry":{"coordinates":[[[-122.12756,37.46632],[-122.12812,37.46711],[-122.12925,37.46712],[-122.12983,37.46634],[-122.12927,37.46556],[-122.12814,37.46555],[-122.12756,37.46632]]],"type":"Polygon"},"properties":{"bbox":{"roads":{"area":1549.11,"pct":5.96}},"city_same":1,"id":"hex:3847:23942"},"type":"Feature"},{"geometry":{"coordinates":[[[-122.12755,37.46789],[-122.1281,37.46867],[-122.12923,37.46868],[-122.12981,37.4679],[-122.12925,37.46712],[-122.12812,37.46711],[-122.12755,37.46789]]],"type":"Polygon"},"properties":{"bbox":{"parking":{"area":3272.17,"pct":12.59},"roads":{"area":2063.29,"pct":7.94},"sidewalks":{"area":136.46,"pct":0.53}},"city_same":1,"id":"hex:3847:23943"},"type":"Feature"},{"geometry":{"coordinates":[[[-122.12753,37.46945],[-122.12808,37.47023],[-122.12922,37.47024],[-122.12979,37.46946],[-122.12923,37.46868],[-122.1281,37.46867],[-122.12753,37.46945]]],"type":"Polygon"},"properties":{"bbox":{"parking":{"area":829.84,"pct":3.19},"roads":{"area":1325.15,"pct":5.1}},"city_same":1,"id":"hex:3847:23944"},"type":"Feature"},{"geometry":{"coordinates":[[[-122.12751,37.47101],[-122.12807,37.47179],[-122.1292,37.4718],[-122.12977,37.47102],[-122.12922,37.47024],[-122.12808,37.47023],[-122.12751,37.47101]]],"type":"Polygon"},"properties":{"bbox":{"parking":{"area":782.14,"pct":3.01},"roads":{"area":594.17,"pct":2.29}},"city_same":1,"id":"hex:3847:23945"},"type":"Feature"},{"geometry":{"coordinates":[[[-122.12749,37.47257],[-122.12805,37.47335],[-122.12918,37.47336],[-122.12975,37.47259],[-122.1292,37.4718],[-122.12807,37.47179],[-122.12749,37.47257]]],"type":"Polygon"},"properties":{"bbox":{"parking":{"area":1358.4,"pct":5.23}},"city_same":1,"id":"hex:3847:23946"},"type":"Feature"},{"geometry":{"coordinates":[[[-122.12747,37.47413],[-122.12803,37.47491],[-122.12916,37.47492],[-122.12974,37.47415],[-122.12918,37.47336],[-122.12805,37.47335],[-122.12747,37.47413]]],"type":"Polygon"},"properties":{"bbox":{"parking":{"area":1939.8,"pct":7.47},"roads":{"area":1216.15,"pct":4.68},"sidewalks":{"area":260.72,"pct":1}},"city_same":1,"id":"hex:3847:23947"},"type":"Feature"},{"geometry":{"coordinates":[[[-122.12746,37.47569],[-122.12803,37.47491],[-122.12916,37.47492],[-122.12972,37.47571],[-122.12938,37.47617],[-122.12937,37.47616],[-122.12926,37.4762],[-122.12931,37.47626],[-122.1293,37.47627],[-122.12904,37.4764],[-122.12898,37.47633],[-122.12902,37.4763],[-122.12894,37.47619],[-122.1289,37.47618],[-122.12885,37.47599],[-122.12875,37.47605],[-122.1287,37.47602],[-122.12861,37.47604],[-122.12873,37.4762],[-122.12864,37.47624],[-122.12867,37.47628],[-122.12859,37.47632],[-122.12844,37.47615],[-122.12834,37.47601],[-122.12834,37.476],[-122.1284,37.47597],[-122.12861,37.47589],[-122.12864,37.4759],[-122.1287,37.47583],[-122.12861,37.47584],[-122.12846,37.47586],[-122.12825,37.4759],[-122.12813,37.47595],[-122.12854,37.4764],[-122.12863,37.47647],[-122.12865,37.47648],[-122.12831,37.47648],[-122.1276,37.4759],[-122.12746,37.47569]],[[-122.12936,37.476],[-122.1293,37.47602],[-122.12937,37.47611],[-122.12942,37.47609],[-122.12936,37.476]]],"type":"Polygon"},"properties":{"bbox":{"roads":{"area":1100.89,"pct":4.91}},"city_same":1,"id":"hex:3847:23948"},"type":"Feature"},{"geometry":{"coordinates":[[[-122.1297,37.47727],[-122.12954,37.47748],[-122.12942,37.47739],[-122.12831,37.47648],[-122.12865,37.47648],[-122.12874,37.4765],[-122.1288,37.47653],[-122.12907,37.47658],[-122.12917,37.47652],[-122.1297,37.47727]]],"type":"Polygon"},"properties":{"bbox":{"roads":{"area":323.5,"pct":6.43}},"city_same":1,"id":"hex:3847:23949"},"type":"Feature"},{"geometry":{"coordinates":[[[-122.12828,37.45306],[-122.12771,37.45384],[-122.12658,37.45383],[-122.12648,37.45368],[-122.1267,37.45371],[-122.12688,37.4537],[-122.12705,37.45366],[-122.1272,37.45362],[-122.12741,37.45352],[-122.12749,37.45344],[-122.12756,37.45334],[-122.12764,37.45326],[-122.12774,37.4532],[-122.12779,37.45315],[-122.12803,37.45271],[-122.12828,37.45306]]],"type":"Polygon"},"properties":{"bbox":{"roads":{"area":1629.69,"pct":28.18}},"city":{"roads":{"area":442.77,"pct":7.66}},"id":"hex:3848:23934"},"type":"Feature"},{"geometry":{"coordinates":[[[-122.12601,37.4546],[-122.12656,37.45539],[-122.12769,37.4554],[-122.12827,37.45462],[-122.12771,37.45384],[-122.12658,37.45383],[-122.12601,37.4546]]],"type":"Polygon"},"properties":{"bbox":{"roads":{"area":1863.61,"pct":7.17}},"city_same":1,"id":"hex:3848:23935"},"type":"Feature"},{"geometry":{"coordinates":[[[-122.12599,37.45617],[-122.12654,37.45695],[-122.12767,37.45696],[-122.12825,37.45618],[-122.12769,37.4554],[-122.12656,37.45539],[-122.12599,37.45617]]],"type":"Polygon"},"properties":{"bbox":{"roads":{"area":2006.57,"pct":7.72}},"city_same":1,"id":"hex:3848:23936"},"type":"Feature"},{"geometry":{"coordinates":[[[-122.12597,37.45773],[-122.12653,37.45851],[-122.12766,37.45852],[-122.12823,37.45774],[-122.12767,37.45696],[-122.12654,37.45695],[-122.12597,37.45773]]],"type":"Polygon"},"properties":{"bbox":{"roads":{"area":2365.67,"pct":9.11}},"city_same":1,"id":"hex:3848:23937"},"type":"Feature"},{"geometry":{"coordinates":[[[-122.12595,37.45929],[-122.12651,37.46007],[-122.12764,37.46008],[-122.12821,37.4593],[-122.12766,37.45852],[-122.12653,37.45851],[-122.12595,37.45929]]],"type":"Polygon"},"properties":{"bbox":{"roads":{"area":3584.25,"pct":13.8}},"city_same":1,"id":"hex:3848:23938"},"type":"Feature"},{"geometry":{"coordinates":[[[-122.12593,37.46085],[-122.12649,37.46163],[-122.12762,37.46164],[-122.12819,37.46087],[-122.12764,37.46008],[-122.12651,37.46007],[-122.12593,37.46085]]],"type":"Polygon"},"properties":{"bbox":{"roads":{"area":3483.58,"pct":13.41}},"city_same":1,"id":"hex:3848:23939"},"type":"Feature"},{"geometry":{"coordinates":[[[-122.12591,37.46241],[-122.12647,37.46319],[-122.1276,37.4632],[-122.12818,37.46243],[-122.12762,37.46164],[-122.12649,37.46163],[-122.12591,37.46241]]],"type":"Polygon"},"properties":{"bbox":{"parking":{"area":711.58,"pct":2.74},"roads":{"area":2480.14,"pct":9.55}},"city_same":1,"id":"hex:3848:23940"},"type":"Feature"},{"geometry":{"coordinates":[[[-122.1259,37.46397],[-122.12645,37.46476],[-122.12758,37.46476],[-122.12816,37.46399],[-122.1276,37.4632],[-122.12647,37.46319],[-122.1259,37.46397]]],"type":"Polygon"},"properties":{"bbox":{"roads":{"area":873.82,"pct":3.36}},"city_same":1,"id":"hex:3848:23941"},"type":"Feature"},{"geometry":{"coordinates":[[[-122.12588,37.46553],[-122.12643,37.46632],[-122.12756,37.46632],[-122.12814,37.46555],[-122.12758,37.46476],[-122.12645,37.46476],[-122.12588,37.46553]]],"type":"Polygon"},"properties":{"bbox":{"roads":{"area":1405.55,"pct":5.41}},"city_same":1,"id":"hex:3848:23942"},"type":"Feature"},{"geometry":{"coordinates":[[[-122.12586,37.46709],[-122.12642,37.46788],[-122.12755,37.46789],[-122.12812,37.46711],[-122.12756,37.46632],[-122.12643,37.46632],[-122.12586,37.46709]]],"type":"Polygon"},"properties":{"bbox":{"roads":{"area":717.8,"pct":2.76}},"city_same":1,"id":"hex:3848:23943"},"type":"Feature"},{"geometry":{"coordinates":[[[-122.12584,37.46865],[-122.1264,37.46944],[-122.12753,37.46945],[-122.1281,37.46867],[-122.12755,37.46789],[-122.12642,37.46788],[-122.12584,37.46865]]],"type":"Polygon"},"properties":{"bbox":{"parking":{"area":190.14,"pct":0.73},"roads":{"area":925.74,"pct":3.56},"sidewalks":{"area":123.07,"pct":0.47}},"city_same":1,"id":"hex:3848:23944"},"type":"Feature"},{"geometry":{"coordinates":[[[-122.12582,37.47021],[-122.12638,37.471],[-122.12751,37.47101],[-122.12808,37.47023],[-122.12753,37.46945],[-122.1264,37.46944],[-122.12582,37.47021]]],"type":"Polygon"},"properties":{"bbox":{"roads":{"area":63.75,"pct":0.25}},"city_same":1,"id":"hex:3848:23945"},"type":"Feature"},{"geometry":{"coordinates":[[[-122.12577,37.4749],[-122.12634,37.47412],[-122.12747,37.47413],[-122.12803,37.47491],[-122.12746,37.47569],[-122.12735,37.47569],[-122.12671,37.47516],[-122.12611,37.47537],[-122.12577,37.4749]]],"type":"Polygon"},"properties":{"bbox":{"roads":{"area":1808.71,"pct":8.14},"sidewalks":{"area":205.43,"pct":0.92}},"city_same":1,"id":"hex:3848:23948"},"type":"Feature"},{"geometry":{"coordinates":[[[-122.12658,37.45383],[-122.12601,37.4546],[-122.12487,37.4546],[-122.12432,37.45381],[-122.12489,37.45304],[-122.12507,37.45304],[-122.12524,37.45313],[-122.12536,37.45317],[-122.1255,37.45325],[-122.12569,37.45342],[-122.12592,37.45358],[-122.12622,37.45366],[-122.12648,37.45368],[-122.12658,37.45383]]],"type":"Polygon"},"properties":{"bbox":{"roads":{"area":1550.7,"pct":7.02}},"city_same":1,"id":"hex:3849:23934"},"type":"Feature"},{"geometry":{"coordinates":[[[-122.1243,37.45537],[-122.12486,37.45616],[-122.12599,37.45617],[-122.12656,37.45539],[-122.12601,37.4546],[-122.12487,37.4546],[-122.1243,37.45537]]],"type":"Polygon"},"properties":{"bbox":{"roads":{"area":2138.01,"pct":8.23}},"city_same":1,"id":"hex:3849:23935"},"type":"Feature"},{"geometry":{"coordinates":[[[-122.12428,37.45693],[-122.12484,37.45772],[-122.12597,37.45773],[-122.12654,37.45695],[-122.12599,37.45617],[-122.12486,37.45616],[-122.12428,37.45693]]],"type":"Polygon"},"properties":{"bbox":{"roads":{"area":3345.94,"pct":12.88}},"city_same":1,"id":"hex:3849:23936"},"type":"Feature"},{"geometry":{"coordinates":[[[-122.12426,37.45849],[-122.12482,37.45928],[-122.12595,37.45929],[-122.12653,37.45851],[-122.12597,37.45773],[-122.12484,37.45772],[-122.12426,37.45849]]],"type":"Polygon"},"properties":{"bbox":{"roads":{"area":2169.65,"pct":8.35}},"city_same":1,"id":"hex:3849:23937"},"type":"Feature"},{"geometry":{"coordinates":[[[-122.12425,37.46006],[-122.1248,37.46084],[-122.12593,37.46085],[-122.12651,37.46007],[-122.12595,37.45929],[-122.12482,37.45928],[-122.12425,37.46006]]],"type":"Polygon"},"properties":{"bbox":{"roads":{"area":1511.53,"pct":5.82}},"city_same":1,"id":"hex:3849:23938"},"type":"Feature"},{"geometry":{"coordinates":[[[-122.12478,37.4624],[-122.12423,37.46162],[-122.1248,37.46084],[-122.12593,37.46085],[-122.12649,37.46163],[-122.12591,37.46241],[-122.1255,37.46241],[-122.12551,37.46239],[-122.12552,37.46219],[-122.12547,37.46199],[-122.12537,37.46183],[-122.12539,37.46176],[-122.1253,37.46159],[-122.12518,37.46139],[-122.12509,37.46132],[-122.12506,37.46123],[-122.12499,37.46122],[-122.1249,37.46132],[-122.12491,37.46141],[-122.12499,37.46144],[-122.12499,37.46156],[-122.12495,37.46173],[-122.12499,37.46183],[-122.12493,37.462],[-122.12507,37.46219],[-122.1251,37.4624],[-122.12478,37.4624]]],"type":"Polygon"},"properties":{"bbox":{"roads":{"area":653.64,"pct":3.02}},"city_same":1,"id":"hex:3849:23939"},"type":"Feature"},{"geometry":{"coordinates":[[[-122.12591,37.46241],[-122.12647,37.46319],[-122.1259,37.46397],[-122.12477,37.46396],[-122.12421,37.46318],[-122.12478,37.4624],[-122.1251,37.4624],[-122.1251,37.46244],[-122.12514,37.46255],[-122.12525,37.46256],[-122.12543,37.4625],[-122.1255,37.46241],[-122.12591,37.46241]]],"type":"Polygon"},"properties":{"bbox":{"parking":{"area":109.17,"pct":0.43},"roads":{"area":13.19,"pct":0.05}},"city_same":1,"id":"hex:3849:23940"},"type":"Feature"},{"geometry":{"coordinates":[[[-122.12406,37.47567],[-122.12464,37.47489],[-122.12577,37.4749],[-122.12611,37.47537],[-122.1243,37.476],[-122.12406,37.47567]]],"type":"Polygon"},"properties":{"bbox":{"parking":{"area":54.62,"pct":0.41},"roads":{"area":1242.13,"pct":9.34}},"city_same":1,"id":"hex:3849:23948"},"type":"Feature"},{"geometry":{"coordinates":[[[-122.12489,37.45304],[-122.12432,37.45381],[-122.12319,37.4538],[-122.12283,37.45329],[-122.12329,37.45316],[-122.12364,37.45301],[-122.12414,37.45285],[-122.12435,37.45282],[-122.12473,37.45289],[-122.12481,37.45292],[-122.12489,37.45304]]],"type":"Polygon"},"properties":{"bbox":{"roads":{"area":685.13,"pct":5.15}},"city_same":1,"id":"hex:3850:23934"},"type":"Feature"},{"geometry":{"coordinates":[[[-122.12261,37.45458],[-122.12317,37.45536],[-122.1243,37.45537],[-122.12487,37.4546],[-122.12432,37.45381],[-122.12319,37.4538],[-122.12261,37.45458]]],"type":"Polygon"},"properties":{"bbox":{"roads":{"area":2379.6,"pct":9.16}},"city_same":1,"id":"hex:3850:23935"},"type":"Feature"},{"geometry":{"coordinates":[[[-122.12317,37.45536],[-122.1243,37.45537],[-122.12486,37.45616],[-122.12428,37.45693],[-122.12315,37.45693],[-122.12297,37.45667],[-122.12297,37.45662],[-122.12294,37.45636],[-122.12288,37.45611],[-122.1228,37.45593],[-122.12278,37.45589],[-122.12317,37.45536]]],"type":"Polygon"},"properties":{"bbox":{"roads":{"area":1711.49,"pct":6.9}},"city_same":1,"id":"hex:3850:23936"},"type":"Feature"},{"geometry":{"coordinates":[[[-122.12315,37.45693],[-122.12428,37.45693],[-122.12484,37.45772],[-122.12426,37.45849],[-122.12316,37.45849],[-122.12313,37.45837],[-122.12291,37.45784],[-122.12286,37.45766],[-122.12289,37.45728],[-122.12315,37.45693]]],"type":"Polygon"},"properties":{"bbox":{"roads":{"area":1235.35,"pct":5.11}},"city_same":1,"id":"hex:3850:23937"},"type":"Feature"},{"geometry":{"coordinates":[[[-122.12236,37.47643],[-122.12263,37.47606],[-122.12357,37.47573],[-122.12357,37.47566],[-122.12406,37.47567],[-122.1243,37.476],[-122.1225,37.47663],[-122.12236,37.47643]]],"type":"Polygon"},"properties":{"bbox":{"parking":{"area":463.23,"pct":5.4},"roads":{"area":1052.41,"pct":12.27},"sidewalks":{"area":40.71,"pct":0.47}},"city_same":1,"id":"hex:3850:23949"},"type":"Feature"},{"geometry":{"coordinates":[[[-122.12319,37.4538],[-122.12261,37.45458],[-122.12185,37.45457],[-122.12184,37.45429],[-122.1219,37.45395],[-122.12215,37.45361],[-122.12243,37.4534],[-122.12252,37.45336],[-122.12272,37.45333],[-122.12283,37.45329],[-122.12319,37.4538]]],"type":"Polygon"},"properties":{"bbox":{"roads":{"area":181.24,"pct":1.59}},"city_same":1,"id":"hex:3851:23934"},"type":"Feature"},{"geometry":{"coordinates":[[[-122.12069,37.47726],[-122.12141,37.47701],[-122.12145,37.47698],[-122.12141,37.47691],[-122.12124,37.47694],[-122.12121,37.47689],[-122.12121,37.47685],[-122.12123,37.47678],[-122.12121,37.47671],[-122.12119,37.47665],[-122.12113,37.47661],[-122.12109,37.47661],[-122.12109,37.47661],[-122.1216,37.47643],[-122.12236,37.47643],[-122.1225,37.47663],[-122.12069,37.47726],[-122.12069,37.47726]]],"type":"Polygon"},"properties":{"bbox":{"parking":{"area":67.57,"pct":1.43},"roads":{"area":122.9,"pct":2.61}},"city_same":1,"id":"hex:3851:23949"},"type":"Feature"}],"type":"FeatureCollection","v":2}