{"features":[{"geometry":{"coordinates":[[[-118.09847,33.94414],[-118.09829,33.9449],[-118.09767,33.94591],[-118.08932,33.95509],[-118.08738,33.95871],[-118.08685,33.9602],[-118.08687,33.96194],[-118.08847,33.96528],[-118.08887,33.96687],[-118.07799,33.96353],[-118.07608,33.96255],[-118.07399,33.96078],[-118.07105,33.96048],[-118.07111,33.96015],[-118.07045,33.96008],[-118.07022,33.9614],[-118.06829,33.96168],[-118.06844,33.96238],[-118.06808,33.96244],[-118.06839,33.96388],[-118.06779,33.96397],[-118.06786,33.96423],[-118.07043,33.96426],[-118.07049,33.96472],[-118.06659,33.96465],[-118.06569,33.96723],[-118.06686,33.96725],[-118.06691,33.96755],[-118.06655,33.9675],[-118.0662,33.96978],[-118.06883,33.97037],[-118.06893,33.96982],[-118.07001,33.96994],[-118.07045,33.96934],[-118.07159,33.96946],[-118.07144,33.97043],[-118.07202,33.97058],[-118.07268,33.97044],[-118.07292,33.96986],[-118.07371,33.97013],[-118.0736,33.97038],[-118.07462,33.97205],[-118.07429,33.97247],[-118.0738,33.97236],[-118.07477,33.97463],[-118.07346,33.97498],[-118.07295,33.97433],[-118.07255,33.97442],[-118.0726,33.97366],[-118.07115,33.97342],[-118.07139,33.97262],[-118.07081,33.97232],[-118.07096,33.97184],[-118.05495,33.96823],[-118.05495,33.96602],[-118.05532,33.96595],[-118.05481,33.96178],[-118.05585,33.96154],[-118.05193,33.95966],[-118.05087,33.95897],[-118.05321,33.95665],[-118.0473,33.95562],[-118.05379,33.94931],[-118.05093,33.94731],[-118.04869,33.94953],[-118.04828,33.94794],[-118.04742,33.94878],[-118.04569,33.94761],[-118.04826,33.94507],[-118.04946,33.94589],[-118.04972,33.94563],[-118.04948,33.94546],[-118.05052,33.94438],[-118.05137,33.94497],[-118.05215,33.94422],[-118.04982,33.94252],[-118.04758,33.94115],[-118.04574,33.94221],[-118.04234,33.94002],[-118.04452,33.93888],[-118.04595,33.93989],[-118.04632,33.93951],[-118.04591,33.93922],[-118.04591,33.93896],[-118.04651,33.93896],[-118.04652,33.93629],[-118.04884,33.93569],[-118.04883,33.93247],[-118.04769,33.93247],[-118.04769,33.93212],[-118.04718,33.93213],[-118.04717,33.93173],[-118.04667,33.93173],[-118.04666,33.92801],[-118.04714,33.92801],[-118.04714,33.92737],[-118.04666,33.92737],[-118.04666,33.92581],[-118.04809,33.92694],[-118.04812,33.93165],[-118.05175,33.93182],[-118.05173,33.92951],[-118.05286,33.93009],[-118.05525,33.93002],[-118.05521,33.9169],[-118.05113,33.91679],[-118.03652,33.91696],[-118.03652,33.91525],[-118.03797,33.91524],[-118.03785,33.90417],[-118.0368,33.90421],[-118.03566,33.90356],[-118.0343,33.90399],[-118.03431,33.90249],[-118.02911,33.90253],[-118.02889,33.8828],[-118.03326,33.88492],[-118.03884,33.88791],[-118.05534,33.88769],[-118.0553,33.89513],[-118.06312,33.89507],[-118.06312,33.89545],[-118.06397,33.89544],[-118.06394,33.90232],[-118.0619,33.90233],[-118.06016,33.90119],[-118.04673,33.89392],[-118.04673,33.89514],[-118.04222,33.89521],[-118.04223,33.89879],[-118.04438,33.89878],[-118.04442,33.90252],[-118.05355,33.90249],[-118.05354,33.90334],[-118.05283,33.90335],[-118.05285,33.90602],[-118.05102,33.90603],[-118.05105,33.90977],[-118.0553,33.91217],[-118.0553,33.91246],[-118.05552,33.91257],[-118.05552,33.91228],[-118.05795,33.9138],[-118.05958,33.91548],[-118.06068,33.91719],[-118.06388,33.91718],[-118.06401,33.92991],[-118.06838,33.92991],[-118.06834,33.92809],[-118.07259,33.92806],[-118.07261,33.93177],[-118.08231,33.93175],[-118.08234,33.93345],[-118.08449,33.93344],[-118.08848,33.92955],[-118.09406,33.93746],[-118.09847,33.94414]]],"type":"Polygon"},"properties":{"type":"boundary"},"type":"Feature"}],"type":"FeatureCollection"}