{"features":[{"geometry":{"coordinates":[[[-122.2931,38.01523],[-122.29476,38.01336],[-122.29034,38.00817],[-122.28861,38.00816],[-122.28639,38.00855],[-122.2847,38.00945],[-122.28587,38.00841],[-122.28448,38.00888],[-122.2828,38.00678],[-122.28231,38.00508],[-122.28165,38.00411],[-122.27975,38.00401],[-122.27904,38.00325],[-122.27984,38.00301],[-122.27975,38.00241],[-122.28004,38.0021],[-122.28152,38.00126],[-122.28214,38.00039],[-122.28012,38.00029],[-122.27956,38.00039],[-122.27808,38.00004],[-122.27489,37.99507],[-122.26891,37.99273],[-122.26507,37.99187],[-122.25954,37.99176],[-122.25627,37.99258],[-122.25368,37.99361],[-122.24978,37.992],[-122.236,37.98341],[-122.23664,37.98323],[-122.23717,37.9828],[-122.23778,37.98265],[-122.23881,37.98345],[-122.24001,37.98355],[-122.2412,37.983],[-122.2425,37.9831],[-122.24315,37.98295],[-122.24353,37.982],[-122.24607,37.98158],[-122.24787,37.98197],[-122.24735,37.9835],[-122.25002,37.98317],[-122.25076,37.98187],[-122.25082,37.98145],[-122.25171,37.9814],[-122.25414,37.98166],[-122.25624,37.98114],[-122.25729,37.97849],[-122.25694,37.97838],[-122.2567,37.97794],[-122.25581,37.9779],[-122.25617,37.97715],[-122.25766,37.97756],[-122.25791,37.97694],[-122.25608,37.97695],[-122.2561,37.97514],[-122.26028,37.97288],[-122.26782,37.97413],[-122.27324,37.97735],[-122.27439,37.97818],[-122.27886,37.98062],[-122.27886,37.98238],[-122.27914,37.98254],[-122.27921,37.98247],[-122.28091,37.9836],[-122.28232,37.98341],[-122.28195,37.98204],[-122.28391,37.98199],[-122.2839,37.98317],[-122.28632,37.98309],[-122.28767,37.98336],[-122.28815,37.98378],[-122.28797,37.98391],[-122.28849,37.98433],[-122.2862,37.98674],[-122.28838,37.988],[-122.28874,37.98727],[-122.28914,37.98748],[-122.28953,37.98745],[-122.28966,37.98701],[-122.29066,37.98721],[-122.29074,37.9894],[-122.29103,37.98958],[-122.29193,37.98957],[-122.29192,37.98879],[-122.2923,37.98895],[-122.29354,37.98895],[-122.29191,37.98799],[-122.29189,37.98633],[-122.29337,37.98668],[-122.29352,37.98724],[-122.29457,37.98735],[-122.29486,37.98667],[-122.29585,37.98622],[-122.29607,37.98696],[-122.29805,37.98641],[-122.29799,37.98624],[-122.29952,37.98577],[-122.30047,37.98588],[-122.30023,37.98631],[-122.30068,37.98653],[-122.30036,37.98823],[-122.30088,37.98907],[-122.30097,37.98956],[-122.30758,37.98946],[-122.30767,37.98867],[-122.30833,37.98852],[-122.30745,37.98779],[-122.30804,37.98743],[-122.30821,37.98751],[-122.3086,37.98687],[-122.30955,37.98628],[-122.30956,37.9857],[-122.30998,37.98574],[-122.31193,37.98373],[-122.31582,37.9856],[-122.31455,37.98797],[-122.31373,37.98901],[-122.3136,37.98991],[-122.31384,37.99032],[-122.31202,37.99065],[-122.30729,37.99283],[-122.30843,37.99432],[-122.30956,37.99542],[-122.31005,37.99635],[-122.31159,37.99774],[-122.31141,37.99785],[-122.31203,37.9985],[-122.31417,37.99742],[-122.31466,37.99791],[-122.31534,37.99783],[-122.3152,37.99705],[-122.31608,37.99697],[-122.31626,37.99764],[-122.31736,37.99898],[-122.31746,37.99893],[-122.31783,38.00066],[-122.31865,38.00171],[-122.31665,38.0026],[-122.31697,38.00305],[-122.31767,38.00323],[-122.31456,38.00421],[-122.31334,38.01138],[-122.31341,38.01095],[-122.31258,38.01094],[-122.31232,38.01085],[-122.31222,38.01059],[-122.30944,38.0099],[-122.30821,38.00998],[-122.30501,38.01061],[-122.30471,38.01044],[-122.29954,38.0102],[-122.29912,38.01077],[-122.29839,38.01098],[-122.2976,38.01202],[-122.29767,38.01237],[-122.29712,38.01379],[-122.2974,38.01422],[-122.29687,38.0141],[-122.29642,38.01379],[-122.2968,38.01422],[-122.29558,38.01493],[-122.2951,38.01507],[-122.29465,38.01502],[-122.29442,38.01521],[-122.2931,38.01523]],[[-122.26026,37.97289],[-122.26036,37.97289],[-122.26028,37.97288],[-122.26026,37.97289]]],"type":"Polygon"},"properties":{"type":"boundary"},"type":"Feature"}],"type":"FeatureCollection"}