{"features":[{"geometry":{"coordinates":[[[[-118.28876,33.80272],[-118.2872,33.80983],[-118.28706,33.8372],[-118.28495,33.84606],[-118.28445,33.8589],[-118.28477,33.86135],[-118.28413,33.86162],[-118.27823,33.85407],[-118.26973,33.84725],[-118.25752,33.83475],[-118.25397,33.83092],[-118.2535,33.83067],[-118.2511,33.82818],[-118.24921,33.82706],[-118.2463,33.82595],[-118.24373,33.82464],[-118.24238,33.82367],[-118.24184,33.82295],[-118.24137,33.82005],[-118.23964,33.81652],[-118.23939,33.8162],[-118.23866,33.81578],[-118.23422,33.81564],[-118.23123,33.81489],[-118.23012,33.81407],[-118.22969,33.81318],[-118.22769,33.8037],[-118.22942,33.7948],[-118.23028,33.79279],[-118.23752,33.80051],[-118.25845,33.79944],[-118.25654,33.80476],[-118.26462,33.80457],[-118.26457,33.79916],[-118.283,33.79825],[-118.28293,33.79763],[-118.28642,33.79763],[-118.28755,33.79882],[-118.2881,33.79967],[-118.28867,33.80119],[-118.28876,33.80272]],[[-118.28629,33.80664],[-118.28629,33.80685],[-118.2868,33.80669],[-118.28701,33.80626],[-118.28693,33.80612],[-118.28662,33.80607],[-118.28671,33.80652],[-118.28617,33.80641],[-118.28612,33.80602],[-118.28633,33.80586],[-118.2867,33.80604],[-118.2869,33.80599],[-118.28713,33.80562],[-118.2871,33.80466],[-118.2873,33.80448],[-118.28682,33.80453],[-118.28701,33.8057],[-118.28624,33.80573],[-118.2863,33.80513],[-118.2867,33.8045],[-118.28598,33.80444],[-118.28612,33.80579],[-118.28553,33.8066],[-118.28577,33.80672],[-118.28603,33.80655],[-118.28629,33.80664]]],[[[-118.28148,33.86275],[-118.28163,33.87198],[-118.28222,33.87414],[-118.28269,33.88547],[-118.2609,33.88616],[-118.26137,33.88608],[-118.26119,33.88524],[-118.25983,33.88528],[-118.25992,33.88563],[-118.25951,33.8857],[-118.2597,33.88613],[-118.25748,33.88619],[-118.25695,33.884],[-118.25783,33.88398],[-118.26146,33.88095],[-118.26127,33.88004],[-118.25345,33.88024],[-118.25383,33.88188],[-118.24877,33.88201],[-118.24868,33.88044],[-118.24777,33.88047],[-118.24776,33.87909],[-118.24872,33.87907],[-118.24868,33.8695],[-118.24259,33.86968],[-118.2425,33.86767],[-118.23568,33.8679],[-118.23389,33.84664],[-118.20593,33.84657],[-118.20779,33.83907],[-118.21131,33.83909],[-118.2124,33.83617],[-118.21343,33.83428],[-118.2159,33.83428],[-118.21681,33.83188],[-118.2169,33.82998],[-118.2157,33.82583],[-118.22226,33.82562],[-118.2223,33.82429],[-118.22462,33.82427],[-118.22662,33.82951],[-118.22857,33.8244],[-118.22807,33.82419],[-118.22555,33.81185],[-118.22429,33.80942],[-118.22393,33.80675],[-118.22406,33.80531],[-118.22718,33.8001],[-118.22883,33.79613],[-118.22843,33.7971],[-118.22718,33.8038],[-118.22931,33.81327],[-118.22957,33.81392],[-118.23023,33.81469],[-118.23126,33.81531],[-118.23359,33.81595],[-118.23826,33.81608],[-118.23902,33.81645],[-118.24073,33.81969],[-118.24103,33.82049],[-118.24141,33.82306],[-118.24219,33.82406],[-118.24401,33.82527],[-118.24657,33.82656],[-118.24868,33.82725],[-118.25078,33.82842],[-118.2694,33.84752],[-118.27797,33.85428],[-118.28227,33.85993],[-118.2838,33.86176],[-118.28148,33.86275]]]],"type":"MultiPolygon"},"properties":{"type":"boundary"},"type":"Feature"}],"type":"FeatureCollection"}