{"features":[{"geometry":{"coordinates":[[[[-118.36483,34.2011],[-118.36209,34.20111],[-118.36299,34.20687],[-118.33994,34.20652],[-118.33981,34.21119],[-118.33957,34.2113],[-118.33774,34.21127],[-118.33771,34.21259],[-118.33603,34.21431],[-118.33642,34.21457],[-118.33485,34.21551],[-118.33513,34.21675],[-118.33746,34.22131],[-118.29279,34.22166],[-118.28051,34.20747],[-118.28033,34.19087],[-118.27999,34.1907],[-118.28348,34.18586],[-118.28784,34.18772],[-118.28995,34.18467],[-118.29295,34.18177],[-118.29287,34.1816],[-118.29781,34.17713],[-118.2964,34.1761],[-118.29933,34.17333],[-118.29689,34.17156],[-118.30787,34.16115],[-118.30872,34.16145],[-118.30967,34.16124],[-118.31033,34.16076],[-118.31207,34.15573],[-118.31631,34.15497],[-118.31766,34.15631],[-118.32213,34.15574],[-118.32597,34.15302],[-118.32635,34.15308],[-118.32609,34.15296],[-118.32827,34.15159],[-118.33009,34.14976],[-118.33077,34.14882],[-118.33161,34.14816],[-118.33674,34.14644],[-118.34003,34.14554],[-118.34085,34.1455],[-118.34233,34.14482],[-118.34515,34.14277],[-118.35314,34.16129],[-118.35718,34.16127],[-118.35718,34.16487],[-118.35466,34.16495],[-118.35786,34.17229],[-118.36116,34.19462],[-118.37017,34.19629],[-118.37021,34.2011],[-118.36483,34.2011]],[[-118.2951,34.19668],[-118.29507,34.19667],[-118.29505,34.19669],[-118.29504,34.19671],[-118.29502,34.19674],[-118.29501,34.19679],[-118.29502,34.19679],[-118.29504,34.1968],[-118.2951,34.19674],[-118.29515,34.19671],[-118.2951,34.19668]],[[-118.29689,34.20351],[-118.29628,34.20372],[-118.29592,34.20403],[-118.29592,34.20434],[-118.2969,34.20377],[-118.29689,34.20351]],[[-118.29681,34.19627],[-118.29687,34.19583],[-118.29611,34.19623],[-118.2963,34.19634],[-118.29642,34.19677],[-118.29678,34.19671],[-118.29681,34.19627]],[[-118.29983,34.20828],[-118.29967,34.20804],[-118.29905,34.20835],[-118.29929,34.20849],[-118.29983,34.20828]],[[-118.30412,34.2007],[-118.30366,34.20029],[-118.30298,34.20023],[-118.30297,34.20045],[-118.30262,34.20077],[-118.30293,34.20086],[-118.30251,34.20117],[-118.30403,34.20141],[-118.30423,34.20082],[-118.30412,34.2007]],[[-118.30548,34.21234],[-118.30534,34.21229],[-118.3052,34.21251],[-118.30582,34.21283],[-118.30571,34.21244],[-118.30548,34.21234]],[[-118.31416,34.20385],[-118.31428,34.20375],[-118.31408,34.20346],[-118.31414,34.20329],[-118.31339,34.20347],[-118.31416,34.20385]],[[-118.32906,34.1541],[-118.32843,34.15367],[-118.32835,34.15376],[-118.32945,34.15434],[-118.32998,34.15446],[-118.33067,34.15514],[-118.32995,34.15437],[-118.32906,34.1541]],[[-118.32904,34.15696],[-118.32913,34.15678],[-118.32861,34.15659],[-118.3285,34.1568],[-118.32904,34.15696]],[[-118.33452,34.21483],[-118.33428,34.21493],[-118.33439,34.21518],[-118.33462,34.21512],[-118.33452,34.21483]],[[-118.33401,34.14967],[-118.33433,34.14972],[-118.33411,34.14949],[-118.33401,34.14967]],[[-118.33513,34.21471],[-118.3353,34.21473],[-118.33548,34.21449],[-118.33532,34.21434],[-118.33513,34.21448],[-118.33513,34.21471]],[[-118.3445,34.14543],[-118.34577,34.14591],[-118.34628,34.14593],[-118.34617,34.14551],[-118.34557,34.14551],[-118.34535,34.14531],[-118.3444,34.14514],[-118.3445,34.14543]]],[[[-118.31234,34.15497],[-118.31293,34.15401],[-118.31581,34.15446],[-118.31605,34.1547],[-118.31219,34.1554],[-118.31234,34.15497]]],[[[-118.32883,34.15038],[-118.32821,34.15118],[-118.32697,34.1521],[-118.32883,34.15038]]],[[[-118.33885,34.14533],[-118.33907,34.14537],[-118.33858,34.14548],[-118.33885,34.14533]]]],"type":"MultiPolygon"},"properties":{"type":"boundary"},"type":"Feature"}],"type":"FeatureCollection"}