{"features":[{"geometry":{"coordinates":[[[-118.36918,33.89692],[-118.36828,33.89607],[-118.36631,33.89466],[-118.36129,33.89465],[-118.36129,33.87286],[-118.35468,33.87286],[-118.35175,33.87481],[-118.34378,33.87737],[-118.34382,33.89348],[-118.34451,33.89351],[-118.34452,33.89546],[-118.34383,33.89542],[-118.34383,33.90245],[-118.35107,33.90257],[-118.35103,33.90193],[-118.35215,33.90192],[-118.35215,33.90111],[-118.35238,33.90108],[-118.35237,33.90161],[-118.35317,33.90169],[-118.35321,33.9023],[-118.35811,33.90231],[-118.35814,33.90059],[-118.35866,33.90065],[-118.35869,33.9011],[-118.359,33.90108],[-118.35913,33.90153],[-118.35944,33.90141],[-118.36126,33.90134],[-118.36129,33.89686],[-118.36918,33.89692]]],"type":"Polygon"},"properties":{"type":"boundary"},"type":"Feature"}],"type":"FeatureCollection"}