{"features":[{"geometry":{"coordinates":[[[-118.36744,33.89643],[-118.36675,33.89546],[-118.36697,33.89513],[-118.36794,33.89583],[-118.36828,33.89607],[-118.36869,33.89641],[-118.36744,33.89643]]],"type":"Polygon"},"properties":{"bbox":{"roads":{"area":1363.25,"pct":12.51}},"city":{"roads":{"area":879.38,"pct":8.07}},"id":"hex:1992:17327"},"type":"Feature"},{"geometry":{"coordinates":[[[-118.36915,33.89692],[-118.36712,33.89691],[-118.36744,33.89643],[-118.36869,33.89641],[-118.36891,33.8966],[-118.36899,33.8967],[-118.36915,33.89692]]],"type":"Polygon"},"properties":{"bbox":{"roads":{"area":829.13,"pct":9.75}},"city":{"roads":{"area":495.15,"pct":5.82}},"id":"hex:1992:17328"},"type":"Feature"},{"geometry":{"coordinates":[[[-118.36675,33.89546],[-118.36539,33.89547],[-118.3648,33.89464],[-118.36557,33.89465],[-118.36631,33.89466],[-118.36697,33.89513],[-118.36675,33.89546]]],"type":"Polygon"},"properties":{"bbox":{"roads":{"area":1791.77,"pct":13.15}},"city":{"roads":{"area":907.51,"pct":6.66}},"id":"hex:1993:17326"},"type":"Feature"},{"geometry":{"coordinates":[[[-118.36473,33.89646],[-118.36539,33.89547],[-118.36675,33.89546],[-118.36744,33.89643],[-118.36712,33.89691],[-118.36504,33.89689],[-118.36473,33.89646]]],"type":"Polygon"},"properties":{"bbox":{"roads":{"area":976.09,"pct":3.1}},"city_same":1,"id":"hex:1993:17327"},"type":"Feature"},{"geometry":{"coordinates":[[[-118.36539,33.89547],[-118.36473,33.89646],[-118.36338,33.89647],[-118.36269,33.8955],[-118.36328,33.89463],[-118.36364,33.89463],[-118.36384,33.89463],[-118.3644,33.89464],[-118.3648,33.89464],[-118.36539,33.89547]]],"type":"Polygon"},"properties":{"bbox":{"roads":{"area":2080.52,"pct":5.36}},"city":{"roads":{"area":1163.8,"pct":3}},"id":"hex:1994:17327"},"type":"Feature"},{"geometry":{"coordinates":[[[-118.361,33.87405],[-118.36031,33.87308],[-118.36045,33.87286],[-118.36129,33.87286],[-118.36129,33.87404],[-118.361,33.87405]]],"type":"Polygon"},"properties":{"bbox":{"parking":{"area":465.98,"pct":5.56},"roads":{"area":3171.48,"pct":37.82},"sidewalks":{"area":245.38,"pct":2.93}},"city":{"parking":{"area":465.98,"pct":5.56},"roads":{"area":1726.95,"pct":20.59},"sidewalks":{"area":245.38,"pct":2.93}},"id":"hex:1995:17315"},"type":"Feature"},{"geometry":{"coordinates":[[[-118.36103,33.876],[-118.36034,33.87503],[-118.361,33.87405],[-118.36129,33.87404],[-118.3613,33.876],[-118.36103,33.876]]],"type":"Polygon"},"properties":{"bbox":{"roads":{"area":3157.08,"pct":25.45},"sidewalks":{"area":289.89,"pct":2.34}},"city":{"roads":{"area":684.19,"pct":5.52},"sidewalks":{"area":289.89,"pct":2.34}},"id":"hex:1995:17316"},"type":"Feature"},{"geometry":{"coordinates":[[[-118.36106,33.87795],[-118.36037,33.87698],[-118.36103,33.876],[-118.3613,33.876],[-118.3613,33.87662],[-118.3613,33.87755],[-118.3613,33.87795],[-118.36106,33.87795]]],"type":"Polygon"},"properties":{"bbox":{"roads":{"area":3219.34,"pct":27.09},"sidewalks":{"area":289.97,"pct":2.44}},"city":{"roads":{"area":834.28,"pct":7.02},"sidewalks":{"area":289.97,"pct":2.44}},"id":"hex:1995:17317"},"type":"Feature"},{"geometry":{"coordinates":[[[-118.36109,33.8799],[-118.3604,33.87893],[-118.36106,33.87795],[-118.3613,33.87795],[-118.3613,33.87849],[-118.36131,33.87942],[-118.36131,33.8799],[-118.36109,33.8799]]],"type":"Polygon"},"properties":{"bbox":{"roads":{"area":2934.4,"pct":25.84},"sidewalks":{"area":288.82,"pct":2.54}},"city":{"roads":{"area":560.18,"pct":4.93},"sidewalks":{"area":288.82,"pct":2.54}},"id":"hex:1995:17318"},"type":"Feature"},{"geometry":{"coordinates":[[[-118.36112,33.88185],[-118.36043,33.88089],[-118.36109,33.8799],[-118.36131,33.8799],[-118.36131,33.88012],[-118.36131,33.88098],[-118.36131,33.88138],[-118.36131,33.88183],[-118.36131,33.88185],[-118.36112,33.88185]]],"type":"Polygon"},"properties":{"bbox":{"roads":{"area":3070.59,"pct":28.32},"sidewalks":{"area":290.76,"pct":2.68}},"city":{"roads":{"area":918.42,"pct":8.47},"sidewalks":{"area":290.76,"pct":2.68}},"id":"hex:1995:17319"},"type":"Feature"},{"geometry":{"coordinates":[[[-118.36115,33.88381],[-118.36046,33.88284],[-118.36112,33.88185],[-118.36131,33.88185],[-118.36132,33.88269],[-118.36132,33.88354],[-118.36132,33.88381],[-118.36115,33.88381]]],"type":"Polygon"},"properties":{"bbox":{"parking":{"area":313.81,"pct":3.04},"roads":{"area":3033.77,"pct":29.42},"sidewalks":{"area":286.8,"pct":2.78}},"city":{"parking":{"area":313.81,"pct":3.04},"roads":{"area":919.37,"pct":8.91},"sidewalks":{"area":286.8,"pct":2.78}},"id":"hex:1995:17320"},"type":"Feature"},{"geometry":{"coordinates":[[[-118.36118,33.88576],[-118.36049,33.88479],[-118.36115,33.88381],[-118.36132,33.88381],[-118.36132,33.88435],[-118.36132,33.8845],[-118.36132,33.88505],[-118.36132,33.88544],[-118.36132,33.88576],[-118.36118,33.88576]]],"type":"Polygon"},"properties":{"bbox":{"parking":{"area":881.73,"pct":9.01},"roads":{"area":3134.21,"pct":32.02},"sidewalks":{"area":289.8,"pct":2.96}},"city":{"parking":{"area":881.73,"pct":9.01},"roads":{"area":994.75,"pct":10.16},"sidewalks":{"area":289.8,"pct":2.96}},"id":"hex:1995:17321"},"type":"Feature"},{"geometry":{"coordinates":[[[-118.36122,33.88771],[-118.36052,33.88674],[-118.36118,33.88576],[-118.36132,33.88576],[-118.36133,33.88643],[-118.36133,33.88693],[-118.36133,33.88731],[-118.36133,33.88737],[-118.36133,33.88746],[-118.36133,33.88771],[-118.36122,33.88771]]],"type":"Polygon"},"properties":{"bbox":{"parking":{"area":63.77,"pct":0.69},"roads":{"area":3413.15,"pct":36.81},"sidewalks":{"area":257.87,"pct":2.78}},"city":{"parking":{"area":63.77,"pct":0.69},"roads":{"area":1046.92,"pct":11.29},"sidewalks":{"area":257.87,"pct":2.78}},"id":"hex:1995:17322"},"type":"Feature"},{"geometry":{"coordinates":[[[-118.36125,33.88966],[-118.36056,33.88869],[-118.36122,33.88771],[-118.36133,33.88771],[-118.36133,33.88795],[-118.36132,33.88823],[-118.36132,33.8883],[-118.36132,33.88876],[-118.36133,33.88879],[-118.36132,33.88907],[-118.36129,33.88923],[-118.36129,33.88939],[-118.36127,33.88966],[-118.36125,33.88966]]],"type":"Polygon"},"properties":{"bbox":{"roads":{"area":3165.21,"pct":37.75},"sidewalks":{"area":309.79,"pct":3.69}},"city":{"roads":{"area":1154.89,"pct":13.77},"sidewalks":{"area":309.79,"pct":3.69}},"id":"hex:1995:17323"},"type":"Feature"},{"geometry":{"coordinates":[[[-118.36128,33.89162],[-118.36059,33.89065],[-118.36125,33.88966],[-118.36127,33.88966],[-118.36127,33.88967],[-118.36129,33.89162],[-118.36128,33.89162]]],"type":"Polygon"},"properties":{"bbox":{"roads":{"area":4033.36,"pct":56.56},"sidewalks":{"area":231.66,"pct":3.25}},"city":{"roads":{"area":5.29,"pct":0.07},"sidewalks":{"area":231.66,"pct":3.25}},"id":"hex:1995:17324"},"type":"Feature"},{"geometry":{"coordinates":[[[-118.36062,33.8926],[-118.36128,33.89162],[-118.36129,33.89162],[-118.3613,33.89263],[-118.36128,33.89353],[-118.36062,33.8926]]],"type":"Polygon"},"properties":{"bbox":{"roads":{"area":2411.02,"pct":35.34},"sidewalks":{"area":235.06,"pct":3.45}},"city":{"roads":{"area":859.75,"pct":12.6},"sidewalks":{"area":235.06,"pct":3.45}},"id":"hex:1995:17325"},"type":"Feature"},{"geometry":{"coordinates":[[[-118.36269,33.8955],[-118.36134,33.89552],[-118.36065,33.89455],[-118.36128,33.89361],[-118.36128,33.89362],[-118.36129,33.89412],[-118.36129,33.89465],[-118.36181,33.89464],[-118.36289,33.89464],[-118.36328,33.89463],[-118.36269,33.8955]]],"type":"Polygon"},"properties":{"bbox":{"parking":{"area":1554.98,"pct":7.34},"roads":{"area":6630.91,"pct":31.29},"sidewalks":{"area":223.27,"pct":1.05}},"city":{"parking":{"area":1554.98,"pct":7.34},"roads":{"area":1943.7,"pct":9.17},"sidewalks":{"area":223.27,"pct":1.05}},"id":"hex:1995:17326"},"type":"Feature"},{"geometry":{"coordinates":[[[-118.36068,33.8965],[-118.36134,33.89552],[-118.36269,33.8955],[-118.36338,33.89647],[-118.36311,33.89687],[-118.36129,33.89686],[-118.36129,33.89733],[-118.36129,33.89735],[-118.36068,33.8965]]],"type":"Polygon"},"properties":{"bbox":{"roads":{"area":3838.72,"pct":12.53},"sidewalks":{"area":455.54,"pct":1.49}},"city":{"roads":{"area":1527.64,"pct":4.99},"sidewalks":{"area":455.54,"pct":1.49}},"id":"hex:1995:17327"},"type":"Feature"},{"geometry":{"coordinates":[[[-118.36071,33.89846],[-118.36128,33.89761],[-118.36128,33.89769],[-118.36129,33.89787],[-118.36128,33.8983],[-118.36127,33.89924],[-118.36071,33.89846]]],"type":"Polygon"},"properties":{"bbox":{"roads":{"area":1129.96,"pct":23.56},"sidewalks":{"area":318.58,"pct":6.64}},"city":{"roads":{"area":336.78,"pct":7.02},"sidewalks":{"area":318.58,"pct":6.64}},"id":"hex:1995:17328"},"type":"Feature"},{"geometry":{"coordinates":[[[-118.36074,33.90041],[-118.36126,33.89963],[-118.36126,33.89967],[-118.36125,33.90041],[-118.36125,33.90113],[-118.36074,33.90041]]],"type":"Polygon"},"properties":{"bbox":{"roads":{"area":764.98,"pct":19.6},"sidewalks":{"area":216.39,"pct":5.55}},"city":{"roads":{"area":14.3,"pct":0.37},"sidewalks":{"area":216.39,"pct":5.55}},"id":"hex:1995:17329"},"type":"Feature"},{"geometry":{"coordinates":[[[-118.36031,33.87308],[-118.35896,33.87309],[-118.35879,33.87286],[-118.36001,33.87286],[-118.36045,33.87286],[-118.36031,33.87308]]],"type":"Polygon"},"properties":{"bbox":{"parking":{"area":339,"pct":9.73},"roads":{"area":1873.27,"pct":53.76},"sidewalks":{"area":180.34,"pct":5.18}},"city_same":1,"id":"hex:1996:17315"},"type":"Feature"},{"geometry":{"coordinates":[[[-118.3583,33.87408],[-118.35899,33.87504],[-118.36034,33.87503],[-118.361,33.87405],[-118.36031,33.87308],[-118.35896,33.87309],[-118.3583,33.87408]]],"type":"Polygon"},"properties":{"bbox":{"parking":{"area":238.2,"pct":0.59},"roads":{"area":4017.69,"pct":9.9}},"city_same":1,"id":"hex:1996:17316"},"type":"Feature"},{"geometry":{"coordinates":[[[-118.35833,33.87603],[-118.35902,33.877],[-118.36037,33.87698],[-118.36103,33.876],[-118.36034,33.87503],[-118.35899,33.87504],[-118.35833,33.87603]]],"type":"Polygon"},"properties":{"bbox":{"roads":{"area":4172.15,"pct":10.28}},"city_same":1,"id":"hex:1996:17317"},"type":"Feature"},{"geometry":{"coordinates":[[[-118.35836,33.87798],[-118.35905,33.87895],[-118.3604,33.87893],[-118.36106,33.87795],[-118.36037,33.87698],[-118.35902,33.877],[-118.35836,33.87798]]],"type":"Polygon"},"properties":{"bbox":{"roads":{"area":3400.24,"pct":8.38}},"city_same":1,"id":"hex:1996:17318"},"type":"Feature"},{"geometry":{"coordinates":[[[-118.35839,33.87993],[-118.35908,33.8809],[-118.36043,33.88089],[-118.36109,33.8799],[-118.3604,33.87893],[-118.35905,33.87895],[-118.35839,33.87993]]],"type":"Polygon"},"properties":{"bbox":{"roads":{"area":3773.88,"pct":9.3}},"city_same":1,"id":"hex:1996:17319"},"type":"Feature"},{"geometry":{"coordinates":[[[-118.35842,33.88188],[-118.35911,33.88285],[-118.36046,33.88284],[-118.36112,33.88185],[-118.36043,33.88089],[-118.35908,33.8809],[-118.35842,33.88188]]],"type":"Polygon"},"properties":{"bbox":{"roads":{"area":5035.47,"pct":12.4}},"city_same":1,"id":"hex:1996:17320"},"type":"Feature"},{"geometry":{"coordinates":[[[-118.35845,33.88384],[-118.35914,33.88481],[-118.36049,33.88479],[-118.36115,33.88381],[-118.36046,33.88284],[-118.35911,33.88285],[-118.35845,33.88384]]],"type":"Polygon"},"properties":{"bbox":{"parking":{"area":2.78,"pct":0.01},"roads":{"area":3074.28,"pct":7.57}},"city_same":1,"id":"hex:1996:17321"},"type":"Feature"},{"geometry":{"coordinates":[[[-118.35848,33.88579],[-118.35917,33.88676],[-118.36052,33.88674],[-118.36118,33.88576],[-118.36049,33.88479],[-118.35914,33.88481],[-118.35848,33.88579]]],"type":"Polygon"},"properties":{"bbox":{"parking":{"area":111.45,"pct":0.27},"roads":{"area":2758.88,"pct":6.8}},"city_same":1,"id":"hex:1996:17322"},"type":"Feature"},{"geometry":{"coordinates":[[[-118.35851,33.88774],[-118.3592,33.88871],[-118.36056,33.88869],[-118.36122,33.88771],[-118.36052,33.88674],[-118.35917,33.88676],[-118.35851,33.88774]]],"type":"Polygon"},"properties":{"bbox":{"roads":{"area":7830,"pct":19.29},"sidewalks":{"area":5.57,"pct":0.01}},"city":{"roads":{"area":7810.53,"pct":19.24},"sidewalks":{"area":5.57,"pct":0.01}},"id":"hex:1996:17323"},"type":"Feature"},{"geometry":{"coordinates":[[[-118.35854,33.88969],[-118.35924,33.89066],[-118.36059,33.89065],[-118.36125,33.88966],[-118.36056,33.88869],[-118.3592,33.88871],[-118.35854,33.88969]]],"type":"Polygon"},"properties":{"bbox":{"roads":{"area":12327.1,"pct":30.37},"sidewalks":{"area":10.42,"pct":0.03}},"city":{"roads":{"area":2947.64,"pct":7.26},"sidewalks":{"area":10.42,"pct":0.03}},"id":"hex:1996:17324"},"type":"Feature"},{"geometry":{"coordinates":[[[-118.35857,33.89165],[-118.35927,33.89261],[-118.36062,33.8926],[-118.36128,33.89162],[-118.36059,33.89065],[-118.35924,33.89066],[-118.35857,33.89165]]],"type":"Polygon"},"properties":{"bbox":{"roads":{"area":5862.58,"pct":14.44},"sidewalks":{"area":49.14,"pct":0.12}},"city":{"roads":{"area":3384.79,"pct":8.34},"sidewalks":{"area":49.14,"pct":0.12}},"id":"hex:1996:17325"},"type":"Feature"},{"geometry":{"coordinates":[[[-118.36065,33.89455],[-118.3593,33.89457],[-118.35861,33.8936],[-118.35927,33.89261],[-118.36062,33.8926],[-118.36128,33.89353],[-118.36128,33.89361],[-118.36065,33.89455]]],"type":"Polygon"},"properties":{"bbox":{"parking":{"area":249.03,"pct":0.61},"roads":{"area":4335.74,"pct":10.68},"sidewalks":{"area":23.01,"pct":0.06}},"city":{"parking":{"area":249.03,"pct":0.61},"roads":{"area":4189.43,"pct":10.32},"sidewalks":{"area":23.01,"pct":0.06}},"id":"hex:1996:17326"},"type":"Feature"},{"geometry":{"coordinates":[[[-118.35864,33.89555],[-118.35933,33.89652],[-118.36068,33.8965],[-118.36134,33.89552],[-118.36065,33.89455],[-118.3593,33.89457],[-118.35864,33.89555]]],"type":"Polygon"},"properties":{"bbox":{"roads":{"area":5767,"pct":14.21},"sidewalks":{"area":63.51,"pct":0.16}},"city":{"roads":{"area":3748.55,"pct":9.23},"sidewalks":{"area":63.51,"pct":0.16}},"id":"hex:1996:17327"},"type":"Feature"},{"geometry":{"coordinates":[[[-118.36071,33.89846],[-118.35936,33.89847],[-118.35867,33.8975],[-118.35933,33.89652],[-118.36068,33.8965],[-118.36129,33.89735],[-118.36128,33.89761],[-118.36071,33.89846]]],"type":"Polygon"},"properties":{"bbox":{"roads":{"area":4276.13,"pct":10.56},"sidewalks":{"area":543.38,"pct":1.34}},"city":{"roads":{"area":4040.62,"pct":9.98},"sidewalks":{"area":543.38,"pct":1.34}},"id":"hex:1996:17328"},"type":"Feature"},{"geometry":{"coordinates":[[[-118.36074,33.90041],[-118.35939,33.90042],[-118.3587,33.89945],[-118.35936,33.89847],[-118.36071,33.89846],[-118.36127,33.89924],[-118.36126,33.89963],[-118.36074,33.90041]]],"type":"Polygon"},"properties":{"bbox":{"roads":{"area":3586.79,"pct":8.9},"sidewalks":{"area":733.45,"pct":1.82}},"city":{"roads":{"area":3255.26,"pct":8.07},"sidewalks":{"area":733.45,"pct":1.82}},"id":"hex:1996:17329"},"type":"Feature"},{"geometry":{"coordinates":[[[-118.35939,33.90042],[-118.36074,33.90041],[-118.36125,33.90113],[-118.36126,33.90134],[-118.35944,33.90141],[-118.35913,33.90153],[-118.359,33.90108],[-118.35894,33.90109],[-118.35939,33.90042]]],"type":"Polygon"},"properties":{"bbox":{"roads":{"area":1214.97,"pct":6.25},"sidewalks":{"area":382.26,"pct":1.97}},"city":{"roads":{"area":1056.11,"pct":5.43},"sidewalks":{"area":382.26,"pct":1.97}},"id":"hex:1996:17330"},"type":"Feature"},{"geometry":{"coordinates":[[[-118.35896,33.87309],[-118.3583,33.87408],[-118.35695,33.87409],[-118.35625,33.87312],[-118.35643,33.87286],[-118.35697,33.87286],[-118.35879,33.87286],[-118.35896,33.87309]]],"type":"Polygon"},"properties":{"bbox":{"parking":{"area":1079.13,"pct":4.05},"roads":{"area":6678.33,"pct":25.05},"sidewalks":{"area":338.79,"pct":1.27}},"city_same":1,"id":"hex:1997:17315"},"type":"Feature"},{"geometry":{"coordinates":[[[-118.35628,33.87507],[-118.35698,33.87604],[-118.35833,33.87603],[-118.35899,33.87504],[-118.3583,33.87408],[-118.35695,33.87409],[-118.35628,33.87507]]],"type":"Polygon"},"properties":{"bbox":{"roads":{"area":4581.25,"pct":11.29}},"city_same":1,"id":"hex:1997:17316"},"type":"Feature"},{"geometry":{"coordinates":[[[-118.35632,33.87703],[-118.35701,33.878],[-118.35836,33.87798],[-118.35902,33.877],[-118.35833,33.87603],[-118.35698,33.87604],[-118.35632,33.87703]]],"type":"Polygon"},"properties":{"bbox":{"roads":{"area":4704.34,"pct":11.59},"sidewalks":{"area":12.93,"pct":0.03}},"city_same":1,"id":"hex:1997:17317"},"type":"Feature"},{"geometry":{"coordinates":[[[-118.35635,33.87898],[-118.35704,33.87995],[-118.35839,33.87993],[-118.35905,33.87895],[-118.35836,33.87798],[-118.35701,33.878],[-118.35635,33.87898]]],"type":"Polygon"},"properties":{"bbox":{"roads":{"area":4268.97,"pct":10.52},"sidewalks":{"area":25.01,"pct":0.06}},"city_same":1,"id":"hex:1997:17318"},"type":"Feature"},{"geometry":{"coordinates":[[[-118.35638,33.88093],[-118.35707,33.8819],[-118.35842,33.88188],[-118.35908,33.8809],[-118.35839,33.87993],[-118.35704,33.87995],[-118.35638,33.88093]]],"type":"Polygon"},"properties":{"bbox":{"roads":{"area":4693.19,"pct":11.56}},"city_same":1,"id":"hex:1997:17319"},"type":"Feature"},{"geometry":{"coordinates":[[[-118.35641,33.88288],[-118.3571,33.88385],[-118.35845,33.88384],[-118.35911,33.88285],[-118.35842,33.88188],[-118.35707,33.8819],[-118.35641,33.88288]]],"type":"Polygon"},"properties":{"bbox":{"roads":{"area":4385.94,"pct":10.8}},"city_same":1,"id":"hex:1997:17320"},"type":"Feature"},{"geometry":{"coordinates":[[[-118.35644,33.88484],[-118.35713,33.8858],[-118.35848,33.88579],[-118.35914,33.88481],[-118.35845,33.88384],[-118.3571,33.88385],[-118.35644,33.88484]]],"type":"Polygon"},"properties":{"bbox":{"roads":{"area":4206.05,"pct":10.36}},"city_same":1,"id":"hex:1997:17321"},"type":"Feature"},{"geometry":{"coordinates":[[[-118.35647,33.88679],[-118.35716,33.88776],[-118.35851,33.88774],[-118.35917,33.88676],[-118.35848,33.88579],[-118.35713,33.8858],[-118.35647,33.88679]]],"type":"Polygon"},"properties":{"bbox":{"parking":{"area":588.14,"pct":1.45},"roads":{"area":6199.86,"pct":15.27}},"city":{"parking":{"area":588.14,"pct":1.45},"roads":{"area":6192.85,"pct":15.26}},"id":"hex:1997:17322"},"type":"Feature"},{"geometry":{"coordinates":[[[-118.3565,33.88874],[-118.35719,33.88971],[-118.35854,33.88969],[-118.3592,33.88871],[-118.35851,33.88774],[-118.35716,33.88776],[-118.3565,33.88874]]],"type":"Polygon"},"properties":{"bbox":{"roads":{"area":9868.45,"pct":24.31}},"city":{"roads":{"area":2418.25,"pct":5.96}},"id":"hex:1997:17323"},"type":"Feature"},{"geometry":{"coordinates":[[[-118.35653,33.89069],[-118.35722,33.89166],[-118.35857,33.89165],[-118.35924,33.89066],[-118.35854,33.88969],[-118.35719,33.88971],[-118.35653,33.89069]]],"type":"Polygon"},"properties":{"bbox":{"roads":{"area":3580.31,"pct":8.82}},"city_same":1,"id":"hex:1997:17324"},"type":"Feature"},{"geometry":{"coordinates":[[[-118.35656,33.89264],[-118.35725,33.89361],[-118.35861,33.8936],[-118.35927,33.89261],[-118.35857,33.89165],[-118.35722,33.89166],[-118.35656,33.89264]]],"type":"Polygon"},"properties":{"bbox":{"roads":{"area":3801.81,"pct":9.37}},"city_same":1,"id":"hex:1997:17325"},"type":"Feature"},{"geometry":{"coordinates":[[[-118.35659,33.8946],[-118.35729,33.89556],[-118.35864,33.89555],[-118.3593,33.89457],[-118.35861,33.8936],[-118.35725,33.89361],[-118.35659,33.8946]]],"type":"Polygon"},"properties":{"bbox":{"roads":{"area":6640.18,"pct":16.36}},"city":{"roads":{"area":3118.71,"pct":7.68}},"id":"hex:1997:17326"},"type":"Feature"},{"geometry":{"coordinates":[[[-118.35662,33.89655],[-118.35732,33.89752],[-118.35867,33.8975],[-118.35933,33.89652],[-118.35864,33.89555],[-118.35729,33.89556],[-118.35662,33.89655]]],"type":"Polygon"},"properties":{"bbox":{"roads":{"area":3751.25,"pct":9.24}},"city_same":1,"id":"hex:1997:17327"},"type":"Feature"},{"geometry":{"coordinates":[[[-118.35666,33.8985],[-118.35735,33.89947],[-118.3587,33.89945],[-118.35936,33.89847],[-118.35867,33.8975],[-118.35732,33.89752],[-118.35666,33.8985]]],"type":"Polygon"},"properties":{"bbox":{"roads":{"area":4487.35,"pct":11.05},"sidewalks":{"area":606.45,"pct":1.49}},"city_same":1,"id":"hex:1997:17328"},"type":"Feature"},{"geometry":{"coordinates":[[[-118.35738,33.90142],[-118.35669,33.90045],[-118.35735,33.89947],[-118.3587,33.89945],[-118.35939,33.90042],[-118.35894,33.90109],[-118.35869,33.9011],[-118.35866,33.90065],[-118.35814,33.90059],[-118.3581,33.90141],[-118.35738,33.90142]]],"type":"Polygon"},"properties":{"bbox":{"roads":{"area":3466.89,"pct":9.74}},"city_same":1,"id":"hex:1997:17329"},"type":"Feature"},{"geometry":{"coordinates":[[[-118.35738,33.90142],[-118.3581,33.90141],[-118.35808,33.9019],[-118.35811,33.90231],[-118.35715,33.90235],[-118.35675,33.90235],[-118.35738,33.90142]]],"type":"Polygon"},"properties":{"bbox":{"roads":{"area":3065.67,"pct":31.76}},"city_same":1,"id":"hex:1997:17330"},"type":"Feature"},{"geometry":{"coordinates":[[[-118.35625,33.87312],[-118.3549,33.87314],[-118.3547,33.87286],[-118.35643,33.87286],[-118.35625,33.87312]]],"type":"Polygon"},"properties":{"bbox":{"parking":{"area":333.68,"pct":7.84},"roads":{"area":1749.64,"pct":41.09},"sidewalks":{"area":204.22,"pct":4.8}},"city":{"parking":{"area":333.68,"pct":7.84},"roads":{"area":1741.7,"pct":40.9},"sidewalks":{"area":204.22,"pct":4.8}},"id":"hex:1998:17315"},"type":"Feature"},{"geometry":{"coordinates":[[[-118.35424,33.87412],[-118.35493,33.87509],[-118.35628,33.87507],[-118.35695,33.87409],[-118.35625,33.87312],[-118.3549,33.87314],[-118.35424,33.87412]]],"type":"Polygon"},"properties":{"bbox":{"parking":{"area":974.69,"pct":2.4},"roads":{"area":4760.78,"pct":11.73}},"city_same":1,"id":"hex:1998:17316"},"type":"Feature"},{"geometry":{"coordinates":[[[-118.35427,33.87607],[-118.35496,33.87704],[-118.35632,33.87703],[-118.35698,33.87604],[-118.35628,33.87507],[-118.35493,33.87509],[-118.35427,33.87607]]],"type":"Polygon"},"properties":{"bbox":{"roads":{"area":4099.64,"pct":10.1}},"city_same":1,"id":"hex:1998:17317"},"type":"Feature"},{"geometry":{"coordinates":[[[-118.3543,33.87802],[-118.355,33.87899],[-118.35635,33.87898],[-118.35701,33.878],[-118.35632,33.87703],[-118.35496,33.87704],[-118.3543,33.87802]]],"type":"Polygon"},"properties":{"bbox":{"roads":{"area":2400.46,"pct":5.91}},"city_same":1,"id":"hex:1998:17318"},"type":"Feature"},{"geometry":{"coordinates":[[[-118.35434,33.87998],[-118.35503,33.88095],[-118.35638,33.88093],[-118.35704,33.87995],[-118.35635,33.87898],[-118.355,33.87899],[-118.35434,33.87998]]],"type":"Polygon"},"properties":{"bbox":{"roads":{"area":3300.91,"pct":8.13}},"city_same":1,"id":"hex:1998:17319"},"type":"Feature"},{"geometry":{"coordinates":[[[-118.35437,33.88193],[-118.35506,33.8829],[-118.35641,33.88288],[-118.35707,33.8819],[-118.35638,33.88093],[-118.35503,33.88095],[-118.35437,33.88193]]],"type":"Polygon"},"properties":{"bbox":{"roads":{"area":4288.78,"pct":10.56},"sidewalks":{"area":10.51,"pct":0.03}},"city_same":1,"id":"hex:1998:17320"},"type":"Feature"},{"geometry":{"coordinates":[[[-118.3544,33.88388],[-118.35509,33.88485],[-118.35644,33.88484],[-118.3571,33.88385],[-118.35641,33.88288],[-118.35506,33.8829],[-118.3544,33.88388]]],"type":"Polygon"},"properties":{"bbox":{"roads":{"area":3442.84,"pct":8.48}},"city_same":1,"id":"hex:1998:17321"},"type":"Feature"},{"geometry":{"coordinates":[[[-118.35443,33.88583],[-118.35512,33.8868],[-118.35647,33.88679],[-118.35713,33.8858],[-118.35644,33.88484],[-118.35509,33.88485],[-118.35443,33.88583]]],"type":"Polygon"},"properties":{"bbox":{"roads":{"area":7005.69,"pct":17.26}},"city":{"roads":{"area":2815.13,"pct":6.93}},"id":"hex:1998:17322"},"type":"Feature"},{"geometry":{"coordinates":[[[-118.35446,33.88779],[-118.35515,33.88875],[-118.3565,33.88874],[-118.35716,33.88776],[-118.35647,33.88679],[-118.35512,33.8868],[-118.35446,33.88779]]],"type":"Polygon"},"properties":{"bbox":{"roads":{"area":11544.18,"pct":28.44}},"city":{"roads":{"area":6251.33,"pct":15.4}},"id":"hex:1998:17323"},"type":"Feature"},{"geometry":{"coordinates":[[[-118.35449,33.88974],[-118.35518,33.89071],[-118.35653,33.89069],[-118.35719,33.88971],[-118.3565,33.88874],[-118.35515,33.88875],[-118.35449,33.88974]]],"type":"Polygon"},"properties":{"bbox":{"roads":{"area":4989.21,"pct":12.29}},"city_same":1,"id":"hex:1998:17324"},"type":"Feature"},{"geometry":{"coordinates":[[[-118.35452,33.89169],[-118.35521,33.89266],[-118.35656,33.89264],[-118.35722,33.89166],[-118.35653,33.89069],[-118.35518,33.89071],[-118.35452,33.89169]]],"type":"Polygon"},"properties":{"bbox":{"roads":{"area":5180.99,"pct":12.76},"sidewalks":{"area":42.15,"pct":0.1}},"city_same":1,"id":"hex:1998:17325"},"type":"Feature"},{"geometry":{"coordinates":[[[-118.35455,33.89364],[-118.35524,33.89461],[-118.35659,33.8946],[-118.35725,33.89361],[-118.35656,33.89264],[-118.35521,33.89266],[-118.35455,33.89364]]],"type":"Polygon"},"properties":{"bbox":{"roads":{"area":3064.75,"pct":7.55},"sidewalks":{"area":320.59,"pct":0.79}},"city":{"roads":{"area":2549.29,"pct":6.28},"sidewalks":{"area":320.59,"pct":0.79}},"id":"hex:1998:17326"},"type":"Feature"},{"geometry":{"coordinates":[[[-118.35458,33.89559],[-118.35527,33.89656],[-118.35662,33.89655],[-118.35729,33.89556],[-118.35659,33.8946],[-118.35524,33.89461],[-118.35458,33.89559]]],"type":"Polygon"},"properties":{"bbox":{"roads":{"area":6652.67,"pct":16.39}},"city":{"roads":{"area":5117.4,"pct":12.61}},"id":"hex:1998:17327"},"type":"Feature"},{"geometry":{"coordinates":[[[-118.35461,33.89755],[-118.3553,33.89851],[-118.35666,33.8985],[-118.35732,33.89752],[-118.35662,33.89655],[-118.35527,33.89656],[-118.35461,33.89755]]],"type":"Polygon"},"properties":{"bbox":{"roads":{"area":6216.84,"pct":15.31},"sidewalks":{"area":243.13,"pct":0.6}},"city_same":1,"id":"hex:1998:17328"},"type":"Feature"},{"geometry":{"coordinates":[[[-118.35464,33.8995],[-118.35534,33.90047],[-118.35669,33.90045],[-118.35735,33.89947],[-118.35666,33.8985],[-118.3553,33.89851],[-118.35464,33.8995]]],"type":"Polygon"},"properties":{"bbox":{"roads":{"area":5228,"pct":12.88}},"city_same":1,"id":"hex:1998:17329"},"type":"Feature"},{"geometry":{"coordinates":[[[-118.35467,33.90145],[-118.35534,33.90047],[-118.35669,33.90045],[-118.35738,33.90142],[-118.35675,33.90235],[-118.3553,33.90233],[-118.35467,33.90145]]],"type":"Polygon"},"properties":{"bbox":{"roads":{"area":8425.08,"pct":21.29}},"city_same":1,"id":"hex:1998:17330"},"type":"Feature"},{"geometry":{"coordinates":[[[-118.3549,33.87314],[-118.35424,33.87412],[-118.35289,33.87414],[-118.35285,33.87408],[-118.35468,33.87286],[-118.3547,33.87286],[-118.3549,33.87314]]],"type":"Polygon"},"properties":{"bbox":{"parking":{"area":3897.95,"pct":33.83},"roads":{"area":4648.39,"pct":40.34},"sidewalks":{"area":295.51,"pct":2.56}},"city":{"parking":{"area":3897.95,"pct":33.83},"roads":{"area":2097.65,"pct":18.21},"sidewalks":{"area":295.51,"pct":2.56}},"id":"hex:1999:17315"},"type":"Feature"},{"geometry":{"coordinates":[[[-118.35223,33.87512],[-118.35292,33.87609],[-118.35427,33.87607],[-118.35493,33.87509],[-118.35424,33.87412],[-118.35289,33.87414],[-118.35223,33.87512]]],"type":"Polygon"},"properties":{"bbox":{"parking":{"area":2228.4,"pct":5.49},"roads":{"area":7629.45,"pct":18.79},"sidewalks":{"area":313.65,"pct":0.77}},"city":{"parking":{"area":2228.4,"pct":5.49},"roads":{"area":7544.18,"pct":18.58},"sidewalks":{"area":313.65,"pct":0.77}},"id":"hex:1999:17316"},"type":"Feature"},{"geometry":{"coordinates":[[[-118.35226,33.87707],[-118.35295,33.87804],[-118.3543,33.87802],[-118.35496,33.87704],[-118.35427,33.87607],[-118.35292,33.87609],[-118.35226,33.87707]]],"type":"Polygon"},"properties":{"bbox":{"parking":{"area":1887.07,"pct":4.65},"roads":{"area":8195.8,"pct":20.19},"sidewalks":{"area":306.35,"pct":0.75}},"city_same":1,"id":"hex:1999:17317"},"type":"Feature"},{"geometry":{"coordinates":[[[-118.35229,33.87902],[-118.35298,33.87999],[-118.35434,33.87998],[-118.355,33.87899],[-118.3543,33.87802],[-118.35295,33.87804],[-118.35229,33.87902]]],"type":"Polygon"},"properties":{"bbox":{"parking":{"area":1271.09,"pct":3.13},"roads":{"area":6289.65,"pct":15.49},"sidewalks":{"area":220.38,"pct":0.54}},"city_same":1,"id":"hex:1999:17318"},"type":"Feature"},{"geometry":{"coordinates":[[[-118.35232,33.88098],[-118.35301,33.88194],[-118.35437,33.88193],[-118.35503,33.88095],[-118.35434,33.87998],[-118.35298,33.87999],[-118.35232,33.88098]]],"type":"Polygon"},"properties":{"bbox":{"parking":{"area":435,"pct":1.07},"roads":{"area":6782.99,"pct":16.71},"sidewalks":{"area":221.97,"pct":0.55}},"city_same":1,"id":"hex:1999:17319"},"type":"Feature"},{"geometry":{"coordinates":[[[-118.35235,33.88293],[-118.35305,33.8839],[-118.3544,33.88388],[-118.35506,33.8829],[-118.35437,33.88193],[-118.35301,33.88194],[-118.35235,33.88293]]],"type":"Polygon"},"properties":{"bbox":{"parking":{"area":880.06,"pct":2.17},"roads":{"area":5803.03,"pct":14.29},"sidewalks":{"area":253.03,"pct":0.62}},"city_same":1,"id":"hex:1999:17320"},"type":"Feature"},{"geometry":{"coordinates":[[[-118.35239,33.88488],[-118.35308,33.88585],[-118.35443,33.88583],[-118.35509,33.88485],[-118.3544,33.88388],[-118.35305,33.8839],[-118.35239,33.88488]]],"type":"Polygon"},"properties":{"bbox":{"parking":{"area":1141.88,"pct":2.81},"roads":{"area":13177.96,"pct":32.46},"sidewalks":{"area":176.01,"pct":0.43}},"city":{"parking":{"area":1141.88,"pct":2.81},"roads":{"area":3325.05,"pct":8.19},"sidewalks":{"area":176.01,"pct":0.43}},"id":"hex:1999:17321"},"type":"Feature"},{"geometry":{"coordinates":[[[-118.35242,33.88683],[-118.35311,33.8878],[-118.35446,33.88779],[-118.35512,33.8868],[-118.35443,33.88583],[-118.35308,33.88585],[-118.35242,33.88683]]],"type":"Polygon"},"properties":{"bbox":{"parking":{"area":4160.53,"pct":10.25},"roads":{"area":9790.76,"pct":24.12},"sidewalks":{"area":147.09,"pct":0.36}},"city":{"parking":{"area":4160.53,"pct":10.25},"roads":{"area":8033.74,"pct":19.79},"sidewalks":{"area":147.09,"pct":0.36}},"id":"hex:1999:17322"},"type":"Feature"},{"geometry":{"coordinates":[[[-118.35245,33.88878],[-118.35314,33.88975],[-118.35449,33.88974],[-118.35515,33.88875],[-118.35446,33.88779],[-118.35311,33.8878],[-118.35245,33.88878]]],"type":"Polygon"},"properties":{"bbox":{"parking":{"area":2558.94,"pct":6.3},"roads":{"area":5835.34,"pct":14.37}},"city_same":1,"id":"hex:1999:17323"},"type":"Feature"},{"geometry":{"coordinates":[[[-118.35248,33.89074],[-118.35317,33.8917],[-118.35452,33.89169],[-118.35518,33.89071],[-118.35449,33.88974],[-118.35314,33.88975],[-118.35248,33.89074]]],"type":"Polygon"},"properties":{"bbox":{"parking":{"area":662.29,"pct":1.63},"roads":{"area":4566.13,"pct":11.25},"sidewalks":{"area":15.71,"pct":0.04}},"city_same":1,"id":"hex:1999:17324"},"type":"Feature"},{"geometry":{"coordinates":[[[-118.35251,33.89269],[-118.3532,33.89366],[-118.35455,33.89364],[-118.35521,33.89266],[-118.35452,33.89169],[-118.35317,33.8917],[-118.35251,33.89269]]],"type":"Polygon"},"properties":{"bbox":{"parking":{"area":200.92,"pct":0.49},"roads":{"area":5243.03,"pct":12.92}},"city_same":1,"id":"hex:1999:17325"},"type":"Feature"},{"geometry":{"coordinates":[[[-118.35254,33.89464],[-118.35323,33.89561],[-118.35458,33.89559],[-118.35524,33.89461],[-118.35455,33.89364],[-118.3532,33.89366],[-118.35254,33.89464]]],"type":"Polygon"},"properties":{"bbox":{"parking":{"area":1242.12,"pct":3.06},"roads":{"area":8537.29,"pct":21.03},"sidewalks":{"area":279.23,"pct":0.69}},"city":{"parking":{"area":1242.12,"pct":3.06},"roads":{"area":5053.88,"pct":12.45},"sidewalks":{"area":279.23,"pct":0.69}},"id":"hex:1999:17326"},"type":"Feature"},{"geometry":{"coordinates":[[[-118.35257,33.89659],[-118.35326,33.89756],[-118.35461,33.89755],[-118.35527,33.89656],[-118.35458,33.89559],[-118.35323,33.89561],[-118.35257,33.89659]]],"type":"Polygon"},"properties":{"bbox":{"parking":{"area":2092.66,"pct":5.15},"roads":{"area":6567.13,"pct":16.18}},"city_same":1,"id":"hex:1999:17327"},"type":"Feature"},{"geometry":{"coordinates":[[[-118.3526,33.89854],[-118.35329,33.89951],[-118.35464,33.8995],[-118.3553,33.89851],[-118.35461,33.89755],[-118.35326,33.89756],[-118.3526,33.89854]]],"type":"Polygon"},"properties":{"bbox":{"roads":{"area":6479.5,"pct":15.96},"sidewalks":{"area":28.96,"pct":0.07}},"city_same":1,"id":"hex:1999:17328"},"type":"Feature"},{"geometry":{"coordinates":[[[-118.35263,33.9005],[-118.35332,33.90147],[-118.35467,33.90145],[-118.35534,33.90047],[-118.35464,33.8995],[-118.35329,33.89951],[-118.35263,33.9005]]],"type":"Polygon"},"properties":{"bbox":{"parking":{"area":8.51,"pct":0.02},"roads":{"area":5941.94,"pct":14.64}},"city_same":1,"id":"hex:1999:17329"},"type":"Feature"},{"geometry":{"coordinates":[[[-118.35332,33.90147],[-118.35467,33.90145],[-118.3553,33.90233],[-118.35361,33.90231],[-118.35324,33.9023],[-118.35321,33.9023],[-118.35321,33.90201],[-118.35321,33.90191],[-118.35317,33.90169],[-118.35317,33.90169],[-118.35332,33.90147]]],"type":"Polygon"},"properties":{"bbox":{"roads":{"area":4698.55,"pct":29.97}},"city_same":1,"id":"hex:1999:17330"},"type":"Feature"},{"geometry":{"coordinates":[[[-118.35289,33.87414],[-118.35223,33.87512],[-118.35088,33.87513],[-118.35085,33.87509],[-118.35175,33.87481],[-118.35207,33.87466],[-118.35235,33.87449],[-118.35265,33.87422],[-118.35285,33.87408],[-118.35289,33.87414]]],"type":"Polygon"},"properties":{"bbox":{"parking":{"area":448.2,"pct":7.59},"roads":{"area":2084.19,"pct":35.31},"sidewalks":{"area":241.96,"pct":4.1}},"city":{"parking":{"area":448.2,"pct":7.59},"roads":{"area":1905.39,"pct":32.28},"sidewalks":{"area":241.96,"pct":4.1}},"id":"hex:2000:17316"},"type":"Feature"},{"geometry":{"coordinates":[[[-118.35022,33.87612],[-118.35091,33.87709],[-118.35226,33.87707],[-118.35292,33.87609],[-118.35223,33.87512],[-118.35088,33.87513],[-118.35022,33.87612]]],"type":"Polygon"},"properties":{"bbox":{"parking":{"area":3065.3,"pct":7.55},"roads":{"area":8527.52,"pct":21.01},"sidewalks":{"area":446.83,"pct":1.1}},"city_same":1,"id":"hex:2000:17317"},"type":"Feature"},{"geometry":{"coordinates":[[[-118.35025,33.87807],[-118.35094,33.87904],[-118.35229,33.87902],[-118.35295,33.87804],[-118.35226,33.87707],[-118.35091,33.87709],[-118.35025,33.87807]]],"type":"Polygon"},"properties":{"bbox":{"parking":{"area":1867.24,"pct":4.6},"roads":{"area":7648.24,"pct":18.84},"sidewalks":{"area":368.75,"pct":0.91}},"city_same":1,"id":"hex:2000:17318"},"type":"Feature"},{"geometry":{"coordinates":[[[-118.35028,33.88002],[-118.35097,33.88099],[-118.35232,33.88098],[-118.35298,33.87999],[-118.35229,33.87902],[-118.35094,33.87904],[-118.35028,33.88002]]],"type":"Polygon"},"properties":{"bbox":{"parking":{"area":2633.97,"pct":6.49},"roads":{"area":9394.32,"pct":23.14},"sidewalks":{"area":414.83,"pct":1.02}},"city_same":1,"id":"hex:2000:17319"},"type":"Feature"},{"geometry":{"coordinates":[[[-118.35031,33.88197],[-118.351,33.88294],[-118.35235,33.88293],[-118.35301,33.88194],[-118.35232,33.88098],[-118.35097,33.88099],[-118.35031,33.88197]]],"type":"Polygon"},"properties":{"bbox":{"parking":{"area":637.36,"pct":1.57},"roads":{"area":8466.03,"pct":20.85},"sidewalks":{"area":404.54,"pct":1}},"city_same":1,"id":"hex:2000:17320"},"type":"Feature"},{"geometry":{"coordinates":[[[-118.35034,33.88393],[-118.35103,33.88489],[-118.35239,33.88488],[-118.35305,33.8839],[-118.35235,33.88293],[-118.351,33.88294],[-118.35034,33.88393]]],"type":"Polygon"},"properties":{"bbox":{"parking":{"area":439.47,"pct":1.08},"roads":{"area":15936.86,"pct":39.26},"sidewalks":{"area":539.55,"pct":1.33}},"city":{"parking":{"area":439.47,"pct":1.08},"roads":{"area":7006.45,"pct":17.26},"sidewalks":{"area":539.55,"pct":1.33}},"id":"hex:2000:17321"},"type":"Feature"},{"geometry":{"coordinates":[[[-118.35037,33.88588],[-118.35106,33.88685],[-118.35242,33.88683],[-118.35308,33.88585],[-118.35239,33.88488],[-118.35103,33.88489],[-118.35037,33.88588]]],"type":"Polygon"},"properties":{"bbox":{"parking":{"area":35.37,"pct":0.09},"roads":{"area":9340.03,"pct":23.01},"sidewalks":{"area":372.7,"pct":0.92}},"city":{"parking":{"area":35.37,"pct":0.09},"roads":{"area":7807.98,"pct":19.23},"sidewalks":{"area":372.7,"pct":0.92}},"id":"hex:2000:17322"},"type":"Feature"},{"geometry":{"coordinates":[[[-118.3504,33.88783],[-118.3511,33.8888],[-118.35245,33.88878],[-118.35311,33.8878],[-118.35242,33.88683],[-118.35106,33.88685],[-118.3504,33.88783]]],"type":"Polygon"},"properties":{"bbox":{"parking":{"area":1761.31,"pct":4.34},"roads":{"area":11630.68,"pct":28.65},"sidewalks":{"area":69.42,"pct":0.17}},"city_same":1,"id":"hex:2000:17323"},"type":"Feature"},{"geometry":{"coordinates":[[[-118.35044,33.88978],[-118.35113,33.89075],[-118.35248,33.89074],[-118.35314,33.88975],[-118.35245,33.88878],[-118.3511,33.8888],[-118.35044,33.88978]]],"type":"Polygon"},"properties":{"bbox":{"parking":{"area":1607.81,"pct":3.96},"roads":{"area":9675.99,"pct":23.84}},"city_same":1,"id":"hex:2000:17324"},"type":"Feature"},{"geometry":{"coordinates":[[[-118.35047,33.89173],[-118.35116,33.8927],[-118.35251,33.89269],[-118.35317,33.8917],[-118.35248,33.89074],[-118.35113,33.89075],[-118.35047,33.89173]]],"type":"Polygon"},"properties":{"bbox":{"parking":{"area":689.11,"pct":1.7},"roads":{"area":8823.24,"pct":21.73},"sidewalks":{"area":386.82,"pct":0.95}},"city_same":1,"id":"hex:2000:17325"},"type":"Feature"},{"geometry":{"coordinates":[[[-118.3505,33.89369],[-118.35119,33.89466],[-118.35254,33.89464],[-118.3532,33.89366],[-118.35251,33.89269],[-118.35116,33.8927],[-118.3505,33.89369]]],"type":"Polygon"},"properties":{"bbox":{"parking":{"area":2590.51,"pct":6.38},"roads":{"area":10422.2,"pct":25.67},"sidewalks":{"area":268.86,"pct":0.66}},"city":{"parking":{"area":2590.51,"pct":6.38},"roads":{"area":9411.71,"pct":23.18},"sidewalks":{"area":268.86,"pct":0.66}},"id":"hex:2000:17326"},"type":"Feature"},{"geometry":{"coordinates":[[[-118.35053,33.89564],[-118.35122,33.89661],[-118.35257,33.89659],[-118.35323,33.89561],[-118.35254,33.89464],[-118.35119,33.89466],[-118.35053,33.89564]]],"type":"Polygon"},"properties":{"bbox":{"parking":{"area":1639.06,"pct":4.04},"roads":{"area":10579.79,"pct":26.06},"sidewalks":{"area":174.81,"pct":0.43}},"city":{"parking":{"area":1639.06,"pct":4.04},"roads":{"area":9704.35,"pct":23.91},"sidewalks":{"area":174.81,"pct":0.43}},"id":"hex:2000:17327"},"type":"Feature"},{"geometry":{"coordinates":[[[-118.35056,33.89759],[-118.35125,33.89856],[-118.3526,33.89854],[-118.35326,33.89756],[-118.35257,33.89659],[-118.35122,33.89661],[-118.35056,33.89759]]],"type":"Polygon"},"properties":{"bbox":{"parking":{"area":2004.81,"pct":4.94},"roads":{"area":9322.52,"pct":22.96},"sidewalks":{"area":23.96,"pct":0.06}},"city_same":1,"id":"hex:2000:17328"},"type":"Feature"},{"geometry":{"coordinates":[[[-118.35059,33.89954],[-118.35128,33.90051],[-118.35263,33.9005],[-118.35329,33.89951],[-118.3526,33.89854],[-118.35125,33.89856],[-118.35059,33.89954]]],"type":"Polygon"},"properties":{"bbox":{"parking":{"area":1688.3,"pct":4.16},"roads":{"area":9122.14,"pct":22.47}},"city_same":1,"id":"hex:2000:17329"},"type":"Feature"},{"geometry":{"coordinates":[[[-118.35062,33.9015],[-118.35128,33.90051],[-118.35263,33.9005],[-118.35332,33.90147],[-118.35317,33.90169],[-118.35274,33.90165],[-118.35237,33.90161],[-118.35238,33.90115],[-118.35238,33.90108],[-118.35215,33.90111],[-118.35215,33.90159],[-118.35215,33.90192],[-118.35181,33.90192],[-118.35149,33.90192],[-118.35119,33.90194],[-118.35112,33.90193],[-118.35103,33.90193],[-118.35104,33.90209],[-118.35062,33.9015]]],"type":"Polygon"},"properties":{"bbox":{"parking":{"area":7841.59,"pct":28.71},"roads":{"area":7116.91,"pct":26.06},"sidewalks":{"area":157.04,"pct":0.57}},"city_same":1,"id":"hex:2000:17330"},"type":"Feature"},{"geometry":{"coordinates":[[[-118.35088,33.87513],[-118.35022,33.87612],[-118.34887,33.87613],[-118.34864,33.87581],[-118.35085,33.87509],[-118.35088,33.87513]]],"type":"Polygon"},"properties":{"bbox":{"roads":{"area":1642.14,"pct":13.84},"sidewalks":{"area":126.74,"pct":1.07}},"city_same":1,"id":"hex:2001:17316"},"type":"Feature"},{"geometry":{"coordinates":[[[-118.34821,33.87712],[-118.3489,33.87808],[-118.35025,33.87807],[-118.35091,33.87709],[-118.35022,33.87612],[-118.34887,33.87613],[-118.34821,33.87712]]],"type":"Polygon"},"properties":{"bbox":{"roads":{"area":4480.97,"pct":11.04}},"city_same":1,"id":"hex:2001:17317"},"type":"Feature"},{"geometry":{"coordinates":[[[-118.34824,33.87907],[-118.34893,33.88004],[-118.35028,33.88002],[-118.35094,33.87904],[-118.35025,33.87807],[-118.3489,33.87808],[-118.34824,33.87907]]],"type":"Polygon"},"properties":{"bbox":{"roads":{"area":3166.95,"pct":7.8}},"city_same":1,"id":"hex:2001:17318"},"type":"Feature"},{"geometry":{"coordinates":[[[-118.34827,33.88102],[-118.34896,33.88199],[-118.35031,33.88197],[-118.35097,33.88099],[-118.35028,33.88002],[-118.34893,33.88004],[-118.34827,33.88102]]],"type":"Polygon"},"properties":{"bbox":{"roads":{"area":6287.89,"pct":15.49}},"city":{"roads":{"area":3841.94,"pct":9.46}},"id":"hex:2001:17319"},"type":"Feature"},{"geometry":{"coordinates":[[[-118.3483,33.88297],[-118.34899,33.88394],[-118.35034,33.88393],[-118.351,33.88294],[-118.35031,33.88197],[-118.34896,33.88199],[-118.3483,33.88297]]],"type":"Polygon"},"properties":{"bbox":{"roads":{"area":10932.08,"pct":26.93}},"city":{"roads":{"area":3182.86,"pct":7.84}},"id":"hex:2001:17320"},"type":"Feature"},{"geometry":{"coordinates":[[[-118.34833,33.88492],[-118.34902,33.88589],[-118.35037,33.88588],[-118.35103,33.88489],[-118.35034,33.88393],[-118.34899,33.88394],[-118.34833,33.88492]]],"type":"Polygon"},"properties":{"bbox":{"roads":{"area":4814.85,"pct":11.86}},"city_same":1,"id":"hex:2001:17321"},"type":"Feature"},{"geometry":{"coordinates":[[[-118.34836,33.88688],[-118.34905,33.88784],[-118.3504,33.88783],[-118.35106,33.88685],[-118.35037,33.88588],[-118.34902,33.88589],[-118.34836,33.88688]]],"type":"Polygon"},"properties":{"bbox":{"roads":{"area":6772.62,"pct":16.68}},"city_same":1,"id":"hex:2001:17322"},"type":"Feature"},{"geometry":{"coordinates":[[[-118.34839,33.88883],[-118.34908,33.8898],[-118.35044,33.88978],[-118.3511,33.8888],[-118.3504,33.88783],[-118.34905,33.88784],[-118.34839,33.88883]]],"type":"Polygon"},"properties":{"bbox":{"roads":{"area":4421.79,"pct":10.89}},"city_same":1,"id":"hex:2001:17323"},"type":"Feature"},{"geometry":{"coordinates":[[[-118.34842,33.89078],[-118.34911,33.89175],[-118.35047,33.89173],[-118.35113,33.89075],[-118.35044,33.88978],[-118.34908,33.8898],[-118.34842,33.89078]]],"type":"Polygon"},"properties":{"bbox":{"roads":{"area":4203.1,"pct":10.35},"sidewalks":{"area":598.41,"pct":1.47}},"city_same":1,"id":"hex:2001:17324"},"type":"Feature"},{"geometry":{"coordinates":[[[-118.34845,33.89273],[-118.34915,33.8937],[-118.3505,33.89369],[-118.35116,33.8927],[-118.35047,33.89173],[-118.34911,33.89175],[-118.34845,33.89273]]],"type":"Polygon"},"properties":{"bbox":{"roads":{"area":5668.25,"pct":13.96}},"city_same":1,"id":"hex:2001:17325"},"type":"Feature"},{"geometry":{"coordinates":[[[-118.34848,33.89468],[-118.34918,33.89565],[-118.35053,33.89564],[-118.35119,33.89466],[-118.3505,33.89369],[-118.34915,33.8937],[-118.34848,33.89468]]],"type":"Polygon"},"properties":{"bbox":{"roads":{"area":8000.14,"pct":19.71},"sidewalks":{"area":202.12,"pct":0.5}},"city":{"roads":{"area":4040.55,"pct":9.95},"sidewalks":{"area":202.12,"pct":0.5}},"id":"hex:2001:17326"},"type":"Feature"},{"geometry":{"coordinates":[[[-118.34852,33.89664],[-118.34921,33.89761],[-118.35056,33.89759],[-118.35122,33.89661],[-118.35053,33.89564],[-118.34918,33.89565],[-118.34852,33.89664]]],"type":"Polygon"},"properties":{"bbox":{"roads":{"area":4215.81,"pct":10.39}},"city_same":1,"id":"hex:2001:17327"},"type":"Feature"},{"geometry":{"coordinates":[[[-118.34855,33.89859],[-118.34924,33.89956],[-118.35059,33.89954],[-118.35125,33.89856],[-118.35056,33.89759],[-118.34921,33.89761],[-118.34855,33.89859]]],"type":"Polygon"},"properties":{"bbox":{"roads":{"area":4618,"pct":11.38}},"city_same":1,"id":"hex:2001:17328"},"type":"Feature"},{"geometry":{"coordinates":[[[-118.34858,33.90054],[-118.34927,33.90151],[-118.35062,33.9015],[-118.35128,33.90051],[-118.35059,33.89954],[-118.34924,33.89956],[-118.34858,33.90054]]],"type":"Polygon"},"properties":{"bbox":{"roads":{"area":2693.15,"pct":6.63}},"city_same":1,"id":"hex:2001:17329"},"type":"Feature"},{"geometry":{"coordinates":[[[-118.34861,33.90249],[-118.34927,33.90151],[-118.35062,33.9015],[-118.35104,33.90209],[-118.35107,33.90257],[-118.3509,33.90256],[-118.35073,33.90255],[-118.35009,33.90253],[-118.34949,33.90251],[-118.34888,33.9025],[-118.34861,33.9025],[-118.34861,33.90249]]],"type":"Polygon"},"properties":{"bbox":{"roads":{"area":4986.63,"pct":23.74},"sidewalks":{"area":487.83,"pct":2.32}},"city_same":1,"id":"hex:2001:17330"},"type":"Feature"},{"geometry":{"coordinates":[[[-118.34887,33.87613],[-118.34821,33.87712],[-118.34686,33.87713],[-118.34642,33.87652],[-118.34864,33.87581],[-118.34887,33.87613]]],"type":"Polygon"},"properties":{"bbox":{"roads":{"area":2266.63,"pct":11.4}},"city_same":1,"id":"hex:2002:17317"},"type":"Feature"},{"geometry":{"coordinates":[[[-118.3462,33.87811],[-118.34689,33.87908],[-118.34824,33.87907],[-118.3489,33.87808],[-118.34821,33.87712],[-118.34686,33.87713],[-118.3462,33.87811]]],"type":"Polygon"},"properties":{"bbox":{"roads":{"area":3166.27,"pct":7.8}},"city":{"roads":{"area":2585.59,"pct":6.37}},"id":"hex:2002:17318"},"type":"Feature"},{"geometry":{"coordinates":[[[-118.34623,33.88007],[-118.34692,33.88103],[-118.34827,33.88102],[-118.34893,33.88004],[-118.34824,33.87907],[-118.34689,33.87908],[-118.34623,33.88007]]],"type":"Polygon"},"properties":{"bbox":{"roads":{"area":11174.73,"pct":27.53}},"city":{"roads":{"area":3018.99,"pct":7.44}},"id":"hex:2002:17319"},"type":"Feature"},{"geometry":{"coordinates":[[[-118.34626,33.88202],[-118.34695,33.88299],[-118.3483,33.88297],[-118.34896,33.88199],[-118.34827,33.88102],[-118.34692,33.88103],[-118.34626,33.88202]]],"type":"Polygon"},"properties":{"bbox":{"roads":{"area":5254.34,"pct":12.94}},"city":{"roads":{"area":2804.56,"pct":6.91}},"id":"hex:2002:17320"},"type":"Feature"},{"geometry":{"coordinates":[[[-118.34629,33.88397],[-118.34698,33.88494],[-118.34833,33.88492],[-118.34899,33.88394],[-118.3483,33.88297],[-118.34695,33.88299],[-118.34629,33.88397]]],"type":"Polygon"},"properties":{"bbox":{"roads":{"area":3144.59,"pct":7.75}},"city_same":1,"id":"hex:2002:17321"},"type":"Feature"},{"geometry":{"coordinates":[[[-118.34632,33.88592],[-118.34701,33.88689],[-118.34836,33.88688],[-118.34902,33.88589],[-118.34833,33.88492],[-118.34698,33.88494],[-118.34632,33.88592]]],"type":"Polygon"},"properties":{"bbox":{"roads":{"area":3893.98,"pct":9.59}},"city_same":1,"id":"hex:2002:17322"},"type":"Feature"},{"geometry":{"coordinates":[[[-118.34635,33.88787],[-118.34704,33.88884],[-118.34839,33.88883],[-118.34905,33.88784],[-118.34836,33.88688],[-118.34701,33.88689],[-118.34635,33.88787]]],"type":"Polygon"},"properties":{"bbox":{"roads":{"area":6388.68,"pct":15.74}},"city_same":1,"id":"hex:2002:17323"},"type":"Feature"},{"geometry":{"coordinates":[[[-118.34638,33.88983],[-118.34707,33.8908],[-118.34842,33.89078],[-118.34908,33.8898],[-118.34839,33.88883],[-118.34704,33.88884],[-118.34638,33.88983]]],"type":"Polygon"},"properties":{"bbox":{"roads":{"area":2022.65,"pct":4.98}},"city_same":1,"id":"hex:2002:17324"},"type":"Feature"},{"geometry":{"coordinates":[[[-118.34641,33.89178],[-118.3471,33.89275],[-118.34845,33.89273],[-118.34911,33.89175],[-118.34842,33.89078],[-118.34707,33.8908],[-118.34641,33.89178]]],"type":"Polygon"},"properties":{"bbox":{"roads":{"area":4905.97,"pct":12.09},"sidewalks":{"area":427.02,"pct":1.05}},"city_same":1,"id":"hex:2002:17325"},"type":"Feature"},{"geometry":{"coordinates":[[[-118.34644,33.89373],[-118.34713,33.8947],[-118.34848,33.89468],[-118.34915,33.8937],[-118.34845,33.89273],[-118.3471,33.89275],[-118.34644,33.89373]]],"type":"Polygon"},"properties":{"bbox":{"roads":{"area":5534.41,"pct":13.63}},"city":{"roads":{"area":3945.33,"pct":9.72}},"id":"hex:2002:17326"},"type":"Feature"},{"geometry":{"coordinates":[[[-118.34647,33.89568],[-118.34716,33.89665],[-118.34852,33.89664],[-118.34918,33.89565],[-118.34848,33.89468],[-118.34713,33.8947],[-118.34647,33.89568]]],"type":"Polygon"},"properties":{"bbox":{"roads":{"area":3976.74,"pct":9.8}},"city":{"roads":{"area":3746.97,"pct":9.23}},"id":"hex:2002:17327"},"type":"Feature"},{"geometry":{"coordinates":[[[-118.3465,33.89764],[-118.34719,33.8986],[-118.34855,33.89859],[-118.34921,33.89761],[-118.34852,33.89664],[-118.34716,33.89665],[-118.3465,33.89764]]],"type":"Polygon"},"properties":{"bbox":{"roads":{"area":3879.57,"pct":9.56}},"city_same":1,"id":"hex:2002:17328"},"type":"Feature"},{"geometry":{"coordinates":[[[-118.34653,33.89959],[-118.34723,33.90056],[-118.34858,33.90054],[-118.34924,33.89956],[-118.34855,33.89859],[-118.34719,33.8986],[-118.34653,33.89959]]],"type":"Polygon"},"properties":{"bbox":{"roads":{"area":1422.22,"pct":3.5}},"city_same":1,"id":"hex:2002:17329"},"type":"Feature"},{"geometry":{"coordinates":[[[-118.34656,33.90154],[-118.34723,33.90056],[-118.34858,33.90054],[-118.34927,33.90151],[-118.34861,33.90249],[-118.34815,33.9025],[-118.34724,33.90249],[-118.34656,33.90154]]],"type":"Polygon"},"properties":{"bbox":{"roads":{"area":4695.79,"pct":11.59},"sidewalks":{"area":591.22,"pct":1.46}},"city_same":1,"id":"hex:2002:17330"},"type":"Feature"},{"geometry":{"coordinates":[[[-118.34686,33.87713],[-118.3462,33.87811],[-118.34485,33.87813],[-118.3442,33.87723],[-118.34642,33.87652],[-118.34686,33.87713]]],"type":"Polygon"},"properties":{"bbox":{"roads":{"area":8751.26,"pct":31.37},"sidewalks":{"area":313.43,"pct":1.12}},"city":{"roads":{"area":1835.24,"pct":6.58},"sidewalks":{"area":313.43,"pct":1.12}},"id":"hex:2003:17317"},"type":"Feature"},{"geometry":{"coordinates":[[[-118.34419,33.87911],[-118.34488,33.88008],[-118.34623,33.88007],[-118.34689,33.87908],[-118.3462,33.87811],[-118.34485,33.87813],[-118.34419,33.87911]]],"type":"Polygon"},"properties":{"bbox":{"parking":{"area":284.82,"pct":0.7},"roads":{"area":7746.43,"pct":19.08},"sidewalks":{"area":327.23,"pct":0.81}},"city":{"parking":{"area":284.82,"pct":0.7},"roads":{"area":2288.96,"pct":5.64},"sidewalks":{"area":327.23,"pct":0.81}},"id":"hex:2003:17318"},"type":"Feature"},{"geometry":{"coordinates":[[[-118.34422,33.88106],[-118.34491,33.88203],[-118.34626,33.88202],[-118.34692,33.88103],[-118.34623,33.88007],[-118.34488,33.88008],[-118.34422,33.88106]]],"type":"Polygon"},"properties":{"bbox":{"roads":{"area":4303.58,"pct":10.6}},"city_same":1,"id":"hex:2003:17319"},"type":"Feature"},{"geometry":{"coordinates":[[[-118.34425,33.88302],[-118.34494,33.88398],[-118.34629,33.88397],[-118.34695,33.88299],[-118.34626,33.88202],[-118.34491,33.88203],[-118.34425,33.88302]]],"type":"Polygon"},"properties":{"bbox":{"roads":{"area":3278.75,"pct":8.08}},"city_same":1,"id":"hex:2003:17320"},"type":"Feature"},{"geometry":{"coordinates":[[[-118.34428,33.88497],[-118.34497,33.88594],[-118.34632,33.88592],[-118.34698,33.88494],[-118.34629,33.88397],[-118.34494,33.88398],[-118.34428,33.88497]]],"type":"Polygon"},"properties":{"bbox":{"roads":{"area":4485.46,"pct":11.05}},"city_same":1,"id":"hex:2003:17321"},"type":"Feature"},{"geometry":{"coordinates":[[[-118.34431,33.88692],[-118.345,33.88789],[-118.34635,33.88787],[-118.34701,33.88689],[-118.34632,33.88592],[-118.34497,33.88594],[-118.34431,33.88692]]],"type":"Polygon"},"properties":{"bbox":{"roads":{"area":7679.9,"pct":18.92}},"city_same":1,"id":"hex:2003:17322"},"type":"Feature"},{"geometry":{"coordinates":[[[-118.34434,33.88887],[-118.34503,33.88984],[-118.34638,33.88983],[-118.34704,33.88884],[-118.34635,33.88787],[-118.345,33.88789],[-118.34434,33.88887]]],"type":"Polygon"},"properties":{"bbox":{"roads":{"area":430.64,"pct":1.06}},"city_same":1,"id":"hex:2003:17323"},"type":"Feature"},{"geometry":{"coordinates":[[[-118.34437,33.89082],[-118.34506,33.89179],[-118.34641,33.89178],[-118.34707,33.8908],[-118.34638,33.88983],[-118.34503,33.88984],[-118.34437,33.89082]]],"type":"Polygon"},"properties":{"bbox":{"roads":{"area":4040.36,"pct":9.95},"sidewalks":{"area":605.46,"pct":1.49}},"city_same":1,"id":"hex:2003:17324"},"type":"Feature"},{"geometry":{"coordinates":[[[-118.3444,33.89278],[-118.34509,33.89375],[-118.34644,33.89373],[-118.3471,33.89275],[-118.34641,33.89178],[-118.34506,33.89179],[-118.3444,33.89278]]],"type":"Polygon"},"properties":{"bbox":{"roads":{"area":5086.16,"pct":12.53}},"city_same":1,"id":"hex:2003:17325"},"type":"Feature"},{"geometry":{"coordinates":[[[-118.34509,33.89375],[-118.34644,33.89373],[-118.34713,33.8947],[-118.34647,33.89568],[-118.34512,33.8957],[-118.34451,33.89484],[-118.34451,33.89465],[-118.34451,33.89462],[-118.34509,33.89375]]],"type":"Polygon"},"properties":{"bbox":{"roads":{"area":7569.73,"pct":18.69}},"city":{"roads":{"area":4056.65,"pct":10.01}},"id":"hex:2003:17326"},"type":"Feature"},{"geometry":{"coordinates":[[[-118.34446,33.89668],[-118.34515,33.89765],[-118.3465,33.89764],[-118.34716,33.89665],[-118.34647,33.89568],[-118.34512,33.8957],[-118.34446,33.89668]]],"type":"Polygon"},"properties":{"bbox":{"roads":{"area":4935.26,"pct":12.16}},"city_same":1,"id":"hex:2003:17327"},"type":"Feature"},{"geometry":{"coordinates":[[[-118.34449,33.89863],[-118.34518,33.8996],[-118.34653,33.89959],[-118.34719,33.8986],[-118.3465,33.89764],[-118.34515,33.89765],[-118.34449,33.89863]]],"type":"Polygon"},"properties":{"bbox":{"roads":{"area":5281.08,"pct":13.01},"sidewalks":{"area":22.34,"pct":0.06}},"city_same":1,"id":"hex:2003:17328"},"type":"Feature"},{"geometry":{"coordinates":[[[-118.34452,33.90059],[-118.34521,33.90155],[-118.34656,33.90154],[-118.34723,33.90056],[-118.34653,33.89959],[-118.34518,33.8996],[-118.34452,33.90059]]],"type":"Polygon"},"properties":{"bbox":{"roads":{"area":2760.5,"pct":6.8},"sidewalks":{"area":333.75,"pct":0.82}},"city_same":1,"id":"hex:2003:17329"},"type":"Feature"},{"geometry":{"coordinates":[[[-118.34521,33.90155],[-118.34656,33.90154],[-118.34724,33.90249],[-118.34665,33.90248],[-118.3446,33.90246],[-118.34521,33.90155]]],"type":"Polygon"},"properties":{"bbox":{"roads":{"area":5140.56,"pct":27.01},"sidewalks":{"area":506.98,"pct":2.66}},"city_same":1,"id":"hex:2003:17330"},"type":"Feature"},{"geometry":{"coordinates":[[[-118.34485,33.87813],[-118.34419,33.87911],[-118.34379,33.87912],[-118.34379,33.87851],[-118.34378,33.87737],[-118.3442,33.87723],[-118.34485,33.87813]]],"type":"Polygon"},"properties":{"bbox":{"roads":{"area":3886.96,"pct":28.04},"sidewalks":{"area":43.34,"pct":0.31}},"city":{"roads":{"area":1838.06,"pct":13.26},"sidewalks":{"area":43.34,"pct":0.31}},"id":"hex:2004:17318"},"type":"Feature"},{"geometry":{"coordinates":[[[-118.34419,33.87911],[-118.34488,33.88008],[-118.34422,33.88106],[-118.3438,33.88107],[-118.3438,33.881],[-118.3438,33.88093],[-118.3438,33.88012],[-118.34379,33.87977],[-118.3438,33.8794],[-118.34379,33.87912],[-118.34419,33.87911]]],"type":"Polygon"},"properties":{"bbox":{"roads":{"area":3499.73,"pct":23.6},"sidewalks":{"area":0.16,"pct":0}},"city":{"roads":{"area":1442.16,"pct":9.72},"sidewalks":{"area":0.16,"pct":0}},"id":"hex:2004:17319"},"type":"Feature"},{"geometry":{"coordinates":[[[-118.34422,33.88106],[-118.34491,33.88203],[-118.34425,33.88302],[-118.3438,33.88302],[-118.3438,33.88272],[-118.34381,33.88259],[-118.3438,33.8814],[-118.3438,33.88107],[-118.34422,33.88106]]],"type":"Polygon"},"properties":{"bbox":{"roads":{"area":3053.86,"pct":19.95}},"city":{"roads":{"area":803.88,"pct":5.25}},"id":"hex:2004:17320"},"type":"Feature"},{"geometry":{"coordinates":[[[-118.34425,33.88302],[-118.34494,33.88398],[-118.34428,33.88497],[-118.34381,33.88497],[-118.34381,33.88453],[-118.34381,33.88404],[-118.34381,33.8836],[-118.34381,33.88328],[-118.3438,33.88302],[-118.34425,33.88302]]],"type":"Polygon"},"properties":{"bbox":{"roads":{"area":3139.58,"pct":19.84}},"city":{"roads":{"area":1145.09,"pct":7.24}},"id":"hex:2004:17321"},"type":"Feature"},{"geometry":{"coordinates":[[[-118.34428,33.88497],[-118.34497,33.88594],[-118.34431,33.88692],[-118.34382,33.88693],[-118.34382,33.8869],[-118.34382,33.88646],[-118.34381,33.88598],[-118.34381,33.8855],[-118.34381,33.88523],[-118.34381,33.88501],[-118.34381,33.88497],[-118.34428,33.88497]]],"type":"Polygon"},"properties":{"bbox":{"roads":{"area":3600.55,"pct":22.01}},"city":{"roads":{"area":1647.83,"pct":10.08}},"id":"hex:2004:17322"},"type":"Feature"},{"geometry":{"coordinates":[[[-118.34431,33.88692],[-118.345,33.88789],[-118.34434,33.88887],[-118.34381,33.88888],[-118.34381,33.88739],[-118.34381,33.88734],[-118.34382,33.88693],[-118.34431,33.88692]]],"type":"Polygon"},"properties":{"bbox":{"roads":{"area":4455.28,"pct":26.27}},"city":{"roads":{"area":2314.45,"pct":13.65}},"id":"hex:2004:17323"},"type":"Feature"},{"geometry":{"coordinates":[[[-118.34434,33.88887],[-118.34503,33.88984],[-118.34437,33.89082],[-118.34381,33.89083],[-118.34381,33.88925],[-118.34381,33.88888],[-118.34434,33.88887]]],"type":"Polygon"},"properties":{"bbox":{"roads":{"area":2696.53,"pct":15.32}},"city":{"roads":{"area":592.07,"pct":3.36}},"id":"hex:2004:17324"},"type":"Feature"},{"geometry":{"coordinates":[[[-118.34437,33.89082],[-118.34506,33.89179],[-118.3444,33.89278],[-118.34382,33.89278],[-118.34382,33.89185],[-118.34381,33.89102],[-118.34381,33.89083],[-118.34437,33.89082]]],"type":"Polygon"},"properties":{"bbox":{"roads":{"area":3270.7,"pct":18.03},"sidewalks":{"area":140.22,"pct":0.77}},"city":{"roads":{"area":1362.61,"pct":7.51},"sidewalks":{"area":140.22,"pct":0.77}},"id":"hex:2004:17325"},"type":"Feature"},{"geometry":{"coordinates":[[[-118.3444,33.89278],[-118.34509,33.89375],[-118.34451,33.89462],[-118.34451,33.89351],[-118.34382,33.89348],[-118.34382,33.89343],[-118.34382,33.89327],[-118.34382,33.89278],[-118.3444,33.89278]]],"type":"Polygon"},"properties":{"bbox":{"roads":{"area":1177.8,"pct":11.74}},"city":{"roads":{"area":516.12,"pct":5.14}},"id":"hex:2004:17326"},"type":"Feature"},{"geometry":{"coordinates":[[[-118.34512,33.8957],[-118.34446,33.89668],[-118.34383,33.89669],[-118.34383,33.89618],[-118.34383,33.89581],[-118.34383,33.89542],[-118.34452,33.89546],[-118.34451,33.89484],[-118.34512,33.8957]]],"type":"Polygon"},"properties":{"bbox":{"roads":{"area":2552.56,"pct":17.98}},"city":{"roads":{"area":890.53,"pct":6.27}},"id":"hex:2004:17327"},"type":"Feature"},{"geometry":{"coordinates":[[[-118.34446,33.89668],[-118.34515,33.89765],[-118.34449,33.89863],[-118.34382,33.89864],[-118.34381,33.89828],[-118.34383,33.89758],[-118.34383,33.89688],[-118.34383,33.89669],[-118.34446,33.89668]]],"type":"Polygon"},"properties":{"bbox":{"roads":{"area":4339.62,"pct":21.85},"sidewalks":{"area":15.69,"pct":0.08}},"city":{"roads":{"area":1397.2,"pct":7.03},"sidewalks":{"area":15.69,"pct":0.08}},"id":"hex:2004:17328"},"type":"Feature"},{"geometry":{"coordinates":[[[-118.34449,33.89863],[-118.34518,33.8996],[-118.34452,33.90059],[-118.34384,33.90059],[-118.34384,33.90012],[-118.34384,33.89969],[-118.34383,33.89899],[-118.34382,33.89864],[-118.34449,33.89863]]],"type":"Polygon"},"properties":{"bbox":{"roads":{"area":4474.14,"pct":22.09},"sidewalks":{"area":229.13,"pct":1.13}},"city":{"roads":{"area":1739.71,"pct":8.59},"sidewalks":{"area":229.13,"pct":1.13}},"id":"hex:2004:17329"},"type":"Feature"},{"geometry":{"coordinates":[[[-118.34452,33.90059],[-118.34521,33.90155],[-118.3446,33.90246],[-118.34383,33.90245],[-118.34383,33.90229],[-118.34384,33.90209],[-118.34382,33.90193],[-118.34383,33.90108],[-118.34384,33.9007],[-118.34384,33.90059],[-118.34452,33.90059]]],"type":"Polygon"},"properties":{"bbox":{"roads":{"area":7361.28,"pct":36.26},"sidewalks":{"area":392.11,"pct":1.93}},"city":{"roads":{"area":5090.81,"pct":25.07},"sidewalks":{"area":392.11,"pct":1.93}},"id":"hex:2004:17330"},"type":"Feature"}],"type":"FeatureCollection","v":2}