{"features":[{"geometry":{"coordinates":[[[[-118.18744,33.90382],[-118.1871,33.904],[-118.18664,33.90469],[-118.18586,33.90484],[-118.18464,33.90545],[-118.18363,33.90632],[-118.18197,33.90703],[-118.18084,33.90864],[-118.18038,33.90987],[-118.17954,33.91339],[-118.17886,33.91879],[-118.17777,33.91848],[-118.17851,33.91269],[-118.18024,33.90703],[-118.18125,33.90535],[-118.18453,33.90223],[-118.1856,33.90094],[-118.18644,33.89878],[-118.18703,33.89474],[-118.1882,33.89472],[-118.18699,33.90242],[-118.18716,33.90303],[-118.18757,33.9034],[-118.1889,33.90346],[-118.1889,33.90375],[-118.18744,33.90382]]],[[[-118.17615,33.91802],[-118.17595,33.91783],[-118.16929,33.91477],[-118.16943,33.91396],[-118.16985,33.91398],[-118.17001,33.91371],[-118.16982,33.91361],[-118.16983,33.91319],[-118.17296,33.91316],[-118.17295,33.91271],[-118.17329,33.91271],[-118.17324,33.9118],[-118.17033,33.91181],[-118.17033,33.91223],[-118.16841,33.91215],[-118.16842,33.91397],[-118.16808,33.91397],[-118.168,33.91418],[-118.15903,33.90991],[-118.15789,33.91358],[-118.15841,33.91383],[-118.15641,33.91714],[-118.14923,33.91375],[-118.15354,33.90738],[-118.14586,33.90378],[-118.14534,33.90378],[-118.14524,33.90348],[-118.14298,33.90243],[-118.14281,33.88936],[-118.14707,33.88934],[-118.14699,33.87983],[-118.1514,33.87981],[-118.15143,33.88211],[-118.17736,33.88196],[-118.17736,33.88544],[-118.18179,33.88542],[-118.18179,33.88556],[-118.18813,33.88545],[-118.18753,33.88544],[-118.18643,33.89256],[-118.18438,33.89254],[-118.1843,33.88928],[-118.18253,33.88924],[-118.17995,33.89273],[-118.18169,33.89264],[-118.18179,33.89421],[-118.18228,33.8942],[-118.1824,33.89618],[-118.18534,33.89616],[-118.18577,33.89475],[-118.18663,33.89474],[-118.18608,33.89475],[-118.18522,33.8997],[-118.1839,33.90162],[-118.18121,33.90402],[-118.1799,33.90567],[-118.17922,33.9071],[-118.17743,33.91303],[-118.17683,33.91822],[-118.17615,33.91802]],[[-118.17015,33.89943],[-118.17023,33.89955],[-118.17022,33.89935],[-118.17015,33.89943]],[[-118.17172,33.89919],[-118.17167,33.89933],[-118.1718,33.89933],[-118.1718,33.89911],[-118.17172,33.89919]],[[-118.17413,33.91193],[-118.17389,33.91266],[-118.17441,33.91265],[-118.1744,33.9124],[-118.17595,33.91285],[-118.17612,33.91258],[-118.17413,33.91193]],[[-118.17574,33.90235],[-118.17594,33.90214],[-118.17558,33.90219],[-118.17574,33.90235]]]],"type":"MultiPolygon"},"properties":{"type":"boundary"},"type":"Feature"}],"type":"FeatureCollection"}