{"features":[{"geometry":{"coordinates":[[[-122.42616,37.69514],[-122.42471,37.69486],[-122.42474,37.69587],[-122.42399,37.69605],[-122.42309,37.69671],[-122.4219,37.69835],[-122.42218,37.69851],[-122.42129,37.69918],[-122.4206,37.69934],[-122.41968,37.69928],[-122.41496,37.69793],[-122.41341,37.69783],[-122.41381,37.69801],[-122.41353,37.69867],[-122.41262,37.69847],[-122.41132,37.70139],[-122.4125,37.70172],[-122.41079,37.70555],[-122.40686,37.70436],[-122.40514,37.70825],[-122.39329,37.70825],[-122.39377,37.70789],[-122.39412,37.70736],[-122.39404,37.70693],[-122.39274,37.70616],[-122.3923,37.70495],[-122.39305,37.70289],[-122.39297,37.70128],[-122.39272,37.701],[-122.39248,37.69991],[-122.39218,37.69954],[-122.39208,37.69763],[-122.39157,37.69565],[-122.39115,37.69286],[-122.39042,37.69043],[-122.38995,37.68799],[-122.38945,37.68672],[-122.38939,37.68546],[-122.38853,37.68213],[-122.38782,37.67838],[-122.38704,37.67796],[-122.38698,37.67757],[-122.38665,37.67733],[-122.38105,37.67726],[-122.38108,37.67189],[-122.38122,37.67175],[-122.39215,37.6717],[-122.3912,37.67317],[-122.39657,37.67385],[-122.39657,37.67558],[-122.40799,37.67554],[-122.40807,37.6848],[-122.40982,37.6848],[-122.41018,37.6863],[-122.41225,37.68544],[-122.41348,37.68538],[-122.41409,37.68559],[-122.41388,37.68598],[-122.41643,37.6865],[-122.41798,37.68776],[-122.41928,37.68846],[-122.42014,37.68946],[-122.42179,37.69008],[-122.42349,37.69143],[-122.42642,37.69288],[-122.42648,37.69319],[-122.42604,37.69414],[-122.42656,37.6943],[-122.42616,37.69514]]],"type":"Polygon"},"properties":{"type":"boundary"},"type":"Feature"}],"type":"FeatureCollection"}