{"features":[{"geometry":{"coordinates":[[[-122.41921,37.69839],[-122.41977,37.69917],[-122.42091,37.69918],[-122.42148,37.6984],[-122.42092,37.69762],[-122.41979,37.69761],[-122.41921,37.69839]]],"type":"Polygon"},"properties":{"bbox":{"sidewalks":{"area":157.69,"pct":0.61}},"city_same":1,"id":"hex:3674:24090"},"type":"Feature"},{"geometry":{"coordinates":[[[-122.41752,37.6976],[-122.41808,37.69839],[-122.41921,37.69839],[-122.41979,37.69761],[-122.41922,37.69683],[-122.41809,37.69682],[-122.41752,37.6976]]],"type":"Polygon"},"properties":{"bbox":{"sidewalks":{"area":655.48,"pct":2.52}},"city_same":1,"id":"hex:3675:24089"},"type":"Feature"},{"geometry":{"coordinates":[[[-122.41582,37.69681],[-122.41638,37.6976],[-122.41752,37.6976],[-122.41809,37.69682],[-122.41753,37.69604],[-122.41639,37.69604],[-122.41582,37.69681]]],"type":"Polygon"},"properties":{"bbox":{"sidewalks":{"area":349.48,"pct":1.35}},"city_same":1,"id":"hex:3676:24089"},"type":"Feature"},{"geometry":{"coordinates":[[[-122.41415,37.6929],[-122.41471,37.69369],[-122.41585,37.69369],[-122.41642,37.69291],[-122.41586,37.69213],[-122.41472,37.69212],[-122.41415,37.6929]]],"type":"Polygon"},"properties":{"bbox":{"parking":{"area":1443.09,"pct":5.55}},"city_same":1,"id":"hex:3677:24086"},"type":"Feature"},{"geometry":{"coordinates":[[[-122.41246,37.69211],[-122.41302,37.6929],[-122.41415,37.6929],[-122.41472,37.69212],[-122.41416,37.69134],[-122.41303,37.69134],[-122.41246,37.69211]]],"type":"Polygon"},"properties":{"bbox":{"parking":{"area":213.48,"pct":0.82}},"city_same":1,"id":"hex:3678:24086"},"type":"Feature"},{"geometry":{"coordinates":[[[-122.40728,37.70067],[-122.40784,37.70146],[-122.40898,37.70146],[-122.40955,37.70068],[-122.40899,37.6999],[-122.40786,37.6999],[-122.40728,37.70067]]],"type":"Polygon"},"properties":{"bbox":{"sidewalks":{"area":221.5,"pct":0.85}},"city_same":1,"id":"hex:3681:24091"},"type":"Feature"},{"geometry":{"coordinates":[[[-122.40565,37.69208],[-122.40621,37.69286],[-122.40735,37.69287],[-122.40792,37.69209],[-122.40736,37.69131],[-122.40622,37.6913],[-122.40565,37.69208]]],"type":"Polygon"},"properties":{"bbox":{"sidewalks":{"area":79.16,"pct":0.3}},"city_same":1,"id":"hex:3682:24086"},"type":"Feature"},{"geometry":{"coordinates":[[[-122.4056,37.69832],[-122.40616,37.69911],[-122.4073,37.69911],[-122.40787,37.69833],[-122.40731,37.69755],[-122.40617,37.69755],[-122.4056,37.69832]]],"type":"Polygon"},"properties":{"bbox":{"sidewalks":{"area":47.13,"pct":0.18}},"city_same":1,"id":"hex:3682:24090"},"type":"Feature"},{"geometry":{"coordinates":[[[-122.40559,37.69988],[-122.40615,37.70067],[-122.40728,37.70067],[-122.40786,37.6999],[-122.4073,37.69911],[-122.40616,37.69911],[-122.40559,37.69988]]],"type":"Polygon"},"properties":{"bbox":{"sidewalks":{"area":211.44,"pct":0.81}},"city_same":1,"id":"hex:3682:24091"},"type":"Feature"},{"geometry":{"coordinates":[[[-122.40396,37.69129],[-122.40452,37.69207],[-122.40565,37.69208],[-122.40622,37.6913],[-122.40566,37.69052],[-122.40453,37.69051],[-122.40396,37.69129]]],"type":"Polygon"},"properties":{"bbox":{"sidewalks":{"area":31.27,"pct":0.12}},"city_same":1,"id":"hex:3683:24085"},"type":"Feature"},{"geometry":{"coordinates":[[[-122.40394,37.69285],[-122.4045,37.69363],[-122.40564,37.69364],[-122.40621,37.69286],[-122.40565,37.69208],[-122.40452,37.69207],[-122.40394,37.69285]]],"type":"Polygon"},"properties":{"bbox":{"sidewalks":{"area":431.58,"pct":1.66}},"city_same":1,"id":"hex:3683:24086"},"type":"Feature"},{"geometry":{"coordinates":[[[-122.40393,37.69441],[-122.40449,37.6952],[-122.40563,37.6952],[-122.4062,37.69442],[-122.40564,37.69364],[-122.4045,37.69363],[-122.40393,37.69441]]],"type":"Polygon"},"properties":{"bbox":{"sidewalks":{"area":70.03,"pct":0.27}},"city_same":1,"id":"hex:3683:24087"},"type":"Feature"},{"geometry":{"coordinates":[[[-122.40232,37.68269],[-122.40288,37.68348],[-122.40402,37.68348],[-122.40459,37.68271],[-122.40403,37.68192],[-122.4029,37.68192],[-122.40232,37.68269]]],"type":"Polygon"},"properties":{"bbox":{"parking":{"area":617.98,"pct":2.38}},"city_same":1,"id":"hex:3684:24080"},"type":"Feature"},{"geometry":{"coordinates":[[[-122.40043,37.70688],[-122.40099,37.70767],[-122.40212,37.70767],[-122.4027,37.70689],[-122.40213,37.70611],[-122.401,37.70611],[-122.40043,37.70688]]],"type":"Polygon"},"properties":{"bbox":{"parking":{"area":307.05,"pct":1.18},"sidewalks":{"area":222.34,"pct":0.86}},"city_same":1,"id":"hex:3685:24095"},"type":"Feature"},{"geometry":{"coordinates":[[[-122.40099,37.70767],[-122.40212,37.70767],[-122.40254,37.70825],[-122.40056,37.70825],[-122.40099,37.70767]]],"type":"Polygon"},"properties":{"bbox":{"parking":{"area":317.7,"pct":3.59},"sidewalks":{"area":97.56,"pct":1.1}},"city_same":1,"id":"hex:3685:24096"},"type":"Feature"},{"geometry":{"coordinates":[[[-122.39896,37.67799],[-122.39952,37.67878],[-122.40065,37.67878],[-122.40123,37.67801],[-122.40067,37.67722],[-122.39953,37.67722],[-122.39896,37.67799]]],"type":"Polygon"},"properties":{"bbox":{"parking":{"area":465.04,"pct":1.79}},"city_same":1,"id":"hex:3686:24077"},"type":"Feature"},{"geometry":{"coordinates":[[[-122.39895,37.67956],[-122.39951,37.68034],[-122.40064,37.68034],[-122.40121,37.67957],[-122.40065,37.67878],[-122.39952,37.67878],[-122.39895,37.67956]]],"type":"Polygon"},"properties":{"bbox":{"parking":{"area":1464.18,"pct":5.64}},"city_same":1,"id":"hex:3686:24078"},"type":"Feature"},{"geometry":{"coordinates":[[[-122.3989,37.6858],[-122.39946,37.68658],[-122.40059,37.68659],[-122.40116,37.68581],[-122.4006,37.68503],[-122.39947,37.68502],[-122.3989,37.6858]]],"type":"Polygon"},"properties":{"bbox":{"parking":{"area":3751.2,"pct":14.44}},"city_same":1,"id":"hex:3686:24082"},"type":"Feature"},{"geometry":{"coordinates":[[[-122.39888,37.68736],[-122.39944,37.68814],[-122.40058,37.68815],[-122.40115,37.68737],[-122.40059,37.68659],[-122.39946,37.68658],[-122.39888,37.68736]]],"type":"Polygon"},"properties":{"bbox":{"sidewalks":{"area":108.59,"pct":0.42}},"city_same":1,"id":"hex:3686:24083"},"type":"Feature"},{"geometry":{"coordinates":[[[-122.39873,37.70609],[-122.39929,37.70688],[-122.40043,37.70688],[-122.401,37.70611],[-122.40044,37.70532],[-122.39931,37.70532],[-122.39873,37.70609]]],"type":"Polygon"},"properties":{"bbox":{"sidewalks":{"area":38.77,"pct":0.15}},"city_same":1,"id":"hex:3686:24095"},"type":"Feature"},{"geometry":{"coordinates":[[[-122.39725,37.67877],[-122.39781,37.67955],[-122.39895,37.67956],[-122.39952,37.67878],[-122.39896,37.67799],[-122.39782,37.67799],[-122.39725,37.67877]]],"type":"Polygon"},"properties":{"bbox":{"parking":{"area":21.44,"pct":0.08}},"city_same":1,"id":"hex:3687:24077"},"type":"Feature"},{"geometry":{"coordinates":[[[-122.39724,37.68033],[-122.3978,37.68111],[-122.39893,37.68112],[-122.39951,37.68034],[-122.39895,37.67956],[-122.39781,37.67955],[-122.39724,37.68033]]],"type":"Polygon"},"properties":{"bbox":{"parking":{"area":0.14,"pct":0}},"city_same":1,"id":"hex:3687:24078"},"type":"Feature"},{"geometry":{"coordinates":[[[-122.3972,37.68501],[-122.39776,37.68579],[-122.3989,37.6858],[-122.39947,37.68502],[-122.39891,37.68424],[-122.39777,37.68423],[-122.3972,37.68501]]],"type":"Polygon"},"properties":{"bbox":{"parking":{"area":1280.98,"pct":4.93},"sidewalks":{"area":149.94,"pct":0.58}},"city_same":1,"id":"hex:3687:24081"},"type":"Feature"},{"geometry":{"coordinates":[[[-122.39719,37.68657],[-122.39775,37.68736],[-122.39888,37.68736],[-122.39946,37.68658],[-122.3989,37.6858],[-122.39776,37.68579],[-122.39719,37.68657]]],"type":"Polygon"},"properties":{"bbox":{"sidewalks":{"area":273.57,"pct":1.05}},"city_same":1,"id":"hex:3687:24082"},"type":"Feature"},{"geometry":{"coordinates":[[[-122.39718,37.68813],[-122.39774,37.68892],[-122.39887,37.68892],[-122.39944,37.68814],[-122.39888,37.68736],[-122.39775,37.68736],[-122.39718,37.68813]]],"type":"Polygon"},"properties":{"bbox":{"sidewalks":{"area":219.28,"pct":0.84}},"city_same":1,"id":"hex:3687:24083"},"type":"Feature"},{"geometry":{"coordinates":[[[-122.39716,37.68969],[-122.39772,37.69048],[-122.39886,37.69048],[-122.39943,37.68971],[-122.39887,37.68892],[-122.39774,37.68892],[-122.39716,37.68969]]],"type":"Polygon"},"properties":{"bbox":{"roads":{"area":595.13,"pct":2.29},"sidewalks":{"area":80.69,"pct":0.31}},"city_same":1,"id":"hex:3687:24084"},"type":"Feature"},{"geometry":{"coordinates":[[[-122.39557,37.67642],[-122.39613,37.6772],[-122.39726,37.67721],[-122.39784,37.67643],[-122.39728,37.67564],[-122.39614,37.67564],[-122.39557,37.67642]]],"type":"Polygon"},"properties":{"bbox":{"roads":{"area":461.12,"pct":1.77}},"city_same":1,"id":"hex:3688:24076"},"type":"Feature"},{"geometry":{"coordinates":[[[-122.39549,37.68578],[-122.39605,37.68657],[-122.39719,37.68657],[-122.39776,37.68579],[-122.3972,37.68501],[-122.39607,37.685],[-122.39549,37.68578]]],"type":"Polygon"},"properties":{"bbox":{"parking":{"area":3.82,"pct":0.01}},"city_same":1,"id":"hex:3688:24082"},"type":"Feature"},{"geometry":{"coordinates":[[[-122.39547,37.6889],[-122.39603,37.68969],[-122.39716,37.68969],[-122.39774,37.68892],[-122.39718,37.68813],[-122.39604,37.68813],[-122.39547,37.6889]]],"type":"Polygon"},"properties":{"bbox":{"roads":{"area":1354.68,"pct":5.21}},"city_same":1,"id":"hex:3688:24084"},"type":"Feature"},{"geometry":{"coordinates":[[[-122.39387,37.67563],[-122.39444,37.67641],[-122.39557,37.67642],[-122.39614,37.67564],[-122.39558,37.67485],[-122.39445,37.67485],[-122.39387,37.67563]]],"type":"Polygon"},"properties":{"bbox":{"roads":{"area":1020,"pct":3.93}},"city_same":1,"id":"hex:3689:24075"},"type":"Feature"},{"geometry":{"coordinates":[[[-122.39386,37.67719],[-122.39442,37.67797],[-122.39556,37.67798],[-122.39613,37.6772],[-122.39557,37.67642],[-122.39444,37.67641],[-122.39386,37.67719]]],"type":"Polygon"},"properties":{"bbox":{"roads":{"area":366.21,"pct":1.41}},"city_same":1,"id":"hex:3689:24076"},"type":"Feature"},{"geometry":{"coordinates":[[[-122.39385,37.67875],[-122.39441,37.67953],[-122.39554,37.67954],[-122.39612,37.67876],[-122.39556,37.67798],[-122.39442,37.67797],[-122.39385,37.67875]]],"type":"Polygon"},"properties":{"bbox":{"roads":{"area":333.57,"pct":1.28}},"city_same":1,"id":"hex:3689:24077"},"type":"Feature"},{"geometry":{"coordinates":[[[-122.39384,37.68031],[-122.3944,37.68109],[-122.39553,37.6811],[-122.3961,37.68032],[-122.39554,37.67954],[-122.39441,37.67953],[-122.39384,37.68031]]],"type":"Polygon"},"properties":{"bbox":{"parking":{"area":14.74,"pct":0.06},"roads":{"area":1556.25,"pct":5.99},"sidewalks":{"area":130.66,"pct":0.5}},"city_same":1,"id":"hex:3689:24078"},"type":"Feature"},{"geometry":{"coordinates":[[[-122.39382,37.68187],[-122.39438,37.68265],[-122.39552,37.68266],[-122.39609,37.68188],[-122.39553,37.6811],[-122.3944,37.68109],[-122.39382,37.68187]]],"type":"Polygon"},"properties":{"bbox":{"roads":{"area":354.75,"pct":1.37}},"city_same":1,"id":"hex:3689:24079"},"type":"Feature"},{"geometry":{"coordinates":[[[-122.39377,37.68812],[-122.39433,37.6889],[-122.39547,37.6889],[-122.39604,37.68813],[-122.39548,37.68734],[-122.39435,37.68734],[-122.39377,37.68812]]],"type":"Polygon"},"properties":{"bbox":{"roads":{"area":1141.39,"pct":4.39}},"city_same":1,"id":"hex:3689:24083"},"type":"Feature"},{"geometry":{"coordinates":[[[-122.39373,37.6928],[-122.3943,37.69358],[-122.39543,37.69359],[-122.396,37.69281],[-122.39544,37.69203],[-122.39431,37.69202],[-122.39373,37.6928]]],"type":"Polygon"},"properties":{"bbox":{"roads":{"area":208.47,"pct":0.8}},"city_same":1,"id":"hex:3689:24086"},"type":"Feature"},{"geometry":{"coordinates":[[[-122.39372,37.69436],[-122.39428,37.69514],[-122.39542,37.69515],[-122.39599,37.69437],[-122.39543,37.69359],[-122.3943,37.69358],[-122.39372,37.69436]]],"type":"Polygon"},"properties":{"bbox":{"roads":{"area":481.91,"pct":1.85}},"city_same":1,"id":"hex:3689:24087"},"type":"Feature"},{"geometry":{"coordinates":[[[-122.39371,37.69592],[-122.39427,37.6967],[-122.3954,37.69671],[-122.39598,37.69593],[-122.39542,37.69515],[-122.39428,37.69514],[-122.39371,37.69592]]],"type":"Polygon"},"properties":{"bbox":{"roads":{"area":639.06,"pct":2.46}},"city_same":1,"id":"hex:3689:24088"},"type":"Feature"},{"geometry":{"coordinates":[[[-122.39366,37.70216],[-122.39422,37.70295],[-122.39535,37.70295],[-122.39593,37.70218],[-122.39537,37.70139],[-122.39423,37.70139],[-122.39366,37.70216]]],"type":"Polygon"},"properties":{"bbox":{"roads":{"area":491.47,"pct":1.89}},"id":"hex:3689:24092"},"type":"Feature"},{"geometry":{"coordinates":[[[-122.39365,37.70373],[-122.39421,37.70451],[-122.39534,37.70452],[-122.39591,37.70374],[-122.39535,37.70295],[-122.39422,37.70295],[-122.39365,37.70373]]],"type":"Polygon"},"properties":{"bbox":{"roads":{"area":3025.11,"pct":11.64}},"id":"hex:3689:24093"},"type":"Feature"},{"geometry":{"coordinates":[[[-122.39363,37.70529],[-122.39419,37.70607],[-122.39533,37.70608],[-122.3959,37.7053],[-122.39534,37.70452],[-122.39421,37.70451],[-122.39363,37.70529]]],"type":"Polygon"},"properties":{"bbox":{"roads":{"area":5712.19,"pct":21.99}},"id":"hex:3689:24094"},"type":"Feature"},{"geometry":{"coordinates":[[[-122.39419,37.70607],[-122.39533,37.70608],[-122.39589,37.70686],[-122.39532,37.70764],[-122.39418,37.70763],[-122.39406,37.70746],[-122.39412,37.70736],[-122.39404,37.70693],[-122.39371,37.70673],[-122.39419,37.70607]]],"type":"Polygon"},"properties":{"bbox":{"roads":{"area":6948.62,"pct":28.42}},"city":{"roads":{"area":1631.25,"pct":6.67}},"id":"hex:3689:24095"},"type":"Feature"},{"geometry":{"coordinates":[[[-122.39418,37.70763],[-122.39532,37.70764],[-122.39576,37.70825],[-122.39554,37.70825],[-122.39372,37.70825],[-122.39418,37.70763]]],"type":"Polygon"},"properties":{"bbox":{"roads":{"area":1203.31,"pct":12.59}},"city":{"roads":{"area":833.41,"pct":8.72}},"id":"hex:3689:24096"},"type":"Feature"},{"geometry":{"coordinates":[[[-122.39218,37.67484],[-122.39274,37.67562],[-122.39387,37.67563],[-122.39445,37.67485],[-122.39389,37.67407],[-122.39275,37.67406],[-122.39218,37.67484]]],"type":"Polygon"},"properties":{"bbox":{"roads":{"area":503.03,"pct":1.94}},"city_same":1,"id":"hex:3690:24075"},"type":"Feature"},{"geometry":{"coordinates":[[[-122.39217,37.6764],[-122.39273,37.67718],[-122.39386,37.67719],[-122.39444,37.67641],[-122.39387,37.67563],[-122.39274,37.67562],[-122.39217,37.6764]]],"type":"Polygon"},"properties":{"bbox":{"roads":{"area":668.5,"pct":2.57}},"city_same":1,"id":"hex:3690:24076"},"type":"Feature"},{"geometry":{"coordinates":[[[-122.39215,37.67796],[-122.39272,37.67874],[-122.39385,37.67875],[-122.39442,37.67797],[-122.39386,37.67719],[-122.39273,37.67718],[-122.39215,37.67796]]],"type":"Polygon"},"properties":{"bbox":{"roads":{"area":5046.92,"pct":19.43}},"city_same":1,"id":"hex:3690:24077"},"type":"Feature"},{"geometry":{"coordinates":[[[-122.39214,37.67952],[-122.3927,37.6803],[-122.39384,37.68031],[-122.39441,37.67953],[-122.39385,37.67875],[-122.39272,37.67874],[-122.39214,37.67952]]],"type":"Polygon"},"properties":{"bbox":{"parking":{"area":907.78,"pct":3.49},"roads":{"area":3203.84,"pct":12.33}},"city_same":1,"id":"hex:3690:24078"},"type":"Feature"},{"geometry":{"coordinates":[[[-122.39213,37.68108],[-122.39269,37.68187],[-122.39382,37.68187],[-122.3944,37.68109],[-122.39384,37.68031],[-122.3927,37.6803],[-122.39213,37.68108]]],"type":"Polygon"},"properties":{"bbox":{"parking":{"area":875.59,"pct":3.37},"roads":{"area":1229.19,"pct":4.73}},"city_same":1,"id":"hex:3690:24079"},"type":"Feature"},{"geometry":{"coordinates":[[[-122.39207,37.68889],[-122.39263,37.68967],[-122.39376,37.68968],[-122.39433,37.6889],[-122.39377,37.68812],[-122.39264,37.68811],[-122.39207,37.68889]]],"type":"Polygon"},"properties":{"bbox":{"roads":{"area":1307.41,"pct":5.03}},"city_same":1,"id":"hex:3690:24084"},"type":"Feature"},{"geometry":{"coordinates":[[[-122.39205,37.69045],[-122.39261,37.69123],[-122.39375,37.69124],[-122.39432,37.69046],[-122.39376,37.68968],[-122.39263,37.68967],[-122.39205,37.69045]]],"type":"Polygon"},"properties":{"bbox":{"roads":{"area":448.31,"pct":1.73}},"city":{"roads":{"area":326.55,"pct":1.26}},"id":"hex:3690:24085"},"type":"Feature"},{"geometry":{"coordinates":[[[-122.39203,37.69357],[-122.39259,37.69435],[-122.39372,37.69436],[-122.3943,37.69358],[-122.39373,37.6928],[-122.3926,37.69279],[-122.39203,37.69357]]],"type":"Polygon"},"properties":{"bbox":{"roads":{"area":211.98,"pct":0.82}},"city_same":1,"id":"hex:3690:24087"},"type":"Feature"},{"geometry":{"coordinates":[[[-122.39201,37.69513],[-122.39258,37.69591],[-122.39371,37.69592],[-122.39428,37.69514],[-122.39372,37.69436],[-122.39259,37.69435],[-122.39201,37.69513]]],"type":"Polygon"},"properties":{"bbox":{"roads":{"area":797.99,"pct":3.07}},"city":{"roads":{"area":12,"pct":0.05}},"id":"hex:3690:24088"},"type":"Feature"},{"geometry":{"coordinates":[[[-122.392,37.69669],[-122.39256,37.69748],[-122.3937,37.69748],[-122.39427,37.6967],[-122.39371,37.69592],[-122.39258,37.69591],[-122.392,37.69669]]],"type":"Polygon"},"properties":{"bbox":{"roads":{"area":3631.55,"pct":13.98}},"id":"hex:3690:24089"},"type":"Feature"},{"geometry":{"coordinates":[[[-122.39256,37.69748],[-122.3937,37.69748],[-122.39426,37.69827],[-122.39368,37.69904],[-122.39255,37.69904],[-122.39216,37.69849],[-122.39215,37.69819],[-122.3921,37.6981],[-122.39256,37.69748]]],"type":"Polygon"},"properties":{"bbox":{"roads":{"area":5515.43,"pct":21.5}},"id":"hex:3690:24090"},"type":"Feature"},{"geometry":{"coordinates":[[[-122.39255,37.69904],[-122.39368,37.69904],[-122.39424,37.69983],[-122.39367,37.7006],[-122.39262,37.7006],[-122.39254,37.70042],[-122.39248,37.69991],[-122.39218,37.69954],[-122.39218,37.69954],[-122.39255,37.69904]]],"type":"Polygon"},"properties":{"bbox":{"roads":{"area":5865.66,"pct":25.07}},"id":"hex:3690:24091"},"type":"Feature"},{"geometry":{"coordinates":[[[-122.39367,37.7006],[-122.39423,37.70139],[-122.39366,37.70216],[-122.39302,37.70216],[-122.39297,37.70128],[-122.39272,37.701],[-122.39267,37.7007],[-122.39262,37.7006],[-122.39367,37.7006]]],"type":"Polygon"},"properties":{"bbox":{"roads":{"area":5680.46,"pct":35.12}},"id":"hex:3690:24092"},"type":"Feature"},{"geometry":{"coordinates":[[[-122.39366,37.70216],[-122.39422,37.70295],[-122.39365,37.70373],[-122.39271,37.70372],[-122.39274,37.70364],[-122.39296,37.70331],[-122.39305,37.70289],[-122.39302,37.70216],[-122.39366,37.70216]]],"type":"Polygon"},"properties":{"bbox":{"roads":{"area":5105.78,"pct":34.6}},"id":"hex:3690:24093"},"type":"Feature"},{"geometry":{"coordinates":[[[-122.39365,37.70373],[-122.39421,37.70451],[-122.39363,37.70529],[-122.3925,37.70528],[-122.39233,37.70504],[-122.3923,37.70495],[-122.39231,37.70476],[-122.39271,37.70372],[-122.39365,37.70373]]],"type":"Polygon"},"properties":{"bbox":{"roads":{"area":3371.74,"pct":15.09}},"id":"hex:3690:24094"},"type":"Feature"},{"geometry":{"coordinates":[[[-122.3925,37.70528],[-122.39363,37.70529],[-122.39419,37.70607],[-122.39371,37.70673],[-122.39274,37.70616],[-122.39251,37.70544],[-122.39245,37.70535],[-122.3925,37.70528]]],"type":"Polygon"},"properties":{"bbox":{"roads":{"area":1506.63,"pct":9.81}},"city":{"roads":{"area":1199.19,"pct":7.81}},"id":"hex:3690:24095"},"type":"Feature"},{"geometry":{"coordinates":[[[-122.39418,37.70763],[-122.39372,37.70825],[-122.39329,37.70825],[-122.39377,37.70789],[-122.39406,37.70746],[-122.39418,37.70763]]],"type":"Polygon"},"properties":{"bbox":{"roads":{"area":165.45,"pct":8.48}},"city_same":1,"id":"hex:3690:24096"},"type":"Feature"},{"geometry":{"coordinates":[[[-122.39106,37.67327],[-122.3905,37.67249],[-122.39107,37.67171],[-122.39135,37.67171],[-122.39214,37.67171],[-122.39207,37.67181],[-122.3912,37.67317],[-122.39144,37.6732],[-122.39202,37.67328],[-122.39106,37.67327]]],"type":"Polygon"},"properties":{"bbox":{"roads":{"area":5117.91,"pct":38.03}},"city":{"roads":{"area":2422,"pct":18}},"id":"hex:3691:24073"},"type":"Feature"},{"geometry":{"coordinates":[[[-122.39275,37.67406],[-122.39218,37.67484],[-122.39105,37.67483],[-122.39049,37.67405],[-122.39106,37.67327],[-122.39202,37.67328],[-122.39221,37.6733],[-122.39275,37.67406]]],"type":"Polygon"},"properties":{"bbox":{"roads":{"area":1103.83,"pct":4.25}},"city_same":1,"id":"hex:3691:24074"},"type":"Feature"},{"geometry":{"coordinates":[[[-122.39047,37.67561],[-122.39103,37.67639],[-122.39217,37.6764],[-122.39274,37.67562],[-122.39218,37.67484],[-122.39105,37.67483],[-122.39047,37.67561]]],"type":"Polygon"},"properties":{"bbox":{"parking":{"area":347.02,"pct":1.34},"roads":{"area":2412.97,"pct":9.29}},"city_same":1,"id":"hex:3691:24075"},"type":"Feature"},{"geometry":{"coordinates":[[[-122.39046,37.67717],[-122.39102,37.67795],[-122.39215,37.67796],[-122.39273,37.67718],[-122.39217,37.6764],[-122.39103,37.67639],[-122.39046,37.67717]]],"type":"Polygon"},"properties":{"bbox":{"parking":{"area":2721.75,"pct":10.48},"roads":{"area":2856.4,"pct":10.99}},"city_same":1,"id":"hex:3691:24076"},"type":"Feature"},{"geometry":{"coordinates":[[[-122.39045,37.67873],[-122.39101,37.67951],[-122.39214,37.67952],[-122.39272,37.67874],[-122.39215,37.67796],[-122.39102,37.67795],[-122.39045,37.67873]]],"type":"Polygon"},"properties":{"bbox":{"roads":{"area":621.03,"pct":2.39}},"city_same":1,"id":"hex:3691:24077"},"type":"Feature"},{"geometry":{"coordinates":[[[-122.39038,37.68654],[-122.39094,37.68732],[-122.39208,37.68733],[-122.39265,37.68655],[-122.39209,37.68576],[-122.39096,37.68576],[-122.39038,37.68654]]],"type":"Polygon"},"properties":{"bbox":{"roads":{"area":406.71,"pct":1.57}},"city_same":1,"id":"hex:3691:24082"},"type":"Feature"},{"geometry":{"coordinates":[[[-122.39037,37.6881],[-122.39093,37.68888],[-122.39207,37.68889],[-122.39264,37.68811],[-122.39208,37.68733],[-122.39094,37.68732],[-122.39037,37.6881]]],"type":"Polygon"},"properties":{"bbox":{"roads":{"area":2258.37,"pct":8.69}},"city":{"roads":{"area":1166.91,"pct":4.49}},"id":"hex:3691:24083"},"type":"Feature"},{"geometry":{"coordinates":[[[-122.39036,37.68966],[-122.39092,37.69044],[-122.39205,37.69045],[-122.39263,37.68967],[-122.39207,37.68889],[-122.39093,37.68888],[-122.39036,37.68966]]],"type":"Polygon"},"properties":{"bbox":{"roads":{"area":6591.81,"pct":25.37}},"city":{"roads":{"area":2258.1,"pct":8.69}},"id":"hex:3691:24084"},"type":"Feature"},{"geometry":{"coordinates":[[[-122.39092,37.69044],[-122.39205,37.69045],[-122.39261,37.69123],[-122.39204,37.69201],[-122.39091,37.692],[-122.39089,37.69199],[-122.39081,37.69157],[-122.39061,37.69086],[-122.39092,37.69044]]],"type":"Polygon"},"properties":{"bbox":{"roads":{"area":6242.96,"pct":26.12}},"city":{"roads":{"area":231.04,"pct":0.97}},"id":"hex:3691:24085"},"type":"Feature"},{"geometry":{"coordinates":[[[-122.39091,37.692],[-122.39204,37.69201],[-122.3926,37.69279],[-122.39203,37.69357],[-122.39123,37.69357],[-122.39115,37.69286],[-122.39098,37.69243],[-122.3909,37.69201],[-122.39091,37.692]]],"type":"Polygon"},"properties":{"bbox":{"roads":{"area":5653.63,"pct":30.1}},"id":"hex:3691:24086"},"type":"Feature"},{"geometry":{"coordinates":[[[-122.39203,37.69357],[-122.39259,37.69435],[-122.39201,37.69513],[-122.39152,37.69513],[-122.39145,37.69436],[-122.39127,37.69388],[-122.39123,37.69357],[-122.39203,37.69357]]],"type":"Polygon"},"properties":{"bbox":{"roads":{"area":5103.36,"pct":36.96}},"id":"hex:3691:24087"},"type":"Feature"},{"geometry":{"coordinates":[[[-122.39201,37.69513],[-122.39258,37.69591],[-122.392,37.69669],[-122.39189,37.69669],[-122.39174,37.69591],[-122.39157,37.69565],[-122.39152,37.69513],[-122.39201,37.69513]]],"type":"Polygon"},"properties":{"bbox":{"roads":{"area":3963.29,"pct":43.88}},"id":"hex:3691:24088"},"type":"Feature"},{"geometry":{"coordinates":[[[-122.392,37.69669],[-122.39256,37.69748],[-122.3921,37.6981],[-122.39208,37.69805],[-122.39203,37.69801],[-122.39208,37.69763],[-122.39189,37.69669],[-122.392,37.69669]]],"type":"Polygon"},"properties":{"bbox":{"roads":{"area":1036.96,"pct":25.68}},"id":"hex:3691:24089"},"type":"Feature"},{"geometry":{"coordinates":[[[-122.3905,37.67249],[-122.38936,37.67248],[-122.38884,37.67174],[-122.38992,37.67174],[-122.39047,37.67172],[-122.39107,37.67171],[-122.3905,37.67249]]],"type":"Polygon"},"properties":{"bbox":{"parking":{"area":1518.79,"pct":12.35},"roads":{"area":1557.16,"pct":12.66}},"city":{"parking":{"area":1518.79,"pct":12.35},"roads":{"area":321.33,"pct":2.61}},"id":"hex:3692:24073"},"type":"Feature"},{"geometry":{"coordinates":[[[-122.38879,37.67326],[-122.38935,37.67404],[-122.39049,37.67405],[-122.39106,37.67327],[-122.3905,37.67249],[-122.38936,37.67248],[-122.38879,37.67326]]],"type":"Polygon"},"properties":{"bbox":{"parking":{"area":197.19,"pct":0.76},"roads":{"area":6645.82,"pct":25.58}},"city":{"parking":{"area":197.19,"pct":0.76},"roads":{"area":745.85,"pct":2.87}},"id":"hex:3692:24074"},"type":"Feature"},{"geometry":{"coordinates":[[[-122.38878,37.67482],[-122.38934,37.6756],[-122.39047,37.67561],[-122.39105,37.67483],[-122.39049,37.67405],[-122.38935,37.67404],[-122.38878,37.67482]]],"type":"Polygon"},"properties":{"bbox":{"roads":{"area":6624.36,"pct":25.5}},"city":{"roads":{"area":2814.39,"pct":10.83}},"id":"hex:3692:24075"},"type":"Feature"},{"geometry":{"coordinates":[[[-122.38877,37.67638],[-122.38933,37.67716],[-122.39046,37.67717],[-122.39103,37.67639],[-122.39047,37.67561],[-122.38934,37.6756],[-122.38877,37.67638]]],"type":"Polygon"},"properties":{"bbox":{"parking":{"area":4287.65,"pct":16.5},"roads":{"area":1799.24,"pct":6.93}},"city":{"parking":{"area":4287.65,"pct":16.5},"roads":{"area":1663.04,"pct":6.4}},"id":"hex:3692:24076"},"type":"Feature"},{"geometry":{"coordinates":[[[-122.38875,37.67794],[-122.38931,37.67873],[-122.39045,37.67873],[-122.39102,37.67795],[-122.39046,37.67717],[-122.38933,37.67716],[-122.38875,37.67794]]],"type":"Polygon"},"properties":{"bbox":{"roads":{"area":267.99,"pct":1.03}},"city_same":1,"id":"hex:3692:24077"},"type":"Feature"},{"geometry":{"coordinates":[[[-122.38874,37.6795],[-122.3893,37.68029],[-122.39043,37.68029],[-122.39101,37.67951],[-122.39045,37.67873],[-122.38931,37.67873],[-122.38874,37.6795]]],"type":"Polygon"},"properties":{"bbox":{"roads":{"area":657.7,"pct":2.53}},"city_same":1,"id":"hex:3692:24078"},"type":"Feature"},{"geometry":{"coordinates":[[[-122.38873,37.68106],[-122.38929,37.68185],[-122.39042,37.68185],[-122.39099,37.68108],[-122.39043,37.68029],[-122.3893,37.68029],[-122.38873,37.68106]]],"type":"Polygon"},"properties":{"bbox":{"roads":{"area":2600.14,"pct":10.01}},"city":{"roads":{"area":1190.01,"pct":4.58}},"id":"hex:3692:24079"},"type":"Feature"},{"geometry":{"coordinates":[[[-122.38929,37.68185],[-122.39042,37.68185],[-122.39098,37.68264],[-122.39041,37.68341],[-122.38927,37.68341],[-122.38877,37.6827],[-122.38875,37.68257],[-122.38929,37.68185]]],"type":"Polygon"},"properties":{"bbox":{"roads":{"area":5435.22,"pct":20.94}},"city":{"roads":{"area":1304.58,"pct":5.03}},"id":"hex:3692:24080"},"type":"Feature"},{"geometry":{"coordinates":[[[-122.38927,37.68341],[-122.39041,37.68341],[-122.39097,37.6842],[-122.3904,37.68498],[-122.38926,37.68497],[-122.38923,37.68493],[-122.38922,37.6849],[-122.38894,37.68386],[-122.38927,37.68341]]],"type":"Polygon"},"properties":{"bbox":{"roads":{"area":6433.38,"pct":26.5}},"city":{"roads":{"area":1301.77,"pct":5.36}},"id":"hex:3692:24081"},"type":"Feature"},{"geometry":{"coordinates":[[[-122.38926,37.68497],[-122.3904,37.68498],[-122.39096,37.68576],[-122.39038,37.68654],[-122.38951,37.68653],[-122.38954,37.68645],[-122.38948,37.68611],[-122.38939,37.68546],[-122.38925,37.68499],[-122.38926,37.68497]]],"type":"Polygon"},"properties":{"bbox":{"roads":{"area":6386.72,"pct":33.31}},"city":{"roads":{"area":1166.35,"pct":6.08}},"id":"hex:3692:24082"},"type":"Feature"},{"geometry":{"coordinates":[[[-122.39038,37.68654],[-122.39094,37.68732],[-122.39037,37.6881],[-122.38995,37.6881],[-122.38995,37.68799],[-122.38969,37.68741],[-122.38963,37.68728],[-122.38969,37.68703],[-122.38945,37.68672],[-122.38951,37.68653],[-122.39038,37.68654]]],"type":"Polygon"},"properties":{"bbox":{"roads":{"area":5503.05,"pct":37.57}},"city":{"roads":{"area":651.12,"pct":4.45}},"id":"hex:3692:24083"},"type":"Feature"},{"geometry":{"coordinates":[[[-122.39037,37.6881],[-122.39093,37.68888],[-122.39036,37.68966],[-122.39031,37.68966],[-122.38994,37.68841],[-122.38995,37.6881],[-122.39037,37.6881]]],"type":"Polygon"},"properties":{"bbox":{"roads":{"area":3004.91,"pct":35.34}},"id":"hex:3692:24084"},"type":"Feature"},{"geometry":{"coordinates":[[[-122.39036,37.68966],[-122.39092,37.69044],[-122.39061,37.69086],[-122.39054,37.69062],[-122.39042,37.69043],[-122.39037,37.68987],[-122.39031,37.68966],[-122.39036,37.68966]]],"type":"Polygon"},"properties":{"bbox":{"roads":{"area":527.11,"pct":18.42}},"id":"hex:3692:24085"},"type":"Feature"},{"geometry":{"coordinates":[[[-122.38936,37.67248],[-122.38879,37.67326],[-122.38766,37.67325],[-122.3871,37.67247],[-122.38763,37.67174],[-122.38776,37.67174],[-122.38786,37.67174],[-122.38832,37.67174],[-122.38836,37.67174],[-122.38884,37.67174],[-122.38936,37.67248]]],"type":"Polygon"},"properties":{"bbox":{"parking":{"area":9600.78,"pct":37.75},"roads":{"area":5464.43,"pct":21.48},"sidewalks":{"area":109.59,"pct":0.43}},"city_same":1,"id":"hex:3693:24073"},"type":"Feature"},{"geometry":{"coordinates":[[[-122.38708,37.67403],[-122.38764,37.67481],[-122.38878,37.67482],[-122.38935,37.67404],[-122.38879,37.67326],[-122.38766,37.67325],[-122.38708,37.67403]]],"type":"Polygon"},"properties":{"bbox":{"parking":{"area":3490.83,"pct":13.44},"roads":{"area":4615.55,"pct":17.77}},"city":{"parking":{"area":3490.83,"pct":13.44},"roads":{"area":3872.38,"pct":14.9}},"id":"hex:3693:24074"},"type":"Feature"},{"geometry":{"coordinates":[[[-122.38707,37.67559],[-122.38763,37.67638],[-122.38877,37.67638],[-122.38934,37.6756],[-122.38878,37.67482],[-122.38764,37.67481],[-122.38707,37.67559]]],"type":"Polygon"},"properties":{"bbox":{"parking":{"area":6317.89,"pct":24.32},"roads":{"area":5840.26,"pct":22.48}},"city":{"parking":{"area":6317.89,"pct":24.32},"roads":{"area":1440.79,"pct":5.55}},"id":"hex:3693:24075"},"type":"Feature"},{"geometry":{"coordinates":[[[-122.38706,37.67715],[-122.38762,37.67794],[-122.38875,37.67794],[-122.38933,37.67716],[-122.38877,37.67638],[-122.38763,37.67638],[-122.38706,37.67715]]],"type":"Polygon"},"properties":{"bbox":{"parking":{"area":860.21,"pct":3.31},"roads":{"area":6806.48,"pct":26.2}},"city":{"parking":{"area":860.21,"pct":3.31},"roads":{"area":1025.3,"pct":3.95}},"id":"hex:3693:24076"},"type":"Feature"},{"geometry":{"coordinates":[[[-122.38762,37.67794],[-122.38875,37.67794],[-122.38931,37.67873],[-122.38874,37.6795],[-122.38806,37.6795],[-122.38794,37.67893],[-122.38782,37.67838],[-122.3876,37.67826],[-122.38744,37.67817],[-122.38762,37.67794]]],"type":"Polygon"},"properties":{"bbox":{"roads":{"area":6332.48,"pct":34.78}},"city":{"roads":{"area":930.86,"pct":5.11}},"id":"hex:3693:24077"},"type":"Feature"},{"geometry":{"coordinates":[[[-122.38874,37.6795],[-122.3893,37.68029],[-122.38873,37.68106],[-122.38835,37.68106],[-122.38816,37.67997],[-122.38806,37.6795],[-122.38874,37.6795]]],"type":"Polygon"},"properties":{"bbox":{"roads":{"area":5094.16,"pct":41.35}},"city":{"roads":{"area":336.76,"pct":2.73}},"id":"hex:3693:24078"},"type":"Feature"},{"geometry":{"coordinates":[[[-122.38873,37.68106],[-122.38929,37.68185],[-122.38875,37.68257],[-122.38875,37.68255],[-122.38853,37.68213],[-122.38843,37.68154],[-122.38835,37.68106],[-122.38873,37.68106]]],"type":"Polygon"},"properties":{"bbox":{"roads":{"area":2572.57,"pct":33.93}},"id":"hex:3693:24079"},"type":"Feature"},{"geometry":{"coordinates":[[[-122.38927,37.68341],[-122.38894,37.68386],[-122.38887,37.68361],[-122.38877,37.6827],[-122.38927,37.68341]]],"type":"Polygon"},"properties":{"bbox":{"roads":{"area":257.2,"pct":10.42}},"id":"hex:3693:24080"},"type":"Feature"},{"geometry":{"coordinates":[[[-122.3871,37.67247],[-122.38596,37.67246],[-122.38548,37.67179],[-122.38639,37.6718],[-122.38722,37.67177],[-122.38729,37.67174],[-122.38735,37.67174],[-122.38763,37.67174],[-122.3871,37.67247]]],"type":"Polygon"},"properties":{"bbox":{"parking":{"area":2466.84,"pct":22.47},"roads":{"area":639.55,"pct":5.82}},"city_same":1,"id":"hex:3694:24073"},"type":"Feature"},{"geometry":{"coordinates":[[[-122.38539,37.67324],[-122.38595,37.67402],[-122.38708,37.67403],[-122.38766,37.67325],[-122.3871,37.67247],[-122.38596,37.67246],[-122.38539,37.67324]]],"type":"Polygon"},"properties":{"bbox":{"parking":{"area":12797.87,"pct":49.26},"roads":{"area":7621.57,"pct":29.34},"sidewalks":{"area":298.64,"pct":1.15}},"city_same":1,"id":"hex:3694:24074"},"type":"Feature"},{"geometry":{"coordinates":[[[-122.38538,37.6748],[-122.38594,37.67559],[-122.38707,37.67559],[-122.38764,37.67481],[-122.38708,37.67403],[-122.38595,37.67402],[-122.38538,37.6748]]],"type":"Polygon"},"properties":{"bbox":{"parking":{"area":12444.71,"pct":47.9},"roads":{"area":6270.81,"pct":24.14},"sidewalks":{"area":354.73,"pct":1.37}},"city_same":1,"id":"hex:3694:24075"},"type":"Feature"},{"geometry":{"coordinates":[[[-122.38536,37.67636],[-122.38592,37.67715],[-122.38706,37.67715],[-122.38763,37.67638],[-122.38707,37.67559],[-122.38594,37.67559],[-122.38536,37.67636]]],"type":"Polygon"},"properties":{"bbox":{"parking":{"area":2720.84,"pct":10.47},"roads":{"area":1923.1,"pct":7.4},"sidewalks":{"area":103.38,"pct":0.4}},"city_same":1,"id":"hex:3694:24076"},"type":"Feature"},{"geometry":{"coordinates":[[[-122.38596,37.67246],[-122.38539,37.67324],[-122.38426,37.67324],[-122.38369,37.67245],[-122.38419,37.67178],[-122.3846,37.67177],[-122.38548,37.67179],[-122.38596,37.67246]]],"type":"Polygon"},"properties":{"bbox":{"parking":{"area":371.95,"pct":1.5},"roads":{"area":145.08,"pct":0.59}},"city_same":1,"id":"hex:3695:24073"},"type":"Feature"},{"geometry":{"coordinates":[[[-122.38368,37.67401],[-122.38424,37.6748],[-122.38538,37.6748],[-122.38595,37.67402],[-122.38539,37.67324],[-122.38426,37.67324],[-122.38368,37.67401]]],"type":"Polygon"},"properties":{"bbox":{"parking":{"area":7152.32,"pct":27.53},"roads":{"area":4524.67,"pct":17.42},"sidewalks":{"area":260.21,"pct":1}},"city_same":1,"id":"hex:3695:24074"},"type":"Feature"},{"geometry":{"coordinates":[[[-122.38367,37.67557],[-122.38423,37.67636],[-122.38536,37.67636],[-122.38594,37.67559],[-122.38538,37.6748],[-122.38424,37.6748],[-122.38367,37.67557]]],"type":"Polygon"},"properties":{"bbox":{"parking":{"area":17516.28,"pct":67.42},"roads":{"area":6066.49,"pct":23.35},"sidewalks":{"area":346.93,"pct":1.34}},"city_same":1,"id":"hex:3695:24075"},"type":"Feature"},{"geometry":{"coordinates":[[[-122.38366,37.67713],[-122.38423,37.67636],[-122.38536,37.67636],[-122.38592,37.67715],[-122.38581,37.6773],[-122.38552,37.67729],[-122.38424,37.67726],[-122.38387,37.67723],[-122.38374,37.67726],[-122.38366,37.67713]]],"type":"Polygon"},"properties":{"bbox":{"parking":{"area":5431.87,"pct":34.43},"roads":{"area":1274.95,"pct":8.08}},"city_same":1,"id":"hex:3695:24076"},"type":"Feature"},{"geometry":{"coordinates":[[[-122.38369,37.67245],[-122.38256,37.67245],[-122.38206,37.67175],[-122.3822,37.67174],[-122.38246,37.67178],[-122.38419,37.67178],[-122.38369,37.67245]]],"type":"Polygon"},"properties":{"bbox":{"parking":{"area":3141.72,"pct":29.18},"roads":{"area":776.7,"pct":7.21}},"city_same":1,"id":"hex:3696:24073"},"type":"Feature"},{"geometry":{"coordinates":[[[-122.38199,37.67322],[-122.38255,37.67401],[-122.38368,37.67401],[-122.38426,37.67324],[-122.38369,37.67245],[-122.38256,37.67245],[-122.38199,37.67322]]],"type":"Polygon"},"properties":{"bbox":{"parking":{"area":14099.05,"pct":54.27},"roads":{"area":2589.51,"pct":9.97},"sidewalks":{"area":121.75,"pct":0.47}},"city_same":1,"id":"hex:3696:24074"},"type":"Feature"},{"geometry":{"coordinates":[[[-122.38197,37.67478],[-122.38254,37.67557],[-122.38367,37.67557],[-122.38424,37.6748],[-122.38368,37.67401],[-122.38255,37.67401],[-122.38197,37.67478]]],"type":"Polygon"},"properties":{"bbox":{"parking":{"area":3705.58,"pct":14.26},"roads":{"area":4563.44,"pct":17.56}},"city_same":1,"id":"hex:3696:24075"},"type":"Feature"},{"geometry":{"coordinates":[[[-122.38196,37.67635],[-122.38252,37.67713],[-122.38366,37.67713],[-122.38423,37.67636],[-122.38367,37.67557],[-122.38254,37.67557],[-122.38196,37.67635]]],"type":"Polygon"},"properties":{"bbox":{"parking":{"area":10565.67,"pct":40.67},"roads":{"area":4140.74,"pct":15.94},"sidewalks":{"area":76.39,"pct":0.29}},"city_same":1,"id":"hex:3696:24076"},"type":"Feature"},{"geometry":{"coordinates":[[[-122.38256,37.67245],[-122.38199,37.67322],[-122.38106,37.67322],[-122.38106,37.67318],[-122.38106,37.6729],[-122.38106,37.67254],[-122.38106,37.67242],[-122.38108,37.67189],[-122.38112,37.67181],[-122.38122,37.67175],[-122.38206,37.67175],[-122.38256,37.67245]]],"type":"Polygon"},"properties":{"bbox":{"parking":{"area":10223.01,"pct":58.15},"roads":{"area":2255.58,"pct":12.83}},"city_same":1,"id":"hex:3697:24073"},"type":"Feature"},{"geometry":{"coordinates":[[[-122.38199,37.67322],[-122.38255,37.67401],[-122.38197,37.67478],[-122.38104,37.67478],[-122.38104,37.67463],[-122.38106,37.67344],[-122.38106,37.67322],[-122.38199,37.67322]]],"type":"Polygon"},"properties":{"bbox":{"parking":{"area":3849.59,"pct":20.79},"roads":{"area":2043.93,"pct":11.04},"sidewalks":{"area":77.29,"pct":0.42}},"city_same":1,"id":"hex:3697:24074"},"type":"Feature"},{"geometry":{"coordinates":[[[-122.38197,37.67478],[-122.38254,37.67557],[-122.38196,37.67635],[-122.38101,37.67634],[-122.38102,37.676],[-122.38103,37.67527],[-122.38104,37.67478],[-122.38197,37.67478]]],"type":"Polygon"},"properties":{"bbox":{"parking":{"area":10374.21,"pct":55.47},"roads":{"area":2591.16,"pct":13.85}},"city_same":1,"id":"hex:3697:24075"},"type":"Feature"},{"geometry":{"coordinates":[[[-122.38196,37.67635],[-122.38252,37.67713],[-122.3824,37.6773],[-122.38123,37.67733],[-122.38112,37.67732],[-122.38105,37.67726],[-122.38105,37.67718],[-122.38099,37.67712],[-122.381,37.67667],[-122.38101,37.67634],[-122.38196,37.67635]]],"type":"Polygon"},"properties":{"bbox":{"parking":{"area":4527.34,"pct":37.27},"roads":{"area":1189.72,"pct":9.79}},"city_same":1,"id":"hex:3697:24076"},"type":"Feature"}],"type":"FeatureCollection","v":2}