{"features":[{"geometry":{"coordinates":[[[-122.32038,37.93111],[-122.32032,37.93834],[-122.30358,37.9382],[-122.30367,37.93797],[-122.29709,37.93204],[-122.29663,37.93236],[-122.29601,37.9318],[-122.29574,37.93197],[-122.29529,37.93133],[-122.29489,37.93158],[-122.29224,37.93069],[-122.29064,37.92924],[-122.29186,37.92839],[-122.29127,37.92763],[-122.2918,37.92726],[-122.28965,37.92531],[-122.28934,37.92542],[-122.28835,37.92511],[-122.28803,37.92467],[-122.2867,37.92425],[-122.28598,37.92321],[-122.28341,37.92081],[-122.28271,37.91993],[-122.28242,37.92012],[-122.28112,37.91874],[-122.28193,37.91834],[-122.28255,37.9189],[-122.28908,37.91425],[-122.28718,37.90991],[-122.28906,37.90911],[-122.28838,37.90564],[-122.28999,37.90517],[-122.29122,37.90421],[-122.29035,37.90377],[-122.28904,37.9038],[-122.28861,37.90353],[-122.28856,37.902],[-122.28812,37.89997],[-122.28808,37.89799],[-122.28845,37.89761],[-122.28964,37.89749],[-122.29256,37.89839],[-122.29288,37.8983],[-122.2964,37.89896],[-122.29681,37.89878],[-122.29756,37.89877],[-122.29878,37.89842],[-122.29892,37.89823],[-122.30017,37.89794],[-122.30101,37.89796],[-122.30215,37.89852],[-122.30565,37.89813],[-122.30651,37.89939],[-122.30682,37.89951],[-122.30732,37.90065],[-122.30721,37.90142],[-122.30663,37.90151],[-122.30705,37.9025],[-122.30731,37.90245],[-122.30818,37.90111],[-122.30917,37.90084],[-122.30989,37.90203],[-122.30454,37.90432],[-122.30568,37.90669],[-122.31207,37.91599],[-122.31264,37.91599],[-122.31485,37.91908],[-122.32069,37.91923],[-122.3207,37.9273],[-122.32332,37.9311],[-122.32038,37.93111]],[[-122.2921,37.92414],[-122.29214,37.92411],[-122.29218,37.92409],[-122.29223,37.92407],[-122.29227,37.92405],[-122.29228,37.92403],[-122.29227,37.924],[-122.29225,37.92398],[-122.29222,37.92396],[-122.29219,37.92396],[-122.29217,37.92396],[-122.29213,37.92397],[-122.29212,37.92399],[-122.29212,37.92402],[-122.2921,37.92404],[-122.29207,37.92407],[-122.29205,37.9241],[-122.29204,37.92413],[-122.29205,37.92415],[-122.29208,37.92416],[-122.2921,37.92414]],[[-122.29219,37.92383],[-122.29237,37.9239],[-122.29231,37.92351],[-122.29219,37.92383]],[[-122.31693,37.93144],[-122.31696,37.93144],[-122.31699,37.93145],[-122.31701,37.93147],[-122.31702,37.93148],[-122.31703,37.93149],[-122.31705,37.93148],[-122.31706,37.93147],[-122.31707,37.93146],[-122.31706,37.93145],[-122.31704,37.93143],[-122.31702,37.93139],[-122.31699,37.93137],[-122.31695,37.93136],[-122.3169,37.93136],[-122.31686,37.93137],[-122.31682,37.93138],[-122.31681,37.93139],[-122.31682,37.93141],[-122.31682,37.93142],[-122.31683,37.93143],[-122.31685,37.93144],[-122.3169,37.93144],[-122.31693,37.93144]]],"type":"Polygon"},"properties":{"type":"boundary"},"type":"Feature"}],"type":"FeatureCollection"}