{"features":[{"geometry":{"coordinates":[[[[-118.44469,33.99434],[-118.44339,33.99536],[-118.44248,33.9936],[-118.43576,33.99696],[-118.43553,33.99695],[-118.43038,33.99966],[-118.43071,34.00009],[-118.4284,34.00132],[-118.4259,33.99809],[-118.42037,33.9987],[-118.41916,34.00008],[-118.41817,34.00064],[-118.42109,34.00436],[-118.41736,34.00659],[-118.41938,34.00915],[-118.42008,34.00878],[-118.42137,34.01041],[-118.40697,34.01861],[-118.40564,34.01688],[-118.40046,34.01995],[-118.40133,34.02107],[-118.40062,34.02146],[-118.40026,34.02086],[-118.39946,34.02133],[-118.39907,34.02082],[-118.39749,34.02173],[-118.39842,34.0229],[-118.39405,34.02536],[-118.39421,34.02556],[-118.39383,34.02575],[-118.39345,34.02534],[-118.39278,34.02623],[-118.38717,34.02938],[-118.38682,34.02913],[-118.38669,34.02921],[-118.38643,34.02892],[-118.38423,34.03022],[-118.37547,34.03262],[-118.37539,34.03041],[-118.376,34.02878],[-118.37622,34.0286],[-118.37694,34.02697],[-118.37709,34.02623],[-118.37691,34.02613],[-118.37749,34.02311],[-118.37814,34.02223],[-118.37891,34.02174],[-118.37995,34.02143],[-118.38592,34.02046],[-118.38704,34.02008],[-118.38777,34.01954],[-118.38871,34.01833],[-118.39061,34.01511],[-118.39052,34.01554],[-118.39161,34.0131],[-118.39178,34.01202],[-118.39177,34.00985],[-118.3923,34.00881],[-118.39355,34.00795],[-118.39724,34.00688],[-118.39805,34.00651],[-118.39875,34.00586],[-118.39923,34.00508],[-118.4002,34.00208],[-118.40277,34.00349],[-118.40591,33.99925],[-118.40909,34.00122],[-118.40962,34.00049],[-118.41424,34.00345],[-118.41438,34.00367],[-118.41616,34.00046],[-118.41808,33.99919],[-118.41931,33.99779],[-118.42028,33.99744],[-118.42818,33.99658],[-118.43121,33.99639],[-118.43032,33.99034],[-118.42977,33.98988],[-118.4309,33.98932],[-118.43246,33.99153],[-118.43713,33.99533],[-118.44697,33.99052],[-118.44838,33.99334],[-118.44469,33.99434]],[[-118.39599,34.02113],[-118.39623,34.02126],[-118.39626,34.02122],[-118.39602,34.02109],[-118.39599,34.02113]],[[-118.41118,34.01577],[-118.41119,34.0158],[-118.41122,34.01582],[-118.41124,34.01581],[-118.41128,34.01578],[-118.41126,34.01573],[-118.41118,34.01577]]],[[[-118.36961,34.03509],[-118.37193,34.02995],[-118.37374,34.03042],[-118.37559,34.02911],[-118.37508,34.03078],[-118.37521,34.03273],[-118.36961,34.03509]]],[[[-118.37647,34.0259],[-118.37677,34.024],[-118.37715,34.02331],[-118.37667,34.02601],[-118.37647,34.0259]]],[[[-118.37798,34.0214],[-118.38138,34.02085],[-118.38135,34.02058],[-118.38089,34.0201],[-118.37877,34.01873],[-118.37799,34.01802],[-118.37593,34.01808],[-118.37584,34.01852],[-118.37277,34.01836],[-118.37383,34.01639],[-118.3741,34.01558],[-118.37409,34.01416],[-118.37319,34.01192],[-118.37892,34.01175],[-118.37964,34.01151],[-118.38524,34.01257],[-118.38699,34.01019],[-118.39098,34.00172],[-118.39092,34.00152],[-118.38273,34.0004],[-118.38402,33.99627],[-118.38513,33.9965],[-118.38606,33.99349],[-118.38364,33.99219],[-118.38787,33.98906],[-118.3825,33.9891],[-118.38255,33.99094],[-118.37903,33.99229],[-118.37895,33.98885],[-118.38481,33.97845],[-118.38548,33.9785],[-118.38657,33.97687],[-118.39765,33.98207],[-118.39757,33.98219],[-118.39847,33.98318],[-118.39489,33.98386],[-118.39877,33.98813],[-118.40132,33.98653],[-118.40615,33.98947],[-118.40519,33.9905],[-118.40772,33.99204],[-118.40566,33.99322],[-118.4037,33.99529],[-118.40285,33.99583],[-118.40105,33.99916],[-118.40106,33.99978],[-118.40025,34.0014],[-118.39991,34.00164],[-118.39986,34.00189],[-118.40005,34.002],[-118.39894,34.00539],[-118.39835,34.00611],[-118.39737,34.0067],[-118.39369,34.00774],[-118.39249,34.00841],[-118.39193,34.00905],[-118.39159,34.00999],[-118.39147,34.01244],[-118.39104,34.01388],[-118.38872,34.01789],[-118.38756,34.01941],[-118.38672,34.01998],[-118.38569,34.02028],[-118.3795,34.02128],[-118.37841,34.02174],[-118.37752,34.02259],[-118.37798,34.0214]],[[-118.38936,34.00806],[-118.38881,34.00802],[-118.38898,34.00819],[-118.38891,34.00862],[-118.38863,34.00868],[-118.38888,34.00894],[-118.38874,34.00952],[-118.38898,34.00962],[-118.38913,34.00917],[-118.38907,34.00871],[-118.38936,34.00806]],[[-118.39201,34.00479],[-118.39225,34.00482],[-118.3924,34.00464],[-118.39214,34.00468],[-118.39188,34.00445],[-118.39157,34.00449],[-118.39117,34.004],[-118.39053,34.00376],[-118.39081,34.00426],[-118.39108,34.00415],[-118.39158,34.00461],[-118.39201,34.00479]]],[[[-118.40792,33.99216],[-118.4076,33.99235],[-118.40749,33.99236],[-118.40787,33.99214],[-118.40792,33.99216]]],[[[-118.40503,33.99447],[-118.40434,33.99489],[-118.40531,33.99392],[-118.40503,33.99447]]],[[[-118.4016,33.99998],[-118.40077,34.00142],[-118.40041,34.0014],[-118.40121,33.99984],[-118.4016,33.99998]]]],"type":"MultiPolygon"},"properties":{"type":"boundary"},"type":"Feature"}],"type":"FeatureCollection"}