{"features":[{"geometry":{"coordinates":[[[-122.42352,37.60681],[-122.42056,37.60833],[-122.42073,37.60922],[-122.41886,37.61017],[-122.41832,37.60947],[-122.40917,37.61412],[-122.40608,37.61224],[-122.4069,37.61198],[-122.40925,37.60911],[-122.40914,37.60798],[-122.40743,37.60785],[-122.40392,37.60972],[-122.40386,37.61014],[-122.40589,37.61219],[-122.40586,37.61243],[-122.40629,37.61266],[-122.40585,37.61355],[-122.40539,37.61341],[-122.40529,37.61362],[-122.40575,37.61376],[-122.40568,37.61389],[-122.40646,37.61468],[-122.40596,37.61508],[-122.40168,37.61078],[-122.4005,37.61138],[-122.40117,37.61215],[-122.4001,37.61269],[-122.39938,37.61194],[-122.39788,37.61272],[-122.39728,37.61192],[-122.39167,37.60968],[-122.38848,37.6062],[-122.38745,37.60682],[-122.38365,37.60437],[-122.37861,37.60722],[-122.3725,37.60464],[-122.37738,37.6067],[-122.37791,37.60641],[-122.37828,37.60648],[-122.37867,37.60592],[-122.37829,37.60572],[-122.37815,37.60532],[-122.37859,37.60488],[-122.38158,37.60447],[-122.38191,37.60424],[-122.38163,37.60438],[-122.37862,37.60479],[-122.37806,37.60533],[-122.37763,37.60542],[-122.37729,37.60518],[-122.37718,37.60539],[-122.37685,37.60543],[-122.37597,37.60507],[-122.37578,37.60488],[-122.37583,37.60469],[-122.3743,37.60382],[-122.37429,37.60369],[-122.38466,37.59743],[-122.38722,37.59559],[-122.38856,37.59361],[-122.39011,37.59252],[-122.3883,37.59119],[-122.38878,37.59068],[-122.38995,37.58824],[-122.39096,37.58899],[-122.39558,37.58544],[-122.39929,37.58442],[-122.40372,37.58145],[-122.4067,37.58434],[-122.40711,37.58407],[-122.40673,37.58371],[-122.40733,37.58331],[-122.40777,37.58375],[-122.40676,37.5844],[-122.40854,37.58619],[-122.40932,37.58585],[-122.41204,37.58764],[-122.41421,37.59131],[-122.42335,37.59957],[-122.41985,37.60183],[-122.42495,37.60607],[-122.42352,37.60681]],[[-122.37846,37.60516],[-122.37855,37.60521],[-122.37856,37.60518],[-122.37859,37.60509],[-122.3786,37.60508],[-122.37858,37.60507],[-122.37858,37.60508],[-122.37848,37.60514],[-122.37846,37.60516]],[[-122.37874,37.60508],[-122.37858,37.60534],[-122.37891,37.60546],[-122.37918,37.60506],[-122.37874,37.60508]],[[-122.38793,37.60086],[-122.38794,37.60087],[-122.38795,37.60088],[-122.38802,37.60094],[-122.38806,37.60091],[-122.3879,37.60075],[-122.38785,37.60078],[-122.38786,37.6008],[-122.38788,37.60081],[-122.38789,37.60082],[-122.3879,37.60083],[-122.38791,37.60084],[-122.38793,37.60086]],[[-122.39787,37.61053],[-122.39789,37.61055],[-122.39791,37.61056],[-122.39792,37.61058],[-122.39794,37.61059],[-122.39796,37.61055],[-122.39786,37.61045],[-122.39785,37.61045],[-122.39784,37.61046],[-122.39782,37.61047],[-122.39782,37.61047],[-122.39786,37.61052],[-122.39787,37.61053]],[[-122.40823,37.60181],[-122.40817,37.60166],[-122.40764,37.60183],[-122.40823,37.60181]],[[-122.40849,37.60209],[-122.4085,37.60194],[-122.40802,37.60197],[-122.40849,37.60209]]],"type":"Polygon"},"properties":{"type":"boundary"},"type":"Feature"}],"type":"FeatureCollection"}