{"features":[{"geometry":{"coordinates":[[[-118.2046,33.98903],[-118.20459,33.98964],[-118.2042,33.98961],[-118.20435,33.99666],[-118.20343,33.99667],[-118.1945,33.99574],[-118.19453,33.99533],[-118.1858,33.99441],[-118.18586,33.99404],[-118.1846,33.99391],[-118.18455,33.99427],[-118.1842,33.99424],[-118.18312,33.99361],[-118.18347,33.99316],[-118.17805,33.98991],[-118.1783,33.98952],[-118.17554,33.98675],[-118.17409,33.98661],[-118.17414,33.98629],[-118.17248,33.98646],[-118.17149,33.98481],[-118.17055,33.98253],[-118.17,33.98],[-118.18978,33.98198],[-118.18901,33.98656],[-118.19018,33.98682],[-118.19007,33.98758],[-118.20092,33.98842],[-118.20265,33.98865],[-118.20283,33.98892],[-118.2046,33.98903]]],"type":"Polygon"},"properties":{"type":"boundary"},"type":"Feature"}],"type":"FeatureCollection"}