{"features":[{"geometry":{"coordinates":[[[-118.20383,33.9899],[-118.20444,33.98901],[-118.2046,33.98903],[-118.20459,33.98912],[-118.20459,33.98964],[-118.2042,33.98961],[-118.20422,33.99045],[-118.20383,33.9899]]],"type":"Polygon"},"properties":{"bbox":{"roads":{"area":1177.46,"pct":28.54}},"city":{"roads":{"area":573.75,"pct":13.91}},"id":"hex:2073:17374"},"type":"Feature"},{"geometry":{"coordinates":[[[-118.20386,33.99186],[-118.20424,33.9913],[-118.20426,33.99242],[-118.20386,33.99186]]],"type":"Polygon"},"properties":{"bbox":{"roads":{"area":172.4,"pct":7.71}},"city_same":1,"id":"hex:2073:17375"},"type":"Feature"},{"geometry":{"coordinates":[[[-118.20391,33.99576],[-118.20432,33.99516],[-118.20435,33.99637],[-118.20391,33.99576]]],"type":"Polygon"},"properties":{"bbox":{"roads":{"area":9.2,"pct":0.35}},"city_same":1,"id":"hex:2073:17377"},"type":"Feature"},{"geometry":{"coordinates":[[[-118.20383,33.9899],[-118.20248,33.98992],[-118.20179,33.98895],[-118.20204,33.98857],[-118.20265,33.98865],[-118.20283,33.98892],[-118.20298,33.98893],[-118.20403,33.98905],[-118.20418,33.98907],[-118.20418,33.98898],[-118.20444,33.98901],[-118.20383,33.9899]]],"type":"Polygon"},"properties":{"bbox":{"roads":{"area":4916.62,"pct":22.28}},"city_same":1,"id":"hex:2074:17374"},"type":"Feature"},{"geometry":{"coordinates":[[[-118.20386,33.99186],[-118.20251,33.99187],[-118.20182,33.9909],[-118.20248,33.98992],[-118.20383,33.9899],[-118.20422,33.99045],[-118.20424,33.9913],[-118.20386,33.99186]]],"type":"Polygon"},"properties":{"bbox":{"roads":{"area":3137.61,"pct":7.98}},"city_same":1,"id":"hex:2074:17375"},"type":"Feature"},{"geometry":{"coordinates":[[[-118.20389,33.99381],[-118.20253,33.99382],[-118.20184,33.99285],[-118.20251,33.99187],[-118.20386,33.99186],[-118.20426,33.99242],[-118.20428,33.99323],[-118.20389,33.99381]]],"type":"Polygon"},"properties":{"bbox":{"roads":{"area":3906.63,"pct":9.91}},"city_same":1,"id":"hex:2074:17376"},"type":"Feature"},{"geometry":{"coordinates":[[[-118.20391,33.99576],[-118.20256,33.99577],[-118.20187,33.9948],[-118.20253,33.99382],[-118.20389,33.99381],[-118.2043,33.99439],[-118.20432,33.99516],[-118.20391,33.99576]]],"type":"Polygon"},"properties":{"bbox":{"roads":{"area":3859.33,"pct":9.76}},"city_same":1,"id":"hex:2074:17377"},"type":"Feature"},{"geometry":{"coordinates":[[[-118.20256,33.99577],[-118.20391,33.99576],[-118.20435,33.99637],[-118.20435,33.99666],[-118.20367,33.99667],[-118.20343,33.99667],[-118.20306,33.99663],[-118.20258,33.99657],[-118.2022,33.99653],[-118.20206,33.99652],[-118.20256,33.99577]]],"type":"Polygon"},"properties":{"bbox":{"roads":{"area":1881.24,"pct":11.22}},"city_same":1,"id":"hex:2074:17378"},"type":"Feature"},{"geometry":{"coordinates":[[[-118.20179,33.98895],[-118.20044,33.98896],[-118.19999,33.98833],[-118.20092,33.98842],[-118.20204,33.98857],[-118.20179,33.98895]]],"type":"Polygon"},"properties":{"bbox":{"roads":{"area":3053.28,"pct":34.19}},"city_same":1,"id":"hex:2075:17373"},"type":"Feature"},{"geometry":{"coordinates":[[[-118.19977,33.98994],[-118.20046,33.99091],[-118.20182,33.9909],[-118.20248,33.98992],[-118.20179,33.98895],[-118.20044,33.98896],[-118.19977,33.98994]]],"type":"Polygon"},"properties":{"bbox":{"roads":{"area":3898.48,"pct":9.6}},"city_same":1,"id":"hex:2075:17374"},"type":"Feature"},{"geometry":{"coordinates":[[[-118.1998,33.9919],[-118.20049,33.99287],[-118.20184,33.99285],[-118.20251,33.99187],[-118.20182,33.9909],[-118.20046,33.99091],[-118.1998,33.9919]]],"type":"Polygon"},"properties":{"bbox":{"roads":{"area":3297.4,"pct":8.12}},"city_same":1,"id":"hex:2075:17375"},"type":"Feature"},{"geometry":{"coordinates":[[[-118.19983,33.99385],[-118.20052,33.99482],[-118.20187,33.9948],[-118.20253,33.99382],[-118.20184,33.99285],[-118.20049,33.99287],[-118.19983,33.99385]]],"type":"Polygon"},"properties":{"bbox":{"roads":{"area":2668.36,"pct":6.57}},"city_same":1,"id":"hex:2075:17376"},"type":"Feature"},{"geometry":{"coordinates":[[[-118.19985,33.9958],[-118.20052,33.99482],[-118.20187,33.9948],[-118.20256,33.99577],[-118.20206,33.99652],[-118.20129,33.99644],[-118.20092,33.9964],[-118.2003,33.99635],[-118.20024,33.99634],[-118.19985,33.9958]]],"type":"Polygon"},"properties":{"bbox":{"roads":{"area":1697.34,"pct":4.83}},"city_same":1,"id":"hex:2075:17377"},"type":"Feature"},{"geometry":{"coordinates":[[[-118.20044,33.98896],[-118.19977,33.98994],[-118.19842,33.98996],[-118.19773,33.98899],[-118.19828,33.98817],[-118.19875,33.98822],[-118.19999,33.98833],[-118.20044,33.98896]]],"type":"Polygon"},"properties":{"bbox":{"roads":{"area":6160.29,"pct":16.81}},"city_same":1,"id":"hex:2076:17374"},"type":"Feature"},{"geometry":{"coordinates":[[[-118.19776,33.99094],[-118.19845,33.99191],[-118.1998,33.9919],[-118.20046,33.99091],[-118.19977,33.98994],[-118.19842,33.98996],[-118.19776,33.99094]]],"type":"Polygon"},"properties":{"bbox":{"roads":{"area":3869.92,"pct":9.53}},"city_same":1,"id":"hex:2076:17375"},"type":"Feature"},{"geometry":{"coordinates":[[[-118.19778,33.99289],[-118.19847,33.99386],[-118.19983,33.99385],[-118.20049,33.99287],[-118.1998,33.9919],[-118.19845,33.99191],[-118.19778,33.99289]]],"type":"Polygon"},"properties":{"bbox":{"roads":{"area":3667.55,"pct":9.03}},"city_same":1,"id":"hex:2076:17376"},"type":"Feature"},{"geometry":{"coordinates":[[[-118.19781,33.99484],[-118.1985,33.99581],[-118.19985,33.9958],[-118.20052,33.99482],[-118.19983,33.99385],[-118.19847,33.99386],[-118.19781,33.99484]]],"type":"Polygon"},"properties":{"bbox":{"roads":{"area":3187.98,"pct":7.85}},"city_same":1,"id":"hex:2076:17377"},"type":"Feature"},{"geometry":{"coordinates":[[[-118.1985,33.99581],[-118.19985,33.9958],[-118.20024,33.99634],[-118.19969,33.99628],[-118.19863,33.99617],[-118.19828,33.99614],[-118.1985,33.99581]]],"type":"Polygon"},"properties":{"bbox":{"roads":{"area":928.26,"pct":12.94}},"city_same":1,"id":"hex:2076:17378"},"type":"Feature"},{"geometry":{"coordinates":[[[-118.19773,33.98899],[-118.19638,33.989],[-118.19569,33.98803],[-118.19573,33.98797],[-118.19659,33.98802],[-118.19828,33.98817],[-118.19773,33.98899]]],"type":"Polygon"},"properties":{"bbox":{"roads":{"area":4471.01,"pct":23.52}},"city_same":1,"id":"hex:2077:17373"},"type":"Feature"},{"geometry":{"coordinates":[[[-118.19571,33.98998],[-118.1964,33.99095],[-118.19776,33.99094],[-118.19842,33.98996],[-118.19773,33.98899],[-118.19638,33.989],[-118.19571,33.98998]]],"type":"Polygon"},"properties":{"bbox":{"roads":{"area":3808.26,"pct":9.38}},"city_same":1,"id":"hex:2077:17374"},"type":"Feature"},{"geometry":{"coordinates":[[[-118.19574,33.99194],[-118.19643,33.9929],[-118.19778,33.99289],[-118.19845,33.99191],[-118.19776,33.99094],[-118.1964,33.99095],[-118.19574,33.99194]]],"type":"Polygon"},"properties":{"bbox":{"roads":{"area":3054.6,"pct":7.52}},"city_same":1,"id":"hex:2077:17375"},"type":"Feature"},{"geometry":{"coordinates":[[[-118.19577,33.99389],[-118.19646,33.99486],[-118.19781,33.99484],[-118.19847,33.99386],[-118.19778,33.99289],[-118.19643,33.9929],[-118.19577,33.99389]]],"type":"Polygon"},"properties":{"bbox":{"roads":{"area":3165.53,"pct":7.8}},"city_same":1,"id":"hex:2077:17376"},"type":"Feature"},{"geometry":{"coordinates":[[[-118.1958,33.99584],[-118.19646,33.99486],[-118.19781,33.99484],[-118.1985,33.99581],[-118.19828,33.99614],[-118.19753,33.99606],[-118.19724,33.99604],[-118.19583,33.99589],[-118.1958,33.99584]]],"type":"Polygon"},"properties":{"bbox":{"roads":{"area":2612.91,"pct":10.29}},"city_same":1,"id":"hex:2077:17377"},"type":"Feature"},{"geometry":{"coordinates":[[[-118.19569,33.98803],[-118.19433,33.98804],[-118.1942,33.98786],[-118.19573,33.98797],[-118.19569,33.98803]]],"type":"Polygon"},"properties":{"bbox":{"roads":{"area":454.11,"pct":25}},"city_same":1,"id":"hex:2078:17373"},"type":"Feature"},{"geometry":{"coordinates":[[[-118.19367,33.98903],[-118.19436,33.99],[-118.19571,33.98998],[-118.19638,33.989],[-118.19569,33.98803],[-118.19433,33.98804],[-118.19367,33.98903]]],"type":"Polygon"},"properties":{"bbox":{"roads":{"area":4561.92,"pct":11.24}},"city_same":1,"id":"hex:2078:17374"},"type":"Feature"},{"geometry":{"coordinates":[[[-118.1937,33.99098],[-118.19439,33.99195],[-118.19574,33.99194],[-118.1964,33.99095],[-118.19571,33.98998],[-118.19436,33.99],[-118.1937,33.99098]]],"type":"Polygon"},"properties":{"bbox":{"roads":{"area":3337.02,"pct":8.22}},"city_same":1,"id":"hex:2078:17375"},"type":"Feature"},{"geometry":{"coordinates":[[[-118.19372,33.99293],[-118.19441,33.9939],[-118.19577,33.99389],[-118.19643,33.9929],[-118.19574,33.99194],[-118.19439,33.99195],[-118.19372,33.99293]]],"type":"Polygon"},"properties":{"bbox":{"roads":{"area":3232.86,"pct":7.96}},"city_same":1,"id":"hex:2078:17376"},"type":"Feature"},{"geometry":{"coordinates":[[[-118.19375,33.99488],[-118.19441,33.9939],[-118.19577,33.99389],[-118.19646,33.99486],[-118.1958,33.99584],[-118.1954,33.99584],[-118.1945,33.99574],[-118.19449,33.99573],[-118.19453,33.99533],[-118.194,33.99524],[-118.19375,33.99488]]],"type":"Polygon"},"properties":{"bbox":{"roads":{"area":3238.71,"pct":8.41}},"city_same":1,"id":"hex:2078:17377"},"type":"Feature"},{"geometry":{"coordinates":[[[-118.19433,33.98804],[-118.19367,33.98903],[-118.19232,33.98904],[-118.19163,33.98807],[-118.19188,33.9877],[-118.1942,33.98786],[-118.19433,33.98804]]],"type":"Polygon"},"properties":{"bbox":{"roads":{"area":5676.69,"pct":20.67}},"city_same":1,"id":"hex:2079:17373"},"type":"Feature"},{"geometry":{"coordinates":[[[-118.19165,33.99002],[-118.19234,33.99099],[-118.1937,33.99098],[-118.19436,33.99],[-118.19367,33.98903],[-118.19232,33.98904],[-118.19165,33.99002]]],"type":"Polygon"},"properties":{"bbox":{"roads":{"area":3458.48,"pct":8.52}},"city_same":1,"id":"hex:2079:17374"},"type":"Feature"},{"geometry":{"coordinates":[[[-118.19168,33.99197],[-118.19237,33.99294],[-118.19372,33.99293],[-118.19439,33.99195],[-118.1937,33.99098],[-118.19234,33.99099],[-118.19168,33.99197]]],"type":"Polygon"},"properties":{"bbox":{"roads":{"area":3031.44,"pct":7.47}},"city_same":1,"id":"hex:2079:17375"},"type":"Feature"},{"geometry":{"coordinates":[[[-118.19171,33.99393],[-118.1924,33.9949],[-118.19375,33.99488],[-118.19441,33.9939],[-118.19372,33.99293],[-118.19237,33.99294],[-118.19171,33.99393]]],"type":"Polygon"},"properties":{"bbox":{"roads":{"area":4014.25,"pct":9.89}},"city_same":1,"id":"hex:2079:17376"},"type":"Feature"},{"geometry":{"coordinates":[[[-118.1924,33.9949],[-118.19375,33.99488],[-118.194,33.99524],[-118.19398,33.99523],[-118.19387,33.99521],[-118.1938,33.99526],[-118.19377,33.99525],[-118.19316,33.99518],[-118.19227,33.99509],[-118.1924,33.9949]]],"type":"Polygon"},"properties":{"bbox":{"roads":{"area":637.57,"pct":14.04}},"city_same":1,"id":"hex:2079:17377"},"type":"Feature"},{"geometry":{"coordinates":[[[-118.19163,33.98807],[-118.19027,33.98808],[-118.18958,33.98711],[-118.18983,33.98674],[-118.19018,33.98682],[-118.19007,33.98758],[-118.19188,33.9877],[-118.19163,33.98807]]],"type":"Polygon"},"properties":{"bbox":{"roads":{"area":3470.63,"pct":32.13}},"city_same":1,"id":"hex:2080:17373"},"type":"Feature"},{"geometry":{"coordinates":[[[-118.18961,33.98907],[-118.1903,33.99004],[-118.19165,33.99002],[-118.19232,33.98904],[-118.19163,33.98807],[-118.19027,33.98808],[-118.18961,33.98907]]],"type":"Polygon"},"properties":{"bbox":{"roads":{"area":3219.03,"pct":7.93}},"city_same":1,"id":"hex:2080:17374"},"type":"Feature"},{"geometry":{"coordinates":[[[-118.18964,33.99102],[-118.19033,33.99199],[-118.19168,33.99197],[-118.19234,33.99099],[-118.19165,33.99002],[-118.1903,33.99004],[-118.18964,33.99102]]],"type":"Polygon"},"properties":{"bbox":{"roads":{"area":3385.87,"pct":8.34}},"city_same":1,"id":"hex:2080:17375"},"type":"Feature"},{"geometry":{"coordinates":[[[-118.18966,33.99297],[-118.19036,33.99394],[-118.19171,33.99393],[-118.19237,33.99294],[-118.19168,33.99197],[-118.19033,33.99199],[-118.18966,33.99297]]],"type":"Polygon"},"properties":{"bbox":{"roads":{"area":3403.61,"pct":8.38}},"city_same":1,"id":"hex:2080:17376"},"type":"Feature"},{"geometry":{"coordinates":[[[-118.19036,33.99394],[-118.19171,33.99393],[-118.1924,33.9949],[-118.19227,33.99509],[-118.19149,33.99501],[-118.19113,33.99497],[-118.18975,33.99484],[-118.19036,33.99394]]],"type":"Polygon"},"properties":{"bbox":{"roads":{"area":2318.99,"pct":10.66}},"city_same":1,"id":"hex:2080:17377"},"type":"Feature"},{"geometry":{"coordinates":[[[-118.18953,33.98321],[-118.18818,33.98322],[-118.18749,33.98225],[-118.18781,33.98178],[-118.18978,33.98198],[-118.18958,33.98313],[-118.18953,33.98321]]],"type":"Polygon"},"properties":{"bbox":{"parking":{"area":26,"pct":0.1},"roads":{"area":2548.54,"pct":9.71}},"city_same":1,"id":"hex:2081:17370"},"type":"Feature"},{"geometry":{"coordinates":[[[-118.1882,33.98517],[-118.18751,33.9842],[-118.18818,33.98322],[-118.18953,33.98321],[-118.18956,33.98326],[-118.18924,33.98516],[-118.1882,33.98517]]],"type":"Polygon"},"properties":{"bbox":{"parking":{"area":3628.09,"pct":11.66},"roads":{"area":3469.46,"pct":11.15}},"city_same":1,"id":"hex:2081:17371"},"type":"Feature"},{"geometry":{"coordinates":[[[-118.18958,33.98711],[-118.18823,33.98713],[-118.18754,33.98616],[-118.1882,33.98517],[-118.18924,33.98516],[-118.18901,33.98656],[-118.18983,33.98674],[-118.18958,33.98711]]],"type":"Polygon"},"properties":{"bbox":{"roads":{"area":3255.34,"pct":11.75}},"city_same":1,"id":"hex:2081:17372"},"type":"Feature"},{"geometry":{"coordinates":[[[-118.18757,33.98811],[-118.18826,33.98908],[-118.18961,33.98907],[-118.19027,33.98808],[-118.18958,33.98711],[-118.18823,33.98713],[-118.18757,33.98811]]],"type":"Polygon"},"properties":{"bbox":{"roads":{"area":6492.18,"pct":15.99}},"city_same":1,"id":"hex:2081:17373"},"type":"Feature"},{"geometry":{"coordinates":[[[-118.18759,33.99006],[-118.18828,33.99103],[-118.18964,33.99102],[-118.1903,33.99004],[-118.18961,33.98907],[-118.18826,33.98908],[-118.18759,33.99006]]],"type":"Polygon"},"properties":{"bbox":{"roads":{"area":3785.99,"pct":9.33}},"city_same":1,"id":"hex:2081:17374"},"type":"Feature"},{"geometry":{"coordinates":[[[-118.18762,33.99201],[-118.18831,33.99298],[-118.18966,33.99297],[-118.19033,33.99199],[-118.18964,33.99102],[-118.18828,33.99103],[-118.18762,33.99201]]],"type":"Polygon"},"properties":{"bbox":{"roads":{"area":3811.8,"pct":9.39}},"city_same":1,"id":"hex:2081:17375"},"type":"Feature"},{"geometry":{"coordinates":[[[-118.18765,33.99397],[-118.18831,33.99298],[-118.18966,33.99297],[-118.19036,33.99394],[-118.18975,33.99484],[-118.18946,33.99481],[-118.18815,33.99467],[-118.18765,33.99397]]],"type":"Polygon"},"properties":{"bbox":{"roads":{"area":3769.28,"pct":9.92}},"city_same":1,"id":"hex:2081:17376"},"type":"Feature"},{"geometry":{"coordinates":[[[-118.18749,33.98225],[-118.18613,33.98227],[-118.18563,33.98156],[-118.18643,33.98164],[-118.18781,33.98178],[-118.18749,33.98225]]],"type":"Polygon"},"properties":{"bbox":{"roads":{"area":3308.64,"pct":31.32}},"city_same":1,"id":"hex:2082:17370"},"type":"Feature"},{"geometry":{"coordinates":[[[-118.18547,33.98325],[-118.18616,33.98422],[-118.18751,33.9842],[-118.18818,33.98322],[-118.18749,33.98225],[-118.18613,33.98227],[-118.18547,33.98325]]],"type":"Polygon"},"properties":{"bbox":{"roads":{"area":7471.08,"pct":18.4}},"city_same":1,"id":"hex:2082:17371"},"type":"Feature"},{"geometry":{"coordinates":[[[-118.1855,33.9852],[-118.18619,33.98617],[-118.18754,33.98616],[-118.1882,33.98517],[-118.18751,33.9842],[-118.18616,33.98422],[-118.1855,33.9852]]],"type":"Polygon"},"properties":{"bbox":{"roads":{"area":7048.11,"pct":17.36}},"city_same":1,"id":"hex:2082:17372"},"type":"Feature"},{"geometry":{"coordinates":[[[-118.18552,33.98715],[-118.18621,33.98812],[-118.18757,33.98811],[-118.18823,33.98713],[-118.18754,33.98616],[-118.18619,33.98617],[-118.18552,33.98715]]],"type":"Polygon"},"properties":{"bbox":{"roads":{"area":9709.65,"pct":23.92}},"city_same":1,"id":"hex:2082:17373"},"type":"Feature"},{"geometry":{"coordinates":[[[-118.18555,33.98911],[-118.18624,33.99007],[-118.18759,33.99006],[-118.18826,33.98908],[-118.18757,33.98811],[-118.18621,33.98812],[-118.18555,33.98911]]],"type":"Polygon"},"properties":{"bbox":{"roads":{"area":5196.98,"pct":12.8}},"city_same":1,"id":"hex:2082:17374"},"type":"Feature"},{"geometry":{"coordinates":[[[-118.18558,33.99106],[-118.18627,33.99203],[-118.18762,33.99201],[-118.18828,33.99103],[-118.18759,33.99006],[-118.18624,33.99007],[-118.18558,33.99106]]],"type":"Polygon"},"properties":{"bbox":{"roads":{"area":3767.29,"pct":9.28}},"city_same":1,"id":"hex:2082:17375"},"type":"Feature"},{"geometry":{"coordinates":[[[-118.18561,33.99301],[-118.1863,33.99398],[-118.18765,33.99397],[-118.18831,33.99298],[-118.18762,33.99201],[-118.18627,33.99203],[-118.18561,33.99301]]],"type":"Polygon"},"properties":{"bbox":{"roads":{"area":3350.52,"pct":8.25}},"city_same":1,"id":"hex:2082:17376"},"type":"Feature"},{"geometry":{"coordinates":[[[-118.1863,33.99398],[-118.18765,33.99397],[-118.18815,33.99467],[-118.18753,33.99461],[-118.18599,33.99443],[-118.1863,33.99398]]],"type":"Polygon"},"properties":{"bbox":{"roads":{"area":1253.35,"pct":12.06}},"city_same":1,"id":"hex:2082:17377"},"type":"Feature"},{"geometry":{"coordinates":[[[-118.18613,33.98227],[-118.18547,33.98325],[-118.18412,33.98326],[-118.18343,33.98229],[-118.18403,33.9814],[-118.18563,33.98156],[-118.18613,33.98227]]],"type":"Polygon"},"properties":{"bbox":{"roads":{"area":3970.64,"pct":10.46}},"city_same":1,"id":"hex:2083:17370"},"type":"Feature"},{"geometry":{"coordinates":[[[-118.18345,33.98424],[-118.18414,33.98521],[-118.1855,33.9852],[-118.18616,33.98422],[-118.18547,33.98325],[-118.18412,33.98326],[-118.18345,33.98424]]],"type":"Polygon"},"properties":{"bbox":{"roads":{"area":4606.13,"pct":11.35}},"city_same":1,"id":"hex:2083:17371"},"type":"Feature"},{"geometry":{"coordinates":[[[-118.18348,33.9862],[-118.18417,33.98717],[-118.18552,33.98715],[-118.18619,33.98617],[-118.1855,33.9852],[-118.18414,33.98521],[-118.18348,33.9862]]],"type":"Polygon"},"properties":{"bbox":{"roads":{"area":7513.67,"pct":18.51}},"city_same":1,"id":"hex:2083:17372"},"type":"Feature"},{"geometry":{"coordinates":[[[-118.18351,33.98815],[-118.1842,33.98912],[-118.18555,33.98911],[-118.18621,33.98812],[-118.18552,33.98715],[-118.18417,33.98717],[-118.18351,33.98815]]],"type":"Polygon"},"properties":{"bbox":{"roads":{"area":8117.3,"pct":20}},"city_same":1,"id":"hex:2083:17373"},"type":"Feature"},{"geometry":{"coordinates":[[[-118.18353,33.9901],[-118.18423,33.99107],[-118.18558,33.99106],[-118.18624,33.99007],[-118.18555,33.98911],[-118.1842,33.98912],[-118.18353,33.9901]]],"type":"Polygon"},"properties":{"bbox":{"roads":{"area":6482.55,"pct":15.97},"sidewalks":{"area":1.27,"pct":0}},"city_same":1,"id":"hex:2083:17374"},"type":"Feature"},{"geometry":{"coordinates":[[[-118.18356,33.99205],[-118.18425,33.99302],[-118.18561,33.99301],[-118.18627,33.99203],[-118.18558,33.99106],[-118.18423,33.99107],[-118.18356,33.99205]]],"type":"Polygon"},"properties":{"bbox":{"roads":{"area":7115.75,"pct":17.53},"sidewalks":{"area":959.72,"pct":2.36}},"city_same":1,"id":"hex:2083:17375"},"type":"Feature"},{"geometry":{"coordinates":[[[-118.18425,33.99302],[-118.18561,33.99301],[-118.1863,33.99398],[-118.18599,33.99443],[-118.1858,33.99441],[-118.18586,33.99404],[-118.1846,33.99391],[-118.18455,33.99427],[-118.1842,33.99424],[-118.18365,33.99392],[-118.18425,33.99302]]],"type":"Polygon"},"properties":{"bbox":{"roads":{"area":3286.92,"pct":14.37},"sidewalks":{"area":809.15,"pct":3.54}},"city_same":1,"id":"hex:2083:17376"},"type":"Feature"},{"geometry":{"coordinates":[[[-118.18343,33.98229],[-118.18207,33.9823],[-118.18138,33.98134],[-118.18151,33.98115],[-118.18403,33.9814],[-118.18343,33.98229]]],"type":"Polygon"},"properties":{"bbox":{"roads":{"area":2818.35,"pct":13.01}},"city_same":1,"id":"hex:2084:17370"},"type":"Feature"},{"geometry":{"coordinates":[[[-118.18141,33.98329],[-118.1821,33.98426],[-118.18345,33.98424],[-118.18412,33.98326],[-118.18343,33.98229],[-118.18207,33.9823],[-118.18141,33.98329]]],"type":"Polygon"},"properties":{"bbox":{"roads":{"area":3929.76,"pct":9.68}},"city_same":1,"id":"hex:2084:17371"},"type":"Feature"},{"geometry":{"coordinates":[[[-118.18144,33.98524],[-118.18213,33.98621],[-118.18348,33.9862],[-118.18414,33.98521],[-118.18345,33.98424],[-118.1821,33.98426],[-118.18144,33.98524]]],"type":"Polygon"},"properties":{"bbox":{"roads":{"area":4401.83,"pct":10.84}},"city_same":1,"id":"hex:2084:17372"},"type":"Feature"},{"geometry":{"coordinates":[[[-118.18146,33.98719],[-118.18215,33.98816],[-118.18351,33.98815],[-118.18417,33.98717],[-118.18348,33.9862],[-118.18213,33.98621],[-118.18146,33.98719]]],"type":"Polygon"},"properties":{"bbox":{"roads":{"area":5459.79,"pct":13.45}},"city_same":1,"id":"hex:2084:17373"},"type":"Feature"},{"geometry":{"coordinates":[[[-118.18149,33.98914],[-118.18218,33.99011],[-118.18353,33.9901],[-118.1842,33.98912],[-118.18351,33.98815],[-118.18215,33.98816],[-118.18149,33.98914]]],"type":"Polygon"},"properties":{"bbox":{"roads":{"area":3726.9,"pct":9.18}},"city_same":1,"id":"hex:2084:17374"},"type":"Feature"},{"geometry":{"coordinates":[[[-118.18152,33.9911],[-118.18221,33.99207],[-118.18356,33.99205],[-118.18423,33.99107],[-118.18353,33.9901],[-118.18218,33.99011],[-118.18152,33.9911]]],"type":"Polygon"},"properties":{"bbox":{"roads":{"area":3121.89,"pct":7.69}},"city_same":1,"id":"hex:2084:17375"},"type":"Feature"},{"geometry":{"coordinates":[[[-118.18221,33.99207],[-118.18356,33.99205],[-118.18425,33.99302],[-118.18365,33.99392],[-118.18312,33.99361],[-118.18347,33.99316],[-118.18336,33.9931],[-118.18205,33.99231],[-118.18221,33.99207]]],"type":"Polygon"},"properties":{"bbox":{"roads":{"area":3572.52,"pct":18.33},"sidewalks":{"area":786.45,"pct":4.04}},"city_same":1,"id":"hex:2084:17376"},"type":"Feature"},{"geometry":{"coordinates":[[[-118.18138,33.98134],[-118.18003,33.98135],[-118.17976,33.98097],[-118.18151,33.98115],[-118.18138,33.98134]]],"type":"Polygon"},"properties":{"bbox":{"roads":{"area":1218.5,"pct":27.38}},"city_same":1,"id":"hex:2085:17369"},"type":"Feature"},{"geometry":{"coordinates":[[[-118.17937,33.98233],[-118.18006,33.9833],[-118.18141,33.98329],[-118.18207,33.9823],[-118.18138,33.98134],[-118.18003,33.98135],[-118.17937,33.98233]]],"type":"Polygon"},"properties":{"bbox":{"roads":{"area":3853.1,"pct":9.49}},"city_same":1,"id":"hex:2085:17370"},"type":"Feature"},{"geometry":{"coordinates":[[[-118.17939,33.98428],[-118.18008,33.98525],[-118.18144,33.98524],[-118.1821,33.98426],[-118.18141,33.98329],[-118.18006,33.9833],[-118.17939,33.98428]]],"type":"Polygon"},"properties":{"bbox":{"roads":{"area":3949.26,"pct":9.73}},"city_same":1,"id":"hex:2085:17371"},"type":"Feature"},{"geometry":{"coordinates":[[[-118.17942,33.98624],[-118.18011,33.9872],[-118.18146,33.98719],[-118.18213,33.98621],[-118.18144,33.98524],[-118.18008,33.98525],[-118.17942,33.98624]]],"type":"Polygon"},"properties":{"bbox":{"roads":{"area":7178.21,"pct":17.68}},"city_same":1,"id":"hex:2085:17372"},"type":"Feature"},{"geometry":{"coordinates":[[[-118.17945,33.98819],[-118.18014,33.98916],[-118.18149,33.98914],[-118.18215,33.98816],[-118.18146,33.98719],[-118.18011,33.9872],[-118.17945,33.98819]]],"type":"Polygon"},"properties":{"bbox":{"roads":{"area":3586.92,"pct":8.84}},"city_same":1,"id":"hex:2085:17373"},"type":"Feature"},{"geometry":{"coordinates":[[[-118.17948,33.99014],[-118.18017,33.99111],[-118.18152,33.9911],[-118.18218,33.99011],[-118.18149,33.98914],[-118.18014,33.98916],[-118.17948,33.99014]]],"type":"Polygon"},"properties":{"bbox":{"roads":{"area":4023.59,"pct":9.91}},"city_same":1,"id":"hex:2085:17374"},"type":"Feature"},{"geometry":{"coordinates":[[[-118.18017,33.99111],[-118.18152,33.9911],[-118.18221,33.99207],[-118.18205,33.99231],[-118.18013,33.99116],[-118.18017,33.99111]]],"type":"Polygon"},"properties":{"bbox":{"roads":{"area":1583.75,"pct":14.66},"sidewalks":{"area":239.59,"pct":2.22}},"city_same":1,"id":"hex:2085:17375"},"type":"Feature"},{"geometry":{"coordinates":[[[-118.18003,33.98135],[-118.17937,33.98233],[-118.17801,33.98234],[-118.17732,33.98137],[-118.17773,33.98077],[-118.17976,33.98097],[-118.18003,33.98135]]],"type":"Polygon"},"properties":{"bbox":{"roads":{"area":3812.34,"pct":11.8}},"city_same":1,"id":"hex:2086:17370"},"type":"Feature"},{"geometry":{"coordinates":[[[-118.17735,33.98333],[-118.17804,33.9843],[-118.17939,33.98428],[-118.18006,33.9833],[-118.17937,33.98233],[-118.17801,33.98234],[-118.17735,33.98333]]],"type":"Polygon"},"properties":{"bbox":{"roads":{"area":4107.46,"pct":10.12}},"city_same":1,"id":"hex:2086:17371"},"type":"Feature"},{"geometry":{"coordinates":[[[-118.17738,33.98528],[-118.17807,33.98625],[-118.17942,33.98624],[-118.18008,33.98525],[-118.17939,33.98428],[-118.17804,33.9843],[-118.17738,33.98528]]],"type":"Polygon"},"properties":{"bbox":{"roads":{"area":4359.7,"pct":10.74}},"city_same":1,"id":"hex:2086:17372"},"type":"Feature"},{"geometry":{"coordinates":[[[-118.17741,33.98723],[-118.1781,33.9882],[-118.17945,33.98819],[-118.18011,33.9872],[-118.17942,33.98624],[-118.17807,33.98625],[-118.17741,33.98723]]],"type":"Polygon"},"properties":{"bbox":{"roads":{"area":5252.76,"pct":12.94}},"city_same":1,"id":"hex:2086:17373"},"type":"Feature"},{"geometry":{"coordinates":[[[-118.1781,33.9882],[-118.17945,33.98819],[-118.18014,33.98916],[-118.17948,33.99014],[-118.17845,33.99015],[-118.17805,33.98991],[-118.1783,33.98952],[-118.1781,33.98941],[-118.17762,33.98891],[-118.1781,33.9882]]],"type":"Polygon"},"properties":{"bbox":{"parking":{"area":2307.16,"pct":6.37},"roads":{"area":4663.52,"pct":12.87},"sidewalks":{"area":5.4,"pct":0.01}},"city_same":1,"id":"hex:2086:17374"},"type":"Feature"},{"geometry":{"coordinates":[[[-118.17948,33.99014],[-118.18017,33.99111],[-118.18013,33.99116],[-118.17845,33.99015],[-118.17948,33.99014]]],"type":"Polygon"},"properties":{"bbox":{"roads":{"area":566.49,"pct":9.85}},"city_same":1,"id":"hex:2086:17375"},"type":"Feature"},{"geometry":{"coordinates":[[[-118.17732,33.98137],[-118.17597,33.98139],[-118.17536,33.98053],[-118.17773,33.98077],[-118.17732,33.98137]]],"type":"Polygon"},"properties":{"bbox":{"roads":{"area":2197.43,"pct":15.81}},"city_same":1,"id":"hex:2087:17369"},"type":"Feature"},{"geometry":{"coordinates":[[[-118.17531,33.98237],[-118.176,33.98334],[-118.17735,33.98333],[-118.17801,33.98234],[-118.17732,33.98137],[-118.17597,33.98139],[-118.17531,33.98237]]],"type":"Polygon"},"properties":{"bbox":{"roads":{"area":3369.44,"pct":8.3}},"city_same":1,"id":"hex:2087:17370"},"type":"Feature"},{"geometry":{"coordinates":[[[-118.17534,33.98432],[-118.17603,33.98529],[-118.17738,33.98528],[-118.17804,33.9843],[-118.17735,33.98333],[-118.176,33.98334],[-118.17534,33.98432]]],"type":"Polygon"},"properties":{"bbox":{"roads":{"area":4052.31,"pct":9.98}},"city_same":1,"id":"hex:2087:17371"},"type":"Feature"},{"geometry":{"coordinates":[[[-118.17536,33.98627],[-118.17605,33.98724],[-118.17741,33.98723],[-118.17807,33.98625],[-118.17738,33.98528],[-118.17603,33.98529],[-118.17536,33.98627]]],"type":"Polygon"},"properties":{"bbox":{"roads":{"area":6887.92,"pct":16.97}},"city_same":1,"id":"hex:2087:17372"},"type":"Feature"},{"geometry":{"coordinates":[[[-118.17605,33.98724],[-118.17741,33.98723],[-118.1781,33.9882],[-118.17762,33.98891],[-118.17604,33.98727],[-118.17605,33.98724]]],"type":"Polygon"},"properties":{"bbox":{"roads":{"area":1536.06,"pct":9.12}},"city_same":1,"id":"hex:2087:17373"},"type":"Feature"},{"geometry":{"coordinates":[[[-118.17393,33.98043],[-118.17389,33.98038],[-118.17436,33.98043],[-118.17393,33.98043]]],"type":"Polygon"},"properties":{"bbox":{"roads":{"area":111.6,"pct":100}},"city_same":1,"id":"hex:2088:17369"},"type":"Feature"},{"geometry":{"coordinates":[[[-118.17597,33.98139],[-118.17531,33.98237],[-118.17396,33.98238],[-118.17327,33.98141],[-118.17393,33.98043],[-118.17436,33.98043],[-118.17536,33.98053],[-118.17597,33.98139]]],"type":"Polygon"},"properties":{"bbox":{"roads":{"area":4336.9,"pct":10.82}},"city_same":1,"id":"hex:2088:17370"},"type":"Feature"},{"geometry":{"coordinates":[[[-118.17329,33.98337],[-118.17398,33.98433],[-118.17534,33.98432],[-118.176,33.98334],[-118.17531,33.98237],[-118.17396,33.98238],[-118.17329,33.98337]]],"type":"Polygon"},"properties":{"bbox":{"roads":{"area":4166.01,"pct":10.26}},"city_same":1,"id":"hex:2088:17371"},"type":"Feature"},{"geometry":{"coordinates":[[[-118.17332,33.98532],[-118.17398,33.98433],[-118.17534,33.98432],[-118.17603,33.98529],[-118.17536,33.98627],[-118.17412,33.98629],[-118.174,33.98628],[-118.17332,33.98532]]],"type":"Polygon"},"properties":{"bbox":{"parking":{"area":1290.97,"pct":3.18},"roads":{"area":6220.77,"pct":15.33}},"city_same":1,"id":"hex:2088:17372"},"type":"Feature"},{"geometry":{"coordinates":[[[-118.17536,33.98627],[-118.17605,33.98724],[-118.17604,33.98727],[-118.17554,33.98675],[-118.17409,33.98661],[-118.17414,33.98629],[-118.17412,33.98629],[-118.17536,33.98627]]],"type":"Polygon"},"properties":{"bbox":{"roads":{"area":1253.56,"pct":19.67}},"city_same":1,"id":"hex:2088:17373"},"type":"Feature"},{"geometry":{"coordinates":[[[-118.17393,33.98043],[-118.17327,33.98141],[-118.17191,33.98143],[-118.17122,33.98046],[-118.17142,33.98017],[-118.17279,33.98032],[-118.17281,33.98027],[-118.17389,33.98038],[-118.17393,33.98043]]],"type":"Polygon"},"properties":{"bbox":{"roads":{"area":2755.05,"pct":11.16}},"city_same":1,"id":"hex:2089:17369"},"type":"Feature"},{"geometry":{"coordinates":[[[-118.17125,33.98241],[-118.17194,33.98338],[-118.17329,33.98337],[-118.17396,33.98238],[-118.17327,33.98141],[-118.17191,33.98143],[-118.17125,33.98241]]],"type":"Polygon"},"properties":{"bbox":{"roads":{"area":3984.87,"pct":9.82}},"city_same":1,"id":"hex:2089:17370"},"type":"Feature"},{"geometry":{"coordinates":[[[-118.17128,33.98436],[-118.17197,33.98533],[-118.17332,33.98532],[-118.17398,33.98433],[-118.17329,33.98337],[-118.17194,33.98338],[-118.17128,33.98436]]],"type":"Polygon"},"properties":{"bbox":{"parking":{"area":557.99,"pct":1.37},"roads":{"area":3814.55,"pct":9.4}},"city_same":1,"id":"hex:2089:17371"},"type":"Feature"},{"geometry":{"coordinates":[[[-118.17197,33.98533],[-118.17332,33.98532],[-118.174,33.98628],[-118.17372,33.98625],[-118.17271,33.98644],[-118.17248,33.98646],[-118.17187,33.98548],[-118.17197,33.98533]]],"type":"Polygon"},"properties":{"bbox":{"roads":{"area":2974.1,"pct":17.91}},"city_same":1,"id":"hex:2089:17372"},"type":"Feature"},{"geometry":{"coordinates":[[[-118.17122,33.98046],[-118.17008,33.98047],[-118.17,33.98],[-118.17142,33.98017],[-118.17122,33.98046]]],"type":"Polygon"},"properties":{"bbox":{"roads":{"area":773.92,"pct":15.53}},"city_same":1,"id":"hex:2090:17369"},"type":"Feature"},{"geometry":{"coordinates":[[[-118.17122,33.98046],[-118.17191,33.98143],[-118.17125,33.98241],[-118.17051,33.98242],[-118.17038,33.98199],[-118.17022,33.98132],[-118.17008,33.98047],[-118.17122,33.98046]]],"type":"Polygon"},"properties":{"bbox":{"roads":{"area":1842.45,"pct":7.03}},"city_same":1,"id":"hex:2090:17370"},"type":"Feature"},{"geometry":{"coordinates":[[[-118.17125,33.98241],[-118.17194,33.98338],[-118.17128,33.98436],[-118.17126,33.98436],[-118.17121,33.98426],[-118.17106,33.9839],[-118.17077,33.98317],[-118.17055,33.98253],[-118.17051,33.98242],[-118.17125,33.98241]]],"type":"Polygon"},"properties":{"bbox":{"roads":{"area":1520.95,"pct":10.33}},"city_same":1,"id":"hex:2090:17371"},"type":"Feature"}],"type":"FeatureCollection","v":2}