{"features":[{"geometry":{"coordinates":[[[[-118.22971,33.96126],[-118.22841,33.96041],[-118.22577,33.95949],[-118.22306,33.95908],[-118.22564,33.96342],[-118.2257,33.96554],[-118.2251,33.96551],[-118.2251,33.96626],[-118.22455,33.9662],[-118.2246,33.96588],[-118.22439,33.96578],[-118.22446,33.96535],[-118.21192,33.96405],[-118.21197,33.96364],[-118.19238,33.9616],[-118.18535,33.95599],[-118.18431,33.9555],[-118.17989,33.95508],[-118.17841,33.95638],[-118.17971,33.95648],[-118.17945,33.95784],[-118.17765,33.95763],[-118.17777,33.95681],[-118.1729,33.9563],[-118.17295,33.95435],[-118.17364,33.95044],[-118.17448,33.94456],[-118.17464,33.9422],[-118.17636,33.93073],[-118.17547,33.93065],[-118.17515,33.93177],[-118.15854,33.95189],[-118.15627,33.95103],[-118.15851,33.94846],[-118.15932,33.94692],[-118.16225,33.9423],[-118.16596,33.93855],[-118.16575,33.93843],[-118.16588,33.93839],[-118.16609,33.93538],[-118.1651,33.933],[-118.16438,33.9333],[-118.16372,33.93311],[-118.16301,33.93187],[-118.16248,33.93037],[-118.1625,33.92914],[-118.16158,33.92885],[-118.16255,33.92752],[-118.16418,33.92645],[-118.16633,33.92752],[-118.16699,33.9269],[-118.16761,33.92832],[-118.1683,33.92724],[-118.16783,33.92612],[-118.17043,33.92364],[-118.15641,33.91714],[-118.15841,33.91383],[-118.15789,33.91358],[-118.15903,33.90991],[-118.168,33.91418],[-118.16808,33.91397],[-118.16842,33.91397],[-118.16841,33.91215],[-118.17033,33.91223],[-118.17033,33.91181],[-118.17324,33.9118],[-118.17329,33.91271],[-118.17295,33.91271],[-118.17296,33.91316],[-118.16983,33.91319],[-118.16982,33.91361],[-118.17001,33.91371],[-118.16985,33.91398],[-118.16943,33.91396],[-118.16929,33.91477],[-118.17595,33.91783],[-118.17615,33.91802],[-118.17416,33.93053],[-118.18089,33.93105],[-118.18298,33.93076],[-118.18205,33.93295],[-118.18182,33.93437],[-118.19348,33.93552],[-118.19366,33.93539],[-118.21086,33.93706],[-118.21054,33.93985],[-118.21379,33.94018],[-118.21315,33.94503],[-118.21677,33.94544],[-118.21683,33.94502],[-118.21655,33.94498],[-118.21623,33.9439],[-118.21608,33.94393],[-118.2163,33.94252],[-118.2154,33.94231],[-118.21552,33.94135],[-118.21511,33.94121],[-118.21506,33.9402],[-118.21471,33.9401],[-118.21482,33.93986],[-118.21442,33.93885],[-118.21453,33.93844],[-118.21422,33.9384],[-118.21424,33.93741],[-118.21401,33.93737],[-118.21392,33.93689],[-118.22325,33.93784],[-118.22302,33.93976],[-118.22691,33.94017],[-118.2314,33.96097],[-118.22971,33.96126]]],[[[-118.17189,33.95419],[-118.17038,33.95403],[-118.17045,33.95437],[-118.16396,33.95336],[-118.15874,33.95195],[-118.17517,33.93244],[-118.1753,33.93265],[-118.17191,33.9542],[-118.17189,33.95419]]]],"type":"MultiPolygon"},"properties":{"type":"boundary"},"type":"Feature"}],"type":"FeatureCollection"}