{"features":[{"geometry":{"coordinates":[[[[-122.88186,38.64213],[-122.88186,38.64254],[-122.87511,38.64245],[-122.87292,38.64764],[-122.86855,38.64754],[-122.86865,38.64863],[-122.86899,38.6497],[-122.85411,38.64968],[-122.85407,38.64232],[-122.85778,38.6423],[-122.85859,38.64171],[-122.86064,38.64091],[-122.86065,38.63866],[-122.86455,38.63868],[-122.86454,38.63958],[-122.86652,38.63961],[-122.8665,38.63773],[-122.86456,38.63772],[-122.86458,38.63496],[-122.86618,38.63499],[-122.86518,38.63137],[-122.86473,38.63112],[-122.86384,38.63143],[-122.86305,38.63041],[-122.86341,38.63014],[-122.86301,38.63018],[-122.86226,38.62953],[-122.86348,38.62866],[-122.86227,38.62866],[-122.86227,38.62795],[-122.85422,38.62785],[-122.85403,38.62403],[-122.85345,38.62328],[-122.85259,38.62343],[-122.85175,38.62287],[-122.85131,38.62285],[-122.85068,38.62325],[-122.85012,38.62324],[-122.84998,38.62383],[-122.84944,38.62382],[-122.8493,38.62335],[-122.84882,38.62374],[-122.84924,38.62404],[-122.84905,38.62421],[-122.84799,38.62414],[-122.84719,38.62385],[-122.84713,38.62057],[-122.84617,38.62056],[-122.84649,38.61493],[-122.84856,38.61505],[-122.84859,38.61445],[-122.84821,38.61444],[-122.84863,38.61407],[-122.8486,38.61338],[-122.84877,38.61321],[-122.84561,38.6132],[-122.8451,38.61458],[-122.84356,38.61453],[-122.84363,38.61335],[-122.84405,38.61315],[-122.84408,38.61123],[-122.84326,38.61136],[-122.84287,38.61209],[-122.84249,38.61191],[-122.84306,38.61106],[-122.84496,38.60945],[-122.84499,38.61004],[-122.84653,38.60953],[-122.84887,38.60928],[-122.85072,38.60886],[-122.85075,38.60865],[-122.8519,38.60862],[-122.85186,38.60845],[-122.85594,38.60841],[-122.85614,38.60836],[-122.85569,38.60823],[-122.85862,38.60824],[-122.85963,38.60805],[-122.86054,38.60768],[-122.86094,38.60712],[-122.86088,38.6046],[-122.85985,38.6004],[-122.85923,38.59879],[-122.86105,38.59947],[-122.86501,38.6021],[-122.86671,38.60212],[-122.86671,38.60044],[-122.87256,38.60038],[-122.87252,38.60234],[-122.86854,38.60229],[-122.86854,38.60266],[-122.86781,38.60344],[-122.87219,38.60648],[-122.87361,38.60773],[-122.87777,38.61252],[-122.87861,38.61424],[-122.87887,38.61599],[-122.87764,38.63577],[-122.87881,38.63626],[-122.87923,38.637],[-122.87949,38.63654],[-122.88283,38.63756],[-122.88337,38.63735],[-122.88519,38.63595],[-122.88557,38.63694],[-122.88594,38.6392],[-122.88186,38.6409],[-122.88186,38.64213]]],[[[-122.85191,38.60717],[-122.85332,38.60683],[-122.85327,38.60622],[-122.85299,38.60619],[-122.85289,38.60457],[-122.85567,38.60418],[-122.85538,38.60352],[-122.85581,38.60345],[-122.854,38.60253],[-122.85258,38.60123],[-122.85179,38.59995],[-122.84895,38.5929],[-122.85779,38.5975],[-122.85767,38.59779],[-122.85885,38.59846],[-122.85907,38.59874],[-122.85991,38.60242],[-122.8594,38.60293],[-122.86015,38.60587],[-122.85962,38.60681],[-122.85772,38.60762],[-122.85526,38.60762],[-122.85406,38.60735],[-122.85192,38.6074],[-122.85191,38.60717]]],[[[-122.85679,38.63249],[-122.85667,38.63254],[-122.85663,38.63241],[-122.85679,38.63249]]],[[[-122.8593,38.63054],[-122.85958,38.63037],[-122.86071,38.63176],[-122.8602,38.63213],[-122.85899,38.63073],[-122.8593,38.63054]]],[[[-122.86354,38.5847],[-122.86167,38.58497],[-122.86119,38.58383],[-122.86088,38.58196],[-122.86124,38.58182],[-122.86158,38.5814],[-122.86586,38.58152],[-122.86611,38.58283],[-122.86557,38.58292],[-122.86581,38.58439],[-122.86354,38.5847]],[[-122.86468,38.58428],[-122.86548,38.58413],[-122.86522,38.58304],[-122.86304,38.58331],[-122.86304,38.58397],[-122.86196,38.58423],[-122.86207,38.58465],[-122.86468,38.58428]],[[-122.86303,38.58276],[-122.86348,38.58271],[-122.86356,38.58283],[-122.86576,38.58251],[-122.86564,38.58171],[-122.86399,38.58173],[-122.86358,38.58157],[-122.86278,38.5817],[-122.86303,38.58276]]],[[[-122.86478,38.59126],[-122.86415,38.59125],[-122.86456,38.58965],[-122.8657,38.58966],[-122.86613,38.59128],[-122.86478,38.59126]]],[[[-122.88104,38.60482],[-122.87863,38.60131],[-122.87935,38.60088],[-122.88182,38.60289],[-122.88246,38.60446],[-122.88104,38.60482]]],[[[-122.88114,38.6092],[-122.88161,38.60992],[-122.88187,38.61097],[-122.8816,38.61102],[-122.88114,38.6092]]],[[[-122.90234,38.65692],[-122.90013,38.65692],[-122.89974,38.65565],[-122.9002,38.65555],[-122.89496,38.64956],[-122.89629,38.64887],[-122.89872,38.65169],[-122.90046,38.65161],[-122.90052,38.65317],[-122.90192,38.65317],[-122.90194,38.65411],[-122.90159,38.6547],[-122.90214,38.6553],[-122.90188,38.65542],[-122.90288,38.65649],[-122.90286,38.65683],[-122.90234,38.65692]]]],"type":"MultiPolygon"},"properties":{"type":"boundary"},"type":"Feature"}],"type":"FeatureCollection"}